{"type": "FeatureCollection", "features": [{"type": "Feature", "properties": {"name": "Fr. S. Antarctic Lands"}, "geometry": {"type": "MultiPolygon", "coordinates": [[[[51.868175, -46.410252], [51.823497, -46.451267], [51.772146, -46.445245], [51.758311, -46.451267], [51.705577, -46.437595], [51.669607, -46.403985], [51.656505, -46.378351], [51.667491, -46.363539], [51.736013, -46.327407], [51.759532, -46.32936], [51.778087, -46.342869], [51.792979, -46.372328], [51.834158, -46.376642], [51.868175, -46.410252]]], [[[50.268077, -46.043715], [50.293142, -46.076349], [50.29835, -46.096449], [50.292247, -46.115981], [50.27768, -46.127048], [50.260753, -46.12713], [50.201182, -46.113458], [50.186371, -46.103204], [50.175548, -46.064711], [50.268077, -46.043715]]]]}}]}