{"type": "FeatureCollection", "features": [{"type": "Feature", "properties": {"name": "Norway"}, "geometry": {"type": "MultiPolygon", "coordinates": [[[[19.947927, 70.026801], [19.99586, 70.01675], [19.949962, 70.009711], [19.900157, 70.01675], [19.947927, 70.026801]]], [[[19.669444, 70.01732], [19.684825, 70.006781], [19.68427305062869, 70.0], [19.592894993962062, 70.0], [19.619151, 70.01675], [19.669444, 70.01732]]], [[[18.8449, 70.015041], [18.933767, 70.030341], [18.985606, 70.024115], [19.03004, 70.037177], [19.043468, 70.034084], [19.057384, 70.01675], [19.073904, 70.016262], [19.119395, 70.030341], [19.067556, 70.061469], [19.06422, 70.078803], [19.118663, 70.07274], [19.208181, 70.098578], [19.226736, 70.093573], [19.223399, 70.073676], [19.234874, 70.065131], [19.299083, 70.085842], [19.32488, 70.078803], [19.2942, 70.047553], [19.292328, 70.031195], [19.3718996148934, 70.0], [18.83168876014304, 70.0], [18.8449, 70.015041]]], [[[19.41863, 70.013658], [19.438487, 70.033393], [19.46811, 70.046617], [19.535655, 70.057318], [19.574962, 70.047756], [19.58253, 70.03384], [19.5713, 70.003079], [19.57473514715142, 70.0], [19.41963867914725, 70.0], [19.41863, 70.013658]]], [[[20.0, 70.14334324772983], [20.0, 70.06642403921234], [19.978201, 70.060126], [19.819509, 70.060248], [19.776134, 70.067328], [19.74936, 70.085598], [19.747569, 70.135932], [19.692149, 70.188625], [19.633067, 70.219306], [19.559337, 70.231187], [19.53712, 70.250067], [19.549327, 70.256537], [19.591645, 70.250067], [19.58839, 70.268378], [19.677745, 70.290432], [19.689708, 70.285346], [19.701508, 70.250067], [19.733246, 70.229926], [19.790538, 70.210598], [19.815603, 70.169745], [19.844981, 70.174954], [19.872895, 70.215888], [19.891368, 70.213853], [19.941173, 70.195461], [19.930512, 70.176703], [19.938162, 70.163764], [19.982188, 70.14704], [20.0, 70.14334324772983]]], [[[19.803189967632363, 70.0], [19.764701344185927, 70.0], [19.774262, 70.004828], [19.803189967632363, 70.0]]], [[[18.657237, 70.048326], [18.712413, 70.083564], [18.702403, 70.111396], [18.721365, 70.116034], [18.781261, 70.101996], [18.806488, 70.059312], [18.889822, 70.106147], [18.969086, 70.084296], [18.975597, 70.073635], [18.910492, 70.045559], [18.836681, 70.038398], [18.765147, 70.019192], [18.729841061962038, 70.0], [18.67011955790595, 70.0], [18.670421, 70.012152], [18.689952, 70.026435], [18.666759, 70.027574], [18.657237, 70.048326]]], [[[19.358653, 70.113105], [19.334972, 70.127916], [19.340587, 70.140082], [19.366547, 70.154202], [19.40797, 70.162055], [19.573253, 70.111721], [19.569021, 70.101386], [19.538748, 70.093695], [19.358653, 70.113105]]], [[[19.252208, 70.186672], [19.250173, 70.17414], [19.225434, 70.153876], [19.226817, 70.134955], [19.174164, 70.115139], [19.140636, 70.110785], [19.102875, 70.116889], [18.99586, 70.152086], [19.064464, 70.170478], [19.098643, 70.157904], [19.097911, 70.185858], [19.138031, 70.201728], [19.118826, 70.208808], [19.091482, 70.237942], [19.152029, 70.237454], [19.168305, 70.254869], [19.197276, 70.257025], [19.211436, 70.250556], [19.230479, 70.234361], [19.227712, 70.212063], [19.252208, 70.186672]]], [[[19.250824, 74.489488], [19.297374, 74.481106], [19.279959, 74.460842], [19.283376, 74.444037], [19.236827, 74.418647], [19.234874, 74.399075], [19.187755, 74.3758], [19.195079, 74.368964], [19.073741, 74.347357], [19.047048, 74.351264], [19.026622, 74.372992], [18.963064, 74.386135], [18.865489, 74.430365], [18.789806, 74.478217], [18.820486, 74.504055], [18.874848, 74.516181], [18.981619, 74.519761], [19.026622, 74.512844], [19.114757, 74.527289], [19.16033, 74.526028], [19.250824, 74.489488]]], [[[12.162852, 78.210883], [12.140473, 78.199205], [12.098969, 78.20307], [12.051931, 78.22248], [11.892263, 78.233588], [11.813813, 78.274359], [11.849864, 78.293118], [11.855479, 78.298814], [11.848399, 78.307766], [11.623546, 78.366034], [11.574229, 78.394273], [11.455821, 78.415839], [11.343761, 78.449123], [11.121837, 78.43887], [11.039317, 78.484809], [11.003673, 78.519599], [10.998302, 78.548733], [10.968516, 78.555325], [10.916352, 78.610175], [10.854259, 78.64411], [10.786632, 78.665351], [10.80714, 78.685858], [10.651541, 78.729804], [10.548595, 78.771186], [10.525401, 78.788275], [10.573578, 78.820461], [10.566905, 78.843492], [10.531261, 78.873725], [10.484386, 78.890692], [10.516124, 78.90648], [10.560232, 78.909125], [10.843761, 78.878892], [10.999848, 78.834174], [11.002289, 78.821723], [10.991466, 78.795722], [11.031423, 78.783108], [11.115001, 78.775214], [11.183849, 78.733629], [11.060313, 78.692694], [11.153819, 78.662584], [11.162771, 78.632025], [11.272634, 78.610175], [11.257009, 78.599555], [11.256358, 78.585924], [11.267345, 78.574164], [11.298025, 78.563951], [11.259044, 78.528225], [11.355317, 78.546088], [11.447113, 78.548041], [11.463878, 78.542467], [11.49171, 78.507066], [11.541759, 78.498847], [11.568533, 78.483547], [11.759288, 78.445624], [11.872244, 78.447943], [11.900157, 78.435736], [11.875987, 78.410875], [11.889171, 78.395087], [12.050304, 78.31037], [12.101329, 78.295396], [12.096934, 78.273586], [12.13266, 78.252265], [12.162852, 78.210883]]], [[[20.0, 79.37895749681377], [20.0, 79.35417540419597], [19.701508, 79.336982], [19.659923, 79.34748], [19.681163, 79.377265], [19.626475, 79.391588], [19.713552, 79.407782], [19.804535, 79.405219], [19.866222, 79.391506], [20.0, 79.37895749681377]]], [[[11.005707, 79.686428], [11.046072, 79.686672], [11.064138, 79.680894], [11.073985, 79.665961], [11.002452, 79.672268], [10.924083, 79.652411], [10.821544, 79.650539], [10.77947, 79.656195], [10.738129, 79.686428], [10.847992, 79.693264], [10.814952, 79.702135], [10.739757, 79.705756], [10.710948, 79.721177], [10.871755, 79.727362], [11.032481, 79.706936], [11.005707, 79.686428]]], [[[10.653982, 79.750556], [10.645763, 79.761135], [10.712901, 79.782457], [10.868663, 79.779446], [11.011974, 79.741645], [10.984223, 79.731391], [10.717459, 79.741645], [10.653982, 79.750556]]], [[[19.763031, 78.624213], [19.674327, 78.610175], [19.582774, 78.581488], [19.584809, 78.561713], [19.602387, 78.547024], [19.681163, 78.514553], [18.993012, 78.466986], [18.961762, 78.45246], [19.008474, 78.428778], [19.066417, 78.377875], [19.050548, 78.343207], [18.993988, 78.328192], [18.981619, 78.315334], [18.99586, 78.315334], [18.956391, 78.294745], [18.954356, 78.281806], [19.062511, 78.248969], [19.078461, 78.24258], [19.085216, 78.229926], [19.042817, 78.202338], [18.949555, 78.195787], [18.926931, 78.189032], [18.920584, 78.178534], [18.993907, 78.139594], [19.069184, 78.125922], [19.098318, 78.103013], [19.062755, 78.086859], [18.811209, 78.028469], [18.582856, 78.055121], [18.492849, 78.048082], [18.406261, 78.021145], [18.426443, 78.005683], [18.502452, 77.98017], [18.476573, 77.960639], [18.372081, 77.938544], [18.375173, 77.924628], [18.364513, 77.914252], [18.330414, 77.904975], [18.378917, 77.870307], [18.436209, 77.856757], [18.447765, 77.842353], [18.437022, 77.824123], [18.4546, 77.774075], [18.44516, 77.756252], [18.353363, 77.682278], [18.347423, 77.666205], [18.361501, 77.640611], [18.353282, 77.630072], [18.282725, 77.582261], [18.31072, 77.554918], [18.299815, 77.520209], [18.240082, 77.495103], [18.194102, 77.49018], [18.096528, 77.500393], [18.012218, 77.492621], [17.960297, 77.513332], [17.813324, 77.493476], [17.747325, 77.499335], [17.727794, 77.493476], [17.735688, 77.466864], [17.704845, 77.452582], [17.624766, 77.445746], [17.636567, 77.428697], [17.658946, 77.425238], [17.65211, 77.415351], [17.617931, 77.397284], [17.594086, 77.366604], [17.511485, 77.337714], [17.488292, 77.321601], [17.495779, 77.315375], [17.483246, 77.306098], [17.501964, 77.270697], [17.500499, 77.255316], [17.433849, 77.21426], [17.423839, 77.194281], [17.428559, 77.173245], [17.447276, 77.150865], [17.430431, 77.136542], [17.371593, 77.116156], [17.364594, 77.092231], [17.330577, 77.075141], [17.347341, 77.064439], [17.337413, 77.047268], [17.097179, 77.054674], [17.113455, 77.038642], [17.323741, 76.978949], [17.287446, 76.952948], [17.088715, 76.874172], [17.055919, 76.853827], [17.062511, 76.835598], [16.93572, 76.814765], [16.919119, 76.793931], [16.942393, 76.78026], [17.082042, 76.765367], [17.136078, 76.751166], [17.200206, 76.718899], [17.192068, 76.696845], [17.090343, 76.671088], [17.104015, 76.650621], [17.011241, 76.634467], [16.994802, 76.616441], [17.003429, 76.60635], [16.992198, 76.600043], [16.907888, 76.590277], [16.809581, 76.56684], [16.590668, 76.57803], [16.564789, 76.583319], [16.559337, 76.592271], [16.563731, 76.606676], [16.430919, 76.622382], [16.405772, 76.616441], [16.398448, 76.598822], [16.374848, 76.592678], [16.363536, 76.573717], [16.343761, 76.572414], [16.317149, 76.579291], [16.295909, 76.596015], [16.336762, 76.616441], [16.324392, 76.634467], [16.336762, 76.657416], [16.289073, 76.671088], [16.300059, 76.690619], [16.297537, 76.701809], [16.284028, 76.707913], [16.120942, 76.738593], [15.94158, 76.760688], [15.881114, 76.794013], [15.681488, 76.851549], [15.501475, 76.876532], [15.527517, 76.906317], [15.578461, 76.919582], [15.726817, 76.930243], [15.774425, 76.952297], [15.86199, 76.948554], [16.048676, 76.977444], [16.187755, 76.974514], [16.230154, 76.961249], [16.235606, 76.946519], [16.220063, 76.938625], [16.241059, 76.932603], [16.329926, 76.94481], [16.317556, 76.970933], [16.328868, 76.982856], [16.467621, 76.982408], [16.507579, 76.986029], [16.528575, 77.000067], [16.482188, 77.007229], [16.316173, 77.004136], [16.25766, 76.992621], [16.199718, 77.013658], [16.091482, 77.027289], [16.063162, 77.047268], [16.063162, 77.068996], [16.028982, 77.08515], [15.977306, 77.081122], [15.959483, 77.075141], [15.958181, 77.061672], [15.857677, 77.068996], [15.852061, 77.053412], [15.911794, 77.020575], [15.886567, 77.01557], [15.809337, 77.013658], [15.740896, 77.001044], [15.345714, 77.008531], [15.238536, 77.023749], [15.15268, 77.048245], [15.123383, 77.068996], [15.138031, 77.071967], [15.138682, 77.085761], [15.049001, 77.095649], [15.075531, 77.116156], [15.040212, 77.134752], [14.610118, 77.185004], [14.447765, 77.181383], [14.373709, 77.198676], [14.310883, 77.243801], [14.307791, 77.257025], [14.322032, 77.280585], [14.15797, 77.294257], [14.138845, 77.301703], [14.138438, 77.31859], [14.164399, 77.348863], [13.973806, 77.409857], [13.958995, 77.425238], [13.979991, 77.4383], [13.958995, 77.445746], [13.958995, 77.452541], [14.032725, 77.447211], [14.054535, 77.452541], [14.023204, 77.4737], [13.917979, 77.499701], [13.921235, 77.517727], [13.910655, 77.534491], [14.075694, 77.56859], [14.439952, 77.586086], [14.521495, 77.573147], [14.595876, 77.534491], [14.564789, 77.51439], [14.527517, 77.507148], [14.547618, 77.492499], [14.651052, 77.499701], [14.711111, 77.494452], [14.738943, 77.497626], [14.760916, 77.513373], [14.760916, 77.537584], [14.774181, 77.548774], [14.904307, 77.548163], [15.042328, 77.566718], [15.141856, 77.545478], [15.853282, 77.531562], [15.941254, 77.502346], [15.999278, 77.494615], [16.124848, 77.442694], [16.221365, 77.440863], [16.192882, 77.466213], [16.219493, 77.47427], [16.309581, 77.466213], [16.270763, 77.487454], [16.097179, 77.499701], [16.028656, 77.51439], [15.95102, 77.541653], [15.898936, 77.569648], [15.845876, 77.578803], [14.966075, 77.623236], [14.8838, 77.617011], [14.814952, 77.644355], [14.753103, 77.653998], [14.740489, 77.664211], [14.858572, 77.682807], [15.03297, 77.684516], [15.115408, 77.703192], [16.240245, 77.772528], [16.333344, 77.797593], [16.869965, 77.811347], [16.95338, 77.793524], [17.012706, 77.795966], [17.080577, 77.776923], [17.124522, 77.78148], [17.024669, 77.807766], [16.881684, 77.821967], [16.789317, 77.877143], [16.814301, 77.88935], [16.898611, 77.877143], [16.994802, 77.904975], [16.960704, 77.924872], [17.007823, 77.938544], [16.761241, 77.912014], [16.728201, 77.903306], [16.714854, 77.877143], [16.682872, 77.866034], [15.78533, 77.835354], [15.59547, 77.877346], [15.554535, 77.880113], [15.30893, 77.856635], [15.090343, 77.790961], [14.768891, 77.780911], [14.718435, 77.769477], [14.670258, 77.769029], [14.568614, 77.793443], [14.521251, 77.78148], [14.630626, 77.76789], [14.599132, 77.759711], [14.457774, 77.758043], [14.356619, 77.76789], [14.261078, 77.759833], [14.210297, 77.782294], [14.175548, 77.784247], [14.109874, 77.774075], [13.957042, 77.719916], [13.885509, 77.744534], [13.797618, 77.7331], [13.75294, 77.739447], [13.737315, 77.749945], [13.718761, 77.76789], [13.774425, 77.775336], [13.821788, 77.801418], [13.785655, 77.827135], [13.651134, 77.849799], [13.665701, 77.860338], [13.670665, 77.893988], [13.630626, 77.959662], [13.645193, 77.981147], [13.670665, 77.993801], [13.640636, 78.027777], [13.589122, 78.055854], [13.613536, 78.063625], [13.698253, 78.062079], [13.866222, 78.096869], [13.957693, 78.095689], [14.07488, 78.070136], [14.256602, 78.000637], [14.275645, 77.971259], [14.287446, 77.965888], [14.330089, 77.964423], [14.347911, 77.968451], [14.35963, 77.980618], [14.346039, 78.019965], [14.324392, 78.038804], [14.22283, 78.079169], [14.232758, 78.093451], [15.034679, 78.116645], [14.993663, 78.137152], [15.139415, 78.169908], [15.190196, 78.193793], [15.295177, 78.222235], [15.417328, 78.238593], [15.557384, 78.239691], [15.614594, 78.222886], [15.693533, 78.21483], [15.7199, 78.219143], [15.729666, 78.233954], [15.709727, 78.244859], [15.634288, 78.257229], [15.59018, 78.288642], [15.641287, 78.313422], [15.795095, 78.342922], [15.901215, 78.336127], [16.064464, 78.351996], [16.103363, 78.363715], [16.293793, 78.340318], [16.936534, 78.352281], [17.198416, 78.407782], [17.272309, 78.413886], [17.293712, 78.420396], [17.296397, 78.432603], [17.260102, 78.444281], [17.197602, 78.442084], [16.850841, 78.384914], [16.627696, 78.405829], [16.586681, 78.421698], [16.570079, 78.44538], [16.410981, 78.432603], [16.329926, 78.45246], [16.329926, 78.459296], [16.365733, 78.461859], [16.427989, 78.483303], [16.480235, 78.538764], [16.647146, 78.59101], [16.718598, 78.633531], [16.809581, 78.639797], [16.827159, 78.648017], [16.828949, 78.673326], [16.789236, 78.679104], [16.628754, 78.671617], [16.617442, 78.674994], [16.61085, 78.69595], [16.55421, 78.719306], [16.522797, 78.717841], [16.455089, 78.678453], [16.365896, 78.651557], [16.357432, 78.638088], [16.374848, 78.632554], [16.372732, 78.620795], [16.342052, 78.598863], [16.317719, 78.567776], [16.042003, 78.520738], [16.047862, 78.494615], [16.001964, 78.482733], [15.439464, 78.458401], [15.342459, 78.48428], [15.261241, 78.542467], [15.256114, 78.564643], [15.241954, 78.57807], [15.192882, 78.589586], [15.233246, 78.610175], [15.401541, 78.616929], [15.446056, 78.635891], [15.465099, 78.654608], [15.49879, 78.726304], [15.475108, 78.737616], [15.466319, 78.76439], [15.425059, 78.788275], [15.486583, 78.808783], [15.381521, 78.851386], [15.302094, 78.826117], [15.233897, 78.784857], [15.215343, 78.745551], [15.199067, 78.740465], [15.208751, 78.725491], [15.227061, 78.720038], [15.206554, 78.706366], [15.225352, 78.698188], [15.220225, 78.678412], [15.242442, 78.677069], [15.261241, 78.665351], [15.057872, 78.647366], [15.021007, 78.616929], [15.041515, 78.610175], [14.982677, 78.597398], [14.919932, 78.607652], [14.80128, 78.644232], [14.844574, 78.670356], [14.84962, 78.685858], [14.815196, 78.721137], [14.814952, 78.733629], [14.679698, 78.730414], [14.629161, 78.717353], [14.575369, 78.690009], [14.445567, 78.678412], [14.445567, 78.671576], [14.541759, 78.657904], [14.545909, 78.647162], [14.534353, 78.620347], [14.548025, 78.607001], [14.541759, 78.586575], [14.547618, 78.575019], [14.58961, 78.555487], [14.562348, 78.543931], [14.472911, 78.542467], [14.383556, 78.500922], [14.419688, 78.475531], [14.481456, 78.463324], [14.640636, 78.453437], [14.67628, 78.437934], [14.733653, 78.391059], [14.663097, 78.38109], [14.451915, 78.384223], [14.459239, 78.377387], [14.432872, 78.368842], [14.342621, 78.391059], [14.285981, 78.387437], [14.246349, 78.363715], [14.301524, 78.336371], [14.322032, 78.308498], [14.281912, 78.30508], [14.126231, 78.263373], [14.075857, 78.242906], [14.040294, 78.247016], [14.048513, 78.261176], [14.09669, 78.288642], [13.965831, 78.281806], [13.944998, 78.260728], [13.944672, 78.226508], [13.898611, 78.247789], [13.798025, 78.270453], [13.746104, 78.267524], [13.772716, 78.251207], [13.839366, 78.233547], [13.855968, 78.212877], [13.148611, 78.228176], [13.009613, 78.203843], [12.911306, 78.247016], [12.958344, 78.267524], [12.93865, 78.288642], [12.951508, 78.295396], [12.856619, 78.32274], [12.903819, 78.32274], [12.886485, 78.347724], [12.858084, 78.359687], [12.657563, 78.377346], [12.56837, 78.404853], [12.430919, 78.466132], [12.377126, 78.477362], [12.362559, 78.48725], [12.531261, 78.507066], [13.001964, 78.508246], [13.198009, 78.542467], [13.146007, 78.555121], [12.972016, 78.535061], [12.429698, 78.544176], [12.389822, 78.551337], [12.368826, 78.575995], [12.376231, 78.583441], [12.347179, 78.595689], [12.020518, 78.614447], [11.903575, 78.638088], [11.859711, 78.65766], [11.850759, 78.673529], [11.869151, 78.685858], [11.843028, 78.702704], [11.711681, 78.716051], [11.655284, 78.736151], [11.64324, 78.74726], [11.732188, 78.812445], [11.780772, 78.825588], [11.887462, 78.817084], [11.937348, 78.822455], [11.901703, 78.844306], [11.856619, 78.855618], [11.564464, 78.887152], [11.441661, 78.915595], [11.370372, 78.94123], [11.345958, 78.954169], [11.334158, 78.973212], [11.567068, 78.984931], [12.24879, 78.901557], [12.474132, 78.902289], [12.506602, 78.911811], [12.460704, 78.952135], [12.451427, 78.980048], [12.424327, 78.996649], [12.390798, 79.002143], [12.064789, 78.97427], [11.979015, 78.986884], [12.042817, 78.999823], [12.108735, 79.000556], [12.084809, 79.010932], [12.002289, 79.014228], [11.683604, 79.069403], [11.761241, 79.085883], [11.807953, 79.114936], [11.882823, 79.130845], [11.848643, 79.145168], [11.894216, 79.160224], [11.95102, 79.199856], [12.135997, 79.213446], [12.120942, 79.225898], [12.07488, 79.228013], [12.060313, 79.240709], [12.115001, 79.261217], [12.095063, 79.28852], [12.115001, 79.302191], [11.985199, 79.28852], [11.834972, 79.295966], [11.91684, 79.240709], [11.896658, 79.225531], [11.852875, 79.22602], [11.80714, 79.235541], [11.779796, 79.247545], [11.787283, 79.254381], [11.724783, 79.278306], [11.705251, 79.303697], [11.691091, 79.309638], [11.691091, 79.322211], [11.594737, 79.309638], [11.601573, 79.302191], [11.591319, 79.294013], [11.553233, 79.281724], [11.592784, 79.272773], [11.69044, 79.216864], [11.722667, 79.187567], [11.70045, 79.168036], [11.279307, 79.099555], [11.228282, 79.100653], [11.183849, 79.124091], [11.205089, 79.129462], [11.176443, 79.151313], [11.161876, 79.21601], [11.140961, 79.23664], [11.113048, 79.249823], [11.066742, 79.257392], [11.001231, 79.310045], [10.912446, 79.329535], [10.841156, 79.371039], [10.916352, 79.384752], [10.861827, 79.398993], [10.855235, 79.410834], [10.91627, 79.439399], [10.900076, 79.470649], [10.787364, 79.506496], [10.71518, 79.512112], [10.693614, 79.522406], [10.676768, 79.542426], [10.708018, 79.561428], [11.183849, 79.562934], [11.145681, 79.57392], [10.854991, 79.596991], [10.889659, 79.618476], [11.013682, 79.64997], [11.433279, 79.627509], [11.457693, 79.631781], [11.455577, 79.645453], [11.35255, 79.661851], [11.213878, 79.708075], [11.197602, 79.721177], [11.218028, 79.727362], [11.210623, 79.741645], [11.238536, 79.760932], [11.190115, 79.775214], [11.227306, 79.788031], [11.283458, 79.789293], [11.523774, 79.767076], [11.560069, 79.788804], [11.52589, 79.809272], [11.550304, 79.813666], [11.605154, 79.805732], [11.669607, 79.835761], [11.822276, 79.845038], [11.873871, 79.815619], [11.923676, 79.801825], [11.942882, 79.790961], [11.937348, 79.775214], [12.028005, 79.734565], [12.03297, 79.721177], [12.067149, 79.71369], [12.046641, 79.693264], [12.142833, 79.673774], [12.170177, 79.678941], [12.142833, 79.700629], [12.170665, 79.709174], [12.297048, 79.664984], [12.336599, 79.669989], [12.34547, 79.682685], [12.34962, 79.717475], [12.303559, 79.736884], [12.204356, 79.754625], [12.218028, 79.762519], [12.197439, 79.768297], [12.204356, 79.775214], [12.173513, 79.783108], [12.163585, 79.793443], [12.163341, 79.809272], [12.204356, 79.837226], [12.391124, 79.834174], [12.451427, 79.823554], [12.533865, 79.788804], [12.541759, 79.774319], [12.532888, 79.765692], [12.492931, 79.754625], [12.536632, 79.746283], [12.684093, 79.775214], [12.767589, 79.773261], [13.060069, 79.828599], [13.250011, 79.836819], [13.35613, 79.858466], [13.583181, 79.857489], [13.797048, 79.881903], [13.88559, 79.866523], [13.950206, 79.837348], [13.960785, 79.785224], [13.972667, 79.775214], [13.897146, 79.737738], [13.738292, 79.706448], [13.013682, 79.693264], [13.027354, 79.678941], [12.646251, 79.594428], [12.469249, 79.589545], [12.451427, 79.569078], [12.577647, 79.54857], [12.7046, 79.569078], [12.901622, 79.572211], [13.033458, 79.597357], [13.181977, 79.591498], [13.287852, 79.602362], [13.396495, 79.590766], [13.451671, 79.592434], [13.477224, 79.586493], [13.492849, 79.569078], [13.430431, 79.534003], [13.359223, 79.517076], [13.266856, 79.521918], [13.287364, 79.494045], [13.268565, 79.489651], [13.259532, 79.473538], [13.457205, 79.439602], [13.478689, 79.441107], [13.486583, 79.45303], [13.437673, 79.480943], [13.52711, 79.49433], [13.616954, 79.480943], [13.630626, 79.459866], [13.759288, 79.440253], [13.780284, 79.432563], [13.785004, 79.420233], [13.873383, 79.393378], [13.898448, 79.367865], [13.917979, 79.364244], [13.907074, 79.340481], [13.910655, 79.315863], [13.891124, 79.306057], [13.898611, 79.293647], [13.920746, 79.284247], [13.976736, 79.287258], [14.041677, 79.265815], [14.07309, 79.269517], [14.104747, 79.28913], [14.158214, 79.343166], [14.081065, 79.386868], [14.014334, 79.405219], [14.04835, 79.425727], [14.009939, 79.4619], [13.945079, 79.484076], [13.935313, 79.495795], [13.952159, 79.501451], [13.883149, 79.542426], [13.952159, 79.576565], [14.074962, 79.606391], [14.252615, 79.609849], [14.280528, 79.617499], [14.143891, 79.631781], [14.175548, 79.651435], [14.307791, 79.672797], [14.246349, 79.678941], [14.403494, 79.738918], [14.514415, 79.803534], [14.548595, 79.811469], [14.857921, 79.773668], [14.924571, 79.751288], [15.090668, 79.661811], [15.26238, 79.618842], [15.295258, 79.603827], [15.272797, 79.58808], [15.303071, 79.548407], [15.295258, 79.53559], [15.330089, 79.513088], [15.370453, 79.501451], [15.36085, 79.4831], [15.365571, 79.472154], [15.397716, 79.45303], [15.446056, 79.405219], [15.438731, 79.3876], [15.497325, 79.330024], [15.605724, 79.311265], [15.685802, 79.261217], [15.772716, 79.242174], [15.788748, 79.220282], [15.677257, 79.170559], [15.658458, 79.151313], [15.660492, 79.125312], [15.68214, 79.112209], [15.711599, 79.112738], [15.805186, 79.165839], [15.881602, 79.161038], [16.021007, 79.100165], [16.118988, 79.067694], [16.131521, 79.035305], [16.130544, 79.011461], [16.151866, 78.990668], [16.248709, 78.959377], [16.295909, 78.953355], [16.309581, 78.931627], [16.347911, 78.916246], [16.435232, 78.911444], [16.476573, 78.917304], [16.490896, 78.930732], [16.453461, 78.953355], [16.460297, 78.966986], [16.40504, 78.97309], [16.381358, 78.983629], [16.365489, 79.02147], [16.320079, 79.045233], [16.285167, 79.091702], [16.192882, 79.138332], [16.155284, 79.18891], [16.150727, 79.234036], [16.009451, 79.296373], [15.959483, 79.309638], [15.969005, 79.339057], [15.929698, 79.409491], [15.91391, 79.459174], [15.881196, 79.511054], [15.853038, 79.528998], [15.867686, 79.548529], [15.917979, 79.562934], [15.852224, 79.56977], [15.833181, 79.579983], [15.812999, 79.614447], [15.726736, 79.665961], [15.745372, 79.673245], [15.685802, 79.700629], [15.703868, 79.716986], [15.702647, 79.727729], [15.671397, 79.755927], [15.644786, 79.768297], [15.672048, 79.788804], [15.643403, 79.815009], [15.641856, 79.831855], [15.651622, 79.850287], [15.679535, 79.869127], [15.715831, 79.877143], [16.102875, 79.859849], [16.137706, 79.870754], [16.102224, 79.894355], [16.008637, 79.909817], [15.95574, 79.945299], [15.991059, 79.977729], [16.055675, 79.994859], [16.034679, 80.000922], [16.021658, 80.015367], [16.141124, 80.032131], [16.294688, 80.067369], [16.555919, 80.04267], [16.573253, 80.011949], [16.592784, 79.997626], [16.712169, 79.954576], [16.72047, 79.946479], [16.717133, 79.939154], [16.693126, 79.922553], [16.706391, 79.911811], [16.820079, 79.8758], [16.886485, 79.873603], [16.912852, 79.892524], [16.871349, 79.911811], [16.864431, 79.919135], [16.870128, 79.933336], [16.964692, 79.962592], [17.269542, 79.945543], [17.400157, 79.914293], [17.562511, 79.897854], [17.635997, 79.866929], [17.691742, 79.859849], [17.899669, 79.79564], [17.942149, 79.771552], [18.030528, 79.754869], [18.098399, 79.727362], [18.068533, 79.694648], [18.016775, 79.678371], [17.870453, 79.656195], [17.815684, 79.623236], [17.748871, 79.603827], [17.768809, 79.596991], [17.736176, 79.566962], [17.637055, 79.55976], [17.590668, 79.54857], [17.673106, 79.542426], [17.748871, 79.54857], [17.76588, 79.538967], [17.769298, 79.510403], [17.78297, 79.494045], [17.755138, 79.456448], [17.775645, 79.425727], [17.753673, 79.409329], [17.631602, 79.391588], [17.653168, 79.369371], [17.693533, 79.371039], [17.768809, 79.391588], [17.881033, 79.401313], [18.002615, 79.455797], [18.043224, 79.528754], [18.077322, 79.569078], [18.10613, 79.588324], [18.176931, 79.616034], [18.241954, 79.628241], [18.346934, 79.62995], [18.451427, 79.599514], [18.559093, 79.5869], [18.727306, 79.543524], [18.755626, 79.521918], [18.776134, 79.47724], [18.881847, 79.441107], [18.861095, 79.436591], [18.851899, 79.422593], [18.859141, 79.409247], [18.913341, 79.391588], [18.868988, 79.382636], [18.837657, 79.356838], [18.838878, 79.340522], [18.879161, 79.315863], [18.783458, 79.27912], [18.627208, 79.272284], [18.591807, 79.261217], [18.652029, 79.248765], [18.844574, 79.254381], [18.94752, 79.220282], [18.943126, 79.206732], [18.915212, 79.18122], [18.916759, 79.168443], [18.945079, 79.156968], [19.197927, 79.151313], [19.226085, 79.155219], [19.289561, 79.185492], [19.32252, 79.189439], [19.420177, 79.183783], [19.61199, 79.153306], [19.667166, 79.15058], [19.786306, 79.165107], [19.838145, 79.151313], [19.795665, 79.128119], [19.828949, 79.09512], [19.934337, 79.058905], [19.906423, 79.014228], [20.0, 79.0192973327291], [20.0, 78.60626162179389], [19.763031, 78.624213]]], [[[18.158702, 80.278632], [18.118826, 80.28974], [18.15561, 80.317816], [18.207693, 80.326606], [18.238943, 80.343736], [18.316905, 80.364203], [18.586762, 80.341742], [18.70045, 80.309556], [18.74171, 80.312323], [18.755626, 80.30272], [18.664317, 80.285386], [18.625987, 80.261786], [18.491384, 80.238837], [18.296397, 80.276068], [18.158702, 80.278632]]], [[[19.685313, 79.5539], [19.663097, 79.567939], [19.633311, 79.611314], [19.81658, 79.635688], [20.0, 79.64025987567005], [20.0, 79.51431342839692], [19.685313, 79.5539]]], [[[19.996918, 79.748847], [19.811046, 79.749416], [19.732432, 79.72602], [19.485606, 79.717963], [19.394054, 79.74079], [19.310557, 79.739976], [19.2435, 79.727932], [18.95281, 79.736233], [18.783865, 79.72309], [18.742035, 79.727362], [18.762462, 79.741645], [18.719412, 79.747138], [18.708669, 79.755113], [18.721528, 79.768297], [18.682465, 79.787746], [18.636078, 79.794176], [18.460785, 79.788804], [18.419932, 79.823554], [18.322276, 79.842231], [18.232107, 79.890611], [18.11199, 79.905504], [18.295258, 79.945136], [18.413097, 79.946479], [18.520518, 79.963324], [18.623546, 79.956732], [18.659923, 79.965277], [18.680512, 79.980618], [18.556977, 79.980618], [18.668712, 80.010159], [18.686697, 80.009508], [18.680512, 79.994859], [18.789806, 79.974433], [18.806163, 79.982611], [18.809906, 79.992865], [18.78297, 80.008531], [18.898611, 80.033433], [18.933767, 80.056342], [18.836681, 80.031236], [18.375499, 80.039008], [18.307953, 80.058743], [18.234874, 80.048896], [18.152354, 80.07685], [18.152354, 80.083645], [18.259532, 80.065985], [18.317882, 80.068915], [18.364594, 80.083645], [18.148936, 80.097317], [18.023204, 80.138007], [17.995372, 80.117825], [17.93336, 80.130439], [17.801606, 80.12873], [17.78297, 80.138251], [17.818126, 80.14057], [18.037446, 80.192857], [18.071056, 80.179877], [18.138682, 80.186713], [18.394786, 80.172024], [18.442638, 80.182563], [18.570323, 80.18476], [18.681407, 80.161851], [18.769298, 80.186713], [18.70045, 80.20718], [18.90797, 80.1883], [18.959483, 80.162543], [19.182302, 80.119696], [19.242931, 80.090481], [19.271251, 80.085273], [19.331309, 80.09101], [19.391856, 80.113756], [19.404307, 80.122626], [19.399425, 80.138251], [19.493337, 80.139472], [19.584809, 80.151923], [19.544607, 80.172024], [19.485688, 80.177191], [19.375743, 80.172431], [19.277192, 80.183743], [19.224294, 80.197699], [19.192393, 80.225531], [19.105154, 80.258043], [19.081716, 80.308905], [18.999522, 80.331692], [18.981619, 80.343695], [19.033458, 80.357978], [19.282481, 80.339301], [19.337169, 80.32746], [19.612966, 80.227688], [19.671723, 80.217475], [19.851817, 80.220771], [19.822113, 80.232856], [19.738943, 80.2355], [19.71518, 80.248114], [19.838145, 80.28974], [19.804535, 80.30272], [19.838145, 80.309556], [19.770518, 80.323188], [19.843272, 80.331977], [19.858653, 80.343695], [19.770518, 80.350531], [19.913829, 80.378485], [19.913829, 80.38524], [19.528819, 80.388373], [19.487071, 80.393134], [19.468761, 80.408881], [19.462657, 80.453437], [19.46811, 80.464097], [19.500499, 80.472235], [19.619151, 80.460395], [19.674327, 80.439887], [19.688487, 80.448472], [19.635509, 80.481147], [19.638357, 80.495917], [19.656749, 80.505032], [19.802257, 80.492987], [19.838145, 80.481513], [19.831879, 80.474066], [20.0, 80.46895874467462], [20.0, 79.74948717537829], [19.996918, 79.748847]]], [[[19.859223, 80.496039], [19.852224, 80.505032], [19.871349, 80.516913], [19.958751, 80.540269], [20.0, 80.53919539804842], [20.0, 80.49163050291642], [19.987315, 80.489407], [19.906993, 80.488349], [19.859223, 80.496039]]]]}}]}