{"type": "FeatureCollection", "features": [{"type": "Feature", "properties": {"name": "Antarctica"}, "geometry": {"type": "MultiPolygon", "coordinates": [[[[-80.0, -90.0], [-80.0, -79.26447570966023], [-76.532582, -79.312921], [-76.327301, -79.377211], [-76.216379, -79.391778], [-76.131418, -79.423272], [-76.066274, -79.435317], [-76.008412, -79.496759], [-75.970204, -79.52337], [-75.924631, -79.520278], [-75.924469, -79.54225], [-75.938547, -79.56878], [-76.035634, -79.647149], [-76.097646, -79.733575], [-76.149403, -79.768813], [-76.261952, -79.806817], [-76.4204, -79.879815], [-76.632192, -79.939223], [-77.419057, -80.013849], [-79.687327, -79.982599], [-79.645416, -80.021254], [-78.37267, -80.150323], [-78.273183, -80.178155], [-77.900543, -80.149021], [-77.666127, -80.181736], [-76.274485, -80.08115], [-76.246571, -80.089614], [-76.271881, -80.133233], [-76.275746, -80.154474], [-76.253977, -80.184177], [-76.152455, -80.24627], [-76.095082, -80.294122], [-76.027455, -80.272068], [-75.96524, -80.274835], [-75.947825, -80.282647], [-75.987172, -80.303155], [-75.967152, -80.313409], [-75.87206, -80.307712], [-75.57844, -80.403497], [-75.546132, -80.434747], [-75.496734, -80.454848], [-75.466664, -80.476495], [-75.414052, -80.488539], [-75.401723, -80.51922], [-75.42398, -80.541599], [-75.519887, -80.570571], [-75.647532, -80.586358], [-75.67101, -80.59531], [-75.711985, -80.638116], [-75.648183, -80.662774], [-75.469797, -80.703709], [-75.391428, -80.704848], [-75.347808, -80.721856], [-75.247141, -80.741143], [-75.130116, -80.744236], [-75.02953, -80.772068], [-74.949452, -80.770196], [-74.988149, -80.79046], [-75.041127, -80.793634], [-75.192454, -80.771254], [-75.348988, -80.800063], [-75.725087, -80.818536], [-75.770904, -80.837579], [-75.653472, -80.841729], [-75.599924, -80.878106], [-75.554067, -80.891371], [-75.498606, -80.89658], [-75.381093, -80.880792], [-75.241038, -80.882013], [-75.148834, -80.863458], [-75.096832, -80.883233], [-75.049387, -80.878676], [-74.987213, -80.896091], [-74.902496, -80.885919], [-74.838287, -80.919366], [-74.671498, -80.873468], [-74.594228, -80.870782], [-74.479156, -80.834405], [-74.276967, -80.823337], [-74.162587, -80.800063], [-74.104237, -80.796157], [-74.046864, -80.804132], [-73.95108, -80.837335], [-73.822621, -80.835626], [-73.778188, -80.848403], [-72.769195, -80.969171], [-72.588857, -80.961358], [-72.603749, -80.93141], [-72.628977, -80.910414], [-72.58373, -80.832289], [-72.557037, -80.798598], [-72.515981, -80.770278], [-72.46231, -80.750421], [-72.411, -80.744073], [-72.277577, -80.765558], [-71.63858, -80.699965], [-71.526601, -80.715427], [-71.281809, -80.663507], [-71.125803, -80.602634], [-71.067738, -80.601821], [-70.941274, -80.625095], [-70.820627, -80.610121], [-70.433705, -80.657322], [-70.401519, -80.668064], [-70.37564, -80.68434], [-70.364125, -80.707696], [-70.393544, -80.763767], [-70.383534, -80.808038], [-70.397125, -80.823337], [-70.324574, -80.840427], [-70.198638, -80.889418], [-70.15689, -80.895278], [-70.034169, -80.892673], [-70.061757, -80.929132], [-70.052724, -80.943455], [-70.002065, -80.970798], [-69.975819, -80.976007], [-69.778432, -80.985284], [-69.685455, -80.976007], [-69.174143, -81.029718], [-69.116363, -81.025567], [-68.952504, -80.984796], [-68.680328, -80.96087], [-68.44872, -80.977146], [-68.306264, -81.003188], [-68.234853, -81.003513], [-68.170277, -81.025649], [-68.057118, -81.038263], [-68.087717, -81.051039], [-68.297353, -81.089939], [-68.42101, -81.087823], [-68.371653, -81.110284], [-65.174306, -81.512302], [-64.672353, -81.514418], [-64.589589, -81.534438], [-62.414174, -81.55755], [-62.281321, -81.586684], [-62.211334, -81.592055], [-62.189198, -81.599379], [-62.147857, -81.640232], [-62.083608, -81.645685], [-62.114491, -81.671319], [-62.207346, -81.69256], [-63.378733, -81.716567], [-63.461252, -81.700779], [-63.2954, -81.649021], [-63.391184, -81.632094], [-63.492991, -81.64072], [-63.737375, -81.689386], [-64.03425, -81.697035], [-64.084381, -81.688897], [-63.843902, -81.622166], [-63.878163, -81.600844], [-63.936838, -81.609552], [-64.092152, -81.666111], [-64.198638, -81.688409], [-64.712717, -81.698175], [-64.665273, -81.677341], [-64.513499, -81.638849], [-64.559316, -81.621759], [-64.61677, -81.619317], [-64.778472, -81.636977], [-64.979237, -81.695001], [-65.303782, -81.717543], [-65.417226, -81.701104], [-65.691721, -81.710545], [-65.713043, -81.719985], [-65.714752, -81.729181], [-65.701527, -81.769952], [-65.624867, -81.784112], [-64.911122, -81.796319], [-64.964833, -81.815118], [-64.917551, -81.819513], [-64.751291, -81.797947], [-64.633616, -81.79339], [-63.4794, -81.780043], [-63.540883, -81.829278], [-63.476064, -81.837335], [-63.517893, -81.862074], [-63.577219, -81.87184], [-65.80309, -81.88836], [-66.255767, -81.948012], [-65.701527, -81.968927], [-65.629791, -81.986586], [-65.652984, -82.005792], [-65.681793, -82.015883], [-65.742828, -82.026788], [-65.920318, -82.079685], [-65.943715, -82.095798], [-66.005767, -82.168145], [-66.062408, -82.195408], [-66.033559, -82.214451], [-65.866851, -82.209893], [-65.89387, -82.227227], [-66.028147, -82.239679], [-65.989858, -82.249444], [-65.862701, -82.244806], [-65.913442, -82.263116], [-66.080068, -82.291681], [-66.030263, -82.311619], [-65.488189, -82.29339], [-65.374989, -82.263116], [-65.233469, -82.256931], [-65.207631, -82.265802], [-65.186106, -82.290704], [-65.146596, -82.308364], [-65.167348, -82.340265], [-65.16454, -82.349705], [-65.09435, -82.367934], [-65.101308, -82.392755], [-65.072581, -82.40602], [-64.456939, -82.354425], [-64.525746, -82.377862], [-64.488271, -82.403904], [-64.439605, -82.410333], [-63.841786, -82.302179], [-63.333363, -82.340753], [-63.195872, -82.29461], [-63.234731, -82.269138], [-63.188832, -82.257582], [-63.041371, -82.252048], [-63.035146, -82.273696], [-63.009877, -82.279718], [-62.471913, -82.256443], [-62.072987, -82.28753], [-60.70873, -82.16074], [-60.647288, -82.166681], [-60.69286, -82.197686], [-60.401235, -82.17018], [-60.506174, -82.215102], [-61.120229, -82.344334], [-61.290191, -82.342218], [-61.758412, -82.402602], [-61.995676, -82.459161], [-62.795033, -82.519708], [-62.765126, -82.554295], [-62.729075, -82.577813], [-62.495188, -82.681736], [-62.511098, -82.709568], [-62.538686, -82.720636], [-62.51887, -82.725763], [-62.462026, -82.719415], [-62.100697, -82.849705], [-62.082387, -82.891209], [-61.932485, -82.972345], [-61.997222, -83.001235], [-62.066396, -83.013279], [-62.20934, -83.018813], [-62.180776, -83.034112], [-61.94164, -83.028416], [-61.833485, -82.992446], [-61.657826, -83.057712], [-61.620229, -83.063409], [-61.587148, -83.050714], [-61.549387, -83.010349], [-61.532135, -83.00213], [-61.384999, -82.966404], [-61.364898, -82.949802], [-61.349355, -82.908949], [-61.314117, -82.890232], [-61.276519, -82.889825], [-61.184682, -82.959242], [-61.147939, -82.964776], [-61.110178, -82.948989], [-61.132883, -82.917901], [-61.096547, -82.905043], [-61.065745, -82.909763], [-61.006581, -82.946059], [-60.978342, -82.975193], [-60.974924, -83.005466], [-61.000234, -83.073012], [-61.04011, -83.119561], [-61.112538, -83.164809], [-61.192494, -83.1985], [-61.326568, -83.213556], [-61.484731, -83.254653], [-61.624827, -83.312188], [-61.851471, -83.367608], [-61.824696, -83.374444], [-61.73762, -83.361749], [-61.541127, -83.350844], [-61.529612, -83.357599], [-61.514475, -83.403985], [-61.488881, -83.406915], [-61.419057, -83.391209], [-61.255238, -83.375746], [-61.186391, -83.379815], [-61.147694, -83.408461], [-61.110422, -83.413263], [-60.899648, -83.387953], [-61.005035, -83.424005], [-61.113637, -83.447931], [-60.95226, -83.476251], [-60.900136, -83.474216], [-60.667836, -83.430271], [-60.608062, -83.428399], [-60.446116, -83.468683], [-60.0, -83.43656778281604], [-60.0, -90.0], [-80.0, -90.0]]], [[[-79.64745, -73.03867], [-79.58141, -73.079522], [-79.232533, -73.195571], [-79.142568, -73.247247], [-79.092275, -73.265313], [-78.992014, -73.286798], [-78.918609, -73.292739], [-78.881337, -73.310805], [-78.78189, -73.337986], [-78.744049, -73.364923], [-78.742502, -73.413344], [-78.763743, -73.445489], [-78.824615, -73.485121], [-78.860504, -73.519627], [-78.858144, -73.541599], [-78.871816, -73.583185], [-78.867421, -73.599298], [-78.84496, -73.608819], [-78.782704, -73.611749], [-78.584625, -73.582127], [-78.501373, -73.556573], [-78.201243, -73.556329], [-77.973256, -73.523533], [-77.851877, -73.522556], [-77.531158, -73.467462], [-77.441965, -73.472345], [-77.331207, -73.508396], [-77.244049, -73.512628], [-77.214589, -73.50921], [-77.079213, -73.462498], [-76.87975, -73.458591], [-76.7801, -73.489028], [-76.718251, -73.523533], [-76.69872, -73.54754], [-76.705474, -73.571547], [-76.728179, -73.591729], [-76.940907, -73.667901], [-76.994781, -73.708673], [-77.242421, -73.812433], [-77.122426, -73.870782], [-77.0808, -73.879327], [-77.019765, -73.870701], [-76.931304, -73.832696], [-76.77831, -73.790297], [-76.603871, -73.787367], [-76.509836, -73.815851], [-76.277211, -73.820896], [-76.224599, -73.785903], [-75.966054, -73.751642], [-75.897817, -73.727146], [-75.81607, -73.730645], [-75.6787, -73.710545], [-75.560699, -73.7138], [-75.356679, -73.635512], [-75.268137, -73.621189], [-74.907623, -73.642348], [-74.781728, -73.669203], [-74.662831, -73.735284], [-74.612294, -73.736098], [-74.512807, -73.716892], [-74.41161, -73.671563], [-74.341135, -73.673517], [-74.27717, -73.662693], [-74.105133, -73.716078], [-74.025299, -73.723891], [-73.949127, -73.709649], [-73.863515, -73.666599], [-73.769439, -73.648696], [-73.738637, -73.634047], [-73.686513, -73.589044], [-73.657297, -73.583266], [-73.626698, -73.592706], [-73.59203, -73.611098], [-73.599192, -73.628025], [-73.572865, -73.645196], [-73.559071, -73.640558], [-73.497467, -73.581964], [-73.450429, -73.565037], [-73.310292, -73.569594], [-73.228505, -73.559747], [-73.207143, -73.548435], [-73.139068, -73.468927], [-73.07311, -73.444431], [-72.828928, -73.44378], [-72.643422, -73.469659], [-72.513539, -73.46087], [-72.384511, -73.469822], [-72.355784, -73.454034], [-72.417348, -73.43613], [-72.239247, -73.388849], [-72.001617, -73.373305], [-71.863637, -73.378839], [-71.749338, -73.351658], [-71.542388, -73.361261], [-71.422963, -73.353774], [-71.062001, -73.266371], [-70.882924, -73.256036], [-70.507721, -73.275486], [-70.426422, -73.26922], [-70.34675, -73.29046], [-70.292958, -73.29339], [-69.918853, -73.21852], [-69.336985, -73.180108], [-68.916737, -73.103611], [-68.841542, -73.112237], [-68.779693, -73.108005], [-68.667348, -73.088149], [-68.59675, -73.057387], [-68.537506, -73.053806], [-68.466868, -73.01572], [-67.942494, -72.928155], [-67.913075, -72.918064], [-67.836903, -72.869561], [-67.78893, -72.853692], [-67.738759, -72.852146], [-67.662709, -72.877862], [-67.511098, -72.83408], [-67.533803, -72.768162], [-67.504058, -72.736423], [-67.452952, -72.714125], [-67.375315, -72.664646], [-67.266428, -72.621026], [-67.221913, -72.593683], [-67.218414, -72.500258], [-67.189565, -72.461196], [-67.151275, -72.428888], [-67.095367, -72.412774], [-67.052846, -72.380792], [-66.978261, -72.349542], [-66.972524, -72.308282], [-66.939198, -72.291436], [-66.928049, -72.27752], [-66.929514, -72.236261], [-66.919423, -72.22381], [-66.790517, -72.157403], [-66.750844, -72.113051], [-66.747955, -72.092055], [-66.786488, -72.025323], [-66.779042, -71.985447], [-66.792144, -71.960626], [-66.855702, -71.944594], [-66.869293, -71.907485], [-66.890045, -71.898126], [-66.995025, -71.87713], [-67.181264, -71.76686], [-67.102895, -71.753025], [-67.142161, -71.722589], [-67.424143, -71.620538], [-67.481313, -71.587091], [-67.501088, -71.540297], [-67.524729, -71.507582], [-67.578481, -71.474379], [-67.622629, -71.433364], [-67.617421, -71.377211], [-67.601145, -71.353204], [-67.536244, -71.296157], [-67.499094, -71.280857], [-67.472971, -71.248305], [-67.443959, -71.238946], [-67.458323, -71.222263], [-67.48648, -71.213067], [-67.544586, -71.207452], [-67.45816, -71.189874], [-67.467275, -71.16725], [-67.506663, -71.131443], [-67.514027, -71.111261], [-67.498402, -71.090753], [-67.465728, -71.078546], [-67.401438, -71.070489], [-67.420888, -71.055352], [-67.425282, -71.036228], [-67.411122, -70.992852], [-67.512196, -70.95322], [-67.551259, -70.908868], [-67.613108, -70.88006], [-67.64269, -70.85475], [-67.704579, -70.76336], [-67.667592, -70.719985], [-67.68399, -70.687595], [-67.674469, -70.639825], [-67.759267, -70.553969], [-67.855865, -70.500909], [-67.900502, -70.390395], [-67.949371, -70.311782], [-67.980377, -70.287693], [-68.024159, -70.282403], [-68.068593, -70.255548], [-68.190663, -70.234959], [-68.285797, -70.152032], [-68.32311, -70.109145], [-68.427968, -70.086521], [-68.483754, -70.052667], [-68.483225, -70.006117], [-68.47967541253065, -70.0], [-62.26619927661942, -70.0], [-62.26415, -70.000584], [-62.170318, -70.006768], [-62.073964, -70.054783], [-62.009267, -70.07586], [-61.985992, -70.094008], [-61.948354, -70.144789], [-61.88268, -70.188653], [-61.868723, -70.208266], [-61.883616, -70.231703], [-61.917307, -70.251235], [-62.014556, -70.292576], [-62.02831, -70.291762], [-62.052317, -70.264581], [-62.071034, -70.257094], [-62.183176, -70.247247], [-62.239858, -70.219334], [-62.319325, -70.224542], [-62.393463, -70.218845], [-62.378896, -70.24033], [-62.322174, -70.276951], [-62.346913, -70.291599], [-62.436391, -70.304783], [-62.430165, -70.319024], [-62.403432, -70.337823], [-62.41275, -70.390883], [-62.407216, -70.40545], [-62.380483, -70.413995], [-62.170277, -70.421563], [-62.147939, -70.437595], [-62.134389, -70.468683], [-62.136464, -70.495375], [-62.153798, -70.518162], [-62.185455, -70.537205], [-62.144887, -70.552504], [-62.089833, -70.547621], [-61.93517, -70.499444], [-61.532338, -70.501072], [-61.47411, -70.493097], [-61.416371, -70.502211], [-61.354237, -70.56113], [-61.429433, -70.590509], [-61.681142, -70.618829], [-61.627553, -70.650079], [-61.625396, -70.670099], [-61.655019, -70.694757], [-61.687896, -70.707127], [-61.839996, -70.736912], [-61.882232, -70.738051], [-62.009633, -70.719985], [-62.129262, -70.723403], [-62.1162, -70.749444], [-62.138092, -70.770603], [-62.005767, -70.793145], [-62.015207, -70.806817], [-62.0183, -70.836033], [-62.046539, -70.872247], [-62.032582, -70.903009], [-62.003774, -70.921319], [-61.970204, -70.924981], [-61.902089, -70.917901], [-61.79304, -70.91961], [-61.758453, -70.909763], [-61.704213, -70.862074], [-61.666819, -70.849705], [-61.554433, -70.841241], [-61.305002, -70.856052], [-61.276519, -70.869887], [-61.261708, -70.89422], [-61.266957, -70.930922], [-61.307281, -70.988458], [-61.337148, -71.008396], [-61.371205, -71.01572], [-61.333852, -71.039972], [-61.261057, -71.028009], [-61.176584, -71.03338], [-61.18456, -71.05641], [-61.216786, -71.08294], [-61.208608, -71.100518], [-61.02009, -71.135186], [-60.970855, -71.155043], [-60.93456, -71.182224], [-60.925364, -71.220147], [-60.966868, -71.234308], [-61.225331, -71.21795], [-61.277415, -71.224379], [-61.243642, -71.250258], [-61.200917, -71.261489], [-61.11205, -71.267511], [-61.01122, -71.286065], [-60.965403, -71.306085], [-60.924184, -71.338637], [-60.983754, -71.366795], [-61.038971, -71.366876], [-61.2919, -71.314386], [-61.361887, -71.309177], [-61.417388, -71.322524], [-61.365387, -71.340427], [-61.337066, -71.364679], [-61.129303, -71.414809], [-61.335805, -71.465916], [-61.554026, -71.447361], [-61.542226, -71.505548], [-61.593129, -71.52988], [-61.725819, -71.53281], [-61.706899, -71.586196], [-61.710113, -71.596856], [-61.724599, -71.604669], [-61.813629, -71.627048], [-61.872426, -71.631524], [-62.054921, -71.622328], [-62.112213, -71.639825], [-62.084096, -71.669854], [-62.068227, -71.673598], [-61.673492, -71.681085], [-61.595326, -71.694431], [-61.55724, -71.690606], [-61.283803, -71.593357], [-61.27009, -71.581964], [-61.265126, -71.558526], [-61.180531, -71.533298], [-61.141265, -71.532892], [-61.119049, -71.539321], [-61.094838, -71.573663], [-61.062123, -71.589451], [-60.94579, -71.619073], [-60.998525, -71.639825], [-60.980336, -71.660821], [-60.838246, -71.662774], [-60.777943, -71.677016], [-60.786529, -71.69199], [-60.835276, -71.711521], [-60.771555, -71.760024], [-60.797841, -71.781508], [-60.861806, -71.788832], [-60.957102, -71.772068], [-61.048655, -71.739841], [-61.097035, -71.708103], [-61.16275, -71.718845], [-61.12914, -71.76336], [-61.05606, -71.79697], [-61.103098, -71.805597], [-61.088043, -71.819268], [-61.027211, -71.832289], [-61.065745, -71.84531], [-61.091786, -71.871026], [-61.319651, -71.875095], [-61.497222, -71.854913], [-61.776031, -71.868748], [-61.890452, -71.897638], [-62.440907, -71.91961], [-62.397369, -71.960626], [-62.297597, -71.987481], [-62.112213, -72.009535], [-62.133127, -72.028253], [-62.223256, -72.050551], [-62.34911, -72.097589], [-62.312652, -72.131606], [-62.254303, -72.135186], [-62.135406, -72.111261], [-61.908111, -72.092218], [-61.732655, -72.049005], [-61.674306, -72.046563], [-61.427398, -72.065199], [-61.37621, -72.078058], [-61.286692, -72.133477], [-61.166982, -72.169854], [-61.148549, -72.154718], [-61.153676, -72.129327], [-61.191803, -72.087335], [-61.173695, -72.06699], [-61.117014, -72.050063], [-60.929311, -72.053318], [-60.870595, -72.046563], [-60.753326, -72.008884], [-60.693837, -71.997817], [-60.668324, -72.010186], [-60.65453, -72.041599], [-60.652455, -72.07822], [-60.662343, -72.106134], [-60.688629, -72.120212], [-60.937856, -72.15838], [-61.009389, -72.153578], [-61.071889, -72.191339], [-61.016469, -72.19671], [-60.843007, -72.188572], [-60.749623, -72.204848], [-60.687245, -72.23089], [-60.661773, -72.255792], [-60.668446, -72.298923], [-60.654408, -72.312595], [-60.674387, -72.325372], [-60.706451, -72.331801], [-60.814809, -72.313409], [-60.861399, -72.31699], [-60.998036, -72.356215], [-60.965932, -72.369317], [-60.692209, -72.374688], [-60.656117, -72.386], [-60.637318, -72.407322], [-60.642568, -72.429946], [-60.679026, -72.445571], [-60.823476, -72.465102], [-61.142079, -72.454197], [-61.46467, -72.407322], [-61.457183, -72.428969], [-61.365631, -72.465997], [-61.400258, -72.48447], [-61.471018, -72.497817], [-61.436269, -72.522556], [-61.401763, -72.533624], [-61.275502, -72.526056], [-61.250722, -72.555922], [-61.215443, -72.638116], [-61.257965, -72.652927], [-61.420277, -72.645766], [-61.392893, -72.670017], [-61.259267, -72.691339], [-61.208485, -72.720636], [-61.20637, -72.73211], [-61.218861, -72.752699], [-61.215321, -72.76393], [-61.136586, -72.783298], [-61.099599, -72.767673], [-61.041819, -72.701593], [-61.004384, -72.686619], [-60.863393, -72.681329], [-60.736073, -72.654392], [-60.596791, -72.649998], [-60.552398, -72.655857], [-60.520416, -72.682712], [-60.500356, -72.720961], [-60.489369, -72.75628], [-60.491689, -72.791192], [-60.511586, -72.82822], [-60.579701, -72.890395], [-60.664418, -72.915623], [-60.646718, -72.934747], [-60.622141, -72.942315], [-60.638254, -72.958429], [-60.769928, -73.035414], [-60.782216, -73.0499], [-60.763539, -73.074477], [-60.707509, -73.064386], [-60.60497, -73.022393], [-60.552235, -72.980564], [-60.426381, -73.01865], [-60.35676, -73.052016], [-60.333892, -73.055597], [-60.275746, -73.045994], [-60.246978, -73.033949], [-60.183746, -72.957289], [-60.10733, -72.888116], [-60.082102, -72.87477], [-60.01065, -72.871759], [-60.0, -72.8744842029438], [-60.0, -73.08503076310832], [-60.0301, -73.12127], [-60.037099, -73.169854], [-60.011545, -73.208673], [-60.0, -73.21805903162154], [-60.0, -73.25788153309854], [-60.026601, -73.278985], [-60.093577, -73.299249], [-60.290761, -73.322198], [-60.378285, -73.32171], [-60.450429, -73.301935], [-60.46935, -73.227309], [-60.495269, -73.212579], [-60.598622, -73.184828], [-60.624664, -73.195489], [-60.638987, -73.223728], [-60.666331, -73.334568], [-60.683665, -73.37127], [-60.703114, -73.391046], [-60.734446, -73.398045], [-60.80427, -73.395115], [-60.834625, -73.384942], [-60.816965, -73.333754], [-60.820668, -73.309177], [-60.877919, -73.241957], [-60.894683, -73.248956], [-60.918324, -73.316339], [-60.949615, -73.342869], [-60.989613, -73.35296], [-61.082753, -73.347426], [-61.130686, -73.33766], [-61.167633, -73.319757], [-61.255442, -73.244399], [-61.262441, -73.226739], [-61.254547, -73.211196], [-61.229644, -73.201837], [-61.369985, -73.203709], [-61.397328, -73.194106], [-61.447092, -73.158136], [-61.544423, -73.175958], [-62.001698, -73.104181], [-62.065094, -73.130466], [-61.961334, -73.184666], [-61.646067, -73.252048], [-61.626536, -73.285089], [-61.766103, -73.246189], [-61.955312, -73.223891], [-62.00182, -73.230564], [-61.816314, -73.260186], [-61.568471, -73.353123], [-61.539296, -73.392185], [-61.58788, -73.392836], [-61.6881, -73.375095], [-61.886057, -73.365004], [-61.934804, -73.372166], [-61.919301, -73.408787], [-61.90689, -73.416192], [-61.814443, -73.424574], [-61.71288, -73.460138], [-61.7176, -73.517185], [-61.687815, -73.535903], [-61.64269, -73.543715], [-61.562571, -73.537693], [-61.507802, -73.487481], [-61.452301, -73.477797], [-61.302113, -73.495294], [-61.241811, -73.535821], [-61.120188, -73.524021], [-60.79955, -73.577895], [-60.84496, -73.621352], [-60.902821, -73.646254], [-61.030914, -73.672947], [-61.0065, -73.701104], [-61.145619, -73.737888], [-60.986236, -73.747328], [-60.933339, -73.735447], [-60.862701, -73.703383], [-60.78425, -73.694513], [-60.734731, -73.715753], [-60.813954, -73.771417], [-60.879954, -73.842869], [-60.910797, -73.899835], [-60.986562, -73.955336], [-61.031239, -73.96502], [-61.232411, -73.958185], [-61.348297, -73.926446], [-61.388092, -73.881768], [-61.437734, -73.873224], [-61.540639, -73.892673], [-61.644643, -73.882501], [-61.691965, -73.886163], [-61.791005, -73.906671], [-61.746978, -73.930841], [-61.581939, -73.969903], [-61.648834, -73.992934], [-61.859283, -74.02988], [-61.775136, -74.042576], [-61.490468, -74.015558], [-61.405181, -74.032647], [-61.378041, -74.055759], [-61.350453, -74.066176], [-61.084137, -74.063246], [-61.055776, -74.073175], [-61.055409, -74.103123], [-61.088979, -74.135837], [-61.133453, -74.164158], [-61.241567, -74.209731], [-61.404408, -74.24863], [-61.484731, -74.254164], [-61.473988, -74.235121], [-61.454986, -74.224216], [-61.476471, -74.220636], [-61.529775, -74.23211], [-61.551178, -74.225274], [-61.566477, -74.212498], [-61.569407, -74.195082], [-61.553863, -74.175063], [-61.663726, -74.190525], [-61.730133, -74.241143], [-61.756947, -74.251235], [-61.813059, -74.25449], [-61.978098, -74.244236], [-61.88801, -74.277602], [-61.869374, -74.299493], [-61.901601, -74.308364], [-61.884633, -74.325453], [-61.856597, -74.328709], [-61.644195, -74.29754], [-61.491038, -74.328871], [-61.278717, -74.329848], [-61.068023, -74.300551], [-60.858144, -74.245212], [-60.751332, -74.235528], [-60.691151, -74.238946], [-60.650014, -74.254002], [-60.640248, -74.292657], [-60.681956, -74.324802], [-60.780141, -74.359145], [-60.883656, -74.378676], [-60.978383, -74.421157], [-60.940012, -74.429783], [-60.905995, -74.449151], [-60.977895, -74.497166], [-61.06786, -74.519627], [-61.542714, -74.544041], [-61.595611, -74.537286], [-61.642934, -74.49863], [-61.707509, -74.505792], [-62.112782, -74.464288], [-62.205149, -74.43141], [-62.363881, -74.403497], [-62.334218, -74.458103], [-62.277455, -74.49212], [-62.211985, -74.519464], [-62.137318, -74.565118], [-62.065094, -74.574802], [-62.007883, -74.596124], [-61.93517, -74.655043], [-61.885813, -74.673272], [-61.858388, -74.702081], [-61.788157, -74.712091], [-61.782135, -74.721775], [-61.792226, -74.778985], [-61.825103, -74.821059], [-61.872955, -74.851495], [-62.131907, -74.951593], [-62.467275, -74.997735], [-62.52599, -74.997247], [-62.575266, -74.976739], [-62.591054, -74.951104], [-62.579579, -74.898858], [-62.608957, -74.820977], [-62.607737, -74.794692], [-62.587758, -74.773858], [-62.610463, -74.76336], [-62.664866, -74.761814], [-62.689076, -74.753106], [-62.699086, -74.736586], [-62.694, -74.718194], [-62.673166, -74.703302], [-62.701283, -74.677992], [-62.735463, -74.677992], [-62.80724, -74.70379], [-62.84439, -74.708429], [-63.119008, -74.652276], [-63.138499, -74.651625], [-63.187611, -74.668634], [-63.265696, -74.668145], [-63.292958, -74.720147], [-63.148427, -74.788507], [-63.106923, -74.822035], [-63.07018, -74.868097], [-63.062245, -74.892511], [-63.076894, -74.908461], [-63.181223, -74.919366], [-63.404937, -74.898696], [-63.52009, -74.867771], [-63.57311, -74.871352], [-63.606313, -74.916274], [-63.586497, -74.922296], [-63.609731, -74.936782], [-64.021392, -74.979425], [-64.085601, -74.99863], [-63.964508, -75.013116], [-63.90038, -75.035252], [-63.343984, -75.00742], [-63.277903, -75.015395], [-63.243804, -75.025323], [-63.068186, -75.120782], [-63.040924, -75.147231], [-63.303619, -75.177423], [-63.390004, -75.175226], [-63.509633, -75.159356], [-64.158844, -75.224298], [-64.205068, -75.236261], [-64.272328, -75.241143], [-64.357167, -75.27988], [-64.400624, -75.291274], [-64.434438, -75.31756], [-64.371693, -75.334893], [-64.348988, -75.364516], [-64.329945, -75.366388], [-64.196767, -75.335707], [-64.11144, -75.349867], [-63.762115, -75.32464], [-63.084543, -75.351658], [-63.106679, -75.385512], [-63.16161, -75.409438], [-65.010854, -75.787286], [-65.26476, -75.791436], [-65.289784, -75.79697], [-65.377105, -75.842869], [-66.142079, -75.98561], [-66.218617, -76.010837], [-68.104319, -76.147882], [-68.146718, -76.165704], [-68.083241, -76.189711], [-68.03954, -76.218194], [-67.949208, -76.215916], [-69.474843, -76.340997], [-69.515004, -76.326755], [-69.546783, -76.326918], [-69.715484, -76.369317], [-69.79776, -76.376886], [-69.852651, -76.393487], [-69.927073, -76.391371], [-70.100819, -76.423923], [-70.180898, -76.450616], [-70.134592, -76.468032], [-70.073842, -76.47324], [-69.854075, -76.451104], [-69.746327, -76.469496], [-70.049916, -76.498712], [-69.996734, -76.520603], [-69.816151, -76.522231], [-69.853627, -76.533298], [-69.978383, -76.534601], [-70.056956, -76.548517], [-70.099517, -76.565199], [-70.119252, -76.589044], [-70.080474, -76.617364], [-69.988026, -76.62363], [-69.827382, -76.613946], [-69.965484, -76.632257], [-70.030181, -76.648207], [-70.094309, -76.675063], [-69.978139, -76.663018], [-69.941762, -76.667169], [-69.971344, -76.686212], [-70.014027, -76.693617], [-70.332143, -76.677667], [-70.5808, -76.71087], [-70.52892, -76.719334], [-70.369496, -76.715265], [-70.420318, -76.730645], [-70.502838, -76.734308], [-70.586741, -76.749444], [-70.77481, -76.733494], [-70.793813, -76.751397], [-70.964345, -76.738946], [-71.709055, -76.762791], [-72.406239, -76.689386], [-72.570546, -76.704522], [-72.881418, -76.672133], [-72.902943, -76.680597], [-72.926991, -76.707208], [-72.974355, -76.712579], [-73.060455, -76.691502], [-73.936838, -76.653009], [-73.899403, -76.680271], [-73.793813, -76.685724], [-73.770741, -76.695489], [-73.766591, -76.719008], [-73.981557, -76.694513], [-74.082021, -76.693617], [-75.210276, -76.565199], [-75.259145, -76.564874], [-75.271555, -76.596775], [-75.332631, -76.603123], [-75.613433, -76.560968], [-75.666737, -76.561293], [-75.60912, -76.579767], [-75.597401, -76.58766], [-75.5926, -76.608168], [-75.622426, -76.629002], [-75.679921, -76.644789], [-75.810414, -76.638116], [-75.894276, -76.621026], [-76.053822, -76.5617], [-76.13801, -76.549005], [-76.299062, -76.567804], [-76.377065, -76.568129], [-76.541615, -76.516778], [-76.583974, -76.52044], [-76.625071, -76.538995], [-76.631825, -76.560235], [-76.641103, -76.565118], [-76.770497, -76.578709], [-76.766469, -76.607517], [-76.708323, -76.674412], [-76.75178, -76.670099], [-76.929067, -76.603774], [-77.118153, -76.560642], [-77.264516, -76.563735], [-77.315582, -76.554864], [-77.456899, -76.480076], [-77.384877, -76.545017], [-77.414377, -76.556085], [-77.509267, -76.556085], [-77.492299, -76.580255], [-77.425893, -76.627211], [-77.531646, -76.596449], [-77.591868, -76.549737], [-77.693471, -76.487563], [-77.697011, -76.51629], [-77.675404, -76.535089], [-77.614329, -76.55877], [-77.508453, -76.630466], [-77.524973, -76.649102], [-77.530426, -76.683852], [-77.569081, -76.698826], [-77.52359, -76.72975], [-77.186879, -76.826593], [-77.038889, -76.925226], [-76.983754, -76.947849], [-76.867909, -76.973565], [-76.838043, -76.985935], [-76.822336, -77.005466], [-76.831899, -77.026056], [-76.863352, -77.029555], [-76.984527, -77.011651], [-77.011057, -77.027602], [-76.999867, -77.036391], [-76.85912, -77.085626], [-76.72232, -77.081964], [-76.473948, -77.163995], [-76.322581, -77.262872], [-76.266713, -77.285821], [-76.088287, -77.33172], [-75.921295, -77.336602], [-75.871571, -77.349542], [-75.910553, -77.364679], [-75.78661, -77.425226], [-75.668121, -77.446384], [-75.564849, -77.503106], [-75.526601, -77.541192], [-75.458811, -77.552016], [-75.436676, -77.54811], [-75.364247, -77.499607], [-75.308705, -77.473077], [-75.25414, -77.457615], [-75.080393, -77.437107], [-72.722279, -77.575616], [-72.796702, -77.600763], [-72.759877, -77.636895], [-72.760976, -77.656183], [-72.804514, -77.698989], [-73.043284, -77.800388], [-73.11974, -77.856378], [-73.163157, -77.863051], [-73.211049, -77.887791], [-73.399729, -77.949314], [-73.433217, -77.969985], [-73.498158, -77.986505], [-73.43106, -77.999444], [-73.465647, -78.014744], [-73.499257, -78.018487], [-73.516469, -77.997654], [-73.542551, -77.99863], [-73.627309, -78.024998], [-74.269439, -78.129164], [-74.186879, -78.134942], [-74.016754, -78.112563], [-73.933258, -78.1124], [-74.055653, -78.13714], [-74.891957, -78.168064], [-74.997874, -78.18434], [-74.976186, -78.200942], [-74.995758, -78.219985], [-75.047353, -78.231622], [-75.087554, -78.219659], [-75.119781, -78.181817], [-75.217641, -78.144627], [-77.685414, -77.929864], [-77.783315, -77.948419], [-79.145579, -77.844659], [-79.315256, -77.87656], [-79.423695, -77.878025], [-79.967356, -77.812921], [-80.0, -77.81451190173159], [-80.0, -72.99584354548256], [-79.64745, -73.03867]]], [[[-77.412506, -78.41961], [-77.366567, -78.447931], [-77.364329, -78.501723], [-77.330719, -78.533787], [-77.337514, -78.570001], [-77.329416, -78.597833], [-77.361195, -78.624444], [-77.754018, -78.735772], [-80.0, -78.83387875110881], [-80.0, -78.07643063090606], [-77.412506, -78.41961]]], [[[-60.361399, -80.916111], [-60.652659, -80.960382], [-62.522084, -80.864923], [-62.958485, -80.775323], [-62.983632, -80.759698], [-62.988108, -80.736993], [-62.965077, -80.709161], [-62.973622, -80.696873], [-63.051625, -80.668634], [-63.061147, -80.625177], [-63.071848, -80.614679], [-63.141103, -80.592462], [-63.792348, -80.606134], [-63.850209, -80.638604], [-63.878, -80.645196], [-64.127512, -80.653578], [-64.165639, -80.664809], [-64.142201, -80.678399], [-64.177317, -80.696466], [-64.183746, -80.707696], [-64.170806, -80.726821], [-64.176096, -80.733168], [-64.284779, -80.751153], [-66.700917, -80.412367], [-66.75886, -80.389093], [-66.782867, -80.347426], [-66.804758, -80.328546], [-66.796457, -80.308201], [-66.769114, -80.289727], [-66.57665, -80.227309], [-66.330963, -80.219171], [-66.266225, -80.212498], [-66.27009, -80.199884], [-66.239898, -80.194431], [-66.194407, -80.201104], [-66.167226, -80.218194], [-66.169789, -80.227472], [-66.211781, -80.249933], [-66.18932, -80.272556], [-66.228831, -80.319594], [-66.203481, -80.343683], [-66.165354, -80.357354], [-65.918446, -80.394952], [-61.750356, -80.368341], [-61.222564, -80.273126], [-61.18456, -80.252618], [-61.447255, -80.251153], [-61.515859, -80.241876], [-61.544545, -80.230076], [-61.576772, -80.203546], [-61.65807, -80.179457], [-61.662668, -80.17018], [-61.648671, -80.157892], [-61.650136, -80.14365], [-61.706451, -80.124933], [-61.736073, -80.091567], [-61.807851, -80.05755], [-61.806142, -80.050877], [-61.7801, -80.042413], [-61.658844, -80.038018], [-61.700754, -80.015395], [-61.290517, -80.014907], [-61.266754, -80.008477], [-61.235585, -79.979669], [-61.308705, -79.945896], [-61.468007, -79.913344], [-61.522694, -79.892999], [-61.466054, -79.881606], [-61.120758, -79.873468], [-61.094838, -79.832452], [-61.026926, -79.806085], [-60.07665, -79.65602], [-60.040761, -79.660089], [-60.074452, -79.694106], [-60.486562, -79.737726], [-60.403147, -79.757257], [-60.0, -79.76866384867981], [-60.0, -80.80202490770263], [-60.361399, -80.916111]]], [[[-65.857818, -79.602146], [-65.819407, -79.608005], [-65.788564, -79.624607], [-65.937896, -79.658949], [-65.991811, -79.655369], [-66.009755, -79.64544], [-66.2565, -79.673272], [-66.656239, -79.660414], [-66.700754, -79.668064], [-66.645863, -79.690199], [-66.584096, -79.701837], [-66.271799, -79.721449], [-66.114573, -79.76686], [-66.016591, -79.774835], [-65.691274, -79.751886], [-65.571116, -79.78281], [-65.554067, -79.777439], [-65.579457, -79.79461], [-65.544789, -79.808364], [-65.565785, -79.812677], [-65.86852, -79.830987], [-65.901275, -79.839532], [-65.874989, -79.849216], [-65.530385, -79.882745], [-65.505849, -79.893324], [-65.501617, -79.933526], [-65.450103, -79.952407], [-65.727406, -79.990411], [-65.794749, -80.027439], [-66.222727, -80.086358], [-66.310455, -80.080743], [-66.395375, -80.059828], [-66.382069, -80.050063], [-66.385854, -80.042169], [-66.415273, -80.029474], [-66.335846, -80.01629], [-66.357777, -79.986586], [-66.419301, -79.960382], [-66.722035, -79.936619], [-66.769439, -79.91961], [-66.973012, -79.921645], [-67.008941, -79.913263], [-67.025746, -79.89837], [-67.000722, -79.876235], [-66.846262, -79.822035], [-66.811838, -79.791925], [-66.871571, -79.79811], [-66.933339, -79.792576], [-67.690419, -79.638279], [-67.760121, -79.593683], [-67.832102, -79.57936], [-67.839833, -79.55877], [-67.828033, -79.545994], [-67.805409, -79.538507], [-67.707346, -79.525649], [-67.65392, -79.534112], [-67.681142, -79.551365], [-67.617258, -79.544203], [-67.519643, -79.548761], [-67.450063, -79.56699], [-66.910756, -79.565199], [-66.975168, -79.583185], [-66.870961, -79.588556], [-66.750966, -79.616795], [-66.149078, -79.628188], [-65.857818, -79.602146]]], [[[-68.138295, -79.268813], [-68.077545, -79.23504], [-68.01769, -79.225844], [-67.613108, -79.211521], [-67.048207, -79.264825], [-67.09732, -79.294122], [-67.198232, -79.318617], [-67.271474, -79.308201], [-67.334462, -79.324884], [-67.511057, -79.397231], [-67.48233, -79.409926], [-67.312815, -79.427423], [-67.289418, -79.438246], [-67.306508, -79.449802], [-67.242177, -79.455824], [-67.467885, -79.506036], [-68.39269, -79.470798], [-68.454498, -79.447524], [-68.572133, -79.436619], [-68.562245, -79.42547], [-68.504018, -79.405369], [-67.513824, -79.324965], [-67.46935, -79.308038], [-67.50357, -79.301853], [-67.676015, -79.303399], [-67.705556, -79.297052], [-67.709584, -79.286554], [-67.703481, -79.279962], [-67.799794, -79.289972], [-67.853342, -79.280938], [-68.269154, -79.327732], [-68.447011, -79.323826], [-68.415924, -79.312677], [-68.138295, -79.268813]]], [[[-67.602528, -79.136651], [-68.183339, -79.183282], [-68.225942, -79.168145], [-68.034739, -79.133966], [-67.720326, -79.11891], [-67.68814, -79.125177], [-67.712229, -79.136814], [-67.602528, -79.136651]]], [[[-75.505849, -78.735121], [-75.446929, -78.730076], [-75.393666, -78.740981], [-75.524973, -78.805922], [-75.527943, -78.817153], [-75.487538, -78.84002], [-75.481191, -78.852309], [-75.491282, -78.863051], [-75.512359, -78.866795], [-75.603017, -78.854669], [-75.649892, -78.833185], [-75.660553, -78.809747], [-75.643381, -78.787693], [-75.588368, -78.757908], [-75.505849, -78.735121]]], [[[-66.875071, -78.458754], [-67.056752, -78.495294], [-67.022694, -78.514337], [-67.159413, -78.553481], [-67.264556, -78.605157], [-67.354726, -78.629002], [-67.399526, -78.664239], [-68.946441, -79.097263], [-68.963124, -79.108494], [-68.959625, -79.125584], [-68.998606, -79.146661], [-69.29601, -79.217706], [-69.330474, -79.253106], [-69.360097, -79.271173], [-69.464467, -79.298028], [-69.598215, -79.3742], [-69.61913, -79.397068], [-69.664784, -79.411798], [-69.503326, -79.415134], [-69.780507, -79.442478], [-69.822011, -79.458429], [-69.800852, -79.468845], [-69.667958, -79.486912], [-69.563059, -79.526056], [-69.491567, -79.532647], [-69.691884, -79.541192], [-69.736155, -79.567153], [-69.646555, -79.603774], [-70.341786, -79.696873], [-71.444163, -79.652927], [-71.558909, -79.623305], [-71.6704, -79.58115], [-71.781077, -79.524021], [-71.815663, -79.479181], [-71.814809, -79.453302], [-71.768381, -79.385024], [-71.752919, -79.325128], [-71.688466, -79.260431], [-71.599599, -79.199965], [-71.395416, -79.101739], [-70.592763, -78.885919], [-70.411244, -78.882582], [-70.27595, -78.84059], [-69.833363, -78.799737], [-69.696685, -78.752862], [-69.577545, -78.739435], [-69.437245, -78.687107], [-67.730133, -78.420343], [-67.577626, -78.37184], [-66.992909, -78.306736], [-66.730865, -78.321466], [-66.66393, -78.336684], [-66.60554, -78.363702], [-66.659291, -78.389093], [-66.835683, -78.414158], [-66.872548, -78.427992], [-66.794057, -78.441013], [-66.74885, -78.435724], [-66.734364, -78.441827], [-66.875071, -78.458754]]], [[[-73.779368, -73.359145], [-73.755238, -73.355645], [-73.735097, -73.37005], [-73.787587, -73.396417], [-73.823842, -73.387465], [-73.779368, -73.359145]]], [[[-71.854482, -73.245538], [-71.920277, -73.258559], [-71.987375, -73.258396], [-72.049062, -73.243748], [-72.096181, -73.214532], [-72.080922, -73.194594], [-71.980824, -73.181085], [-71.88565, -73.188897], [-71.796539, -73.219822], [-71.854482, -73.245538]]], [[[-73.69815, -73.09881], [-73.602406, -73.109145], [-73.522532, -73.130141], [-73.692128, -73.216974], [-73.705678, -73.236505], [-73.687734, -73.273045], [-73.708363, -73.291599], [-73.76061, -73.314386], [-73.838938, -73.334649], [-73.91039, -73.373142], [-73.979807, -73.368341], [-74.000559, -73.380304], [-73.999582, -73.397882], [-74.014719, -73.406345], [-74.05309, -73.401544], [-74.066803, -73.379164], [-74.06314, -73.353204], [-74.145619, -73.3235], [-74.159169, -73.308038], [-74.150868, -73.279229], [-74.002919, -73.25156], [-74.063588, -73.22031], [-73.911244, -73.205255], [-73.874867, -73.189711], [-73.866363, -73.168878], [-73.898305, -73.149184], [-73.88683, -73.12005], [-73.69815, -73.09881]]], [[[-74.503977, -72.882094], [-74.30956, -72.921075], [-74.218577, -72.990818], [-74.239898, -73.020115], [-74.386098, -73.102716], [-74.414703, -73.167657], [-74.432973, -73.181899], [-74.500234, -73.20794], [-74.508412, -73.252374], [-74.694692, -73.276544], [-74.758046, -73.303155], [-74.591908, -73.30877], [-74.554596, -73.316664], [-74.532379, -73.33172], [-74.5301, -73.354913], [-74.552358, -73.387384], [-74.474517, -73.401951], [-74.441233, -73.43377], [-74.360911, -73.460382], [-74.381947, -73.480157], [-74.418446, -73.548272], [-74.465321, -73.58294], [-74.519399, -73.606052], [-74.593129, -73.614516], [-75.874582, -73.346612], [-76.030995, -73.283868], [-76.126129, -73.158787], [-76.103139, -73.122817], [-76.074127, -73.09881], [-76.039174, -73.084242], [-75.858225, -73.047621], [-75.748158, -73.057712], [-75.524526, -73.113377], [-75.416819, -73.106703], [-75.460927, -73.0735], [-75.433217, -73.054783], [-75.372792, -73.046319], [-75.096303, -73.055841], [-75.036448, -73.038995], [-75.211049, -73.005548], [-75.406728, -73.002537], [-75.501088, -72.989353], [-75.775746, -72.89365], [-75.696645, -72.878595], [-75.555328, -72.871515], [-75.447336, -72.828383], [-75.403879, -72.822035], [-75.295806, -72.819513], [-74.946401, -72.865411], [-74.503977, -72.882094]]], [[[-60.827016, -72.584405], [-60.946685, -72.598077], [-60.968861, -72.591974], [-60.955556, -72.57171], [-60.909291, -72.541111], [-60.840688, -72.546157], [-60.775136, -72.562433], [-60.827016, -72.584405]]], [[[-70.446523, -72.228123], [-70.417633, -72.238377], [-70.538482, -72.278253], [-70.601186, -72.280043], [-70.653554, -72.250746], [-70.608957, -72.231703], [-70.550282, -72.221856], [-70.446523, -72.228123]]], [[[-60.238433, -72.177423], [-60.188059, -72.175958], [-60.134877, -72.193536], [-60.106557, -72.224054], [-60.12678, -72.252537], [-60.181386, -72.255792], [-60.23644, -72.238377], [-60.258453, -72.204034], [-60.238433, -72.177423]]], [[[-60.617421, -71.063084], [-60.756581, -71.049981], [-60.889475, -71.018813], [-60.957346, -70.977309], [-60.914296, -70.941583], [-60.813344, -70.917087], [-60.691762, -70.909438], [-60.587026, -70.925063], [-60.538889, -70.954278], [-60.516591, -70.991632], [-60.515452, -71.027439], [-60.53067, -71.051039], [-60.617421, -71.063084]]], [[[-76.130442, -71.137872], [-76.34557, -71.122979], [-76.405873, -71.107517], [-76.465566, -71.070733], [-76.542551, -70.96559], [-76.469106, -70.919203], [-76.382069, -70.888279], [-76.108998, -70.83766], [-75.199818, -70.776625], [-75.131581, -70.755629], [-75.077219, -70.727146], [-75.039296, -70.691176], [-75.029449, -70.608087], [-74.999745, -70.592869], [-74.954457, -70.584568], [-74.90392, -70.583754], [-74.820872, -70.607029], [-74.674306, -70.702407], [-74.596099, -70.794122], [-74.567209, -70.792413], [-74.469879, -70.751397], [-74.465159, -70.656834], [-74.483551, -70.593438], [-74.463368, -70.576837], [-74.389963, -70.575453], [-74.318837, -70.586847], [-74.248443, -70.606541], [-74.156321, -70.649835], [-74.100697, -70.658624], [-74.157541, -70.58587], [-74.130849, -70.565118], [-74.101552, -70.553318], [-74.036122, -70.54811], [-73.883901, -70.570571], [-73.617909, -70.66961], [-73.547475, -70.716241], [-73.559234, -70.749688], [-73.618886, -70.774998], [-74.400502, -70.975274], [-76.130442, -71.137872]]], [[[-60.446889, -70.621759], [-60.469146, -70.639825], [-60.543528, -70.671157], [-60.716542, -70.710626], [-60.812896, -70.714614], [-60.885569, -70.700128], [-60.982249, -70.620864], [-60.963368, -70.583754], [-60.973704, -70.55877], [-60.96939, -70.547621], [-60.900461, -70.520766], [-60.834543, -70.512384], [-60.569976, -70.507257], [-60.504872, -70.517511], [-60.453359, -70.541274], [-60.435292, -70.596775], [-60.446889, -70.621759]]], [[[-71.71109, -70.419692], [-71.758941, -70.387302], [-71.766672, -70.369724], [-71.76476, -70.336521], [-71.816518, -70.295831], [-71.731679, -70.270115], [-71.682851, -70.264825], [-71.667633, -70.295831], [-71.588368, -70.29811], [-71.500356, -70.276788], [-71.408762, -70.265558], [-71.318593, -70.298761], [-71.405588, -70.378025], [-71.534535, -70.436212], [-71.641957, -70.452732], [-71.680898, -70.446954], [-71.711008, -70.429783], [-71.71109, -70.419692]]], [[[-70.75886, -70.26393], [-70.746165, -70.24977], [-70.722279, -70.240818], [-70.676178, -70.240818], [-70.632436, -70.254978], [-70.653554, -70.276788], [-70.638173, -70.306736], [-70.667104, -70.326837], [-70.70344, -70.334242], [-70.776112, -70.327569], [-70.75886, -70.26393]]], [[[-75.693105, -70.113051], [-75.785715, -70.079685], [-75.831695, -70.016371], [-75.81111378056701, -70.0], [-74.64694518189846, -70.0], [-74.649973, -70.005466], [-74.640777, -70.033949], [-74.619781, -70.054783], [-74.579254, -70.073337], [-74.589019, -70.091078], [-74.618235, -70.114353], [-74.711497, -70.141534], [-74.776112, -70.170994], [-74.873158, -70.183526], [-75.693105, -70.113051]]], [[[-72.408274, -72.674493], [-72.51476, -72.639337], [-72.486806, -72.590265], [-72.432118, -72.553481], [-72.546213, -72.561782], [-72.681264, -72.606134], [-72.717763, -72.607517], [-72.799713, -72.594171], [-73.109242, -72.473403], [-73.146718, -72.452732], [-73.164174, -72.431248], [-73.091624, -72.383396], [-72.819569, -72.292169], [-72.676747, -72.271254], [-72.453928, -72.276951], [-72.320627, -72.295994], [-72.272084, -72.315606], [-72.239858, -72.345636], [-72.179677, -72.362481], [-72.118723, -72.36004], [-72.135121, -72.346938], [-72.133372, -72.330255], [-72.11205, -72.320896], [-72.064931, -72.318129], [-71.871083, -72.34881], [-70.709706, -72.396417], [-70.628041, -72.383233], [-70.614735, -72.353285], [-70.183339, -72.273858], [-70.150624, -72.248224], [-70.116322, -72.238539], [-70.182973, -72.222263], [-70.302235, -72.210219], [-70.319203, -72.198989], [-70.327952, -72.175063], [-70.363515, -72.156427], [-70.457672, -72.140232], [-70.736195, -72.178481], [-71.043772, -72.257582], [-71.367177, -72.287856], [-71.552642, -72.278416], [-71.695221, -72.23447], [-71.663971, -72.218683], [-72.055247, -72.158136], [-72.042958, -72.134454], [-72.011586, -72.119724], [-71.086985, -72.049574], [-70.769765, -71.989679], [-70.741851, -71.981052], [-70.734446, -71.96795], [-70.758941, -71.949395], [-70.762685, -71.932306], [-70.752919, -71.92018], [-70.719716, -71.905694], [-70.856516, -71.845636], [-71.116363, -71.884535], [-71.166575, -71.879815], [-71.305409, -71.840916], [-71.394195, -71.833429], [-71.484283, -71.84059], [-71.788442, -71.898614], [-71.829742, -71.898614], [-71.855946, -71.88714], [-71.858062, -71.872328], [-71.82787, -71.855157], [-71.823638, -71.844985], [-71.832183, -71.799086], [-71.877553, -71.797947], [-71.9169, -71.772231], [-72.001332, -71.754164], [-72.018625, -71.733494], [-72.137196, -71.701755], [-72.166127, -71.699884], [-72.188791, -71.707778], [-72.169586, -71.674981], [-72.263051, -71.642022], [-72.247711, -71.624119], [-72.338938, -71.613458], [-72.363637, -71.639337], [-72.44107, -71.666436], [-72.447255, -71.678888], [-72.440989, -71.696547], [-72.540639, -71.731541], [-72.549306, -71.748224], [-72.638173, -71.732599], [-72.683095, -71.739841], [-72.689076, -71.782485], [-72.675038, -71.790623], [-72.711537, -71.860935], [-72.741526, -71.885431], [-72.779897, -71.902439], [-72.859364, -71.920994], [-72.947011, -71.928969], [-73.035064, -71.926446], [-73.223704, -71.897638], [-73.408437, -71.849298], [-73.504628, -71.835545], [-73.789052, -71.838556], [-73.878896, -71.86419], [-73.501332, -72.012465], [-73.785227, -72.094903], [-73.806264, -72.131443], [-73.892568, -72.156834], [-74.00475, -72.173517], [-74.121327, -72.172459], [-74.220774, -72.144464], [-74.312123, -72.065688], [-74.357818, -72.044366], [-74.396799, -72.040297], [-74.658274, -72.074965], [-74.815989, -72.064874], [-75.356028, -71.923598], [-75.39977, -71.90252], [-75.4287, -71.874933], [-75.438344, -71.836847], [-75.402415, -71.801039], [-75.237172, -71.778741], [-75.249989, -71.760512], [-75.177154, -71.752618], [-75.188466, -71.74212], [-75.2447, -71.724379], [-75.224233, -71.710545], [-75.24352, -71.698337], [-75.318918, -71.691339], [-75.403717, -71.670831], [-75.414133, -71.660903], [-75.381988, -71.636], [-75.332021, -71.622491], [-75.199452, -71.604913], [-75.170155, -71.571059], [-75.124664, -71.545343], [-75.016428, -71.526544], [-74.885854, -71.528416], [-74.793446, -71.553643], [-74.644032, -71.62656], [-74.390248, -71.668145], [-74.28954, -71.657892], [-74.278635, -71.650811], [-74.278798, -71.636], [-74.397043, -71.583673], [-74.384633, -71.56113], [-74.388743, -71.538263], [-74.435455, -71.49391], [-74.411529, -71.474867], [-74.436635, -71.450942], [-74.42276, -71.428318], [-74.368153, -71.408461], [-74.222483, -71.381931], [-74.122182, -71.382989], [-73.852203, -71.455662], [-73.756907, -71.510349], [-73.580678, -71.568048], [-73.525217, -71.606215], [-73.458811, -71.59531], [-73.336415, -71.536798], [-73.404449, -71.498468], [-73.583079, -71.456313], [-73.660064, -71.410577], [-73.672515, -71.388849], [-73.669301, -71.367934], [-73.653961, -71.349542], [-73.585317, -71.322931], [-73.407948, -71.315362], [-72.757395, -71.404555], [-72.627187, -71.399672], [-72.610015, -71.37477], [-72.567454, -71.36419], [-72.188954, -71.373142], [-72.216908, -71.351495], [-72.218739, -71.342055], [-72.173818, -71.330255], [-72.315297, -71.288832], [-72.895863, -71.230401], [-73.053538, -71.181736], [-73.124582, -71.143976], [-73.100819, -71.115655], [-73.064931, -71.102797], [-72.859975, -71.094985], [-72.826731, -71.072686], [-72.786122, -71.062758], [-72.532135, -71.075779], [-72.395416, -71.065118], [-71.690053, -71.158868], [-71.546295, -71.136651], [-71.35969, -71.069106], [-71.309926, -71.023207], [-71.350738, -71.006036], [-71.363637, -70.990004], [-71.357045, -70.971368], [-71.343577, -70.966078], [-71.151723, -70.997491], [-71.025502, -70.962172], [-70.804514, -70.997817], [-70.717885, -70.998468], [-70.411204, -70.945408], [-70.299184, -70.952407], [-70.208485, -70.98797], [-69.996816, -71.151788], [-69.933217, -71.160252], [-69.887441, -71.159356], [-69.878977, -71.156834], [-69.878896, -71.14837], [-69.838002, -71.151951], [-69.836334, -71.082289], [-69.812245, -71.050063], [-69.796742, -71.043634], [-69.823883, -71.005792], [-69.836537, -70.961847], [-69.820139, -70.925714], [-69.789174, -70.899347], [-69.809682, -70.884373], [-69.780141, -70.867608], [-69.776275, -70.858087], [-69.786692, -70.853448], [-69.853668, -70.835545], [-69.930328, -70.881524], [-70.019928, -70.849786], [-70.15392, -70.858005], [-70.212636, -70.840102], [-70.402699, -70.819106], [-70.701283, -70.831801], [-70.786936, -70.820082], [-71.002187, -70.765558], [-71.166086, -70.755955], [-71.209828, -70.738458], [-71.233957, -70.693455], [-71.26651, -70.680108], [-71.252349, -70.648858], [-71.221344, -70.626072], [-71.076324, -70.560642], [-71.057729, -70.540134], [-71.003082, -70.513767], [-71.022125, -70.48447], [-70.998606, -70.465753], [-70.117502, -70.329767], [-70.078196, -70.332452], [-69.694569, -70.420587], [-69.596059, -70.423435], [-69.576487, -70.417087], [-69.58849, -70.393487], [-69.669504, -70.353936], [-70.111195, -70.242771], [-70.231801, -70.235121], [-70.242055, -70.22975], [-70.23648, -70.223321], [-70.244008, -70.192071], [-70.16926, -70.168634], [-70.178334, -70.150567], [-70.195668, -70.140069], [-70.230702, -70.136326], [-70.473622, -70.167901], [-70.540883, -70.166192], [-70.65217, -70.120294], [-70.698069, -70.114841], [-70.779775, -70.125665], [-70.796539, -70.134373], [-70.801015, -70.149102], [-70.791737, -70.159275], [-70.821116, -70.164809], [-70.93928, -70.216404], [-70.963694, -70.22031], [-70.999867, -70.211847], [-71.059193, -70.224054], [-71.151845, -70.188165], [-71.316884, -70.177341], [-71.399648, -70.127862], [-71.548166, -70.11061], [-71.697499, -70.075453], [-71.784495, -70.04225], [-71.811106, -70.027602], [-71.83661060380086, -70.0], [-69.20560111872403, -70.0], [-69.141184, -70.048598], [-69.027455, -70.159763], [-68.720367, -70.369073], [-68.65982, -70.430352], [-68.584788, -70.55283], [-68.466298, -70.614516], [-68.476633, -70.639418], [-68.440012, -70.651788], [-68.426503, -70.668634], [-68.427398, -70.707289], [-68.384674, -70.733168], [-68.39391, -70.757094], [-68.357086, -70.774998], [-68.33019, -70.799737], [-68.481191, -70.809503], [-68.454091, -70.823175], [-68.345693, -70.835545], [-68.308665, -70.854181], [-68.299184, -70.869073], [-68.308013, -70.903009], [-68.293853, -70.99033], [-68.309967, -71.016534], [-68.272572, -71.074395], [-68.295725, -71.097833], [-68.238108, -71.168878], [-68.243398, -71.23561], [-68.237294, -71.31756], [-68.226796, -71.341241], [-68.258127, -71.350844], [-68.267323, -71.367852], [-68.255605, -71.408868], [-68.273915, -71.436619], [-68.236969, -71.481052], [-68.197377, -71.569594], [-68.161244, -71.606378], [-68.192209, -71.633396], [-68.207346, -71.66367], [-68.208648, -71.821059], [-68.22053, -71.858331], [-68.249745, -71.883071], [-68.307362, -71.895278], [-68.425526, -71.890802], [-68.483144, -71.896905], [-68.428822, -71.948419], [-68.416127, -71.988946], [-68.358632, -72.021173], [-68.341868, -72.057061], [-68.350982, -72.083429], [-68.390289, -72.120294], [-68.408844, -72.153985], [-68.414133, -72.219659], [-68.436106, -72.240818], [-68.496693, -72.251642], [-68.668691, -72.216729], [-68.71642, -72.213962], [-68.762766, -72.223403], [-68.774078, -72.234552], [-68.772694, -72.246759], [-68.7506, -72.264825], [-68.770172, -72.274347], [-68.854237, -72.293634], [-68.912831, -72.293064], [-68.902943, -72.315362], [-68.909535, -72.332127], [-68.900054, -72.348891], [-68.915395, -72.361098], [-68.949696, -72.370538], [-69.006093, -72.366143], [-69.138783, -72.375421], [-69.157379, -72.391371], [-69.157541, -72.414483], [-69.170277, -72.421808], [-69.227447, -72.42669], [-69.213368, -72.469496], [-69.140289, -72.50213], [-69.21817, -72.542901], [-70.069814, -72.634698], [-70.2565, -72.630548], [-70.523834, -72.667576], [-70.646148, -72.667087], [-70.670888, -72.659763], [-70.690053, -72.642755], [-70.709299, -72.572198], [-70.743316, -72.55877], [-70.84789, -72.580987], [-70.861684, -72.591567], [-70.87385, -72.633722], [-70.923085, -72.650974], [-71.460072, -72.629164], [-72.408274, -72.674493]]]]}}]}