{"type": "FeatureCollection", "features": [{"type": "Feature", "properties": {"name": "France"}, "geometry": {"type": "MultiPolygon", "coordinates": [[[[-0.038933, 42.685148], [-0.119032, 42.716851], [-0.123114, 42.730364], [-0.157789, 42.760699], [-0.161407, 42.795348], [-0.208355, 42.783875], [-0.235149, 42.786227], [-0.247034, 42.80483], [-0.322792, 42.842502], [-0.335169, 42.824958], [-0.351679, 42.829247], [-0.423923, 42.790671], [-0.454464, 42.788914], [-0.508414, 42.807492], [-0.53389, 42.808008], [-0.535647, 42.784211], [-0.56903, 42.772636], [-0.578694, 42.777338], [-0.582931, 42.795839], [-0.610165, 42.799094], [-0.609493, 42.811445], [-0.648302, 42.849789], [-0.700392, 42.876428], [-0.730106, 42.877513], [-0.740286, 42.884799], [-0.745867, 42.89392], [-0.740906, 42.910896], [-0.759665, 42.946501], [-0.786433, 42.953271], [-0.863534, 42.943065], [-0.943219, 42.947896], [-0.98146, 42.957043], [-1.028485, 42.986705], [-1.079697, 42.993398], [-1.112408, 43.008254], [-1.149925, 43.005722], [-1.216898, 43.03926], [-1.293689, 43.055203], [-1.315083, 43.082875], [-1.286041, 43.109179], [-1.308623, 43.113571], [-1.348259, 43.093081], [-1.366139, 43.033318], [-1.410529, 43.030915], [-1.457141, 43.045074], [-1.487837, 43.081816], [-1.425774, 43.135275], [-1.399677, 43.206744], [-1.403501, 43.243331], [-1.432233, 43.265009], [-1.466392, 43.260771], [-1.508094, 43.276765], [-1.559047, 43.284077], [-1.573982, 43.277437], [-1.587573, 43.251599], [-1.621886, 43.247], [-1.639043, 43.255681], [-1.645037, 43.292372], [-1.654907, 43.297539], [-1.683019, 43.304929], [-1.747356, 43.291002], [-1.75578, 43.318546], [-1.796914, 43.341128], [-1.796449, 43.374382], [-1.794075, 43.386015], [-1.775502, 43.376166], [-1.749623, 43.389228], [-1.661, 43.399685], [-1.637807, 43.423774], [-1.59675, 43.442532], [-1.562082, 43.493394], [-1.476877, 43.580064], [-1.346099, 44.019192], [-1.281565, 44.302191], [-1.247304, 44.504543], [-1.257232, 44.556057], [-1.230784, 44.583564], [-1.206288, 44.647895], [-1.186513, 44.665473], [-1.100209, 44.655341], [-1.044749, 44.66942], [-1.044423, 44.684638], [-1.069163, 44.703192], [-1.055491, 44.703192], [-1.065297, 44.717475], [-1.140859, 44.768134], [-1.172231, 44.778266], [-1.233632, 44.706855], [-1.260365, 44.627427], [-1.199452, 45.120836], [-1.157867, 45.27912], [-1.139963, 45.490058], [-1.085276, 45.569037], [-1.058583, 45.569648], [-1.062327, 45.532416], [-1.039947, 45.50727], [-0.972971, 45.470526], [-0.915273, 45.450426], [-0.766184, 45.326077], [-0.715972, 45.134508], [-0.6822, 45.076483], [-0.648183, 45.044908], [-0.568959, 44.997992], [-0.559193, 44.976142], [-0.556508, 44.918524], [-0.534657, 44.894965], [-0.548451, 44.94953], [-0.538971, 44.976508], [-0.550364, 44.998196], [-0.596181, 45.024644], [-0.539418, 45.019517], [-0.493764, 44.997992], [-0.518951, 45.029446], [-0.602162, 45.053453], [-0.637766, 45.073065], [-0.655995, 45.099107], [-0.719716, 45.36107], [-0.753041, 45.424058], [-0.795481, 45.477118], [-0.841786, 45.514553], [-0.98351, 45.586982], [-0.990875, 45.610053], [-1.030263, 45.62287], [-1.083811, 45.660386], [-1.149322, 45.6789], [-1.194203, 45.710191], [-1.22936, 45.704779], [-1.247304, 45.709906], [-1.230295, 45.792426], [-1.163808, 45.806708], [-1.144276, 45.806098], [-1.05724, 45.74022], [-0.987172, 45.717353], [-1.125356, 45.807685], [-1.151723, 45.86815], [-1.112538, 45.895657], [-1.073354, 45.904364], [-1.070424, 45.926337], [-1.089752, 45.950751], [-1.069163, 45.964342], [-1.096588, 45.985419], [-1.110748, 46.018378], [-1.072987, 46.007473], [-1.059722, 46.015774], [-1.048695, 46.038804], [-1.084218, 46.056545], [-1.097035, 46.101549], [-1.129018, 46.11579], [-1.117014, 46.128241], [-1.152089, 46.143866], [-1.151723, 46.156195], [-1.200185, 46.159125], [-1.210805, 46.174547], [-1.18517, 46.19717], [-1.190541, 46.216295], [-1.179596, 46.229478], [-1.110748, 46.259223], [-1.102651, 46.271959], [-1.110748, 46.30268], [-1.132476, 46.324123], [-1.177235, 46.326158], [-1.214345, 46.310696], [-1.213206, 46.27912], [-1.240102, 46.284247], [-1.277415, 46.319525], [-1.303456, 46.323879], [-1.370229, 46.354193], [-1.44872, 46.343411], [-1.465484, 46.38996], [-1.481435, 46.408189], [-1.504465, 46.419338], [-1.62564, 46.431138], [-1.617177, 46.443549], [-1.633453, 46.454291], [-1.686757, 46.460883], [-1.720286, 46.481269], [-1.761138, 46.492011], [-1.789174, 46.532945], [-1.781728, 46.495429], [-1.7954, 46.494534], [-1.804799, 46.503607], [-1.827056, 46.576972], [-1.822662, 46.594387], [-1.838694, 46.599066], [-1.857411, 46.635321], [-1.89977, 46.666246], [-1.909901, 46.691799], [-1.956451, 46.704291], [-1.994618, 46.752021], [-2.050282, 46.79206], [-2.118764, 46.819973], [-2.130035, 46.854682], [-2.128774, 46.893459], [-2.096344, 46.91649], [-2.102162, 46.93065], [-2.049224, 46.957465], [-2.00829, 47.026353], [-1.990712, 47.035386], [-2.003774, 47.070014], [-2.030019, 47.092108], [-2.090159, 47.11518], [-2.205474, 47.129096], [-2.241119, 47.142483], [-2.205393, 47.1612], [-2.165191, 47.167873], [-2.158681, 47.204495], [-2.172109, 47.235256], [-2.160553, 47.271186], [-2.127675, 47.286811], [-2.014556, 47.300116], [-1.999135, 47.28856], [-1.947865, 47.279364], [-1.932485, 47.27969], [-1.939361, 47.286444], [-1.917063, 47.284166], [-1.898427, 47.273424], [-1.918853, 47.273424], [-1.918853, 47.266018], [-1.877838, 47.24551], [-1.836252, 47.239936], [-1.803944, 47.21898], [-1.72704, 47.210761], [-1.788238, 47.225572], [-1.835927, 47.259752], [-1.905629, 47.293931], [-2.010121, 47.319729], [-2.148101, 47.313218], [-2.179555, 47.300116], [-2.206288, 47.273424], [-2.278391, 47.246405], [-2.31607, 47.251654], [-2.371409, 47.286444], [-2.404897, 47.286444], [-2.419179, 47.266018], [-2.448394, 47.266588], [-2.541982, 47.300116], [-2.541982, 47.306952], [-2.519032, 47.304633], [-2.476064, 47.290676], [-2.453359, 47.29328], [-2.436187, 47.307034], [-2.480621, 47.347886], [-2.494252, 47.341742], [-2.488922, 47.33039], [-2.501698, 47.320624], [-2.503326, 47.349595], [-2.514801, 47.364936], [-2.556386, 47.383246], [-2.476796, 47.415676], [-2.439036, 47.40998], [-2.446401, 47.402533], [-2.439036, 47.396308], [-2.391835, 47.423651], [-2.44815, 47.430609], [-2.439036, 47.44477], [-2.488922, 47.459174], [-2.480621, 47.478217], [-2.49474, 47.491197], [-2.483632, 47.497952], [-2.363922, 47.506171], [-2.425364, 47.506171], [-2.517486, 47.528388], [-2.621693, 47.513414], [-2.631988, 47.519843], [-2.599355, 47.52912], [-2.576812, 47.553941], [-2.592275, 47.543647], [-2.638254, 47.540269], [-2.623931, 47.537177], [-2.617787, 47.526679], [-2.665517, 47.533515], [-2.667104, 47.509589], [-2.680735, 47.504218], [-2.714019, 47.512397], [-2.817128, 47.499213], [-2.843658, 47.512397], [-2.868967, 47.542182], [-2.90925, 47.558417], [-2.865305, 47.566636], [-2.850575, 47.546536], [-2.832428, 47.554023], [-2.816396, 47.546536], [-2.80956, 47.567613], [-2.794016, 47.555121], [-2.741444, 47.551337], [-2.720204, 47.560777], [-2.727651, 47.567613], [-2.688629, 47.604397], [-2.68399, 47.622992], [-2.706532, 47.642727], [-2.695627, 47.623358], [-2.714019, 47.616034], [-2.699778, 47.609198], [-2.708608, 47.602281], [-2.77538, 47.629096], [-2.734486, 47.62226], [-2.746327, 47.633857], [-2.789133, 47.642727], [-2.77538, 47.636542], [-2.847727, 47.626166], [-2.86677, 47.607164], [-2.919423, 47.595526], [-2.912668, 47.609198], [-2.939931, 47.601752], [-2.944814, 47.624091], [-2.933095, 47.636542], [-2.957997, 47.642157], [-2.967193, 47.663804], [-2.97468, 47.663804], [-2.963612, 47.602607], [-2.933095, 47.574449], [-2.939931, 47.560777], [-2.994496, 47.595526], [-2.988596, 47.582261], [-3.003407, 47.578681], [-3.01179, 47.607164], [-3.021718, 47.59455], [-3.015696, 47.581244], [-3.042388, 47.58808], [-3.073842, 47.576483], [-3.103749, 47.581244], [-3.090728, 47.58808], [-3.12328, 47.598782], [-3.131703, 47.58808], [-3.118031, 47.581244], [-3.128896, 47.547593], [-3.12328, 47.518988], [-3.084543, 47.478217], [-3.131703, 47.478217], [-3.145375, 47.516099], [-3.131703, 47.55744], [-3.141184, 47.598049], [-3.166493, 47.62226], [-3.200592, 47.639594], [-3.18635, 47.680609], [-3.111195, 47.704169], [-3.118031, 47.732123], [-3.13915, 47.724677], [-3.13915, 47.75259], [-3.153188, 47.742011], [-3.193186, 47.746405], [-3.169667, 47.735419], [-3.159088, 47.711005], [-3.207387, 47.697333], [-3.193186, 47.683743], [-3.207143, 47.679145], [-3.224192, 47.656399], [-3.262074, 47.683743], [-3.358266, 47.697333], [-3.322418, 47.700995], [-3.282623, 47.691148], [-3.298451, 47.703843], [-3.358266, 47.711005], [-3.358266, 47.718451], [-3.345123, 47.721259], [-3.340566, 47.739488], [-3.317291, 47.738959], [-3.282623, 47.78734], [-3.331776, 47.752509], [-3.383168, 47.737047], [-3.364491, 47.718451], [-3.446441, 47.704576], [-3.460683, 47.707587], [-3.494862, 47.738959], [-3.52831, 47.779934], [-3.539296, 47.773749], [-3.625152, 47.779934], [-3.649037, 47.793606], [-3.706166, 47.796942], [-3.723215, 47.813381], [-3.77538, 47.793606], [-3.789906, 47.803209], [-3.851715, 47.801011], [-3.886464, 47.83747], [-3.885854, 47.855048], [-3.913197, 47.862454], [-3.935129, 47.887885], [-3.961822, 47.89997], [-3.988271, 47.903469], [-3.979237, 47.883002], [-3.98648, 47.867906], [-4.008901, 47.851264], [-4.029205, 47.855048], [-4.01122, 47.855943], [-4.001943, 47.869289], [-4.031565, 47.863715], [-4.036692, 47.855048], [-4.064931, 47.870795], [-4.106557, 47.880113], [-4.12914, 47.90762], [-4.132192, 47.923896], [-4.14273, 47.912014], [-4.111195, 47.869289], [-4.15274, 47.855048], [-4.17162, 47.877021], [-4.185618, 47.874416], [-4.188466, 47.862128], [-4.173899, 47.855048], [-4.180043, 47.841986], [-4.15274, 47.841986], [-4.15274, 47.834459], [-4.185211, 47.813381], [-4.225168, 47.802436], [-4.371816, 47.807196], [-4.371816, 47.834459], [-4.347646, 47.838324], [-4.34732, 47.862942], [-4.371978, 47.915839], [-4.434641, 47.975653], [-4.533274, 48.026313], [-4.572011, 48.005927], [-4.601959, 48.02558], [-4.652984, 48.026313], [-4.728139, 48.040595], [-4.700795, 48.074774], [-4.683705, 48.067328], [-4.361928, 48.115709], [-4.304758, 48.104071], [-4.28539, 48.115383], [-4.275706, 48.143622], [-4.294342, 48.16706], [-4.302358, 48.196357], [-4.366119, 48.215155], [-4.379262, 48.232367], [-4.404368, 48.226142], [-4.457631, 48.248969], [-4.485463, 48.242621], [-4.531646, 48.183092], [-4.557485, 48.177191], [-4.543772, 48.205064], [-4.563629, 48.232367], [-4.54719, 48.25259], [-4.554067, 48.262763], [-4.626332, 48.266547], [-4.626332, 48.287055], [-4.575185, 48.290025], [-4.57726, 48.307522], [-4.559478, 48.33869], [-4.546702, 48.346829], [-4.530141, 48.34162], [-4.543202, 48.304674], [-4.515533, 48.295844], [-4.426503, 48.300035], [-4.388987, 48.287055], [-4.262603, 48.300035], [-4.289906, 48.29385], [-4.269358, 48.288398], [-4.187489, 48.300035], [-4.187489, 48.307522], [-4.218821, 48.306057], [-4.23054, 48.309882], [-4.234731, 48.321723], [-4.257721, 48.311347], [-4.275706, 48.324856], [-4.324696, 48.321723], [-4.269399, 48.362738], [-4.324696, 48.348456], [-4.324696, 48.355292], [-4.317291, 48.355292], [-4.317291, 48.362738], [-4.324696, 48.362738], [-4.337717, 48.348456], [-4.35261, 48.352729], [-4.384185, 48.338121], [-4.406606, 48.335395], [-4.399159, 48.34162], [-4.406606, 48.348456], [-4.453725, 48.335395], [-4.396596, 48.387763], [-4.289906, 48.431586], [-4.358957, 48.411119], [-4.426503, 48.403713], [-4.520619, 48.368313], [-4.599355, 48.350165], [-4.690541, 48.362738], [-4.695668, 48.344957], [-4.704498, 48.34162], [-4.768381, 48.345404], [-4.783355, 48.37641], [-4.76476, 48.377631], [-4.766347, 48.390448], [-4.783355, 48.417385], [-4.784901, 48.436184], [-4.768056, 48.468655], [-4.749257, 48.472602], [-4.749257, 48.478827], [-4.774648, 48.491278], [-4.764556, 48.520209], [-4.721995, 48.568183], [-4.700795, 48.560736], [-4.708241, 48.568183], [-4.692291, 48.575507], [-4.642486, 48.581855], [-4.57726, 48.568183], [-4.607737, 48.603013], [-4.594635, 48.609117], [-4.530141, 48.601711], [-4.557485, 48.609117], [-4.552602, 48.616523], [-4.563629, 48.629625], [-4.485463, 48.629625], [-4.406606, 48.643256], [-4.426503, 48.650092], [-4.426503, 48.657538], [-4.343251, 48.67886], [-4.317291, 48.678046], [-4.299143, 48.663642], [-4.306508, 48.641547], [-4.242055, 48.657538], [-4.193756, 48.650092], [-4.193756, 48.657538], [-4.213002, 48.6612], [-4.173899, 48.691107], [-4.131459, 48.699164], [-4.090688, 48.691107], [-4.079254, 48.696926], [-4.064036, 48.684882], [-4.053293, 48.695543], [-4.056549, 48.712144], [-3.973988, 48.732815], [-3.967763, 48.72956], [-3.972727, 48.707709], [-3.961008, 48.704739], [-3.967763, 48.691107], [-3.951039, 48.679389], [-3.954742, 48.657538], [-3.911936, 48.68122], [-3.891998, 48.678046], [-3.906321, 48.664374], [-3.851715, 48.629625], [-3.844309, 48.650092], [-3.8579, 48.684882], [-3.837473, 48.6706], [-3.837148, 48.707261], [-3.829254, 48.718451], [-3.816965, 48.712144], [-3.810129, 48.733222], [-3.797109, 48.721177], [-3.731923, 48.71898], [-3.686635, 48.698554], [-3.638173, 48.704739], [-3.638539, 48.687812], [-3.584788, 48.682807], [-3.570546, 48.687974], [-3.584543, 48.726386], [-3.580474, 48.733222], [-3.52831, 48.739488], [-3.577382, 48.774237], [-3.581532, 48.790595], [-3.542592, 48.807807], [-3.515289, 48.841946], [-3.419749, 48.821438], [-3.433339, 48.807807], [-3.397613, 48.807318], [-3.371816, 48.822496], [-3.275787, 48.849351], [-3.259511, 48.847724], [-3.229726, 48.87226], [-3.213612, 48.869818], [-3.207143, 48.855414], [-3.214955, 48.817857], [-3.227895, 48.807807], [-3.22053, 48.794135], [-3.20873, 48.816352], [-3.145375, 48.862372], [-3.134999, 48.859198], [-3.103749, 48.876654], [-3.091461, 48.871283], [-3.08373, 48.851711], [-3.090728, 48.835679], [-3.077056, 48.828274], [-3.125478, 48.759955], [-3.118031, 48.759955], [-3.0655, 48.823961], [-3.028717, 48.828803], [-3.008168, 48.821438], [-3.015696, 48.814602], [-3.008168, 48.807807], [-3.042388, 48.794135], [-3.042388, 48.787909], [-3.003651, 48.773871], [-2.933095, 48.767401], [-2.933095, 48.746324], [-2.946685, 48.733222], [-2.826975, 48.657538], [-2.811431, 48.614569], [-2.812978, 48.598578], [-2.714019, 48.560736], [-2.734486, 48.534003], [-2.713124, 48.530097], [-2.682362, 48.509019], [-2.676137, 48.540229], [-2.620025, 48.543606], [-2.569407, 48.58869], [-2.459543, 48.636461], [-2.459543, 48.643256], [-2.487457, 48.650092], [-2.44286, 48.659084], [-2.421051, 48.656968], [-2.412262, 48.643256], [-2.38622, 48.650092], [-2.329986, 48.680365], [-2.31607, 48.698554], [-2.305328, 48.679633], [-2.281972, 48.678046], [-2.281972, 48.6706], [-2.330312, 48.629625], [-2.312652, 48.620185], [-2.250966, 48.650092], [-2.237294, 48.615912], [-2.219228, 48.603664], [-2.213694, 48.581855], [-2.195546, 48.593451], [-2.192616, 48.615912], [-2.174062, 48.582953], [-2.159088, 48.58869], [-2.172109, 48.601711], [-2.161041, 48.613023], [-2.137034, 48.617987], [-2.124338, 48.609117], [-2.144846, 48.636461], [-2.052358, 48.650092], [-2.022043, 48.598944], [-2.000885, 48.58869], [-2.00829, 48.575019], [-1.976389, 48.535631], [-1.980295, 48.513577], [-1.939361, 48.534003], [-1.967275, 48.547065], [-1.961903, 48.554918], [-1.980295, 48.58869], [-1.952952, 48.575019], [-1.96939, 48.59276], [-2.000478, 48.601304], [-2.028717, 48.643256], [-2.018137, 48.660346], [-1.987701, 48.673774], [-1.985911, 48.687893], [-1.939361, 48.691107], [-1.945627, 48.698554], [-1.843739, 48.712144], [-1.846913, 48.703437], [-1.836334, 48.691107], [-1.861195, 48.664211], [-1.860951, 48.640855], [-1.838206, 48.623765], [-1.79601, 48.615912], [-1.643951, 48.62344], [-1.579701, 48.643256], [-1.500559, 48.636461], [-1.393137, 48.652411], [-1.356557, 48.643256], [-1.372304, 48.66059], [-1.394602, 48.66828], [-1.432851, 48.6706], [-1.443267, 48.662828], [-1.4558, 48.683417], [-1.502675, 48.695502], [-1.516469, 48.725165], [-1.553619, 48.747138], [-1.566762, 48.82217], [-1.578847, 48.837836], [-1.602935, 48.841946], [-1.602935, 48.849351], [-1.578521, 48.862616], [-1.56371, 48.922105], [-1.557037, 48.932318], [-1.548411, 48.923814], [-1.542795, 48.935248], [-1.547027, 48.949693], [-1.563059, 48.957587], [-1.545766, 49.030341], [-1.532338, 49.035142], [-1.507965, 49.027533], [-1.507965, 49.033677], [-1.549713, 49.039781], [-1.56843, 49.03266], [-1.579457, 49.01317], [-1.593577, 49.028998], [-1.589345, 49.082099], [-1.603424, 49.08397], [-1.607737, 49.102729], [-1.595937, 49.128485], [-1.569488, 49.143541], [-1.581776, 49.149848], [-1.589345, 49.143541], [-1.610422, 49.215888], [-1.602651, 49.225409], [-1.548411, 49.219306], [-1.548411, 49.225491], [-1.616851, 49.238227], [-1.624664, 49.219306], [-1.640533, 49.231513], [-1.657094, 49.268378], [-1.671864, 49.280097], [-1.658193, 49.287543], [-1.699086, 49.313544], [-1.706654, 49.329169], [-1.686187, 49.329169], [-1.686187, 49.335354], [-1.699127, 49.355862], [-1.706654, 49.355862], [-1.714752, 49.338528], [-1.775502, 49.370103], [-1.767974, 49.383734], [-1.806793, 49.376858], [-1.816477, 49.383734], [-1.819407, 49.452053], [-1.843739, 49.493598], [-1.884674, 49.530911], [-1.878407, 49.544867], [-1.843739, 49.571845], [-1.839508, 49.619778], [-1.869496, 49.661689], [-1.945627, 49.677965], [-1.935211, 49.724107], [-1.908355, 49.726386], [-1.867299, 49.712714], [-1.839426, 49.715399], [-1.824615, 49.708441], [-1.816477, 49.691636], [-1.617177, 49.664293], [-1.606679, 49.650051], [-1.572865, 49.664293], [-1.540395, 49.657782], [-1.511464, 49.662543], [-1.455719, 49.702216], [-1.409495, 49.711575], [-1.263051, 49.695502], [-1.227773, 49.624091], [-1.253326, 49.61225], [-1.264027, 49.58926], [-1.301422, 49.581773], [-1.306264, 49.558092], [-1.261586, 49.49315], [-1.175689, 49.415229], [-1.172231, 49.393378], [-1.18517, 49.3664], [-1.181996, 49.356187], [-1.151723, 49.362698], [-1.122874, 49.345445], [-1.103424, 49.349026], [-1.113759, 49.36579], [-1.106353, 49.379462], [-1.072255, 49.396796], [-0.940419, 49.392279], [-0.822133, 49.362698], [-0.650787, 49.355862], [-0.583363, 49.345893], [-0.546946, 49.358954], [-0.479482, 49.34276], [-0.411122, 49.34276], [-0.363433, 49.325019], [-0.3131, 49.317328], [-0.219472, 49.280097], [-0.194081, 49.295233], [-0.033844, 49.320054], [0.0, 49.33060792605912], [0.0, 42.692877501035554], [-0.038933, 42.685148]]], [[[-1.224355, 45.935045], [-1.18517, 45.915961], [-1.176096, 45.898749], [-1.184193, 45.85635], [-1.209218, 45.814154], [-1.226877, 45.81977], [-1.260365, 45.881822], [-1.340159, 45.938666], [-1.378326, 45.975979], [-1.371653, 45.995307], [-1.404937, 46.053168], [-1.339915, 46.037828], [-1.273834, 45.997626], [-1.247629, 46.001776], [-1.233632, 45.991685], [-1.230458, 45.958197], [-1.21939, 45.943915], [-1.224355, 45.935045]]], [[[-1.33609, 46.167222], [-1.432851, 46.210842], [-1.504262, 46.207668], [-1.555816, 46.251776], [-1.480092, 46.259223], [-1.467885, 46.249905], [-1.473866, 46.238105], [-1.507965, 46.245551], [-1.490549, 46.224433], [-1.411122, 46.238105], [-1.411122, 46.231269], [-1.425364, 46.231269], [-1.425364, 46.223822], [-1.308095, 46.206936], [-1.265736, 46.180976], [-1.25414, 46.162421], [-1.281402, 46.156195], [-1.33609, 46.167222]]], [[[-2.298207, 46.72016], [-2.268951, 46.697414], [-2.371409, 46.704291], [-2.382924, 46.722642], [-2.375152, 46.731635], [-2.337229, 46.731594], [-2.298207, 46.72016]]], [[[-2.144846, 46.957465], [-2.137685, 46.923163], [-2.142568, 46.909857], [-2.159088, 46.91649], [-2.194814, 46.961859], [-2.220204, 46.973863], [-2.247304, 46.964301], [-2.263173, 46.979804], [-2.278676, 47.018134], [-2.295644, 47.033189], [-2.238596, 47.035346], [-2.200022, 47.024359], [-2.200103, 46.985419], [-2.144846, 46.957465]]], [[[-3.072743, 47.328315], [-3.062815, 47.320624], [-3.067006, 47.301947], [-3.093617, 47.296617], [-3.171702, 47.301581], [-3.223459, 47.312161], [-3.240956, 47.320624], [-3.23762, 47.336371], [-3.262074, 47.383246], [-3.242991, 47.395331], [-3.176503, 47.371487], [-3.114654, 47.331488], [-3.072743, 47.328315]]], [[[-5.03661, 48.472602], [-5.03661, 48.465155], [-5.087961, 48.447211], [-5.10554, 48.444648], [-5.10554, 48.451483], [-5.091868, 48.451483], [-5.097768, 48.46133], [-5.132802, 48.458319], [-5.132802, 48.465155], [-5.091786, 48.48078], [-5.069, 48.485053], [-5.03661, 48.472602]]]]}}, {"type": "Feature", "properties": {"name": "Morocco"}, "geometry": {"type": "Polygon", "coordinates": [[[-9.655141, 30.126899], [-9.628407, 30.291409], [-9.610015, 30.357815], [-9.611643, 30.404364], [-9.666249, 30.459296], [-9.700063, 30.542711], [-9.730824, 30.552069], [-9.758168, 30.586819], [-9.829661, 30.628607], [-9.874013, 30.633979], [-9.888539, 30.648261], [-9.886708, 30.686672], [-9.820221, 30.792304], [-9.812896, 30.827135], [-9.824371, 30.851955], [-9.827707, 31.06745], [-9.847524, 31.121283], [-9.835032, 31.144761], [-9.808949, 31.2862], [-9.80663, 31.343451], [-9.810902, 31.366848], [-9.847524, 31.402411], [-9.792958, 31.47134], [-9.769643, 31.53148], [-9.733266, 31.567369], [-9.727651, 31.58515], [-9.694203, 31.625718], [-9.667307, 31.731147], [-9.504954, 31.888414], [-9.483795, 31.922553], [-9.366119, 32.026313], [-9.346425, 32.06151], [-9.328114, 32.130439], [-9.291982, 32.168931], [-9.27774, 32.196601], [-9.26476, 32.330634], [-9.291982, 32.350816], [-9.283355, 32.387763], [-9.24885, 32.452541], [-9.246938, 32.472317], [-9.27831, 32.529527], [-9.278961, 32.546332], [-9.259918, 32.57689], [-9.112172, 32.682847], [-8.998525, 32.797105], [-8.867787, 32.881903], [-8.754709, 33.010647], [-8.62914, 33.127631], [-8.62149, 33.13935], [-8.621002, 33.173529], [-8.529164, 33.268704], [-8.512522, 33.270494], [-8.49413, 33.259508], [-8.45165, 33.264228], [-8.378774, 33.304674], [-8.320221, 33.365383], [-8.284657, 33.389838], [-8.106557, 33.430854], [-7.962554, 33.484809], [-7.891428, 33.503363], [-7.86974, 33.526557], [-7.700999, 33.58275], [-7.667551, 33.612698], [-7.606191, 33.608344], [-7.529124, 33.632636], [-7.49706, 33.64997], [-7.463287, 33.68651], [-7.434316, 33.698228], [-7.406361, 33.726996], [-7.387115, 33.732489], [-7.393951, 33.725043], [-7.37385, 33.719306], [-7.35261, 33.724677], [-7.229319, 33.80093], [-7.152577, 33.830064], [-7.099477, 33.840277], [-7.06786, 33.863674], [-7.031809, 33.874254], [-6.927358, 33.944159], [-6.822092, 34.039618], [-6.733754, 34.162584], [-6.667795, 34.280504], [-6.557932, 34.417711], [-6.292104, 34.880805], [-6.205393, 35.124579], [-6.023915, 35.501166], [-6.012318, 35.558824], [-5.96524, 35.670233], [-5.952056, 35.685492], [-5.943105, 35.742377], [-5.927235, 35.780748], [-5.90803, 35.797349], [-5.873402, 35.801988], [-5.769276, 35.792792], [-5.729888, 35.822659], [-5.693512, 35.834296], [-5.680898, 35.829169], [-5.639719, 35.836371], [-5.598988, 35.822333], [-5.540028, 35.850979], [-5.468861, 35.910346], [-5.44811, 35.918524], [-5.414198, 35.909398], [-5.408, 35.924748], [-5.398859, 35.924504], [-5.378401, 35.881687], [-5.340728, 35.847357], [-5.342356, 35.807685], [-5.318756, 35.701728], [-5.304799, 35.685207], [-5.276763, 35.685207], [-5.276763, 35.657904], [-5.24942, 35.584621], [-5.150787, 35.516099], [-5.066274, 35.417467], [-4.988515, 35.387885], [-4.909332, 35.314521], [-4.86498, 35.301988], [-4.810618, 35.259996], [-4.770497, 35.241034], [-4.376047, 35.151842], [-4.327056, 35.154771], [-4.269399, 35.184882], [-4.130605, 35.204779], [-4.046702, 35.235907], [-3.961293, 35.250434], [-3.919342, 35.266832], [-3.909413, 35.255276], [-3.929529, 35.24382], [-3.903901, 35.214173], [-3.840891, 35.20539], [-3.787465, 35.209215], [-3.764801, 35.218451], [-3.747141, 35.263658], [-3.726226, 35.282294], [-3.699574, 35.290839], [-3.673573, 35.287909], [-3.590972, 35.233303], [-3.516021, 35.223538], [-3.489329, 35.211005], [-3.453847, 35.211615], [-3.412913, 35.197943], [-3.36205, 35.194525], [-3.319244, 35.201809], [-3.195139, 35.238227], [-3.118031, 35.294135], [-3.077056, 35.287909], [-3.0454, 35.314439], [-3.006256, 35.393541], [-2.980824, 35.424506], [-2.982818, 35.435004], [-2.968577, 35.446438], [-2.952219, 35.433051], [-2.963043, 35.373481], [-2.947825, 35.329779], [-2.96692, 35.313866], [-2.963768, 35.286219], [-2.943046, 35.267874], [-2.912913, 35.276923], [-2.899037, 35.259996], [-2.912343, 35.235785], [-2.90982, 35.186713], [-2.881988, 35.146715], [-2.856068, 35.131293], [-2.748118, 35.115953], [-2.791819, 35.145168], [-2.868276, 35.217353], [-2.883168, 35.238511], [-2.878407, 35.246324], [-2.761098, 35.143256], [-2.666737, 35.108222], [-2.563222, 35.096137], [-2.517486, 35.099351], [-2.493316, 35.104397], [-2.437123, 35.145087], [-2.416737, 35.149156], [-2.275258, 35.109565], [-2.222564, 35.089301], [-2.221126, 35.049955], [-2.211669, 35.023445], [-2.193789, 35.003601], [-2.1633, 34.994041], [-2.061239, 34.929704], [-2.01628, 34.926241], [-2.00362, 34.91818], [-1.993491, 34.878854], [-1.979745, 34.865263], [-1.769526, 34.741343], [-1.871121, 34.596649], [-1.750664, 34.494175], [-1.702966, 34.479679], [-1.809626, 34.372451], [-1.771334, 34.334701], [-1.746064, 34.290311], [-1.669635, 34.079213], [-1.718728, 33.898087], [-1.722087, 33.851165], [-1.703225, 33.761816], [-1.74224, 33.717762], [-1.746788, 33.702388], [-1.740742, 33.686601], [-1.690719, 33.667326], [-1.6624, 33.644692], [-1.617338, 33.554439], [-1.612739, 33.521469], [-1.640386, 33.475529], [-1.683226, 33.36923], [-1.683381, 33.270839], [-1.674234, 33.237972], [-1.623591, 33.196605], [-1.571398, 33.111985], [-1.499516, 33.060205], [-1.493367, 33.016151], [-1.502978, 32.974629], [-1.558789, 32.93365], [-1.423345, 32.742395], [-1.390531, 32.718779], [-1.32702, 32.69891], [-1.047502, 32.517009], [-1.031999, 32.4944], [-1.123157, 32.417945], [-1.217983, 32.392623], [-1.244131, 32.356915], [-1.257515, 32.320845], [-1.276636, 32.200852], [-1.309554, 32.167443], [-1.305161, 32.151165], [-1.232711, 32.163723], [-1.195607, 32.146049], [-1.190594, 32.125224], [-1.210335, 32.08967], [-1.249557, 32.08166], [-2.516147, 32.1322], [-2.695567, 32.08967], [-2.881189, 32.076286], [-2.938731, 32.048639], [-2.827836, 31.794586], [-3.002556, 31.77362], [-3.21921, 31.717709], [-3.511564, 31.672745], [-3.548745, 31.669954], [-3.591378, 31.678274], [-3.659507, 31.647821], [-3.673484, 31.389234], [-3.747467, 31.385166], [-3.815189, 31.337158], [-3.814982, 31.220524], [-3.842836, 31.170192], [-3.839322, 31.152828], [-3.810796, 31.142906], [-3.748862, 31.180217], [-3.731421, 31.176341], [-3.689718, 31.125595], [-3.624141, 31.086527], [-3.608741, 31.030872], [-3.554674, 30.955927], [-3.610585, 30.879049], [-3.659507, 30.837116], [-3.645529, 30.711317], [-3.834228, 30.627452], [-4.001959, 30.592507], [-4.155714, 30.585519], [-4.274524, 30.557563], [-4.372368, 30.508641], [-4.484189, 30.382842], [-4.623966, 30.284999], [-4.875564, 30.180166], [-5.071251, 30.04039], [-5.138566810492844, 30.0], [-9.716272685592838, 30.0], [-9.655141, 30.126899]]]}}, {"type": "Feature", "properties": {"name": "Spain"}, "geometry": {"type": "MultiPolygon", "coordinates": [[[[-5.378401, 35.881687], [-5.398859, 35.924504], [-5.3662, 35.92475], [-5.309316, 35.900824], [-5.28307, 35.911689], [-5.29186, 35.89053], [-5.335561, 35.862372], [-5.340728, 35.847357], [-5.378401, 35.881687]]], [[[-2.922027, 35.287991], [-2.912913, 35.276923], [-2.943046, 35.267874], [-2.963768, 35.286219], [-2.96692, 35.313866], [-2.947825, 35.329779], [-2.922027, 35.287991]]], [[[-1.796914, 43.341128], [-1.75578, 43.318546], [-1.747356, 43.291002], [-1.683019, 43.304929], [-1.654907, 43.297539], [-1.645037, 43.292372], [-1.639043, 43.255681], [-1.621886, 43.247], [-1.587573, 43.251599], [-1.573982, 43.277437], [-1.559047, 43.284077], [-1.508094, 43.276765], [-1.466392, 43.260771], [-1.432233, 43.265009], [-1.403501, 43.243331], [-1.399677, 43.206744], [-1.425774, 43.135275], [-1.487837, 43.081816], [-1.457141, 43.045074], [-1.410529, 43.030915], [-1.366139, 43.033318], [-1.348259, 43.093081], [-1.308623, 43.113571], [-1.286041, 43.109179], [-1.315083, 43.082875], [-1.293689, 43.055203], [-1.216898, 43.03926], [-1.149925, 43.005722], [-1.112408, 43.008254], [-1.079697, 42.993398], [-1.028485, 42.986705], [-0.98146, 42.957043], [-0.943219, 42.947896], [-0.863534, 42.943065], [-0.786433, 42.953271], [-0.759665, 42.946501], [-0.740906, 42.910896], [-0.745867, 42.89392], [-0.740286, 42.884799], [-0.730106, 42.877513], [-0.700392, 42.876428], [-0.648302, 42.849789], [-0.609493, 42.811445], [-0.610165, 42.799094], [-0.582931, 42.795839], [-0.578694, 42.777338], [-0.56903, 42.772636], [-0.535647, 42.784211], [-0.53389, 42.808008], [-0.508414, 42.807492], [-0.454464, 42.788914], [-0.423923, 42.790671], [-0.351679, 42.829247], [-0.335169, 42.824958], [-0.322792, 42.842502], [-0.247034, 42.80483], [-0.235149, 42.786227], [-0.208355, 42.783875], [-0.161407, 42.795348], [-0.157789, 42.760699], [-0.123114, 42.730364], [-0.119032, 42.716851], [-0.038933, 42.685148], [0.0, 42.692877501035554], [0.0, 39.94114271000221], [-0.028676, 39.901801], [-0.091298, 39.847927], [-0.194488, 39.71544], [-0.208933, 39.664089], [-0.257436, 39.616238], [-0.281484, 39.569363], [-0.323354, 39.516221], [-0.330593, 39.480407], [-0.327472, 39.430675], [-0.30134, 39.322008], [-0.215493, 39.181839], [-0.242182, 39.166275], [-0.226703, 39.111782], [-0.15803, 39.002143], [-0.105946, 38.93651], [-0.009755, 38.869696], [0.0, 38.86809868013878], [0.0, 38.62646074925194], [-0.01476, 38.624416], [-0.042958, 38.611721], [-0.054758, 38.595282], [-0.060048, 38.55272], [-0.075429, 38.539944], [-0.176991, 38.527248], [-0.329416, 38.470038], [-0.395172, 38.413764], [-0.413686, 38.364814], [-0.460194, 38.360053], [-0.474355, 38.336737], [-0.509836, 38.338365], [-0.518788, 38.298651], [-0.504018, 38.207221], [-0.515452, 38.195502], [-0.591379, 38.189643], [-0.623687, 38.162421], [-0.645009, 38.116034], [-0.65453, 37.989325], [-0.689931, 37.972154], [-0.718414, 37.94302], [-0.758616, 37.863349], [-0.760732, 37.796129], [-0.787994, 37.822821], [-0.812408, 37.770087], [-0.847808, 37.75609], [-0.856109, 37.742499], [-0.85261, 37.723782], [-0.809926, 37.666897], [-0.754791, 37.641303], [-0.734853, 37.63935], [-0.726471, 37.651516], [-0.707997, 37.643012], [-0.701243, 37.631334], [-0.705312, 37.619534], [-0.736643, 37.599433], [-0.754506, 37.604315], [-0.836415, 37.576402], [-0.886708, 37.574286], [-0.92516, 37.555894], [-0.9735, 37.576402], [-1.087758, 37.580878], [-1.103424, 37.576402], [-1.119985, 37.559027], [-1.105767, 37.532135], [-1.167057, 37.543755], [-1.178585, 37.563883], [-1.242699, 37.579203], [-1.261671, 37.557661], [-1.323735, 37.561991], [-1.369171, 37.541368], [-1.413686, 37.506537], [-1.470896, 37.482245], [-1.488352, 37.433214], [-1.496938, 37.427802], [-1.515004, 37.433214], [-1.543731, 37.414984], [-1.641618, 37.381036], [-1.652839, 37.361259], [-1.670888, 37.363308], [-1.728505, 37.282416], [-1.812734, 37.207058], [-1.855214, 37.076606], [-1.906117, 36.987616], [-1.900339, 36.941189], [-1.941396, 36.929877], [-1.988922, 36.900499], [-2.002797, 36.88703], [-2.013051, 36.845771], [-2.056874, 36.810085], [-2.071156, 36.775336], [-2.100819, 36.765163], [-2.111073, 36.746121], [-2.126698, 36.736396], [-2.166127, 36.727566], [-2.203643, 36.737128], [-2.282786, 36.810085], [-2.318349, 36.827908], [-2.361684, 36.836778], [-2.433095, 36.81627], [-2.481435, 36.829942], [-2.56078, 36.818793], [-2.576894, 36.811306], [-2.617177, 36.72842], [-2.658884, 36.69481], [-2.718251, 36.682034], [-2.736195, 36.687405], [-2.756663, 36.680365], [-2.820994, 36.713894], [-2.848256, 36.700222], [-2.886098, 36.734402], [-2.913971, 36.750312], [-2.933258, 36.751654], [-2.987719, 36.737109], [-3.076453, 36.749756], [-3.156711, 36.744526], [-3.227895, 36.754828], [-3.329579, 36.7449], [-3.415155, 36.695516], [-3.477602, 36.696096], [-3.515963, 36.721047], [-3.549832, 36.712373], [-3.586402, 36.726579], [-3.6011, 36.74255], [-3.665667, 36.73937], [-3.679822, 36.728808], [-3.731281, 36.724097], [-3.838541, 36.75197], [-3.960961, 36.726793], [-4.056711, 36.747992], [-4.110172, 36.725733], [-4.224721, 36.712388], [-4.403188, 36.723863], [-4.433258, 36.710679], [-4.524826, 36.580715], [-4.5878, 36.573818], [-4.615021, 36.530556], [-4.65925, 36.507636], [-4.722768, 36.492987], [-4.902659, 36.506537], [-4.994166, 36.457094], [-5.062489, 36.452216], [-5.108713, 36.429023], [-5.186554, 36.4112], [-5.227122, 36.357937], [-5.253651, 36.297105], [-5.290598, 36.277411], [-5.285308, 36.26081], [-5.334055, 36.187812], [-5.338773, 36.14112], [-5.358387, 36.141109], [-5.366607, 36.163153], [-5.382517, 36.172309], [-5.425445, 36.179755], [-5.442332, 36.14879], [-5.4287, 36.080797], [-5.438629, 36.062812], [-5.611765, 36.006456], [-5.629709, 36.03677], [-5.689361, 36.067125], [-5.713124, 36.059963], [-5.796051, 36.085517], [-5.832753, 36.122382], [-5.917185, 36.184068], [-5.983551, 36.176988], [-6.036773, 36.189521], [-6.104726, 36.280707], [-6.159454, 36.304307], [-6.184193, 36.370714], [-6.218373, 36.402452], [-6.279612, 36.511298], [-6.310007, 36.534125], [-6.289377, 36.537299], [-6.257517, 36.51378], [-6.248972, 36.504747], [-6.254099, 36.496283], [-6.231475, 36.472683], [-6.211497, 36.480536], [-6.179351, 36.513536], [-6.224355, 36.51085], [-6.232452, 36.52619], [-6.226023, 36.556667], [-6.234893, 36.575751], [-6.283193, 36.612372], [-6.379791, 36.624254], [-6.394683, 36.636908], [-6.406972, 36.676703], [-6.437896, 36.733303], [-6.433339, 36.751207], [-6.41454, 36.767646], [-6.345611, 36.794989], [-6.335194, 36.818264], [-6.343739, 36.859931], [-6.338206, 36.883734], [-6.304351, 36.907213], [-6.223256, 36.90233], [-6.194814, 36.932115], [-6.239654, 36.913398], [-6.265045, 36.912909], [-6.283559, 36.92593], [-6.344716, 36.901272], [-6.352447, 36.880276], [-6.346669, 36.819892], [-6.352447, 36.80858], [-6.38801, 36.808173], [-6.416249, 36.837795], [-6.471099, 36.935614], [-6.499582, 36.959662], [-6.744862, 37.101386], [-6.811757, 37.123725], [-6.892893, 37.166571], [-6.910878, 37.188951], [-6.917633, 37.215074], [-6.852691, 37.295233], [-6.931142, 37.233873], [-6.962554, 37.233832], [-6.928456, 37.172349], [-6.94164, 37.171088], [-7.10104, 37.224251], [-7.127349, 37.214748], [-7.085561, 37.206488], [-7.32787, 37.201565], [-7.362904, 37.181708], [-7.381418, 37.179918], [-7.414418, 37.192816], [-7.434244, 37.259329], [-7.427578, 37.274522], [-7.444993, 37.386763], [-7.462253, 37.417872], [-7.468868, 37.475569], [-7.475947, 37.49425], [-7.506333, 37.518124], [-7.529122, 37.556701], [-7.529691, 37.567165], [-7.512534, 37.590368], [-7.514343, 37.601401], [-7.471606, 37.636903], [-7.444011, 37.730153], [-7.426338, 37.750617], [-7.334405, 37.811931], [-7.306862, 37.850766], [-7.268621, 37.949235], [-7.272704, 37.977011], [-7.223301, 37.993832], [-7.185267, 37.98869], [-7.159739, 37.996803], [-7.123256, 38.040005], [-7.049358, 38.020213], [-7.023985, 38.022564], [-6.947504, 38.196636], [-6.964196, 38.206145], [-7.026414, 38.199633], [-7.038713, 38.186223], [-7.063053, 38.177542], [-7.103515, 38.173588], [-7.126873, 38.1909], [-7.167181, 38.272084], [-7.196326, 38.29216], [-7.211364, 38.317533], [-7.317146, 38.424581], [-7.35921, 38.446362], [-7.335181, 38.469436], [-7.334095, 38.481011], [-7.345619, 38.494137], [-7.317714, 38.556252], [-7.27043, 38.617696], [-7.290946, 38.638159], [-7.292961, 38.656272], [-7.284073, 38.713245], [-7.27043, 38.737507], [-7.179738, 38.790889], [-7.151006, 38.819285], [-7.104859, 38.827192], [-7.056076, 38.855149], [-7.0522, 38.884992], [-7.06605, 38.904603], [-7.022125, 38.94287], [-6.973291, 39.013951], [-6.986313, 39.030074], [-6.979388, 39.047178], [-6.985693, 39.066764], [-7.015769, 39.096814], [-7.064913, 39.114771], [-7.127286, 39.097485], [-7.157207, 39.105444], [-7.168886, 39.121851], [-7.155812, 39.151513], [-7.168059, 39.170633], [-7.244127, 39.195645], [-7.258079, 39.211303], [-7.264332, 39.252334], [-7.250845, 39.270627], [-7.326654, 39.341321], [-7.331925, 39.384729], [-7.318851, 39.413254], [-7.313528, 39.457438], [-7.320918, 39.467411], [-7.362931, 39.476093], [-7.399414, 39.493663], [-7.417553, 39.524204], [-7.451349, 39.537846], [-7.515841, 39.59376], [-7.557286, 39.679801], [-7.341433, 39.671843], [-7.235755, 39.686519], [-7.214051, 39.676184], [-7.18289, 39.675099], [-7.021143, 39.694012], [-7.009619, 39.715458], [-7.01334, 39.738919], [-6.993031, 39.774214], [-7.000266, 39.802533], [-6.985228, 39.821136], [-6.952827, 39.832867], [-6.92766, 39.861909], [-6.925231, 39.917926], [-6.909522, 39.931982], [-6.901615, 39.976476], [-6.879705, 40.009187], [-6.955721, 40.102928], [-7.015769, 40.119051], [-7.027654, 40.132642], [-7.043105, 40.181373], [-7.015769, 40.225504], [-6.954687, 40.253358], [-6.896448, 40.255477], [-6.878051, 40.265244], [-6.870196, 40.295526], [-6.811957, 40.33232], [-6.794438, 40.356401], [-6.82808, 40.380585], [-6.851283, 40.409524], [-6.857122, 40.442132], [-6.812525, 40.514634], [-6.818055, 40.531894], [-6.848389, 40.56476], [-6.850456, 40.582227], [-6.814282, 40.647184], [-6.839139, 40.757513], [-6.836658, 40.840247], [-6.820328, 40.844226], [-6.816194, 40.856835], [-6.821155, 40.870065], [-6.855262, 40.887221], [-6.885182, 40.948923], [-6.940424, 41.00339], [-6.942491, 41.015999], [-6.927867, 41.047935], [-6.906835, 41.0561], [-6.845288, 41.051914], [-6.818003, 41.054136], [-6.80436, 41.06442], [-6.764776, 41.108861], [-6.755216, 41.158833], [-6.70695, 41.194334], [-6.646644, 41.267611], [-6.563496, 41.270712], [-6.495852, 41.294948], [-6.430998, 41.339028], [-6.399579, 41.377475], [-6.379167, 41.377475], [-6.379167, 41.397319], [-6.352347, 41.409256], [-6.321134, 41.411013], [-6.282945, 41.465635], [-6.285891, 41.486874], [-6.279534, 41.497003], [-6.205947, 41.57028], [-6.272248, 41.628235], [-6.365937, 41.663608], [-6.460815, 41.676553], [-6.503035, 41.653092], [-6.541534, 41.658905], [-6.55528, 41.674899], [-6.577397, 41.739727], [-6.560137, 41.766883], [-6.524222, 41.86742], [-6.575795, 41.882897], [-6.567631, 41.926072], [-6.571661, 41.942609], [-6.609488, 41.962324], [-6.622821, 41.940955], [-6.727983, 41.930853], [-6.757903, 41.93757], [-6.794387, 41.979713], [-6.824928, 41.983769], [-6.831232, 41.953952], [-6.854952, 41.942945], [-6.945127, 41.943358], [-6.992359, 41.96638], [-7.05127, 41.942015], [-7.145373, 41.98749], [-7.199943, 41.963719], [-7.197928, 41.9015], [-7.21865, 41.879047], [-7.322468, 41.845406], [-7.391921, 41.842047], [-7.442719, 41.805951], [-7.469384, 41.852537], [-7.515841, 41.864991], [-7.531551, 41.84016], [-7.546692, 41.832047], [-7.606068, 41.825536], [-7.622192, 41.832331], [-7.622812, 41.841737], [-7.60736, 41.873182], [-7.661156, 41.874913], [-7.72203, 41.899252], [-7.750142, 41.888375], [-7.849723, 41.875765], [-7.864812, 41.857885], [-7.896593, 41.857937], [-7.906102, 41.913851], [-7.925791, 41.908167], [-7.944756, 41.866955], [-7.993642, 41.863673], [-8.048574, 41.816389], [-8.093481, 41.806726], [-8.179574, 41.810705], [-8.177041, 41.84985], [-8.220398, 41.868195], [-8.231715, 41.886049], [-8.230216, 41.904678], [-8.182132, 41.965424], [-8.108028, 42.010899], [-8.095083, 42.040923], [-8.103196, 42.055806], [-8.137612, 42.072911], [-8.191304, 42.062085], [-8.204016, 42.069552], [-8.204327, 42.128799], [-8.222362, 42.15363], [-8.252334, 42.137584], [-8.29538, 42.130091], [-8.346747, 42.101695], [-8.501208, 42.083091], [-8.572805, 42.054411], [-8.626885, 42.051026], [-8.652568, 42.031441], [-8.67081, 41.999815], [-8.750803, 41.96898], [-8.777089, 41.937161], [-8.832834, 41.913967], [-8.864654, 41.888902], [-8.881256, 41.893297], [-8.895497, 42.119086], [-8.884592, 42.126044], [-8.826527, 42.13052], [-8.819081, 42.139716], [-8.82372, 42.14761], [-8.846995, 42.160834], [-8.815989, 42.174506], [-8.805776, 42.197496], [-8.771962, 42.222235], [-8.625152, 42.301947], [-8.622711, 42.34748], [-8.649892, 42.335598], [-8.674794, 42.299018], [-8.784983, 42.260077], [-8.867502, 42.256415], [-8.853261, 42.304836], [-8.832997, 42.28913], [-8.827219, 42.296698], [-8.830719, 42.34162], [-8.771962, 42.342719], [-8.726877, 42.388739], [-8.662506, 42.426907], [-8.655263, 42.441352], [-8.694488, 42.439643], [-8.757639, 42.407213], [-8.843577, 42.403713], [-8.867502, 42.4147], [-8.88801, 42.455634], [-8.942616, 42.469306], [-8.916737, 42.487616], [-8.881256, 42.496568], [-8.860829, 42.485012], [-8.861155, 42.475572], [-8.874338, 42.469306], [-8.826527, 42.461859], [-8.825063, 42.49494], [-8.812856, 42.502753], [-8.825185, 42.537421], [-8.822987, 42.569525], [-8.775502, 42.604722], [-8.730946, 42.688422], [-8.737172, 42.688422], [-8.753896, 42.656887], [-8.784983, 42.64057], [-8.803822, 42.645941], [-8.839508, 42.68244], [-8.857004, 42.649115], [-8.846995, 42.64057], [-8.868764, 42.617499], [-8.880523, 42.611802], [-8.894846, 42.620103], [-8.889475, 42.630601], [-8.903432, 42.625474], [-8.936391, 42.606431], [-8.922231, 42.593695], [-8.969879, 42.579169], [-8.980784, 42.551215], [-9.011545, 42.530707], [-9.026357, 42.543118], [-9.033355, 42.578111], [-9.070872, 42.596137], [-9.065745, 42.620307], [-9.038808, 42.661078], [-9.030141, 42.707709], [-9.006256, 42.733832], [-8.963124, 42.751288], [-8.922231, 42.788113], [-8.898264, 42.792304], [-8.884918, 42.815009], [-8.887685, 42.831122], [-8.908437, 42.839464], [-8.912587, 42.816596], [-8.951039, 42.795111], [-9.04894, 42.794745], [-9.045644, 42.778022], [-9.068674, 42.759711], [-9.10025, 42.757514], [-9.113433, 42.766059], [-9.134999, 42.812771], [-9.113189, 42.816352], [-9.10025, 42.833279], [-9.108388, 42.844835], [-9.141225, 42.857449], [-9.148671, 42.884467], [-9.137522, 42.896064], [-9.134511, 42.917548], [-9.167877, 42.926825], [-9.195872, 42.949327], [-9.190012, 42.9324], [-9.19579, 42.926581], [-9.210072, 42.925727], [-9.214345, 42.939032], [-9.224233, 42.940212], [-9.244252, 42.928778], [-9.273061, 42.893337], [-9.291982, 42.928778], [-9.250966, 43.016791], [-9.272125, 43.031277], [-9.27953, 43.054999], [-9.257924, 43.060899], [-9.245717, 43.087999], [-9.22232, 43.102729], [-9.2176, 43.114447], [-9.189809, 43.102322], [-9.162262, 43.114447], [-9.141225, 43.134874], [-9.107737, 43.14114], [-9.107737, 43.148505], [-9.163319, 43.139757], [-9.162262, 43.148505], [-9.208363, 43.137885], [-9.2176, 43.155341], [-9.170074, 43.188747], [-9.137929, 43.201524], [-9.100413, 43.189521], [-9.052398, 43.196357], [-9.026967, 43.21015], [-9.011545, 43.238756], [-8.985748, 43.226874], [-8.932525, 43.235297], [-8.915273, 43.245022], [-8.94815, 43.249945], [-8.963124, 43.272284], [-8.988026, 43.283026], [-8.829986, 43.341213], [-8.785553, 43.312445], [-8.693105, 43.293402], [-8.592519, 43.324205], [-8.55842, 43.313218], [-8.505971, 43.331529], [-8.486073, 43.354315], [-8.455719, 43.363349], [-8.443023, 43.375312], [-8.388295, 43.385891], [-8.375722, 43.362982], [-8.353586, 43.348619], [-8.34081, 43.359931], [-8.339915, 43.392727], [-8.330719, 43.405666], [-8.267201, 43.385932], [-8.250559, 43.354885], [-8.217275, 43.328315], [-8.210194, 43.313218], [-8.202463, 43.32925], [-8.209625, 43.390692], [-8.175404, 43.416327], [-8.26476, 43.427314], [-8.305165, 43.451077], [-8.286488, 43.461982], [-8.178782, 43.473293], [-8.168568, 43.492011], [-8.257314, 43.477729], [-8.243723, 43.485175], [-8.257314, 43.492011], [-8.269195, 43.478949], [-8.288971, 43.472968], [-8.333119, 43.471503], [-8.31664, 43.522895], [-8.305165, 43.519355], [-8.292104, 43.532945], [-8.308217, 43.546332], [-8.312652, 43.567125], [-8.260976, 43.564521], [-8.232249, 43.575507], [-8.086659, 43.65648], [-8.074615, 43.639635], [-8.051869, 43.642808], [-8.065541, 43.642808], [-8.051869, 43.65648], [-8.071156, 43.667873], [-8.073964, 43.678534], [-8.059316, 43.709418], [-7.981191, 43.717841], [-7.952952, 43.730129], [-7.908559, 43.766343], [-7.880849, 43.763251], [-7.846506, 43.717963], [-7.846506, 43.711737], [-7.867584, 43.717963], [-7.879262, 43.700507], [-7.873769, 43.684475], [-7.884104, 43.678616], [-7.894887, 43.684475], [-7.908559, 43.670152], [-7.858388, 43.668199], [-7.849233, 43.675605], [-7.867584, 43.697455], [-7.843861, 43.703803], [-7.819163, 43.697455], [-7.826039, 43.711737], [-7.812001, 43.72309], [-7.712758, 43.760688], [-7.685536, 43.793443], [-7.668324, 43.772528], [-7.695627, 43.745917], [-7.691558, 43.72724], [-7.67516, 43.731635], [-7.672475, 43.743842], [-7.641021, 43.752672], [-7.613026, 43.704291], [-7.615956, 43.688544], [-7.586415, 43.717963], [-7.57429, 43.714545], [-7.541412, 43.731635], [-7.490142, 43.725328], [-7.367055, 43.68008], [-7.304107, 43.598578], [-7.256744, 43.58161], [-7.271067, 43.561143], [-7.257721, 43.556667], [-7.215443, 43.568671], [-7.156972, 43.559272], [-7.095855, 43.560981], [-7.079335, 43.56863], [-7.044301, 43.559394], [-7.032338, 43.553005], [-7.030873, 43.53323], [-7.053619, 43.496527], [-7.044586, 43.479193], [-7.038319, 43.479193], [-7.023752, 43.525824], [-7.010365, 43.53323], [-7.001373, 43.556667], [-6.943959, 43.565985], [-6.770823, 43.56863], [-6.703725, 43.557563], [-6.648671, 43.579047], [-6.597727, 43.575222], [-6.510121, 43.547471], [-6.462961, 43.554958], [-6.469106, 43.575385], [-6.417633, 43.561143], [-6.314605, 43.56863], [-6.222768, 43.595893], [-6.178049, 43.575385], [-6.069163, 43.569688], [-6.023508, 43.588446], [-5.907379, 43.588446], [-5.90217, 43.59752], [-5.913075, 43.61286], [-5.900624, 43.623236], [-5.907379, 43.636827], [-5.863515, 43.641425], [-5.852203, 43.66295], [-5.803822, 43.650499], [-5.708852, 43.56863], [-5.701975, 43.56863], [-5.696767, 43.582831], [-5.67748, 43.561143], [-5.6256, 43.554958], [-5.424224, 43.561143], [-5.39387, 43.555243], [-5.390736, 43.541327], [-5.420806, 43.513373], [-5.41393, 43.506537], [-5.372426, 43.520209], [-5.356801, 43.538601], [-5.299875, 43.537665], [-5.177887, 43.489366], [-5.091664, 43.486274], [-5.067698, 43.481391], [-5.057037, 43.468614], [-5.045033, 43.474311], [-4.975168, 43.458767], [-4.941029, 43.471747], [-4.836537, 43.449774], [-4.734934, 43.4171], [-4.508168, 43.402452], [-4.481679, 43.383612], [-4.460805, 43.398708], [-4.432525, 43.402615], [-4.379262, 43.383612], [-4.359364, 43.399685], [-4.312815, 43.395779], [-4.188588, 43.405382], [-4.160959, 43.421169], [-4.097727, 43.435614], [-4.029205, 43.438259], [-4.012766, 43.452501], [-3.981435, 43.438259], [-3.961008, 43.445095], [-3.974599, 43.458767], [-3.940053, 43.477118], [-3.893788, 43.48489], [-3.885854, 43.479193], [-3.826731, 43.497016], [-3.769154, 43.479193], [-3.844309, 43.445095], [-3.823842, 43.430772], [-3.831288, 43.424587], [-3.811187, 43.425482], [-3.772288, 43.452501], [-3.744985, 43.438259], [-3.743031, 43.451361], [-3.755523, 43.471747], [-3.728871, 43.465522], [-3.721425, 43.471747], [-3.728871, 43.479193], [-3.688385, 43.484239], [-3.656077, 43.500678], [-3.579416, 43.518256], [-3.554351, 43.516913], [-3.556264, 43.499701], [-3.539052, 43.498969], [-3.50536, 43.479193], [-3.431508, 43.466864], [-3.428619, 43.446845], [-3.470041, 43.454169], [-3.501698, 43.430772], [-3.481801, 43.428046], [-3.46109, 43.412462], [-3.447011, 43.430772], [-3.436187, 43.419013], [-3.392486, 43.424587], [-3.268951, 43.40412], [-3.21052, 43.389838], [-3.17691, 43.366238], [-3.1315, 43.35578], [-3.112375, 43.354071], [-3.089508, 43.366889], [-3.008168, 43.320909], [-3.029286, 43.376166], [-2.939931, 43.4171], [-2.946685, 43.430772], [-2.905263, 43.439887], [-2.806996, 43.441677], [-2.768625, 43.452501], [-2.715199, 43.424506], [-2.691029, 43.36754], [-2.677805, 43.406195], [-2.661204, 43.411933], [-2.48351, 43.370632], [-2.464426, 43.349229], [-2.367421, 43.315701], [-2.284657, 43.303494], [-2.196278, 43.314765], [-2.174469, 43.297431], [-2.144846, 43.301093], [-2.127797, 43.287421], [-2.098866, 43.304145], [-1.960357, 43.343085], [-1.945627, 43.342637], [-1.918691, 43.32099], [-1.904652, 43.328437], [-1.925689, 43.342637], [-1.811269, 43.395087], [-1.794075, 43.386015], [-1.796914, 43.341128]]], [[[-0.741851, 37.725531], [-0.740142, 37.70246], [-0.726471, 37.665188], [-0.746897, 37.683783], [-0.754506, 37.7744], [-0.732737, 37.747748], [-0.741851, 37.725531]]], [[[-4.298701, 35.172612], [-4.2969, 35.172249], [-4.301885, 35.172664], [-4.298701, 35.172612]]], [[[-3.902329, 35.215905], [-3.901957, 35.215464], [-3.902533, 35.214787], [-3.902329, 35.215905]]], [[[-3.899953, 35.217861], [-3.899818, 35.217285], [-3.901308, 35.217319], [-3.899953, 35.217861]]], [[[-2.429394, 35.186038], [-2.426502, 35.182114], [-2.431414, 35.178766], [-2.429394, 35.186038]]], [[[-5.41597, 35.913531], [-5.417888, 35.910874], [-5.42084, 35.914269], [-5.41597, 35.913531]]]]}}, {"type": "Feature", "properties": {"name": "United Kingdom"}, "geometry": {"type": "MultiPolygon", "coordinates": [[[[-5.176137, 49.987942], [-5.191151, 49.959133], [-5.245229, 49.993109], [-5.246709050363449, 50.0], [-5.160326698360074, 50.0], [-5.176137, 49.987942]]], [[[-6.284169, 49.922756], [-6.297271, 49.909613], [-6.309153, 49.913642], [-6.298818, 49.935492], [-6.284169, 49.922756]]], [[[-6.326487, 49.949205], [-6.332509, 49.941718], [-6.341217, 49.94477], [-6.348948, 49.964342], [-6.326487, 49.949205]]]]}}, {"type": "Feature", "properties": {"name": "Algeria"}, "geometry": {"type": "Polygon", "coordinates": [[[-5.071251, 30.04039], [-4.875564, 30.180166], [-4.623966, 30.284999], [-4.484189, 30.382842], [-4.372368, 30.508641], [-4.274524, 30.557563], [-4.155714, 30.585519], [-4.001959, 30.592507], [-3.834228, 30.627452], [-3.645529, 30.711317], [-3.659507, 30.837116], [-3.610585, 30.879049], [-3.554674, 30.955927], [-3.608741, 31.030872], [-3.624141, 31.086527], [-3.689718, 31.125595], [-3.731421, 31.176341], [-3.748862, 31.180217], [-3.810796, 31.142906], [-3.839322, 31.152828], [-3.842836, 31.170192], [-3.814982, 31.220524], [-3.815189, 31.337158], [-3.747467, 31.385166], [-3.673484, 31.389234], [-3.659507, 31.647821], [-3.591378, 31.678274], [-3.548745, 31.669954], [-3.511564, 31.672745], [-3.21921, 31.717709], [-3.002556, 31.77362], [-2.827836, 31.794586], [-2.938731, 32.048639], [-2.881189, 32.076286], [-2.695567, 32.08967], [-2.516147, 32.1322], [-1.249557, 32.08166], [-1.210335, 32.08967], [-1.190594, 32.125224], [-1.195607, 32.146049], [-1.232711, 32.163723], [-1.305161, 32.151165], [-1.309554, 32.167443], [-1.276636, 32.200852], [-1.257515, 32.320845], [-1.244131, 32.356915], [-1.217983, 32.392623], [-1.123157, 32.417945], [-1.031999, 32.4944], [-1.047502, 32.517009], [-1.32702, 32.69891], [-1.390531, 32.718779], [-1.423345, 32.742395], [-1.558789, 32.93365], [-1.502978, 32.974629], [-1.493367, 33.016151], [-1.499516, 33.060205], [-1.571398, 33.111985], [-1.623591, 33.196605], [-1.674234, 33.237972], [-1.683381, 33.270839], [-1.683226, 33.36923], [-1.640386, 33.475529], [-1.612739, 33.521469], [-1.617338, 33.554439], [-1.6624, 33.644692], [-1.690719, 33.667326], [-1.740742, 33.686601], [-1.746788, 33.702388], [-1.74224, 33.717762], [-1.703225, 33.761816], [-1.722087, 33.851165], [-1.718728, 33.898087], [-1.669635, 34.079213], [-1.746064, 34.290311], [-1.771334, 34.334701], [-1.809626, 34.372451], [-1.702966, 34.479679], [-1.750664, 34.494175], [-1.871121, 34.596649], [-1.769526, 34.741343], [-1.979745, 34.865263], [-1.993491, 34.878854], [-2.00362, 34.91818], [-2.01628, 34.926241], [-2.061239, 34.929704], [-2.1633, 34.994041], [-2.193789, 35.003601], [-2.211669, 35.023445], [-2.221126, 35.049955], [-2.222564, 35.089301], [-2.200103, 35.096137], [-2.186391, 35.08869], [-2.15689, 35.100979], [-2.052358, 35.075019], [-1.987701, 35.082465], [-1.956451, 35.075019], [-1.932485, 35.08869], [-1.838694, 35.110907], [-1.812734, 35.126532], [-1.761138, 35.129625], [-1.712799, 35.1706], [-1.637685, 35.194525], [-1.629506, 35.212226], [-1.510365, 35.295478], [-1.369537, 35.315863], [-1.332672, 35.349351], [-1.29483, 35.364569], [-1.26773, 35.390326], [-1.247304, 35.45775], [-1.183339, 35.576483], [-1.14802, 35.582099], [-1.117014, 35.616889], [-1.052073, 35.660956], [-1.032948, 35.682603], [-0.996693, 35.689602], [-0.922678, 35.725165], [-0.910227, 35.724311], [-0.899403, 35.711819], [-0.887563, 35.715969], [-0.849477, 35.73432], [-0.825022, 35.768541], [-0.801666, 35.773912], [-0.77717, 35.756415], [-0.711293, 35.742987], [-0.692454, 35.719306], [-0.626454, 35.722968], [-0.589345, 35.742499], [-0.57726, 35.770819], [-0.540924, 35.767768], [-0.523427, 35.77969], [-0.47704, 35.859361], [-0.479482, 35.890041], [-0.41804, 35.883775], [-0.348541, 35.90705], [-0.331451, 35.889553], [-0.30191, 35.87759], [-0.30191, 35.842841], [-0.285553, 35.828274], [-0.14509, 35.790351], [-0.083079, 35.794379], [-0.038482, 35.8133], [0.0, 35.83964085994137], [0.0, 30.0], [-5.138566810492844, 30.0], [-5.071251, 30.04039]]]}}, {"type": "Feature", "properties": {"name": "Portugal"}, "geometry": {"type": "MultiPolygon", "coordinates": [[[[-7.151006, 38.819285], [-7.179738, 38.790889], [-7.27043, 38.737507], [-7.284073, 38.713245], [-7.292961, 38.656272], [-7.290946, 38.638159], [-7.27043, 38.617696], [-7.317714, 38.556252], [-7.345619, 38.494137], [-7.334095, 38.481011], [-7.335181, 38.469436], [-7.35921, 38.446362], [-7.317146, 38.424581], [-7.211364, 38.317533], [-7.196326, 38.29216], [-7.167181, 38.272084], [-7.126873, 38.1909], [-7.103515, 38.173588], [-7.063053, 38.177542], [-7.038713, 38.186223], [-7.026414, 38.199633], [-6.964196, 38.206145], [-6.947504, 38.196636], [-7.023985, 38.022564], [-7.049358, 38.020213], [-7.123256, 38.040005], [-7.159739, 37.996803], [-7.185267, 37.98869], [-7.223301, 37.993832], [-7.272704, 37.977011], [-7.268621, 37.949235], [-7.306862, 37.850766], [-7.334405, 37.811931], [-7.426338, 37.750617], [-7.444011, 37.730153], [-7.471606, 37.636903], [-7.514343, 37.601401], [-7.515841, 37.580937], [-7.529691, 37.567165], [-7.515428, 37.529338], [-7.475947, 37.49425], [-7.468868, 37.475569], [-7.462253, 37.417872], [-7.444993, 37.386763], [-7.427578, 37.274522], [-7.434244, 37.259329], [-7.429387, 37.236746], [-7.414418, 37.192816], [-7.400217, 37.178534], [-7.407623, 37.164862], [-7.445709, 37.179633], [-7.51179, 37.17178], [-7.627349, 37.113959], [-7.819569, 36.998725], [-7.949534, 37.014106], [-7.958119, 37.002631], [-7.9912, 37.014106], [-7.976796, 36.986762], [-7.999257, 37.013251], [-8.035268, 37.037502], [-8.106557, 37.069281], [-8.179152, 37.088099], [-8.293202, 37.077704], [-8.365384, 37.097999], [-8.438834, 37.082734], [-8.537465, 37.117825], [-8.580149, 37.123969], [-8.641591, 37.117743], [-8.686269, 37.082953], [-8.74767, 37.082953], [-8.798573, 37.062486], [-8.837215, 37.056588], [-8.859158, 37.040798], [-8.878919, 37.047209], [-8.946034, 37.00788], [-8.9829, 37.026597], [-8.997874, 37.02147], [-8.985585, 37.063381], [-8.941793, 37.118706], [-8.913564, 37.169908], [-8.922719, 37.199652], [-8.881365, 37.23248], [-8.86709, 37.276725], [-8.882768, 37.309931], [-8.838657, 37.360318], [-8.815989, 37.417914], [-8.797861, 37.4896], [-8.795497, 37.535362], [-8.826527, 37.600572], [-8.799306, 37.697577], [-8.757639, 37.706732], [-8.752187, 37.73078], [-8.808705, 37.722886], [-8.817006, 37.740302], [-8.797182, 37.844873], [-8.804815, 37.901873], [-8.820669, 37.927267], [-8.853871, 37.932278], [-8.894846, 37.952541], [-8.867502, 37.973619], [-8.815683, 38.062115], [-8.774396, 38.186949], [-8.795071, 38.359227], [-8.820941, 38.398821], [-8.878285, 38.449164], [-8.942616, 38.481391], [-8.927317, 38.493801], [-8.90453, 38.486396], [-8.867502, 38.460883], [-8.80016, 38.439114], [-8.798573, 38.426093], [-8.756988, 38.427314], [-8.65689, 38.405951], [-8.606801, 38.418687], [-8.66275, 38.424506], [-8.736155, 38.45185], [-8.752512, 38.487982], [-8.737172, 38.522366], [-8.76122, 38.538072], [-8.757639, 38.5633], [-8.773346, 38.565334], [-8.792958, 38.533596], [-8.812856, 38.528551], [-8.812856, 38.522366], [-8.790639, 38.519924], [-8.780263, 38.505439], [-8.780019, 38.489081], [-8.788401, 38.481391], [-8.832265, 38.487047], [-8.905832, 38.512397], [-8.95489, 38.505144], [-8.999765, 38.464253], [-8.991864, 38.459478], [-9.048595, 38.440671], [-9.145657, 38.431383], [-9.200357, 38.412481], [-9.230621, 38.418687], [-9.231068, 38.43769], [-9.190027, 38.472532], [-9.183793, 38.551537], [-9.252675, 38.665484], [-9.234395, 38.673361], [-9.145042, 38.681068], [-9.107737, 38.658881], [-9.113922, 38.679389], [-9.052398, 38.693671], [-9.021168, 38.72653], [-8.942616, 38.77558], [-8.970286, 38.835435], [-8.963124, 38.850653], [-8.986318, 38.849433], [-9.011545, 38.913398], [-8.943227, 39.015204], [-8.908437, 39.036282], [-8.826527, 39.049262], [-8.790354, 39.070624], [-8.765126, 39.097724], [-8.836415, 39.056708], [-8.922719, 39.049262], [-8.935862, 39.040717], [-9.003529, 38.95775], [-9.058909, 38.871405], [-9.10025, 38.830227], [-9.106557, 38.813788], [-9.098248, 38.737858], [-9.112503, 38.714182], [-9.220171, 38.693895], [-9.285209, 38.698758], [-9.321777, 38.670325], [-9.404775, 38.704088], [-9.471669, 38.70246], [-9.491689, 38.707587], [-9.484731, 38.744696], [-9.497467, 38.80976], [-9.455496, 38.850469], [-9.422725, 38.931404], [-9.425364, 38.991645], [-9.436635, 39.029486], [-9.422549, 39.078625], [-9.35086, 39.197309], [-9.34059, 39.26683], [-9.354075, 39.31623], [-9.409291, 39.37519], [-9.352922, 39.367934], [-9.260803, 39.418442], [-9.240315, 39.419997], [-9.2176, 39.406195], [-9.205922, 39.415473], [-9.229888, 39.440741], [-9.182873, 39.492584], [-9.135694, 39.51618], [-9.090434, 39.579275], [-9.090343, 39.615641], [-9.071692, 39.680437], [-8.868153, 40.124823], [-8.853261, 40.139228], [-8.825063, 40.120063], [-8.784983, 40.11872], [-8.784983, 40.126166], [-8.816151, 40.146552], [-8.896474, 40.16474], [-8.908437, 40.20067], [-8.865387, 40.275458], [-8.798573, 40.474433], [-8.753, 40.640815], [-8.744618, 40.646918], [-8.744618, 40.619045], [-8.710276, 40.653469], [-8.690012, 40.646918], [-8.696156, 40.673651], [-8.686391, 40.677924], [-8.671986, 40.666815], [-8.662099, 40.669867], [-8.641591, 40.694159], [-8.666331, 40.713202], [-8.663645, 40.724066], [-8.603871, 40.735785], [-8.572662, 40.755561], [-8.639882, 40.740058], [-8.668446, 40.747463], [-8.683705, 40.783108], [-8.645579, 40.823676], [-8.655263, 40.844916], [-8.663197, 40.814927], [-8.670522, 40.811184], [-8.675689, 40.824449], [-8.689809, 40.804104], [-8.714263, 40.709052], [-8.750803, 40.653144], [-8.6551, 40.993801], [-8.666127, 41.132758], [-8.648346, 41.152777], [-8.68578, 41.159491], [-8.737172, 41.249661], [-8.732289, 41.262926], [-8.744618, 41.297431], [-8.744456, 41.328111], [-8.783803, 41.393866], [-8.785564, 41.434878], [-8.774849, 41.468338], [-8.78647, 41.491067], [-8.830511, 41.671586], [-8.827056, 41.682807], [-8.743276, 41.696967], [-8.696156, 41.721991], [-8.829986, 41.694648], [-8.861113, 41.704368], [-8.880306, 41.736862], [-8.872039, 41.810569], [-8.878896, 41.839016], [-8.867502, 41.859117], [-8.762766, 41.931952], [-8.750803, 41.96898], [-8.67081, 41.999815], [-8.652568, 42.031441], [-8.626885, 42.051026], [-8.572805, 42.054411], [-8.501208, 42.083091], [-8.346747, 42.101695], [-8.29538, 42.130091], [-8.252334, 42.137584], [-8.222362, 42.15363], [-8.204327, 42.128799], [-8.204016, 42.069552], [-8.191304, 42.062085], [-8.137612, 42.072911], [-8.103196, 42.055806], [-8.095083, 42.040923], [-8.108028, 42.010899], [-8.182132, 41.965424], [-8.220708, 41.922714], [-8.231715, 41.886049], [-8.220398, 41.868195], [-8.177041, 41.84985], [-8.179574, 41.810705], [-8.093481, 41.806726], [-8.048574, 41.816389], [-7.993642, 41.863673], [-7.944756, 41.866955], [-7.925791, 41.908167], [-7.906102, 41.913851], [-7.896593, 41.857937], [-7.864812, 41.857885], [-7.849723, 41.875765], [-7.750142, 41.888375], [-7.72203, 41.899252], [-7.661156, 41.874913], [-7.60736, 41.873182], [-7.622812, 41.841737], [-7.622192, 41.832331], [-7.606068, 41.825536], [-7.546692, 41.832047], [-7.531551, 41.84016], [-7.515841, 41.864991], [-7.469384, 41.852537], [-7.442719, 41.805951], [-7.391921, 41.842047], [-7.322468, 41.845406], [-7.21865, 41.879047], [-7.197928, 41.9015], [-7.199943, 41.963719], [-7.159739, 41.985733], [-7.145373, 41.98749], [-7.05127, 41.942015], [-6.992359, 41.96638], [-6.945127, 41.943358], [-6.854952, 41.942945], [-6.831232, 41.953952], [-6.824928, 41.983769], [-6.794387, 41.979713], [-6.757903, 41.93757], [-6.727983, 41.930853], [-6.622821, 41.940955], [-6.609488, 41.962324], [-6.571661, 41.942609], [-6.567631, 41.926072], [-6.575795, 41.882897], [-6.524222, 41.86742], [-6.560137, 41.766883], [-6.577397, 41.739727], [-6.55528, 41.674899], [-6.541534, 41.658905], [-6.503035, 41.653092], [-6.460815, 41.676553], [-6.365937, 41.663608], [-6.272248, 41.628235], [-6.205947, 41.57028], [-6.279534, 41.497003], [-6.285891, 41.486874], [-6.282945, 41.465635], [-6.321134, 41.411013], [-6.352347, 41.409256], [-6.379167, 41.397319], [-6.379167, 41.377475], [-6.399579, 41.377475], [-6.430998, 41.339028], [-6.495852, 41.294948], [-6.563496, 41.270712], [-6.646644, 41.267611], [-6.70695, 41.194334], [-6.755216, 41.158833], [-6.764776, 41.108861], [-6.80436, 41.06442], [-6.818003, 41.054136], [-6.845288, 41.051914], [-6.906835, 41.0561], [-6.927867, 41.047935], [-6.942491, 41.015999], [-6.940424, 41.00339], [-6.885182, 40.948923], [-6.855262, 40.887221], [-6.821155, 40.870065], [-6.816194, 40.856835], [-6.820328, 40.844226], [-6.836658, 40.840247], [-6.839139, 40.757513], [-6.814282, 40.647184], [-6.850456, 40.582227], [-6.848389, 40.56476], [-6.818055, 40.531894], [-6.812525, 40.514634], [-6.857122, 40.442132], [-6.851283, 40.409524], [-6.82808, 40.380585], [-6.794438, 40.356401], [-6.811957, 40.33232], [-6.870196, 40.295526], [-6.878051, 40.265244], [-6.896448, 40.255477], [-6.954687, 40.253358], [-7.015769, 40.225504], [-7.043105, 40.181373], [-7.027654, 40.132642], [-7.015769, 40.119051], [-6.955721, 40.102928], [-6.879705, 40.009187], [-6.901615, 39.976476], [-6.909522, 39.931982], [-6.925231, 39.917926], [-6.92766, 39.861909], [-6.952827, 39.832867], [-6.985228, 39.821136], [-7.000266, 39.802533], [-6.993031, 39.774214], [-7.01334, 39.738919], [-7.009619, 39.715458], [-7.021143, 39.694012], [-7.18289, 39.675099], [-7.214051, 39.676184], [-7.235755, 39.686519], [-7.341433, 39.671843], [-7.557286, 39.679801], [-7.515841, 39.59376], [-7.451349, 39.537846], [-7.417553, 39.524204], [-7.399414, 39.493663], [-7.362931, 39.476093], [-7.320918, 39.467411], [-7.313528, 39.457438], [-7.318851, 39.413254], [-7.331925, 39.384729], [-7.326654, 39.341321], [-7.250845, 39.270627], [-7.264332, 39.252334], [-7.265779, 39.231353], [-7.244127, 39.195645], [-7.168059, 39.170633], [-7.155812, 39.151513], [-7.168886, 39.121851], [-7.157207, 39.105444], [-7.127286, 39.097485], [-7.091268, 39.112446], [-7.038816, 39.109138], [-6.999697, 39.084696], [-6.985693, 39.066764], [-6.979388, 39.047178], [-6.986313, 39.030074], [-6.973291, 39.013951], [-7.022125, 38.94287], [-7.06605, 38.904603], [-7.0522, 38.884992], [-7.056076, 38.855149], [-7.104859, 38.827192], [-7.151006, 38.819285]]], [[[-16.536773, 32.55801], [-16.542348, 32.580512], [-16.506663, 32.544176], [-16.48705, 32.491685], [-16.536773, 32.55801]]], [[[-16.806386, 32.656806], [-16.847808, 32.644029], [-16.976796, 32.647203], [-17.142974, 32.705552], [-17.180653, 32.725979], [-17.2412, 32.77912], [-17.252105, 32.814521], [-17.246449, 32.828599], [-17.184885, 32.874172], [-17.166127, 32.868476], [-17.131947, 32.839057], [-17.067983, 32.814154], [-17.014312, 32.817043], [-16.97997, 32.833238], [-16.919749, 32.841213], [-16.797475, 32.774563], [-16.747467, 32.770819], [-16.713612, 32.758612], [-16.693023, 32.766669], [-16.672678, 32.758612], [-16.749989, 32.730618], [-16.806386, 32.656806]]], [[[-16.364329, 33.034369], [-16.398346, 33.039781], [-16.398346, 33.046617], [-16.379872, 33.051337], [-16.361684, 33.090318], [-16.341298, 33.105943], [-16.317128, 33.110785], [-16.295888, 33.101264], [-16.289133, 33.10871], [-16.289784, 33.079413], [-16.27538, 33.060248], [-16.325673, 33.065823], [-16.364329, 33.034369]]], [[[-7.903961, 36.97484], [-7.860097, 37.000434], [-7.853261, 36.986762], [-7.878489, 36.970852], [-7.903879, 36.965888], [-7.955719, 36.97309], [-7.955719, 36.980536], [-7.903961, 36.97484]]], [[[-16.023101, 30.032294], [-16.02302, 30.029242], [-16.027252, 30.029608], [-16.023101, 30.032294]]], [[[-15.855458, 30.146918], [-15.859771, 30.133287], [-15.874745, 30.137926], [-15.86441, 30.152533], [-15.855458, 30.146918]]], [[[-9.035268, 38.870551], [-9.034576, 38.864203], [-9.041412, 38.849189], [-9.07315, 38.818183], [-9.079661, 38.820136], [-9.061391, 38.85224], [-9.035268, 38.870551]]]]}}, {"type": "Feature", "properties": {"name": "Gibraltar"}, "geometry": {"type": "Polygon", "coordinates": [[[-5.338773, 36.14112], [-5.34203, 36.1105], [-5.35025, 36.119289], [-5.358387, 36.141109], [-5.338773, 36.14112]]]}}, {"type": "Feature", "properties": {"name": "Jersey"}, "geometry": {"type": "Polygon", "coordinates": [[[-2.02066, 49.235256], [-2.021962, 49.225491], [-2.00829, 49.21247], [-2.020985, 49.200751], [-2.024526, 49.171332], [-2.096995, 49.183661], [-2.137929, 49.205634], [-2.152943, 49.199937], [-2.168691, 49.17829], [-2.200103, 49.191962], [-2.233632, 49.184516], [-2.226471, 49.206], [-2.241119, 49.26024], [-2.196278, 49.253404], [-2.151682, 49.267035], [-2.110666, 49.253404], [-2.082672, 49.26024], [-2.02066, 49.235256]]]}}, {"type": "Feature", "properties": {"name": "Guernsey"}, "geometry": {"type": "MultiPolygon", "coordinates": [[[[-2.518219, 49.51553], [-2.501698, 49.506659], [-2.522125, 49.479967], [-2.532786, 49.43891], [-2.541982, 49.430894], [-2.673451, 49.433498], [-2.651845, 49.445217], [-2.656565, 49.459418], [-2.650258, 49.46369], [-2.624623, 49.465725], [-2.58023, 49.493598], [-2.518219, 49.51553]]], [[[-2.3544, 49.427802], [-2.378082, 49.412746], [-2.375478, 49.435452], [-2.363759, 49.446845], [-2.3544, 49.427802]]], [[[-2.170318, 49.723212], [-2.187896, 49.710639], [-2.216868, 49.70303], [-2.226226, 49.707831], [-2.218495, 49.718695], [-2.174469, 49.731391], [-2.170318, 49.723212]]], [[[-2.447825, 49.483954], [-2.445221, 49.474595], [-2.453359, 49.462144], [-2.453684, 49.481879], [-2.447825, 49.483954]]]]}}]}