{"type": "FeatureCollection", "features": [{"type": "Feature", "properties": {"name": "Canada"}, "geometry": {"type": "MultiPolygon", "coordinates": [[[[-77.668406, 70.061347], [-77.669871, 70.089911], [-77.69636, 70.153876], [-77.682566, 70.183661], [-77.703928, 70.201239], [-77.741038, 70.214911], [-77.798207, 70.251125], [-77.847768, 70.245673], [-77.89155, 70.263739], [-78.055735, 70.222113], [-78.12092, 70.250067], [-78.196604, 70.256903], [-78.196604, 70.250067], [-78.134023, 70.225328], [-78.152211, 70.202297], [-78.241526, 70.212633], [-78.230784, 70.22956], [-78.299021, 70.222113], [-78.329783, 70.202297], [-78.408274, 70.215888], [-78.394602, 70.22956], [-78.42748, 70.257392], [-78.539255, 70.312161], [-78.489735, 70.320461], [-78.470041, 70.331977], [-78.405751, 70.33218], [-78.388417, 70.338813], [-78.535878, 70.356594], [-78.58019, 70.345649], [-78.586415, 70.338813], [-78.559071, 70.318345], [-78.581654, 70.314439], [-78.66279, 70.353095], [-78.634836, 70.379788], [-78.699656, 70.382514], [-78.741567, 70.42768], [-78.74824, 70.441352], [-78.7447, 70.456122], [-78.833323, 70.447089], [-78.860789, 70.456122], [-78.880971, 70.482408], [-78.891794, 70.479722], [-78.909128, 70.448717], [-78.893625, 70.443183], [-78.867543, 70.414537], [-78.897043, 70.416897], [-78.964426, 70.456122], [-79.034535, 70.458808], [-79.073679, 70.47663], [-79.046335, 70.489651], [-79.075673, 70.489936], [-79.100942, 70.503323], [-79.068105, 70.505032], [-79.038889, 70.517646], [-79.057078, 70.530666], [-79.079905, 70.531236], [-79.079905, 70.538072], [-78.926503, 70.53852], [-78.881907, 70.551703], [-78.903879, 70.557603], [-78.981313, 70.554633], [-78.997914, 70.558539], [-78.997914, 70.565375], [-78.95759, 70.569403], [-78.881785, 70.600775], [-78.840891, 70.599514], [-78.781728, 70.556342], [-78.717356, 70.551703], [-78.78364, 70.577053], [-78.80016, 70.609442], [-78.839915, 70.635688], [-78.857655, 70.64053], [-78.884958, 70.626207], [-78.959055, 70.630805], [-78.99531, 70.64997], [-79.00536, 70.667792], [-78.997914, 70.674628], [-79.015818, 70.682115], [-79.155466, 70.631781], [-79.156199, 70.620022], [-79.127919, 70.613186], [-79.013173, 70.631008], [-79.003245, 70.618598], [-79.052561, 70.579047], [-79.111195, 70.548285], [-79.128245, 70.52383], [-79.176096, 70.517646], [-79.142527, 70.510728], [-79.156199, 70.497056], [-79.148752, 70.456122], [-79.159901, 70.443101], [-79.213368, 70.420803], [-79.285227, 70.443264], [-79.34675, 70.448717], [-79.334421, 70.455471], [-79.316843, 70.448554], [-79.29308, 70.455227], [-79.305776, 70.473212], [-79.296254, 70.493801], [-79.224477, 70.531236], [-79.238108, 70.544867], [-79.230662, 70.558539], [-79.313222, 70.544867], [-79.279042, 70.52383], [-79.297231, 70.514146], [-79.316599, 70.483222], [-79.343617, 70.47663], [-79.39094, 70.493964], [-79.424306, 70.492255], [-79.388987, 70.462958], [-79.406443, 70.439846], [-79.503855, 70.460679], [-79.575063, 70.436225], [-79.587595, 70.428209], [-79.591257, 70.411322], [-79.565134, 70.390204], [-79.469309, 70.371039], [-79.450144, 70.352729], [-79.374216, 70.373114], [-79.33141, 70.368476], [-79.289784, 70.355902], [-79.224721, 70.32099], [-79.128041, 70.309231], [-79.08727, 70.318345], [-79.084177, 70.341051], [-79.046335, 70.342515], [-78.970652, 70.325141], [-78.925364, 70.302069], [-78.867991, 70.254828], [-78.755686, 70.182196], [-78.750925, 70.133979], [-78.731028, 70.11286], [-78.736643, 70.077704], [-78.690053, 70.051459], [-78.66511, 70.013821], [-78.66532214477132, 70.0], [-80.0, 70.0], [-80.0, 72.18144650818952], [-79.937001, 72.164862], [-79.676381, 72.127631], [-79.695994, 72.147162], [-79.731191, 72.157538], [-79.83849, 72.166449], [-79.930165, 72.19595], [-80.0, 72.2300726355532], [-80.0, 72.40258662163399], [-79.926584, 72.409613], [-79.874949, 72.428697], [-79.8603, 72.447089], [-79.868113, 72.4914], [-79.848948, 72.503363], [-79.818837, 72.506415], [-79.765696, 72.497626], [-79.786204, 72.483954], [-79.773793, 72.47724], [-79.732126, 72.489081], [-79.690623, 72.470282], [-79.768056, 72.43476], [-79.772532, 72.415676], [-79.753, 72.401435], [-79.655832, 72.374091], [-79.670155, 72.360419], [-79.647206, 72.359809], [-79.593821, 72.340522], [-79.655141, 72.28913], [-79.738759, 72.266913], [-79.773549, 72.248725], [-79.780019, 72.236884], [-79.768015, 72.222357], [-79.714915, 72.218248], [-79.696848, 72.223212], [-79.71113, 72.236884], [-79.607004, 72.275295], [-79.545644, 72.275092], [-79.508412, 72.26081], [-79.476755, 72.202948], [-79.464182, 72.193671], [-79.450388, 72.19595], [-79.456288, 72.227444], [-79.481923, 72.263129], [-79.545969, 72.292141], [-79.490102, 72.300605], [-79.493886, 72.307563], [-79.484568, 72.326321], [-79.389475, 72.357896], [-79.364084, 72.372748], [-79.368479, 72.395168], [-79.331614, 72.402289], [-79.283396, 72.394436], [-79.12678, 72.341864], [-79.042429, 72.287828], [-78.957224, 72.283108], [-78.95051, 72.275824], [-78.984853, 72.244086], [-78.984242, 72.230658], [-78.943308, 72.19595], [-79.003407, 72.154731], [-79.038889, 72.072984], [-79.116038, 72.034817], [-79.142527, 72.005927], [-79.209462, 71.989325], [-79.230662, 71.976264], [-79.152455, 71.955715], [-79.066518, 71.976264], [-78.718943, 71.923285], [-78.591868, 71.870103], [-78.545481, 71.86164], [-78.504465, 71.874457], [-78.590159, 71.904853], [-78.601511, 71.942572], [-78.760325, 71.95954], [-78.815745, 71.972317], [-78.914418, 72.014146], [-78.916005, 72.03144], [-78.881907, 72.058783], [-78.875071, 72.093492], [-78.862009, 72.105902], [-78.880198, 72.159003], [-78.875071, 72.168647], [-78.858144, 72.174221], [-78.830434, 72.172675], [-78.504465, 72.100328], [-78.466501, 72.076972], [-78.437734, 72.045396], [-78.388417, 71.970038], [-78.384877, 71.940497], [-78.208974, 71.823798], [-78.123891, 71.812445], [-78.04719, 71.787502], [-77.90864, 71.771389], [-77.90864, 71.778225], [-78.065867, 71.809638], [-78.171254, 71.850409], [-78.226999, 71.891181], [-78.298818, 71.917182], [-78.312693, 71.929023], [-78.308339, 71.949856], [-78.153554, 71.972398], [-78.137929, 71.96662], [-78.134511, 71.942694], [-77.988759, 71.879706], [-77.976918, 71.847113], [-77.93163, 71.824774], [-77.819651, 71.804023], [-77.770823, 71.778225], [-77.747629, 71.751695], [-77.730092, 71.79621], [-77.69636, 71.812323], [-77.713368, 71.819241], [-77.786733, 71.821845], [-77.889231, 71.843695], [-77.942128, 71.867621], [-78.017893, 71.91885], [-78.091624, 71.943183], [-78.106638, 71.955715], [-78.098866, 71.968004], [-78.124867, 71.976752], [-78.186106, 71.983629], [-78.294504, 71.976549], [-78.326365, 71.990465], [-78.338368, 72.004299], [-78.353627, 72.052558], [-78.374582, 72.083564], [-78.429026, 72.119859], [-78.683787, 72.165717], [-78.875071, 72.230658], [-78.767079, 72.265204], [-78.750925, 72.285305], [-78.759104, 72.299384], [-78.812937, 72.312649], [-78.817454, 72.32274], [-78.804758, 72.33808], [-78.717356, 72.333075], [-78.604319, 72.357815], [-78.536733, 72.345893], [-78.511912, 72.326321], [-78.539255, 72.305732], [-78.527333, 72.290351], [-78.531809, 72.251166], [-78.520375, 72.235256], [-78.456736, 72.217027], [-78.456248, 72.193671], [-78.427561, 72.179429], [-78.397165, 72.176337], [-78.39155, 72.186347], [-78.422556, 72.203355], [-78.41572, 72.223212], [-78.476552, 72.24433], [-78.455678, 72.28266], [-78.470937, 72.318834], [-78.408803, 72.329047], [-78.020619, 72.279608], [-78.008616, 72.269355], [-78.024648, 72.251166], [-77.915476, 72.264228], [-77.785105, 72.24433], [-77.691355, 72.21662], [-77.654978, 72.194241], [-77.668406, 72.168647], [-77.626047, 72.148383], [-77.620595, 72.137885], [-77.660959, 72.107815], [-77.660959, 72.100328], [-77.639719, 72.103217], [-77.599843, 72.125434], [-77.586497, 72.141303], [-77.620595, 72.175442], [-77.589589, 72.183295], [-77.298451, 72.189765], [-77.180247, 72.160386], [-76.997426, 72.134467], [-77.131785, 72.172675], [-77.271799, 72.19595], [-77.5478, 72.199205], [-77.626047, 72.227973], [-77.686838, 72.236314], [-77.826039, 72.277899], [-77.94164, 72.292141], [-78.000925, 72.310126], [-78.227122, 72.337592], [-78.532094, 72.425605], [-78.554758, 72.44481], [-78.544871, 72.486762], [-78.559071, 72.510647], [-78.535146, 72.514635], [-78.456736, 72.555609], [-78.443064, 72.586982], [-78.427439, 72.593736], [-78.374745, 72.593817], [-78.188914, 72.653551], [-78.024648, 72.675727], [-77.977122, 72.698432], [-77.799387, 72.704169], [-77.601023, 72.755805], [-76.889109, 72.743476], [-76.783518, 72.729478], [-76.675282, 72.689399], [-76.658396, 72.666449], [-76.662424, 72.65762], [-76.681508, 72.655219], [-76.651967, 72.638739], [-76.196848, 72.59927], [-76.169504, 72.591132], [-76.15453, 72.579535], [-76.153757, 72.566392], [-76.168202, 72.53856], [-76.126658, 72.4914], [-76.102976, 72.479682], [-76.037221, 72.4914], [-76.071848, 72.546332], [-76.069692, 72.555325], [-76.037058, 72.562812], [-75.990061, 72.586982], [-75.93989, 72.592231], [-75.735056, 72.582587], [-75.543568, 72.552558], [-75.47407, 72.529242], [-75.198354, 72.497626], [-75.190989, 72.492825], [-75.194936, 72.45661], [-75.167063, 72.436184], [-75.153391, 72.415676], [-75.070017, 72.358547], [-75.041941, 72.32274], [-74.941721, 72.257392], [-75.030344, 72.215318], [-75.029856, 72.203355], [-75.063303, 72.186469], [-75.245961, 72.128485], [-75.281809, 72.124091], [-75.477895, 72.14704], [-75.63915, 72.145087], [-76.028757, 72.08869], [-76.06843, 72.075873], [-76.096628, 72.034491], [-76.15217, 71.989081], [-76.283681, 71.945502], [-76.359975, 71.888088], [-76.414622, 71.860785], [-76.384958, 71.851508], [-76.358103, 71.855943], [-76.252431, 71.929755], [-76.086659, 71.988959], [-76.058339, 72.010932], [-76.034413, 72.043891], [-76.005076, 72.059394], [-75.657704, 72.124335], [-75.513173, 72.125556], [-75.242055, 72.083441], [-75.222279, 72.069281], [-75.245066, 72.051215], [-75.296702, 72.039496], [-75.539133, 72.019355], [-75.585398, 72.004096], [-75.622507, 71.972886], [-75.637563, 71.910468], [-75.675404, 71.894232], [-75.702097, 71.860785], [-75.691843, 71.843451], [-75.764882, 71.794989], [-75.804514, 71.757758], [-75.873647, 71.726752], [-76.024973, 71.717515], [-76.099924, 71.703111], [-76.099924, 71.696275], [-75.995798, 71.709052], [-75.931711, 71.703111], [-75.866444, 71.707953], [-75.805124, 71.726386], [-75.713612, 71.795071], [-75.671376, 71.816718], [-75.653635, 71.832831], [-75.633249, 71.875922], [-75.574534, 71.918687], [-75.566518, 71.935004], [-75.574167, 71.968004], [-75.550649, 71.983547], [-75.460642, 72.009182], [-75.29308, 72.004381], [-75.196034, 72.024237], [-75.16393, 72.041978], [-75.127431, 72.090155], [-75.063181, 72.128241], [-75.020212, 72.133734], [-74.892323, 72.110989], [-74.315623, 72.088772], [-74.242258, 72.079901], [-74.22175, 72.058783], [-74.17394, 72.03144], [-74.118031, 71.967231], [-74.122426, 71.955715], [-74.193796, 71.929023], [-74.209096, 71.916002], [-74.181386, 71.894232], [-74.172922, 71.865424], [-74.214955, 71.837144], [-74.262685, 71.81977], [-74.413808, 71.806138], [-74.491648, 71.812323], [-74.551381, 71.831977], [-74.577992, 71.825995], [-74.55073, 71.798733], [-74.653432, 71.774807], [-74.70991, 71.738918], [-74.844919, 71.729804], [-74.90453, 71.712063], [-75.051584, 71.722968], [-75.351796, 71.700141], [-75.377756, 71.69184], [-75.394236, 71.675198], [-75.085072, 71.703111], [-74.970082, 71.691474], [-74.941721, 71.675198], [-74.939768, 71.661689], [-75.414052, 71.52497], [-75.394724, 71.519192], [-75.311635, 71.545478], [-75.201853, 71.5539], [-75.045522, 71.605536], [-74.89863, 71.625637], [-74.842844, 71.666083], [-74.799509, 71.683987], [-74.715566, 71.701565], [-74.680735, 71.699368], [-74.649403, 71.67886], [-74.634592, 71.655097], [-74.677317, 71.610012], [-74.732249, 71.582994], [-74.788401, 71.571682], [-74.807322, 71.554145], [-74.830556, 71.549262], [-75.019602, 71.542711], [-75.133738, 71.492418], [-75.153391, 71.469713], [-75.127919, 71.47191], [-75.064646, 71.510688], [-75.025502, 71.520657], [-74.843699, 71.523261], [-74.821482, 71.513251], [-74.825022, 71.49018], [-74.843088, 71.478095], [-74.92809, 71.456041], [-74.812001, 71.452216], [-74.744862, 71.441067], [-74.715159, 71.418199], [-74.704661, 71.394924], [-74.721995, 71.377265], [-74.786692, 71.364691], [-74.800852, 71.343085], [-74.889272, 71.298814], [-74.919993, 71.270697], [-75.0006, 71.241156], [-75.032094, 71.215155], [-75.098744, 71.19538], [-75.076772, 71.183743], [-75.045888, 71.187201], [-74.8933, 71.24726], [-74.825022, 71.292182], [-74.753855, 71.322089], [-74.630971, 71.390204], [-74.629506, 71.418199], [-74.730417, 71.478176], [-74.742502, 71.514106], [-74.72822, 71.544176], [-74.618967, 71.558498], [-74.522654, 71.662584], [-74.419016, 71.67121], [-74.317942, 71.709906], [-74.282053, 71.734565], [-74.136057, 71.743476], [-74.108347, 71.73786], [-74.099965, 71.728013], [-74.12092, 71.688137], [-74.142283, 71.669745], [-74.232045, 71.637519], [-74.246042, 71.625678], [-74.24946, 71.608791], [-74.249013, 71.582994], [-74.235911, 71.565741], [-74.145985, 71.538642], [-74.199656, 71.589667], [-74.216786, 71.620917], [-74.113596, 71.652737], [-74.064076, 71.703111], [-73.996042, 71.754218], [-73.905873, 71.775621], [-73.721506, 71.778225], [-73.70226, 71.773383], [-73.687367, 71.758857], [-73.681101, 71.742011], [-73.687937, 71.722968], [-73.680491, 71.722968], [-73.657094, 71.758857], [-73.620961, 71.772528], [-73.596425, 71.763902], [-73.608225, 71.733466], [-73.625356, 71.719306], [-73.802927, 71.658026], [-73.79658, 71.634833], [-73.805409, 71.628485], [-73.876658, 71.61636], [-73.899607, 71.579535], [-73.975331, 71.545478], [-74.000356, 71.501614], [-74.016306, 71.49018], [-73.982126, 71.476549], [-73.996165, 71.461819], [-74.102366, 71.46601], [-74.317942, 71.415107], [-74.291453, 71.408271], [-74.181386, 71.435614], [-74.029978, 71.442369], [-74.070383, 71.397691], [-74.064076, 71.380316], [-74.072092, 71.337348], [-74.181386, 71.31269], [-74.181386, 71.305243], [-74.102244, 71.304999], [-74.090769, 71.295356], [-74.096506, 71.282782], [-74.156972, 71.244778], [-74.242258, 71.209662], [-74.242258, 71.202826], [-74.186472, 71.219916], [-74.002878, 71.326321], [-73.995066, 71.343411], [-74.00886, 71.370754], [-73.954539, 71.432196], [-73.909983, 71.44477], [-73.899607, 71.456041], [-73.90217, 71.482978], [-73.867299, 71.518866], [-73.86616, 71.535346], [-73.758412, 71.580024], [-73.687937, 71.593248], [-73.621653, 71.583157], [-73.563791, 71.558498], [-73.619578, 71.517239], [-73.611684, 71.485745], [-73.653188, 71.442369], [-73.634023, 71.435981], [-73.58613, 71.395575], [-73.638905, 71.3605], [-73.526235, 71.380316], [-73.50239, 71.428778], [-73.461497, 71.441881], [-73.427235, 71.439032], [-73.421986, 71.420844], [-73.378855, 71.387152], [-73.493601, 71.371527], [-73.50829, 71.360175], [-73.505727, 71.343085], [-73.520985, 71.331122], [-73.570912, 71.315823], [-73.66157, 71.26675], [-73.687937, 71.243801], [-73.680002, 71.232123], [-73.687937, 71.215888], [-73.680491, 71.209662], [-73.71467, 71.174872], [-73.71467, 71.119696], [-73.747507, 71.089748], [-73.855906, 71.076565], [-73.899607, 71.059475], [-73.880849, 71.05329], [-73.837717, 71.06566], [-73.727284, 71.074856], [-73.694163, 71.086127], [-73.667104, 71.107367], [-73.660024, 71.182318], [-73.635813, 71.206244], [-73.622141, 71.233222], [-73.55016, 71.270453], [-73.531199, 71.290432], [-73.468577, 71.300035], [-73.438669, 71.313544], [-73.429758, 71.333197], [-73.440907, 71.346829], [-73.253896, 71.330024], [-73.175852, 71.307929], [-73.160756, 71.291083], [-73.120107, 71.29682], [-73.06489, 71.282701], [-73.049875, 71.270453], [-73.227122, 71.246812], [-73.276438, 71.223334], [-73.248118, 71.194322], [-73.241648, 71.154446], [-73.29011, 71.099799], [-73.427683, 71.054877], [-73.454579, 71.031562], [-73.378855, 70.9831], [-73.372304, 71.001654], [-73.401316, 71.026028], [-73.399892, 71.045152], [-73.373362, 71.056871], [-73.287424, 71.071601], [-73.26122, 71.105536], [-73.200673, 71.140774], [-73.170277, 71.171454], [-73.187082, 71.206244], [-73.169016, 71.227281], [-73.030507, 71.232611], [-72.995351, 71.254218], [-72.970041, 71.287299], [-72.960439, 71.336249], [-72.964345, 71.358629], [-72.994618, 71.40766], [-72.935658, 71.419379], [-72.811838, 71.41828], [-72.755076, 71.435614], [-72.777781, 71.471829], [-72.817942, 71.488023], [-72.837595, 71.510688], [-72.638987, 71.545478], [-72.618235, 71.573432], [-72.600779, 71.63642], [-72.58434, 71.655341], [-72.549428, 71.665107], [-72.472605, 71.647284], [-71.920115, 71.574286], [-71.782664, 71.534613], [-71.581899, 71.515082], [-71.544301, 71.505113], [-71.527943, 71.490546], [-71.418691, 71.456041], [-71.432973, 71.435614], [-71.287546, 71.384345], [-71.117055, 71.270453], [-71.154368, 71.244045], [-71.240183, 71.215155], [-71.292551, 71.184231], [-71.343577, 71.168036], [-71.445017, 71.073472], [-71.47053, 71.06566], [-71.619944, 71.071967], [-71.710886, 71.096869], [-71.860951, 71.113471], [-72.045115, 71.084784], [-72.112172, 71.058173], [-72.118235, 71.04857], [-72.10029, 71.020982], [-72.130727, 71.006781], [-72.182444, 70.965766], [-72.297353, 70.947089], [-72.323679, 70.927883], [-72.311269, 70.911444], [-72.320017, 70.897162], [-72.356272, 70.87873], [-72.748484, 70.827338], [-72.776112, 70.81802], [-72.476877, 70.837836], [-72.303171, 70.873236], [-72.165354, 70.839748], [-72.169016, 70.826809], [-72.273508, 70.775133], [-72.33727, 70.757799], [-72.316233, 70.729885], [-72.364613, 70.68891], [-72.490305, 70.651435], [-72.582509, 70.646186], [-72.624705, 70.633694], [-72.608632, 70.627997], [-72.556386, 70.633694], [-72.570668, 70.613186], [-72.531687, 70.617092], [-72.477976, 70.64643], [-72.391916, 70.65412], [-72.327707, 70.674872], [-72.21052, 70.764635], [-71.953114, 70.791327], [-71.821645, 70.827216], [-71.729482, 70.838039], [-71.590647, 70.873236], [-71.322825, 70.887193], [-71.298818, 70.885321], [-71.215037, 70.855292], [-71.174387, 70.857164], [-71.181386, 70.867377], [-71.254221, 70.900214], [-71.289011, 70.908026], [-71.274363, 70.932115], [-71.234568, 70.954657], [-71.201853, 71.006985], [-71.15095, 71.037746], [-70.982981, 71.071112], [-70.861643, 71.109076], [-70.787221, 71.114569], [-70.713572, 71.103949], [-70.621449, 71.069322], [-70.586374, 71.034613], [-70.572703, 70.993638], [-70.530832, 70.959215], [-70.516428, 70.937079], [-70.521189, 70.914252], [-70.544016, 70.897447], [-70.712961, 70.839748], [-70.747751, 70.798774], [-70.749013, 70.754788], [-70.805531, 70.724351], [-71.067454, 70.676215], [-71.103383, 70.660956], [-71.141469, 70.604438], [-71.163645, 70.590766], [-71.212229, 70.581855], [-71.526235, 70.62051], [-71.576365, 70.613186], [-71.596059, 70.603013], [-71.579294, 70.569525], [-71.593332, 70.547919], [-71.727162, 70.497056], [-71.741567, 70.481757], [-71.747996, 70.448879], [-71.889353, 70.44245], [-71.932485, 70.436754], [-71.967356, 70.421373], [-71.937449, 70.4147], [-71.812856, 70.435004], [-71.729848, 70.425482], [-71.744985, 70.357123], [-71.769765, 70.328111], [-71.850697, 70.297838], [-71.82372, 70.293687], [-71.753529, 70.314643], [-71.671946, 70.372992], [-71.675526, 70.39057], [-71.665842, 70.414537], [-71.637807, 70.456122], [-71.658884, 70.469794], [-71.558217, 70.514716], [-71.508046, 70.54564], [-71.514882, 70.579047], [-71.451609, 70.586615], [-71.391428, 70.571601], [-71.439768, 70.558539], [-71.419993, 70.552476], [-71.343251, 70.565375], [-71.183176, 70.543118], [-71.168894, 70.535102], [-71.165476, 70.517646], [-71.242014, 70.418199], [-71.275014, 70.342515], [-71.310007, 70.331366], [-71.32311, 70.318345], [-71.320017, 70.304877], [-71.274648, 70.269924], [-71.312571, 70.225816], [-71.371531, 70.195461], [-71.367258, 70.180365], [-71.377146, 70.169745], [-71.418772, 70.156928], [-71.439768, 70.126614], [-71.405019, 70.133979], [-71.4204, 70.116197], [-71.50121, 70.085598], [-71.542226, 70.024115], [-71.522654, 70.027899], [-71.456736, 70.081366], [-71.352976, 70.123277], [-71.340037, 70.132799], [-71.309682, 70.188788], [-71.247996, 70.222113], [-71.245839, 70.233588], [-71.210072, 70.271226], [-71.227895, 70.28266], [-71.233713, 70.294135], [-71.228342, 70.304633], [-71.192738, 70.331977], [-71.192738, 70.353095], [-71.143625, 70.405748], [-71.127919, 70.438422], [-71.075551, 70.490668], [-71.062449, 70.510728], [-71.069895, 70.517646], [-70.987294, 70.531236], [-71.056223, 70.551703], [-71.012929, 70.591986], [-71.007192, 70.616604], [-70.985341, 70.633694], [-70.843332, 70.647935], [-70.69286, 70.703762], [-70.64448, 70.711982], [-70.61738, 70.729885], [-70.513499, 70.741848], [-70.397654, 70.784491], [-70.236277, 70.800971], [-69.914988, 70.879869], [-69.875925, 70.884345], [-69.818959, 70.877631], [-69.781687, 70.866156], [-69.774485, 70.856187], [-69.80724, 70.814846], [-69.867543, 70.776435], [-69.956532, 70.734524], [-70.205759, 70.656684], [-70.282216, 70.642483], [-70.40807, 70.642564], [-70.448679, 70.635199], [-70.480214, 70.613186], [-70.452952, 70.592719], [-70.451283, 70.572211], [-70.405344, 70.540839], [-70.401072, 70.527533], [-70.421457, 70.512641], [-70.494496, 70.489651], [-70.494496, 70.482856], [-70.453481, 70.478746], [-70.361887, 70.500474], [-70.309519, 70.503323], [-70.328969, 70.53852], [-70.411977, 70.60635], [-70.393625, 70.614691], [-70.192494, 70.620022], [-70.076161, 70.613186], [-70.053049, 70.635159], [-70.040883, 70.596625], [-69.979929, 70.65412], [-69.901357, 70.667426], [-69.855946, 70.689683], [-69.801259, 70.683092], [-69.774485, 70.68891], [-69.808665, 70.702582], [-69.782175, 70.719184], [-69.75768, 70.714097], [-69.712392, 70.68891], [-69.681833, 70.68537], [-69.666575, 70.692572], [-69.65099, 70.729885], [-69.61616, 70.763617], [-69.473459, 70.791327], [-69.40453, 70.791327], [-69.410756, 70.777045], [-69.272328, 70.786607], [-69.202952, 70.779364], [-69.126698, 70.732856], [-69.097849, 70.72309], [-68.362253, 70.584296], [-68.290517, 70.553778], [-68.280507, 70.517646], [-68.2978, 70.496894], [-68.384592, 70.457506], [-68.393381, 70.433661], [-68.435374, 70.422431], [-68.458608, 70.372992], [-68.487375, 70.369208], [-68.565989, 70.394477], [-68.582143, 70.411119], [-68.548044, 70.44184], [-68.552195, 70.461412], [-68.591298, 70.466986], [-68.630198, 70.455146], [-68.672963, 70.423489], [-68.652903, 70.382554], [-68.652781, 70.361802], [-68.68456, 70.331977], [-68.720041, 70.322333], [-68.836659, 70.314276], [-68.905385, 70.296942], [-69.013783, 70.304877], [-69.097279, 70.282131], [-69.212473, 70.284247], [-69.363596, 70.256903], [-69.470204, 70.248114], [-69.504587, 70.225165], [-69.616892, 70.215888], [-69.724558, 70.180406], [-69.808339, 70.166693], [-69.832631, 70.152777], [-69.842763, 70.126614], [-69.90095, 70.093248], [-70.088612, 70.068264], [-70.156606, 70.045478], [-70.17748, 70.032538], [-70.179921, 70.020453], [-70.151235, 70.01675], [-70.117543, 70.025458], [-70.062205, 70.057807], [-70.027699, 70.065131], [-69.950917, 70.059231], [-69.876902, 70.044013], [-69.855946, 70.032538], [-69.82298328062772, 70.0], [-77.6952732256372, 70.0], [-77.668406, 70.061347]]], [[[-69.740346, 70.003079], [-69.801503, 70.043891], [-69.801829, 70.068264], [-69.770212, 70.101142], [-69.683176, 70.139594], [-69.208852, 70.192939], [-69.157541, 70.188666], [-69.079335, 70.168647], [-69.037424, 70.16767], [-69.013539, 70.188666], [-69.111684, 70.201361], [-69.130198, 70.215888], [-69.100168, 70.22012], [-68.95698, 70.199286], [-68.706532, 70.209418], [-68.678334, 70.202297], [-68.643625, 70.14704], [-68.760325, 70.106024], [-68.732371, 70.078803], [-68.790598, 70.041164], [-68.864939, 70.019436], [-68.97759976327349, 70.0], [-69.740488907173, 70.0], [-69.740346, 70.003079]]], [[[-68.533762, 70.037177], [-68.553456, 70.037095], [-68.565378, 70.044501], [-68.564931, 70.053412], [-68.458608, 70.051459], [-68.45519, 70.068264], [-68.441029, 70.073554], [-68.39037, 70.065131], [-68.336903, 70.068834], [-68.28425, 70.084215], [-68.191111, 70.126614], [-68.3249, 70.142483], [-68.331532, 70.147895], [-68.293528, 70.161322], [-68.293528, 70.167548], [-68.349599, 70.172675], [-68.348744, 70.188666], [-68.339426, 70.194322], [-68.293528, 70.188666], [-68.323069, 70.223375], [-68.176218, 70.283026], [-68.149485, 70.300116], [-68.156972, 70.318345], [-68.054636, 70.325141], [-68.033437, 70.304674], [-68.00536, 70.294135], [-67.864369, 70.278388], [-67.808542, 70.263739], [-67.586497, 70.159003], [-67.546091, 70.14761], [-67.430776, 70.071357], [-67.411204, 70.071723], [-67.403513, 70.065131], [-67.417104, 70.065131], [-67.378041, 70.045111], [-67.362538, 70.029446], [-67.361887, 70.013617], [-67.34191715627686, 70.0], [-68.59866940563323, 70.0], [-68.533762, 70.037177]]], [[[-71.366322, 71.016059], [-71.343495, 71.007636], [-71.348744, 70.984687], [-71.398793, 70.949612], [-71.385976, 70.929348], [-71.406077, 70.916571], [-71.624664, 70.90119], [-71.898427, 70.852769], [-71.967275, 70.81802], [-72.002065, 70.811916], [-72.090688, 70.812323], [-72.118153, 70.825426], [-72.121246, 70.856187], [-72.186757, 70.882514], [-72.228017, 70.921698], [-72.228017, 70.935289], [-72.179799, 70.942084], [-72.131825, 70.935289], [-72.151682, 70.927883], [-72.125315, 70.920966], [-72.067494, 70.931627], [-72.037099, 70.961493], [-72.014556, 71.022691], [-72.021962, 71.045152], [-71.859731, 71.078559], [-71.830149, 71.072455], [-71.836985, 71.06566], [-71.817535, 71.059231], [-71.507965, 71.017279], [-71.366322, 71.016059]]], [[[-72.898997, 71.476549], [-72.817047, 71.448635], [-72.8544, 71.435207], [-72.939809, 71.433783], [-73.024159, 71.412299], [-73.029286, 71.397691], [-73.00886, 71.3605], [-73.015614, 71.346829], [-72.978871, 71.325751], [-73.004954, 71.302924], [-73.053578, 71.296373], [-73.084706, 71.308417], [-73.08788, 71.317939], [-73.080556, 71.32453], [-73.063466, 71.325751], [-73.123402, 71.338935], [-73.207021, 71.344387], [-73.266835, 71.364407], [-73.255238, 71.421332], [-73.28718, 71.42768], [-73.295522, 71.434638], [-73.290028, 71.448635], [-73.307362, 71.462388], [-73.371938, 71.49018], [-73.366322, 71.501654], [-73.378774, 71.517524], [-73.352447, 71.533637], [-73.171864, 71.573228], [-73.100901, 71.55329], [-73.077138, 71.538642], [-73.122548, 71.479967], [-73.169504, 71.464993], [-73.180084, 71.452338], [-73.172597, 71.435045], [-73.139312, 71.420844], [-73.121571, 71.45661], [-73.038686, 71.48725], [-72.992177, 71.518988], [-72.953603, 71.517524], [-72.898997, 71.476549]]], [[[-72.708485, 71.656887], [-72.68932, 71.643988], [-72.658762, 71.600043], [-72.726796, 71.547431], [-72.765289, 71.528998], [-72.995473, 71.556708], [-73.043568, 71.586412], [-72.988515, 71.627387], [-72.926259, 71.655341], [-72.708485, 71.656887]]], [[[-79.950022, 73.710395], [-79.646067, 73.680121], [-79.450307, 73.635321], [-78.974273, 73.635321], [-78.908681, 73.657538], [-78.846303, 73.666327], [-78.76537, 73.655341], [-78.113759, 73.665717], [-77.863515, 73.609565], [-77.428131, 73.559556], [-77.32079, 73.514716], [-77.21349, 73.51081], [-77.148264, 73.477688], [-77.161855, 73.464016], [-77.031565, 73.402533], [-77.066274, 73.381496], [-77.039866, 73.358832], [-76.904286, 73.325019], [-76.84968, 73.333686], [-76.757192, 73.320624], [-76.747548, 73.327135], [-76.714426, 73.322496], [-76.701975, 73.306342], [-76.750356, 73.298896], [-76.727406, 73.277777], [-76.583567, 73.219224], [-76.586497, 73.204535], [-76.634267, 73.169827], [-76.490834, 73.122382], [-76.271637, 73.102118], [-76.243276, 73.093451], [-76.304921, 73.07274], [-76.318959, 73.059963], [-76.277415, 73.052476], [-76.297719, 73.037746], [-76.325185, 73.03266], [-76.263743, 72.998481], [-76.332631, 72.970526], [-76.266225, 72.944281], [-76.11734, 72.941718], [-76.058258, 72.901679], [-76.0985, 72.889228], [-76.106028, 72.878852], [-76.085561, 72.867499], [-76.125071, 72.846991], [-76.220448, 72.837348], [-76.318959, 72.816718], [-76.663889, 72.826809], [-76.733713, 72.841702], [-76.818918, 72.833238], [-77.319407, 72.855902], [-77.423329, 72.882758], [-78.040313, 72.895331], [-78.116933, 72.889228], [-78.170888, 72.898627], [-78.641672, 72.852484], [-78.709584, 72.830512], [-78.86852, 72.810858], [-78.94286, 72.791815], [-79.175445, 72.754584], [-79.39094, 72.741767], [-79.56843, 72.759833], [-79.827789, 72.833238], [-79.948638, 72.84748], [-80.0, 72.87042978011358], [-80.0, 73.72673576625063], [-79.950022, 73.710395]]], [[[-78.87385, 76.111151], [-78.812571, 76.100043], [-78.799875, 76.084866], [-78.825551, 76.062242], [-78.860707, 76.047309], [-79.144114, 75.980292], [-79.176015, 75.957953], [-79.169667, 75.937486], [-79.148061, 75.924954], [-78.874989, 75.855536], [-78.896474, 75.842597], [-78.971425, 75.84809], [-79.050526, 75.841132], [-79.073598, 75.84809], [-79.025217, 75.869818], [-79.04662, 75.876166], [-79.113149, 75.869818], [-79.279164, 75.876532], [-79.42984, 75.84809], [-79.410308, 75.836249], [-79.340443, 75.828803], [-79.43814, 75.795356], [-79.456532, 75.80093], [-79.456532, 75.814521], [-79.476959, 75.820461], [-79.593739, 75.821357], [-79.566396, 75.844957], [-79.586903, 75.861558], [-79.651194, 75.870022], [-79.723134, 75.862372], [-79.752024, 75.882799], [-79.632965, 75.893052], [-79.601186, 75.903266], [-79.583119, 75.916083], [-79.593739, 75.937445], [-79.583485, 75.948147], [-79.502187, 75.961982], [-79.409779, 76.004706], [-79.320221, 76.016059], [-79.26476, 76.033637], [-79.272206, 76.047309], [-79.253, 76.058743], [-79.14566, 76.083075], [-79.068186, 76.124701], [-78.895416, 76.122992], [-78.87385, 76.111151]]], [[[-79.43932, 74.923041], [-79.334299, 74.903388], [-79.356313, 74.885565], [-79.395172, 74.876288], [-79.815785, 74.835354], [-79.909047, 74.813951], [-80.0, 74.83138627608366], [-80.0, 74.9902296601809], [-79.779937, 75.032457], [-79.59203, 75.020575], [-79.504994, 74.998969], [-79.56017, 74.991523], [-79.43932, 74.923041]]], [[[-79.978668, 75.549872], [-79.950022, 75.540229], [-79.995473, 75.524237], [-80.0, 75.52369606799051], [-80.0, 75.54944238771655], [-79.978668, 75.549872]]], [[[-79.64981, 75.469794], [-79.573842, 75.451483], [-79.659739, 75.450019], [-79.683095, 75.43773], [-79.596506, 75.401923], [-79.520619, 75.395697], [-79.491322, 75.382514], [-79.493479, 75.368109], [-79.532867, 75.355211], [-79.51183, 75.348456], [-79.532582, 75.327338], [-79.60025, 75.318752], [-79.614858, 75.303697], [-79.591054, 75.289944], [-79.443512, 75.287014], [-79.453359, 75.272447], [-79.51183, 75.252183], [-79.516916, 75.229234], [-79.605865, 75.197821], [-79.628489, 75.180243], [-79.751332, 75.170233], [-79.833648, 75.173163], [-79.834584, 75.163398], [-79.848256, 75.155015], [-79.935536, 75.141262], [-79.957428, 75.122504], [-79.968658, 75.09748], [-80.0, 75.0940876681549], [-80.0, 75.46751726069259], [-79.64981, 75.469794]]], [[[-77.593251, 77.842353], [-77.581288, 77.826117], [-77.596588, 77.816596], [-77.671783, 77.796617], [-77.763824, 77.795152], [-77.85261, 77.779242], [-77.881215, 77.784613], [-77.956288, 77.836127], [-77.889272, 77.852851], [-77.650502, 77.870917], [-77.572743, 77.856635], [-77.593251, 77.842353]]], [[[-74.512034, 78.770982], [-74.315582, 78.756293], [-74.167063, 78.726793], [-74.192698, 78.705024], [-74.240224, 78.690009], [-74.331125, 78.678412], [-74.703603, 78.726874], [-74.694651, 78.74726], [-74.660471, 78.753485], [-74.643056, 78.778306], [-74.627187, 78.784003], [-74.558095, 78.78144], [-74.512034, 78.770982]]], [[[-61.086171, 82.307115], [-61.118682, 82.258368], [-61.312408, 82.197211], [-62.031321, 82.13939], [-61.99295, 82.129381], [-61.910797, 82.124254], [-61.873077, 82.112738], [-61.913564, 82.097846], [-62.002349, 82.086656], [-62.085927, 82.059638], [-62.257639, 82.023546], [-62.390411, 82.015855], [-62.475819, 82.022773], [-62.512237, 82.012681], [-62.511952, 82.005845], [-62.490061, 82.002875], [-62.514801, 81.987047], [-63.920196, 81.798692], [-64.122955, 81.803168], [-64.286041, 81.831163], [-64.32608, 81.830919], [-64.308258, 81.819525], [-64.120636, 81.769477], [-64.146148, 81.753241], [-64.186554, 81.744981], [-64.301747, 81.738471], [-64.372589, 81.724962], [-64.780588, 81.731024], [-64.922149, 81.757921], [-65.046295, 81.74901], [-65.37503, 81.762681], [-65.34085, 81.741563], [-65.361236, 81.734361], [-66.04662, 81.694403], [-66.005767, 81.682969], [-65.868682, 81.694403], [-65.707428, 81.680121], [-65.34085, 81.694403], [-65.374054, 81.680528], [-65.858144, 81.627265], [-65.929962, 81.639757], [-65.946034, 81.653917], [-65.999745, 81.654364], [-66.150665, 81.627875], [-66.389801, 81.620347], [-66.624908, 81.62287], [-67.673126, 81.59337], [-68.213206, 81.563218], [-69.308339, 81.721666], [-69.251291, 81.700303], [-68.389394, 81.566636], [-68.356231, 81.542955], [-68.855865, 81.55036], [-68.855865, 81.542955], [-68.580556, 81.516099], [-67.268829, 81.571397], [-66.658966, 81.531236], [-66.608306, 81.516221], [-66.654083, 81.499864], [-67.113678, 81.463853], [-68.04483, 81.373358], [-68.14505, 81.350694], [-68.255035, 81.344591], [-68.440663, 81.311347], [-68.621734, 81.294013], [-68.733632, 81.291978], [-68.816477, 81.27619], [-68.879465, 81.278795], [-69.020294, 81.261786], [-69.425079, 81.276719], [-69.473419, 81.261786], [-69.436269, 81.251695], [-69.351715, 81.251817], [-69.315175, 81.241929], [-69.580068, 81.2119], [-69.700022, 81.212022], [-69.923736, 81.188178], [-70.164825, 81.193712], [-70.213287, 81.179877], [-70.071034, 81.162055], [-69.637278, 81.179877], [-69.817535, 81.141221], [-69.999786, 81.116156], [-70.020253, 81.105943], [-69.632314, 81.138658], [-69.53421, 81.174547], [-69.482208, 81.184801], [-67.787017, 81.317003], [-67.202056, 81.375474], [-65.959503, 81.463853], [-65.735748, 81.493272], [-65.246978, 81.510932], [-64.934885, 81.534532], [-64.546051, 81.55036], [-64.461741, 81.505927], [-64.435943, 81.481513], [-64.46817, 81.461412], [-64.692128, 81.390815], [-65.116363, 81.332831], [-65.400054, 81.269517], [-65.576731, 81.251817], [-65.670929, 81.257066], [-65.871368, 81.2296], [-65.988922, 81.228258], [-66.106353, 81.197496], [-66.247833, 81.178168], [-66.296702, 81.152696], [-66.463938, 81.121568], [-66.530019, 81.082465], [-66.672109, 81.039862], [-66.871653, 81.013658], [-67.234934, 80.940497], [-67.563018, 80.94599], [-67.608876, 80.933417], [-67.533193, 80.898668], [-67.605784, 80.871202], [-67.68399, 80.857652], [-67.832753, 80.853949], [-67.862782, 80.837226], [-67.843332, 80.829332], [-67.853749, 80.822821], [-67.928456, 80.8133], [-67.985015, 80.796454], [-68.279368, 80.759874], [-68.40335, 80.721177], [-68.584543, 80.682847], [-68.65331, 80.676134], [-68.773264, 80.639228], [-68.972564, 80.617499], [-68.933624, 80.60399], [-68.890614, 80.604478], [-68.926015, 80.58336], [-69.132965, 80.536241], [-69.168121, 80.522081], [-69.216217, 80.489081], [-69.267079, 80.471015], [-69.29776, 80.43004], [-69.331776, 80.408922], [-69.666005, 80.355211], [-70.309478, 80.358018], [-70.294952, 80.374579], [-70.219512, 80.419501], [-70.269521, 80.453477], [-70.333974, 80.476549], [-70.788238, 80.570502], [-70.824452, 80.566962], [-70.82962, 80.556016], [-70.819081, 80.549018], [-70.683013, 80.525743], [-70.57901, 80.48725], [-70.511016, 80.473497], [-70.480214, 80.460435], [-70.454823, 80.436387], [-70.370351, 80.412665], [-70.439971, 80.397528], [-70.459137, 80.385321], [-70.471262, 80.358873], [-70.46463, 80.348741], [-70.446075, 80.343736], [-70.452911, 80.343736], [-70.015899, 80.284532], [-69.959462, 80.261827], [-69.997385, 80.243883], [-70.082061, 80.230577], [-70.159088, 80.192491], [-70.210764, 80.188178], [-70.747711, 80.207221], [-71.100372, 80.186021], [-71.35379, 80.152289], [-71.500762, 80.121283], [-71.734609, 80.117865], [-71.840728, 80.138292], [-71.905304, 80.172471], [-71.997874, 80.191636], [-72.164581, 80.194525], [-72.332834, 80.229844], [-72.379465, 80.227769], [-72.41983, 80.213446], [-72.02359, 80.150865], [-71.898468, 80.117865], [-71.898468, 80.111029], [-72.10733, 80.085924], [-72.391876, 80.090522], [-72.391876, 80.083686], [-72.323638, 80.083686], [-72.357167, 80.070054], [-72.34203, 80.062567], [-72.167877, 80.056464], [-71.842315, 80.062364], [-71.712799, 80.074083], [-71.524322, 80.068223], [-71.006663, 80.122504], [-70.648223, 80.14289], [-70.589182, 80.118272], [-70.503448, 80.098375], [-70.486969, 80.062608], [-70.529286, 80.043891], [-70.63565, 80.040269], [-70.678782, 80.015448], [-70.671946, 80.008612], [-70.705352, 79.991563], [-71.376007, 79.942328], [-71.448761, 79.916083], [-71.459625, 79.898749], [-71.428741, 79.887763], [-71.178538, 79.916368], [-70.91161, 79.892564], [-70.989573, 79.855658], [-71.018829, 79.822943], [-71.088206, 79.815619], [-71.090321, 79.801866], [-71.142405, 79.789496], [-71.382598, 79.763007], [-71.482574, 79.737779], [-71.9405, 79.702012], [-72.018788, 79.684678], [-72.127024, 79.68065], [-72.231679, 79.662584], [-72.391876, 79.686469], [-72.628407, 79.679023], [-72.920196, 79.709581], [-72.950347, 79.721625], [-72.947418, 79.741685], [-72.9617, 79.75255], [-73.015655, 79.768378], [-73.046661, 79.798407], [-73.063507, 79.801866], [-73.063507, 79.809312], [-72.943023, 79.808458], [-72.905832, 79.816148], [-72.930979, 79.823594], [-73.190907, 79.823228], [-73.385162, 79.838609], [-73.813262, 79.822333], [-73.865468, 79.837266], [-73.805084, 79.850287], [-73.741933, 79.850328], [-73.768585, 79.864976], [-74.227773, 79.895697], [-74.325958, 79.874457], [-74.844879, 79.850328], [-74.768544, 79.837633], [-74.770334, 79.823594], [-74.670155, 79.795722], [-74.35204, 79.809312], [-73.584259, 79.760972], [-73.481842, 79.760972], [-73.383331, 79.775621], [-73.351471, 79.768378], [-73.386261, 79.754706], [-73.358306, 79.727403], [-73.360015, 79.717149], [-73.290069, 79.70067], [-73.296213, 79.693305], [-73.17337, 79.658555], [-73.161936, 79.626207], [-73.16926, 79.608629], [-73.187042, 79.597032], [-73.132395, 79.580024], [-73.125315, 79.566352], [-73.173858, 79.538804], [-73.316884, 79.509141], [-73.462961, 79.499864], [-73.595489, 79.507921], [-73.733713, 79.496161], [-73.796539, 79.511094], [-73.904693, 79.554429], [-73.96581, 79.563585], [-74.002594, 79.542467], [-73.971506, 79.519232], [-73.95108, 79.487494], [-73.959543, 79.471544], [-73.992218, 79.458686], [-74.030263, 79.450059], [-74.282012, 79.439927], [-74.392405, 79.451728], [-74.696116, 79.450019], [-74.790679, 79.475531], [-74.913238, 79.488756], [-74.947906, 79.501532], [-74.928049, 79.507676], [-74.958241, 79.515326], [-74.996368, 79.513414], [-75.064605, 79.494086], [-75.015167, 79.475531], [-75.009674, 79.461656], [-74.922637, 79.435655], [-74.88858, 79.415635], [-74.961578, 79.380601], [-75.027984, 79.373277], [-75.512441, 79.396186], [-75.674957, 79.433946], [-75.702056, 79.419542], [-75.69461, 79.412706], [-75.755645, 79.414049], [-75.787139, 79.419786], [-75.804473, 79.432603], [-75.800608, 79.445299], [-75.818674, 79.45307], [-75.961252, 79.427314], [-76.195221, 79.493516], [-77.044952, 79.521959], [-77.133778, 79.548651], [-77.179351, 79.531236], [-77.192372, 79.518256], [-77.188507, 79.508409], [-77.127105, 79.494086], [-76.944814, 79.494086], [-76.854075, 79.482652], [-76.757395, 79.494086], [-76.576934, 79.475653], [-76.448557, 79.482856], [-76.193593, 79.470282], [-76.140899, 79.446885], [-76.20755, 79.429918], [-76.152333, 79.395006], [-75.880157, 79.356879], [-75.914052, 79.347032], [-76.15453, 79.337022], [-76.235748, 79.348456], [-76.834747, 79.355577], [-76.87328, 79.350043], [-77.087066, 79.406073], [-77.103546, 79.416124], [-77.113515, 79.456488], [-77.124501, 79.46894], [-77.242991, 79.449815], [-77.352935, 79.464219], [-77.401519, 79.45307], [-77.220977, 79.349962], [-77.178009, 79.342149], [-77.161895, 79.330186], [-77.225087, 79.324774], [-77.786529, 79.354193], [-77.882395, 79.370347], [-77.990753, 79.367784], [-78.059397, 79.356879], [-78.059397, 79.350043], [-77.833526, 79.317694], [-77.633209, 79.321031], [-77.365061, 79.281358], [-77.325754, 79.267442], [-77.456614, 79.259874], [-77.49706, 79.247626], [-76.782989, 79.279161], [-76.512115, 79.260728], [-76.304026, 79.263495], [-76.205596, 79.277167], [-76.153391, 79.275133], [-75.94815, 79.237169], [-75.051747, 79.231065], [-74.798492, 79.243842], [-74.468739, 79.227159], [-74.492502, 79.212022], [-74.593536, 79.194566], [-74.783355, 79.193183], [-74.824981, 79.179307], [-74.779815, 79.15998], [-74.65982, 79.165473], [-74.612131, 79.151353], [-74.667388, 79.145209], [-74.631378, 79.127916], [-74.564361, 79.121039], [-74.524892, 79.095038], [-74.453928, 79.07685], [-74.440826, 79.06269], [-74.447255, 79.049872], [-74.49234, 79.036729], [-74.792633, 79.04796], [-75.086985, 79.031846], [-75.505157, 79.074815], [-75.757151, 79.084215], [-75.787424, 79.103339], [-75.893829, 79.103624], [-75.85969, 79.117906], [-75.886383, 79.130927], [-75.852854, 79.145209], [-75.856679, 79.154527], [-75.893625, 79.169664], [-76.088775, 79.204698], [-76.600413, 79.202501], [-76.983184, 79.190782], [-77.207021, 79.199774], [-78.182403, 79.195421], [-78.224884, 79.188056], [-78.257395, 79.171942], [-78.212677, 79.159898], [-78.059397, 79.179307], [-77.001536, 79.149115], [-76.741729, 79.149644], [-76.133453, 79.124132], [-76.140899, 79.11046], [-76.085601, 79.103624], [-76.114776, 79.084906], [-76.168691, 79.077338], [-76.388458, 79.075995], [-76.706451, 79.090684], [-76.965484, 79.072455], [-77.159088, 79.071234], [-77.533925, 79.023871], [-77.696319, 79.035346], [-77.7919, 79.069444], [-78.096181, 79.084825], [-78.895497, 79.069444], [-78.866363, 79.061754], [-77.915069, 79.055894], [-77.76594, 79.036485], [-77.703155, 79.008043], [-77.956329, 78.959581], [-77.977122, 78.941352], [-78.141347, 78.877672], [-78.216461, 78.829942], [-78.29898, 78.795762], [-78.271148, 78.774237], [-78.226837, 78.772203], [-78.181915, 78.782904], [-78.062652, 78.857774], [-77.821441, 78.945868], [-77.718007, 78.969713], [-76.732818, 79.036729], [-75.780751, 78.982001], [-75.721913, 78.967027], [-75.798248, 78.931708], [-75.827626, 78.926093], [-76.268381, 78.904649], [-76.441192, 78.871283], [-76.459625, 78.860297], [-76.459218, 78.849351], [-76.394073, 78.850409], [-76.256256, 78.879706], [-75.845977, 78.880479], [-75.744293, 78.897162], [-75.304921, 78.88463], [-74.915069, 78.854356], [-74.878977, 78.836737], [-74.886464, 78.822496], [-74.773752, 78.834825], [-74.756093, 78.819322], [-74.777618, 78.805487], [-74.906321, 78.788316], [-74.786204, 78.782701], [-74.76297, 78.767808], [-74.831858, 78.747301], [-74.81078, 78.734849], [-74.721954, 78.712633], [-74.75121, 78.700263], [-74.844879, 78.698961], [-74.865875, 78.687567], [-74.866282, 78.67711], [-74.831858, 78.657945], [-74.872833, 78.644273], [-74.808583, 78.626654], [-74.716054, 78.627672], [-74.632598, 78.589667], [-74.802317, 78.588609], [-75.030914, 78.535102], [-75.184641, 78.541571], [-75.398101, 78.515611], [-76.500518, 78.547471], [-76.66161, 78.528266], [-76.690826, 78.513048], [-76.281768, 78.519517], [-76.150217, 78.506944], [-76.126617, 78.500963], [-76.097442, 78.470201], [-76.078603, 78.466173], [-75.107696, 78.375474], [-75.055938, 78.340318], [-75.029815, 78.336412], [-75.07079, 78.314927], [-75.119781, 78.304918], [-75.369862, 78.307318], [-75.410675, 78.26789], [-75.448394, 78.247382], [-75.51712, 78.219184], [-75.62621, 78.199815], [-76.193674, 78.247056], [-76.359446, 78.231798], [-76.604766, 78.255194], [-76.888336, 78.223334], [-76.915435, 78.206773], [-76.875762, 78.191759], [-76.723459, 78.185614], [-76.688954, 78.171983], [-76.294586, 78.152777], [-76.190989, 78.133002], [-75.668487, 78.137315], [-75.617584, 78.130968], [-75.581939, 78.113023], [-75.588368, 78.095282], [-75.688385, 78.055894], [-75.68163, 78.048448], [-75.839182, 78.000678], [-75.93399, 77.958604], [-75.968292, 77.965928], [-75.972198, 77.978949], [-75.989166, 77.984565], [-76.098175, 77.996283], [-76.178538, 78.018297], [-76.232411, 78.021104], [-76.463897, 77.990953], [-76.500559, 77.962755], [-76.538971, 77.945665], [-76.746246, 77.934149], [-76.880686, 77.905015], [-77.063262, 77.914862], [-77.153798, 77.948676], [-77.880523, 77.942735], [-78.216583, 78.00255], [-78.271718, 77.987047], [-78.271718, 77.980211], [-78.224762, 77.981309], [-78.182932, 77.965928], [-78.378814, 77.93651], [-78.429962, 77.911322], [-78.319895, 77.870469], [-78.156768, 77.864244], [-78.13858, 77.858629], [-78.141347, 77.842393], [-77.980702, 77.816718], [-77.949493, 77.795233], [-77.962636, 77.795233], [-77.942128, 77.760484], [-78.051991, 77.73314], [-78.009429, 77.723253], [-77.98998, 77.713365], [-77.987457, 77.70246], [-78.008087, 77.691392], [-78.058095, 77.689073], [-78.079864, 77.678534], [-78.026357, 77.668402], [-77.91275, 77.675035], [-77.860137, 77.658067], [-77.847401, 77.632392], [-77.756418, 77.627305], [-77.716217, 77.609605], [-77.976471, 77.560248], [-77.984364, 77.548204], [-77.942128, 77.513414], [-78.018463, 77.471991], [-78.197336, 77.45246], [-78.278554, 77.431505], [-78.230743, 77.404161], [-78.252105, 77.387071], [-78.289133, 77.37755], [-78.500966, 77.36518], [-78.689687, 77.319078], [-78.765777, 77.310899], [-78.84085, 77.315416], [-78.724192, 77.376899], [-78.771026, 77.384955], [-78.844024, 77.378282], [-78.92927, 77.352647], [-79.002471, 77.316881], [-79.054677, 77.312079], [-79.133209, 77.291327], [-79.645579, 77.321641], [-79.844146, 77.311265], [-79.971221, 77.280626], [-80.0, 77.28149637013901], [-80.0, 79.64985521366505], [-79.919586, 79.648546], [-79.752024, 79.706977], [-80.0, 79.70035925553755], [-80.0, 80.52856229989438], [-79.509674, 80.538031], [-79.429718, 80.552802], [-79.040313, 80.549791], [-78.92752, 80.564439], [-78.813222, 80.555528], [-78.699615, 80.570299], [-78.109405, 80.563666], [-78.052317, 80.569078], [-78.031524, 80.577135], [-78.038971, 80.58397], [-78.017852, 80.596991], [-78.785146, 80.615912], [-79.273834, 80.609971], [-79.964345, 80.611274], [-79.964345, 80.617499], [-79.911448, 80.631212], [-79.568389, 80.664293], [-79.391632, 80.69835], [-79.078847, 80.711534], [-78.849924, 80.745469], [-78.638254, 80.753974], [-78.53189, 80.780748], [-78.33845, 80.782945], [-78.233184, 80.793077], [-78.18928, 80.806016], [-77.731028, 80.81745], [-77.507314, 80.833808], [-77.135894, 80.832261], [-76.569122, 80.8463], [-76.515289, 80.856065], [-76.483469, 80.87877], [-76.589182, 80.902411], [-76.776275, 80.902818], [-77.024444, 80.886786], [-77.389475, 80.904486], [-77.997589, 80.906073], [-78.115956, 80.888292], [-78.847808, 80.857652], [-78.936431, 80.87877], [-78.861969, 80.925401], [-78.878448, 80.957628], [-78.926666, 80.98607], [-78.909088, 81.001695], [-78.469716, 81.104356], [-78.424306, 81.122016], [-78.394561, 81.146308], [-78.476552, 81.151923], [-78.444163, 81.170518], [-78.159739, 81.192939], [-78.057444, 81.219184], [-77.990509, 81.248725], [-77.842071, 81.28441], [-77.666005, 81.306627], [-77.624176, 81.321153], [-77.365956, 81.340196], [-77.19579, 81.376532], [-77.071523, 81.375556], [-76.966705, 81.406195], [-76.759104, 81.433092], [-76.744171, 81.440497], [-76.791737, 81.452012], [-76.853912, 81.455308], [-77.7801, 81.357774], [-77.874745, 81.335761], [-78.191721, 81.305162], [-78.48294, 81.225572], [-78.59378, 81.212348], [-78.682891, 81.191759], [-78.709625, 81.179307], [-78.757639, 81.138861], [-78.690012, 81.12523], [-78.736846, 81.113634], [-78.944122, 81.107367], [-79.505035, 81.200303], [-79.463165, 81.17536], [-79.153228, 81.102973], [-79.066192, 81.091051], [-79.106964, 81.07099], [-79.211985, 81.071479], [-79.258575, 81.063788], [-79.323964, 81.025865], [-79.34671, 81.001695], [-79.2801, 80.987413], [-79.182769, 80.995714], [-79.168365, 80.987535], [-79.171173, 80.973741], [-79.194976, 80.959418], [-79.279368, 80.929551], [-79.411204, 80.923041], [-79.437408, 80.906114], [-79.442698, 80.884711], [-79.614491, 80.827623], [-79.92748, 80.797675], [-80.0, 80.77833775137584], [-80.0, 81.96191446747905], [-79.615224, 81.859117], [-79.568756, 81.831773], [-79.529124, 81.824042], [-79.230621, 81.817857], [-79.680898, 81.935777], [-79.71109, 81.954454], [-79.703643, 81.96129], [-79.756622, 81.973456], [-79.869781, 81.97545], [-79.92337, 81.988593], [-79.834625, 82.015855], [-79.863678, 82.026923], [-80.0, 82.03673651957733], [-80.0, 82.66234142739319], [-79.846954, 82.643785], [-79.799224, 82.653306], [-79.942169, 82.679185], [-79.984771, 82.694322], [-79.951446, 82.71129], [-79.900787, 82.717882], [-79.126454, 82.669135], [-79.038157, 82.681342], [-78.940948, 82.6706], [-78.547922, 82.676011], [-78.504425, 82.688096], [-79.895009, 82.765245], [-79.930938, 82.779364], [-79.92337, 82.79796], [-79.998443, 82.803575], [-79.923492, 82.822252], [-79.67634, 82.824652], [-79.67634, 82.831488], [-80.0, 82.84727153888288], [-80.0, 82.94628691610845], [-79.340484, 82.975531], [-79.272247, 82.954332], [-79.190704, 82.954047], [-79.207997, 82.948432], [-79.217681, 82.934516], [-79.123525, 82.922227], [-79.079376, 82.904731], [-79.073638, 82.879869], [-79.009023, 82.874742], [-78.792795, 82.943671], [-78.605987, 82.94359], [-78.508941, 82.921373], [-78.504425, 82.907213], [-78.512441, 82.897691], [-78.559071, 82.866278], [-78.518707, 82.846055], [-78.420562, 82.872301], [-78.374745, 82.872423], [-78.365631, 82.85692], [-78.257802, 82.850206], [-78.175445, 82.831488], [-78.106597, 82.831488], [-78.106597, 82.838324], [-78.179107, 82.843004], [-78.243723, 82.866278], [-78.201975, 82.878363], [-78.058746, 82.858751], [-78.023997, 82.860948], [-78.018788, 82.866156], [-78.031809, 82.876207], [-78.114044, 82.89293], [-78.081817, 82.904608], [-77.852203, 82.926011], [-77.138661, 82.866889], [-76.950225, 82.80622], [-76.928538, 82.790513], [-76.962677, 82.776231], [-76.788848, 82.758409], [-76.731109, 82.743598], [-76.556915, 82.675482], [-76.432403, 82.664781], [-76.363922, 82.64586], [-76.328521, 82.646959], [-76.280995, 82.635118], [-76.166737, 82.63288], [-75.961334, 82.600409], [-75.893829, 82.598741], [-76.080312, 82.541693], [-76.151153, 82.53144], [-76.192901, 82.515937], [-76.263743, 82.46837], [-76.218332, 82.452094], [-76.173573, 82.456], [-75.66804, 82.593695], [-75.461497, 82.600816], [-75.400421, 82.619208], [-75.439971, 82.630479], [-76.106109, 82.688096], [-76.092437, 82.701158], [-76.211822, 82.70836], [-76.272369, 82.726426], [-76.311554, 82.756415], [-76.230743, 82.774156], [-76.056386, 82.77025], [-75.975738, 82.790513], [-76.373606, 82.790513], [-76.539622, 82.822984], [-76.667795, 82.879869], [-77.387237, 82.989732], [-77.335032, 83.013251], [-77.134023, 83.036973], [-77.152618, 83.024766], [-77.174957, 83.023301], [-77.13036, 83.010606], [-76.236562, 83.03498], [-76.135487, 83.053697], [-75.431304, 83.040107], [-75.384755, 83.031724], [-75.302032, 83.03148], [-75.290517, 83.023301], [-75.187042, 83.023139], [-75.056874, 83.0421], [-74.200022, 83.002143], [-74.052887, 82.96369], [-74.016265, 82.961859], [-74.021148, 82.949652], [-74.015614, 82.942491], [-73.902496, 82.913438], [-73.828399, 82.865709], [-72.591135, 82.701158], [-72.611602, 82.708604], [-72.611602, 82.71544], [-72.501739, 82.721625], [-72.501739, 82.729071], [-73.114329, 82.79149], [-73.325836, 82.843858], [-73.372955, 82.847968], [-73.358306, 82.858751], [-73.453033, 82.902696], [-73.571604, 82.911363], [-73.653147, 82.92711], [-73.619781, 82.946275], [-73.573516, 82.959174], [-73.436065, 82.97191], [-73.247833, 83.020738], [-72.932688, 83.044542], [-72.885976, 83.058051], [-73.00886, 83.058051], [-72.972239, 83.072984], [-72.787994, 83.082343], [-72.702056, 83.096544], [-72.591624, 83.102362], [-72.501739, 83.077867], [-72.273834, 83.108751], [-71.627594, 83.103339], [-71.58316, 83.092149], [-71.766672, 83.042467], [-71.796051, 83.020128], [-71.765207, 83.001654], [-71.569488, 82.961859], [-71.58316, 82.948188], [-70.837066, 82.886094], [-70.867177, 82.905097], [-71.308868, 82.989732], [-71.454742, 82.99962], [-71.50121, 83.00963], [-71.480621, 83.022406], [-71.269073, 83.060533], [-71.111602, 83.070299], [-71.090321, 83.077867], [-71.111602, 83.084825], [-71.12442, 83.099595], [-71.012929, 83.101549], [-70.908111, 83.081773], [-70.837066, 83.092149], [-70.891672, 83.099595], [-70.817413, 83.11107], [-69.68753, 83.116523], [-69.657745, 83.105211], [-69.733469, 83.092149], [-69.665191, 83.077867], [-69.757354, 83.063463], [-69.774444, 83.051215], [-69.483388, 83.04564], [-69.45169, 83.036973], [-69.503, 83.032904], [-69.605743, 83.005968], [-69.657745, 83.002794], [-69.617014, 82.989936], [-69.214386, 83.013495], [-69.039296, 83.045762], [-68.999908, 83.042344], [-68.976348, 83.026475], [-68.986155, 82.995958], [-68.953684, 82.98314], [-68.679433, 82.98314], [-68.533721, 83.00963], [-68.171783, 82.999132], [-68.1433, 82.989732], [-68.19107, 82.948188], [-68.131866, 82.933173], [-67.999582, 82.953966], [-67.596832, 82.971177], [-67.180247, 82.933295], [-67.115468, 82.948188], [-67.11795, 82.959906], [-67.097727, 82.963568], [-66.937286, 82.954332], [-66.978912, 82.934516], [-66.895334, 82.925401], [-66.852447, 82.926011], [-66.785064, 82.95836], [-66.656158, 82.941352], [-66.402862, 82.943223], [-66.362701, 82.933702], [-66.299835, 82.934516], [-66.38919, 82.920885], [-66.341461, 82.907213], [-66.362782, 82.89411], [-66.806915, 82.831488], [-66.80012, 82.824652], [-66.846262, 82.81212], [-67.150461, 82.79267], [-67.246653, 82.770209], [-67.488189, 82.759263], [-67.54011, 82.75019], [-67.599599, 82.752265], [-67.679718, 82.738593], [-67.787831, 82.737291], [-67.868438, 82.721015], [-68.428253, 82.684801], [-68.48526, 82.670274], [-68.637278, 82.653306], [-68.671457, 82.639716], [-68.617706, 82.630439], [-67.442047, 82.658433], [-67.262359, 82.693101], [-67.146311, 82.697862], [-67.102325, 82.710801], [-66.860137, 82.724189], [-66.667633, 82.711859], [-66.63565, 82.721625], [-66.677235, 82.729071], [-66.660227, 82.748033], [-66.629465, 82.758287], [-65.851593, 82.842353], [-65.492502, 82.843085], [-65.456939, 82.831488], [-65.525868, 82.803575], [-65.492828, 82.785346], [-65.444854, 82.777452], [-65.155304, 82.770006], [-65.203155, 82.783067], [-65.307281, 82.788194], [-65.354522, 82.803575], [-65.19461, 82.846991], [-65.100657, 82.851996], [-65.144805, 82.866767], [-65.257639, 82.863267], [-65.306142, 82.872423], [-65.276112, 82.87873], [-65.20169, 82.881049], [-65.132395, 82.8994], [-64.696685, 82.909776], [-64.65567, 82.900377], [-64.680816, 82.88524], [-64.71524, 82.879503], [-64.903147, 82.88288], [-64.936798, 82.872423], [-64.886505, 82.860093], [-64.710276, 82.858751], [-64.751251, 82.831488], [-64.710194, 82.814805], [-64.576812, 82.794257], [-64.442901, 82.760484], [-64.402415, 82.770006], [-64.422271, 82.783677], [-64.393056, 82.792222], [-64.32844, 82.790839], [-64.136261, 82.837388], [-63.447092, 82.826728], [-63.380767, 82.803575], [-63.392608, 82.787421], [-63.380767, 82.770006], [-63.49002, 82.741034], [-63.853057, 82.721625], [-63.651519, 82.71776], [-63.538401, 82.701158], [-63.558868, 82.68065], [-63.539337, 82.675767], [-63.483184, 82.68065], [-63.229888, 82.646552], [-63.262481, 82.629381], [-63.302032, 82.623643], [-63.380767, 82.625352], [-63.370636, 82.611762], [-62.962677, 82.593492], [-62.928253, 82.570787], [-63.000722, 82.563585], [-63.06546, 82.537299], [-63.061594, 82.51557], [-63.10025, 82.482896], [-63.120676, 82.482042], [-63.120676, 82.475816], [-63.093332, 82.475816], [-63.093332, 82.46837], [-63.309478, 82.460924], [-63.346954, 82.455146], [-63.373321, 82.441026], [-63.034983, 82.456732], [-62.989735, 82.46837], [-62.901397, 82.511461], [-62.869903, 82.516791], [-62.832672, 82.516791], [-62.81961, 82.496324], [-62.79776, 82.490098], [-62.729034, 82.488878], [-62.764394, 82.509955], [-62.739288, 82.523424], [-62.174713, 82.529853], [-62.174713, 82.523627], [-62.301178, 82.521226], [-62.331817, 82.509955], [-62.325592, 82.502509], [-62.352284, 82.482042], [-62.257395, 82.489691], [-62.236846, 82.502509], [-62.257314, 82.509955], [-62.099029, 82.509955], [-62.105865, 82.496324], [-61.578887, 82.488878], [-61.341217, 82.450181], [-61.136993, 82.38231], [-61.105702, 82.361436], [-61.085479, 82.331163], [-61.086171, 82.307115]]], [[[-79.717804, 77.243394], [-79.432403, 77.238593], [-79.343536, 77.218858], [-79.202423, 77.207343], [-79.104522, 77.174791], [-79.055409, 77.167914], [-79.032623, 77.157172], [-79.066192, 77.137315], [-79.017852, 77.11815], [-79.0065, 77.104722], [-79.02717, 77.090644], [-79.094065, 77.075181], [-79.34671, 76.979234], [-79.392893, 76.952867], [-79.389312, 76.930365], [-79.37564, 76.925645], [-79.081817, 76.925238], [-78.980987, 76.940497], [-78.903066, 76.93419], [-78.867502, 76.924425], [-78.906484, 76.901313], [-78.909088, 76.883409], [-78.955963, 76.857123], [-78.964386, 76.842393], [-78.720367, 76.827582], [-78.696278, 76.842393], [-78.724192, 76.883409], [-78.625518, 76.883409], [-78.567128, 76.897325], [-78.566477, 76.93183], [-78.53421, 76.953966], [-78.430206, 76.961778], [-78.388417, 76.972846], [-78.415679, 76.985826], [-78.384429, 77.004096], [-78.333079, 77.012641], [-78.09085, 77.022813], [-77.915435, 76.965928], [-77.889231, 76.949774], [-77.902374, 76.918199], [-77.833526, 76.890855], [-77.894928, 76.869127], [-77.798736, 76.849229], [-77.716217, 76.821967], [-77.772003, 76.799872], [-77.789784, 76.776313], [-77.766387, 76.727891], [-77.807444, 76.711249], [-77.812774, 76.688096], [-77.770782, 76.664293], [-77.827789, 76.640977], [-77.887929, 76.633734], [-78.032297, 76.633409], [-78.088368, 76.614569], [-78.189727, 76.561265], [-78.15925, 76.550035], [-78.141347, 76.527167], [-78.355621, 76.498399], [-78.380523, 76.486192], [-78.367258, 76.465684], [-78.499786, 76.459337], [-78.564605, 76.470445], [-78.621734, 76.499823], [-78.586415, 76.52025], [-78.614288, 76.55504], [-78.566477, 76.561265], [-78.566477, 76.568101], [-78.683176, 76.568101], [-78.774241, 76.577338], [-78.856028, 76.529486], [-78.918691, 76.465562], [-78.970123, 76.434923], [-79.009063, 76.424425], [-79.149444, 76.415473], [-79.182769, 76.403998], [-79.195831, 76.389268], [-79.176055, 76.38996], [-79.176055, 76.383165], [-79.244944, 76.361925], [-79.26712, 76.341498], [-79.251739, 76.322333], [-79.293243, 76.302354], [-79.347727, 76.296861], [-79.501291, 76.317694], [-79.550282, 76.316962], [-80.0, 76.24359515143779], [-80.0, 77.193682117514], [-79.717804, 77.243394]]]]}}, {"type": "Feature", "properties": {"name": "Greenland"}, "geometry": {"type": "MultiPolygon", "coordinates": [[[[-60.016591, 75.937445], [-60.0, 75.954036], [-60.0, 75.93148682675667], [-60.016591, 75.937445]]], [[[-60.139516, 75.985826], [-60.120188, 76.005072], [-60.091054, 76.013129], [-60.124176, 76.031887], [-60.461578, 76.033637], [-60.455637, 76.053778], [-60.500844, 76.067369], [-60.532094, 76.065009], [-60.5572, 76.043891], [-60.608632, 76.036689], [-60.708323, 76.000474], [-60.745473, 76.001044], [-60.780995, 76.025865], [-60.832143, 76.033637], [-60.81786, 76.054145], [-60.838368, 76.054145], [-60.824778, 76.081488], [-60.907297, 76.081488], [-60.8933, 76.095649], [-60.847646, 76.103461], [-60.832143, 76.115627], [-60.851186, 76.117743], [-60.857533, 76.127509], [-60.851186, 76.138251], [-60.832143, 76.1435], [-60.924062, 76.165676], [-60.976145, 76.165961], [-61.062734, 76.151557], [-61.240387, 76.177436], [-61.417877, 76.181545], [-61.482655, 76.170478], [-61.657338, 76.182929], [-61.756418, 76.203315], [-61.852651, 76.202379], [-61.901479, 76.230618], [-61.939361, 76.239203], [-62.024281, 76.239081], [-62.16686, 76.221991], [-62.19518, 76.239081], [-62.147369, 76.259589], [-62.179799, 76.275051], [-62.266754, 76.289944], [-62.339508, 76.275824], [-62.358388, 76.267768], [-62.375844, 76.244859], [-62.580678, 76.268012], [-62.736318, 76.25731], [-62.777415, 76.239081], [-62.728993, 76.218573], [-62.728993, 76.212388], [-62.791656, 76.198147], [-62.777415, 76.212388], [-62.840403, 76.228176], [-62.853139, 76.239081], [-62.852406, 76.253974], [-62.825266, 76.267727], [-62.819569, 76.280015], [-62.849192, 76.303534], [-63.053131, 76.341864], [-63.112782, 76.343695], [-63.171457, 76.362006], [-63.264027, 76.35578], [-63.367299, 76.376899], [-63.478505, 76.377021], [-63.497426, 76.369452], [-63.485015, 76.339504], [-63.517201, 76.310289], [-63.593007, 76.273261], [-63.648264, 76.225409], [-63.728505, 76.21133], [-63.7506, 76.198147], [-63.725697, 76.189643], [-63.728668, 76.178046], [-63.757476, 76.17768], [-63.810699, 76.159125], [-64.031117, 76.136054], [-64.096669, 76.145738], [-64.149159, 76.172105], [-64.190826, 76.211371], [-64.224233, 76.259589], [-64.196278, 76.280015], [-64.20519, 76.293158], [-64.224233, 76.294338], [-64.199534, 76.311591], [-64.169057, 76.314846], [-64.169057, 76.322252], [-64.32136, 76.352729], [-64.429067, 76.349026], [-64.37442, 76.30801], [-64.394928, 76.294338], [-64.373769, 76.289618], [-64.370513, 76.275336], [-64.381215, 76.260321], [-64.464223, 76.235053], [-64.506907, 76.245917], [-64.551096, 76.240912], [-64.644439, 76.274115], [-64.671783, 76.271674], [-64.689768, 76.253363], [-64.687001, 76.234442], [-64.670806, 76.21662], [-64.648915, 76.203355], [-64.580678, 76.184475], [-64.574615, 76.175116], [-64.601064, 76.170844], [-64.683176, 76.185858], [-64.696604, 76.174262], [-64.682851, 76.157294], [-64.594146, 76.136054], [-64.647613, 76.122992], [-64.699615, 76.125556], [-64.851918, 76.176418], [-65.024973, 76.17768], [-64.977773, 76.136054], [-64.970326, 76.115627], [-64.987945, 76.106269], [-65.066762, 76.137397], [-65.162709, 76.130357], [-65.237864, 76.136054], [-65.20519, 76.170844], [-65.207672, 76.181383], [-65.342641, 76.175849], [-65.360707, 76.164008], [-65.319732, 76.149726], [-65.360707, 76.136054], [-65.306549, 76.090399], [-65.299916, 76.075263], [-65.317291, 76.061265], [-65.363108, 76.050238], [-65.354482, 76.026801], [-65.662343, 76.040473], [-65.642486, 76.061591], [-65.710439, 76.061591], [-65.772206, 76.081488], [-65.888905, 76.102525], [-65.857493, 76.119778], [-65.779042, 76.127834], [-65.752349, 76.1435], [-65.752349, 76.184475], [-65.701405, 76.185533], [-65.689687, 76.198147], [-65.736969, 76.198635], [-65.772206, 76.212388], [-65.578277, 76.230292], [-65.55248, 76.239081], [-65.641347, 76.267971], [-65.740142, 76.27851], [-66.023671, 76.260321], [-66.068105, 76.263983], [-66.136627, 76.283677], [-66.177317, 76.286078], [-66.207265, 76.277818], [-66.204213, 76.253363], [-66.210439, 76.253363], [-66.218902, 76.225084], [-66.3544, 76.19066], [-66.319814, 76.166449], [-66.377024, 76.161607], [-66.409657, 76.149726], [-66.369496, 76.126288], [-66.36559, 76.112128], [-66.382395, 76.095689], [-66.413726, 76.086127], [-66.51891, 76.095689], [-66.555043, 76.118801], [-66.629058, 76.146633], [-66.736318, 76.166083], [-66.759145, 76.184475], [-66.710032, 76.19538], [-66.669749, 76.218573], [-66.80602, 76.22016], [-66.814361, 76.239081], [-66.927154, 76.266506], [-67.047109, 76.267035], [-67.097279, 76.258979], [-67.158762, 76.228827], [-67.108551, 76.212388], [-67.108551, 76.204983], [-67.250315, 76.204535], [-67.293568, 76.19066], [-67.287262, 76.184475], [-67.307769, 76.164008], [-67.057444, 76.140204], [-67.031972, 76.126899], [-67.012359, 76.102525], [-67.06017, 76.081488], [-67.034901, 76.064439], [-66.791656, 76.030463], [-66.689361, 76.006781], [-66.616689, 75.978583], [-66.498118, 75.951728], [-66.451283, 75.923774], [-66.488433, 75.909857], [-66.564809, 75.916571], [-66.74649, 75.958441], [-66.939076, 75.975246], [-67.026967, 75.972235], [-67.097564, 75.989488], [-68.113881, 76.056789], [-68.183583, 76.075263], [-68.432525, 76.079413], [-68.545969, 76.104193], [-68.569569, 76.117499], [-68.540517, 76.129218], [-68.4381, 76.1435], [-68.47057, 76.162828], [-68.79247, 76.166815], [-68.745961, 76.184475], [-68.819163, 76.19538], [-68.931508, 76.225409], [-68.916737, 76.243232], [-68.923695, 76.246894], [-69.099436, 76.283393], [-69.384429, 76.313625], [-69.547841, 76.363227], [-69.617828, 76.371039], [-69.637278, 76.383124], [-69.62092, 76.398627], [-69.623606, 76.417222], [-69.57726, 76.437649], [-68.904612, 76.522366], [-68.814809, 76.554999], [-68.896799, 76.561225], [-68.867177, 76.570217], [-68.732777, 76.586249], [-68.031117, 76.584052], [-67.984486, 76.601996], [-67.985585, 76.622707], [-68.007232, 76.637641], [-68.070546, 76.644721], [-68.095448, 76.657416], [-68.002268, 76.673733], [-67.985585, 76.684149], [-68.102447, 76.706285], [-68.338775, 76.673489], [-68.910308, 76.664862], [-69.138824, 76.686103], [-69.239898, 76.676581], [-69.340484, 76.695502], [-69.91804, 76.750434], [-70.034495, 76.773505], [-70.103383, 76.801459], [-70.085927, 76.825263], [-70.056874, 76.840766], [-69.920888, 76.868109], [-69.893625, 76.881049], [-69.897939, 76.903876], [-69.858062, 76.915269], [-69.743398, 76.969306], [-69.687082, 76.982001], [-69.581899, 76.988674], [-69.541656, 77.006293], [-69.728871, 77.016425], [-69.756988, 77.010647], [-69.760813, 76.992621], [-69.822906, 76.976711], [-69.908681, 76.942084], [-69.967844, 76.929999], [-70.05016, 76.892035], [-70.40746, 76.797797], [-70.521108, 76.787177], [-70.55602, 76.793036], [-70.594146, 76.812405], [-70.660146, 76.801988], [-70.842275, 76.848782], [-70.815338, 76.869086], [-70.842926, 76.874254], [-70.905385, 76.864732], [-70.987213, 76.89704], [-70.955474, 76.90762], [-70.829579, 76.903876], [-70.837026, 76.911282], [-70.678782, 76.938625], [-70.804351, 76.932034], [-71.082834, 76.965888], [-71.076039, 76.959133], [-71.121449, 76.950873], [-71.097157, 76.931789], [-71.345611, 76.991767], [-71.384429, 77.023993], [-71.372548, 77.058336], [-71.342437, 77.070746], [-71.235504, 77.072496], [-71.233632, 77.109931], [-71.187896, 77.122382], [-71.192698, 77.137274], [-71.001047, 77.155422], [-70.910268, 77.145657], [-70.69929, 77.150865], [-70.753082, 77.164618], [-70.92516, 77.178168], [-70.90331, 77.191352], [-69.733469, 77.239], [-69.65807, 77.219184], [-69.577545, 77.225816], [-68.728586, 77.189276], [-68.620229, 77.176459], [-68.616811, 77.170722], [-67.878163, 77.202297], [-67.08373, 77.143378], [-67.031646, 77.146145], [-66.951405, 77.12995], [-66.508941, 77.133612], [-66.411855, 77.114447], [-66.361928, 77.116156], [-66.440582, 77.133612], [-66.451283, 77.14411], [-66.435292, 77.152818], [-66.246165, 77.164049], [-66.197621, 77.175727], [-66.170074, 77.198676], [-66.63683, 77.153998], [-67.992828, 77.22602], [-68.215972, 77.205797], [-69.061879, 77.25727], [-69.102854, 77.2744], [-68.369496, 77.376858], [-67.435943, 77.383572], [-66.772776, 77.35635], [-66.505035, 77.278998], [-66.226145, 77.252509], [-66.196767, 77.260728], [-66.242747, 77.283881], [-66.443756, 77.294257], [-66.497222, 77.312323], [-66.546213, 77.335883], [-66.600819, 77.376858], [-66.597524, 77.382636], [-66.663482, 77.417792], [-66.586659, 77.431586], [-66.201405, 77.424506], [-66.125152, 77.433336], [-66.067047, 77.466213], [-66.09496, 77.479885], [-66.053375, 77.493476], [-66.115142, 77.51024], [-66.145904, 77.534491], [-66.193837, 77.539049], [-66.231557, 77.554918], [-66.163238, 77.56859], [-66.193756, 77.57746], [-66.299794, 77.575385], [-66.245188, 77.591254], [-66.241444, 77.599677], [-66.281321, 77.617906], [-66.483795, 77.634101], [-66.583852, 77.65766], [-66.613433, 77.673896], [-66.68399, 77.671617], [-66.723744, 77.680243], [-66.663482, 77.719428], [-66.848459, 77.684882], [-67.140859, 77.672268], [-67.163197, 77.664211], [-67.143544, 77.656073], [-67.151112, 77.639553], [-67.187367, 77.606513], [-67.250111, 77.574774], [-67.591664, 77.524359], [-68.356435, 77.499945], [-68.390289, 77.507148], [-68.371002, 77.545885], [-68.370269, 77.566555], [-68.527455, 77.609565], [-68.645009, 77.662543], [-68.729848, 77.669135], [-68.814809, 77.658026], [-68.609975, 77.564887], [-68.596832, 77.551825], [-68.595082, 77.534491], [-68.610911, 77.517727], [-68.638417, 77.509711], [-69.222564, 77.452908], [-70.255442, 77.557359], [-70.28775, 77.575385], [-69.998687, 77.624416], [-69.879262, 77.629462], [-69.719797, 77.664211], [-69.631907, 77.668199], [-69.518178, 77.687445], [-69.495595, 77.702094], [-69.520579, 77.7331], [-69.479604, 77.754218], [-69.507476, 77.760443], [-69.602447, 77.726874], [-69.720448, 77.704006], [-69.99942, 77.693264], [-70.068186, 77.673774], [-70.675649, 77.680162], [-70.706125, 77.691474], [-70.680491, 77.709296], [-70.369781, 77.770209], [-70.262563, 77.814765], [-70.212473, 77.827216], [-70.14509, 77.822455], [-69.992909, 77.828315], [-69.973012, 77.836127], [-70.07018, 77.857815], [-70.2801, 77.848131], [-70.411936, 77.862698], [-70.541615, 77.836127], [-70.644195, 77.787991], [-70.679026, 77.78148], [-71.312815, 77.769843], [-71.439565, 77.799994], [-71.406972, 77.818793], [-71.240346, 77.852607], [-71.213206, 77.870307], [-71.250885, 77.886949], [-71.312164, 77.888821], [-71.524892, 77.855536], [-71.63093, 77.862779], [-71.590566, 77.904975], [-71.598215, 77.922431], [-71.616689, 77.925238], [-71.808949, 77.907904], [-71.90567, 77.888658], [-72.049875, 77.924872], [-72.144114, 77.937445], [-72.241689, 77.938544], [-72.228017, 77.959662], [-72.335764, 78.002387], [-72.351389, 78.01496], [-72.341054, 78.028551], [-72.296946, 78.048407], [-72.296946, 78.055854], [-72.58259, 78.062079], [-72.673004, 78.096869], [-72.784291, 78.107611], [-72.895172, 78.153957], [-73.05724, 78.158271], [-73.024159, 78.178412], [-72.899648, 78.171942], [-72.81607, 78.176703], [-72.734486, 78.192369], [-72.817047, 78.219143], [-72.817047, 78.226508], [-72.754994, 78.233344], [-72.803375, 78.24079], [-72.773997, 78.247626], [-72.709462, 78.245673], [-72.67984, 78.253852], [-72.707183, 78.267524], [-72.661, 78.291164], [-72.591298, 78.296129], [-72.460764, 78.288642], [-72.504791, 78.304755], [-72.850575, 78.315334], [-72.817047, 78.32274], [-72.831288, 78.336371], [-72.813873, 78.359361], [-72.640859, 78.390326], [-72.603627, 78.404242], [-72.584299, 78.425116], [-72.673004, 78.43887], [-72.65453, 78.455064], [-72.58849, 78.467231], [-72.570627, 78.48725], [-72.622874, 78.488227], [-72.638905, 78.500922], [-72.590199, 78.521226], [-71.941803, 78.558254], [-71.554555, 78.643459], [-71.218129, 78.642524], [-71.114003, 78.623114], [-70.863881, 78.615302], [-70.801991, 78.598782], [-70.788645, 78.610175], [-70.809153, 78.616929], [-70.788197, 78.64765], [-70.802317, 78.678412], [-70.745839, 78.69538], [-70.487904, 78.717271], [-70.436879, 78.729478], [-70.372467, 78.724433], [-70.317983, 78.736884], [-69.986684, 78.753485], [-69.962799, 78.763251], [-70.021474, 78.775214], [-69.968861, 78.796454], [-69.908559, 78.803941], [-69.438629, 78.808783], [-69.358713, 78.799384], [-69.250315, 78.843695], [-69.177968, 78.863349], [-69.191558, 78.870795], [-69.148346, 78.880601], [-69.078765, 78.866156], [-68.986155, 78.863349], [-68.911366, 78.839667], [-68.780751, 78.836656], [-68.860666, 78.859442], [-68.883127, 78.870795], [-68.890533, 78.890692], [-68.913197, 78.900865], [-68.968577, 78.89761], [-69.148264, 78.915758], [-69.171742, 78.925442], [-69.10851, 78.964179], [-69.033925, 78.980048], [-68.040191, 79.07685], [-67.758656, 79.038275], [-67.670277, 79.055162], [-67.737701, 79.067084], [-67.746002, 79.07685], [-67.712229, 79.094387], [-67.526926, 79.110419], [-67.475982, 79.106513], [-67.475087, 79.114163], [-67.500111, 79.127427], [-67.505849, 79.138332], [-67.226918, 79.11518], [-67.17748, 79.117865], [-67.193715, 79.131781], [-67.218414, 79.138332], [-67.1905, 79.145168], [-67.197906, 79.151313], [-67.182851, 79.157864], [-67.135854, 79.151313], [-67.112701, 79.15644], [-67.088124, 79.145168], [-67.108551, 79.138332], [-67.078359, 79.119696], [-67.04011, 79.115709], [-67.00178, 79.123033], [-66.971344, 79.138332], [-66.980865, 79.152533], [-66.961659, 79.15412], [-66.909983, 79.130845], [-66.930409, 79.103583], [-66.882965, 79.110785], [-66.793935, 79.140774], [-66.745473, 79.145168], [-66.820627, 79.117865], [-66.796783, 79.109565], [-66.766265, 79.114691], [-66.678863, 79.144436], [-66.588043, 79.145168], [-66.533193, 79.124091], [-66.471099, 79.138332], [-66.363108, 79.143256], [-66.327748, 79.138332], [-66.336415, 79.109565], [-66.316803, 79.105292], [-66.27066, 79.103583], [-66.187489, 79.115912], [-66.117096, 79.102769], [-65.977651, 79.103583], [-65.994496, 79.11994], [-66.073232, 79.130845], [-65.818837, 79.129096], [-65.785878, 79.138332], [-65.849721, 79.137193], [-65.909413, 79.151313], [-65.857574, 79.178371], [-65.662343, 79.220282], [-65.691884, 79.222317], [-65.710194, 79.240709], [-65.669504, 79.253241], [-65.518951, 79.267401], [-65.55248, 79.28852], [-65.484242, 79.302191], [-65.442535, 79.319159], [-65.42809, 79.333686], [-65.270375, 79.351508], [-65.237864, 79.364244], [-65.153554, 79.37641], [-65.134755, 79.391588], [-65.149037, 79.398993], [-65.12678, 79.413479], [-65.04662, 79.432563], [-65.086985, 79.440009], [-65.05134, 79.463813], [-64.920725, 79.485541], [-64.859853, 79.507758], [-64.83141, 79.527167], [-64.819447, 79.552395], [-64.819692, 79.579901], [-64.835805, 79.612372], [-64.89684, 79.640774], [-65.011871, 79.658515], [-64.930247, 79.689765], [-64.908844, 79.706936], [-64.968332, 79.735785], [-65.032338, 79.754625], [-65.01358, 79.76789], [-64.942983, 79.78266], [-65.004791, 79.797349], [-65.052846, 79.823554], [-64.998199, 79.823554], [-64.998199, 79.829779], [-65.100901, 79.840806], [-65.12857, 79.850287], [-65.10261, 79.859036], [-64.998199, 79.864488], [-65.04662, 79.898668], [-65.005035, 79.911689], [-65.014475, 79.928371], [-64.949818, 79.96015], [-64.977935, 79.980862], [-65.073354, 80.008531], [-65.043568, 80.023871], [-64.340932, 80.078803], [-64.126047, 80.143988], [-63.908803, 80.131252], [-63.814687, 80.138577], [-63.778554, 80.151923], [-64.159047, 80.162787], [-64.203114, 80.192857], [-64.171213, 80.239081], [-64.181142, 80.249742], [-64.222768, 80.255683], [-64.261138, 80.244696], [-64.265452, 80.232001], [-64.254506, 80.210679], [-64.291371, 80.196438], [-64.33495, 80.149075], [-64.473297, 80.105658], [-64.926015, 80.072659], [-65.30606, 80.096015], [-65.450185, 80.058539], [-65.863352, 80.01203], [-66.061106, 80.020657], [-66.099762, 80.032864], [-66.170237, 80.072903], [-66.253163, 80.081732], [-66.318674, 80.101223], [-66.377309, 80.103827], [-66.433339, 80.117336], [-66.447743, 80.115953], [-66.500396, 80.08393], [-66.553212, 80.073798], [-67.05012, 80.061184], [-67.080637, 80.07685], [-67.055409, 80.083726], [-67.063547, 80.094062], [-67.123606, 80.125922], [-67.120839, 80.132799], [-67.080637, 80.145087], [-67.19107, 80.166205], [-67.274322, 80.159166], [-67.462392, 80.184719], [-67.505849, 80.20718], [-67.444325, 80.213365], [-67.471669, 80.227688], [-67.436879, 80.235093], [-67.468007, 80.253485], [-67.518666, 80.26553], [-67.447865, 80.31391], [-67.485951, 80.323188], [-67.455434, 80.342515], [-67.32726, 80.365058], [-67.26769, 80.366156], [-67.035878, 80.414455], [-66.911855, 80.454535], [-66.787506, 80.46369], [-66.758168, 80.483344], [-66.710683, 80.494574], [-66.732411, 80.50137], [-66.697662, 80.522447], [-66.779693, 80.523627], [-66.792633, 80.533026], [-66.782297, 80.546332], [-66.758412, 80.552436], [-66.143219, 80.608385], [-66.108632, 80.617418], [-66.090688, 80.631659], [-66.074941, 80.660468], [-66.053375, 80.665839], [-65.525217, 80.663398], [-65.497914, 80.672675], [-65.689931, 80.694892], [-65.707875, 80.704169], [-65.69164, 80.716051], [-65.624379, 80.73135], [-65.124745, 80.779731], [-65.075185, 80.793402], [-65.052846, 80.803656], [-65.04662, 80.824123], [-65.007639, 80.832953], [-64.983957, 80.851467], [-65.039174, 80.87873], [-65.017445, 80.89468], [-64.979237, 80.902737], [-64.777008, 80.90705], [-64.737538, 80.919094], [-64.758656, 80.9265], [-64.710276, 80.940172], [-64.794057, 80.959662], [-64.806467, 80.974311], [-64.789784, 80.990383], [-64.51769, 81.004706], [-64.434438, 81.027981], [-64.24059, 81.028022], [-64.119211, 81.048041], [-63.929433, 81.056871], [-63.827748, 81.113267], [-63.655019, 81.149075], [-63.593658, 81.150865], [-63.507476, 81.131415], [-63.438466, 81.096015], [-63.428538, 81.050035], [-63.305572, 80.953843], [-63.24885, 80.927314], [-63.060048, 80.876939], [-62.953725, 80.800971], [-62.779937, 80.758775], [-62.73644, 80.782538], [-62.866119, 80.804185], [-62.873525, 80.81269], [-62.853139, 80.824123], [-62.925201, 80.846869], [-63.027089, 80.902737], [-63.154449, 80.936754], [-63.184316, 80.952297], [-63.323476, 81.061957], [-63.339752, 81.084174], [-63.332509, 81.106187], [-63.362782, 81.13703], [-63.37328, 81.159247], [-63.149892, 81.211656], [-62.976796, 81.228339], [-62.834543, 81.22602], [-62.764027, 81.214545], [-62.196401, 81.199123], [-61.545522, 81.06623], [-61.503082, 81.077379], [-61.530426, 81.097846], [-61.501536, 81.107856], [-61.313385, 81.123033], [-61.07608, 81.12051], [-60.972076, 81.146226], [-60.947621, 81.166164], [-60.892974, 81.166164], [-61.085439, 81.220771], [-61.150868, 81.255927], [-61.201487, 81.30329], [-61.160512, 81.316962], [-61.295644, 81.349595], [-61.31135, 81.365383], [-60.837148, 81.45954], [-60.773183, 81.491645], [-60.786855, 81.508857], [-60.841461, 81.525377], [-61.023997, 81.549547], [-61.036977, 81.560248], [-61.040395, 81.582587], [-61.192779, 81.627834], [-61.259999, 81.66828], [-61.342397, 81.680976], [-61.379628, 81.700507], [-61.386383, 81.72134], [-61.454254, 81.745022], [-61.434885, 81.766018], [-61.411936, 81.775702], [-61.281077, 81.815131], [-60.533559, 81.912746], [-60.481353, 81.911282], [-60.334055, 81.930854], [-60.067332, 81.947374], [-60.0, 81.942699408651], [-60.0, 75.96693739832581], [-60.139516, 75.985826]]], [[[-69.467926, 76.579413], [-69.494456, 76.562161], [-69.677724, 76.53384], [-70.013783, 76.556586], [-70.034495, 76.568061], [-70.019602, 76.582343], [-69.981068, 76.590806], [-69.556752, 76.613959], [-69.523508, 76.608832], [-69.467926, 76.579413]]], [[[-71.39037, 77.400824], [-71.343495, 77.376858], [-71.377065, 77.35932], [-71.507965, 77.348863], [-71.567454, 77.331], [-71.652008, 77.329047], [-71.703521, 77.315375], [-72.131825, 77.321601], [-72.131825, 77.329047], [-72.097524, 77.339016], [-72.211537, 77.357815], [-72.282582, 77.354438], [-72.529652, 77.390448], [-72.576812, 77.411607], [-72.562408, 77.424384], [-72.538075, 77.429511], [-72.364573, 77.445746], [-72.371409, 77.452541], [-72.339345, 77.460395], [-72.234242, 77.458726], [-72.193267, 77.445746], [-72.131825, 77.452541], [-71.754058, 77.416083], [-71.677358, 77.425238], [-71.576283, 77.390448], [-71.39037, 77.400824]]], [[[-70.129058, 77.415513], [-70.055002, 77.40412], [-70.090321, 77.394436], [-70.170155, 77.397162], [-70.245513, 77.38581], [-71.079945, 77.377753], [-71.140289, 77.393866], [-71.196604, 77.429999], [-71.302602, 77.452541], [-71.127756, 77.464342], [-70.973622, 77.460761], [-70.898671, 77.473456], [-70.356597, 77.417792], [-70.129058, 77.415513]]], [[[-66.912913, 80.619045], [-66.952789, 80.634833], [-66.957957, 80.649848], [-66.982737, 80.671576], [-66.910471, 80.676052], [-66.805409, 80.666978], [-66.587961, 80.619818], [-66.588206, 80.610704], [-66.600575, 80.608669], [-66.775624, 80.598578], [-66.912913, 80.619045]]], [[[-66.373118, 80.824897], [-66.377919, 80.830715], [-66.297963, 80.826524], [-66.320505, 80.820258], [-66.373118, 80.824897]]]]}}]}