{"type": "FeatureCollection", "features": [{"type": "Feature", "properties": {"name": "Norway"}, "geometry": {"type": "Polygon", "coordinates": [[[-7.938466, 71.156562], [-7.93932, 71.13642], [-7.957875, 71.120103], [-8.008901, 71.105211], [-7.983022, 71.045152], [-8.005971, 71.032538], [-8.401357, 70.962592], [-8.497548, 70.976264], [-8.61974, 70.958075], [-8.697418, 70.938137], [-8.860341, 70.862982], [-8.928944, 70.845933], [-8.963124, 70.81802], [-8.986562, 70.810777], [-9.079742, 70.812445], [-9.06607, 70.832261], [-9.109731, 70.86107], [-9.117421, 70.874905], [-9.04662, 70.882514], [-8.916331, 70.932807], [-8.790435, 70.945624], [-8.744618, 70.962592], [-8.730946, 70.976264], [-8.692738, 70.985989], [-8.572662, 70.996772], [-8.557607, 71.009223], [-8.516835, 71.014472], [-8.397776, 71.113715], [-8.325673, 71.14761], [-8.187367, 71.154242], [-8.14745, 71.174872], [-8.123118, 71.177924], [-7.962554, 71.174872], [-7.938466, 71.156562]]]}}, {"type": "Feature", "properties": {"name": "Greenland"}, "geometry": {"type": "MultiPolygon", "coordinates": [[[[-19.851186, 81.542914], [-19.833079, 81.555569], [-20.0, 81.57995003809809], [-20.0, 81.60612801936118], [-19.878774, 81.622219], [-19.946401, 81.646796], [-19.932607, 81.660305], [-19.904449, 81.669501], [-19.70816, 81.695502], [-19.644643, 81.689887], [-19.64387, 81.647935], [-19.632802, 81.631578], [-19.38622, 81.635199], [-19.261301, 81.610541], [-19.085276, 81.625434], [-18.983876, 81.610297], [-19.006174, 81.596747], [-19.246327, 81.554755], [-19.279286, 81.541449], [-19.333119, 81.456855], [-19.372222, 81.429633], [-19.466461, 81.404364], [-19.504506, 81.378811], [-19.460561, 81.374701], [-18.658193, 81.502387], [-18.523752, 81.505683], [-18.368642, 81.475043], [-18.213002, 81.482245], [-17.977447, 81.446967], [-17.914418, 81.415107], [-17.855336, 81.403754], [-17.819447, 81.40998], [-17.82079, 81.42414], [-17.860748, 81.466132], [-17.851552, 81.466864], [-17.6197, 81.43008], [-17.546213, 81.38935], [-17.465443, 81.392035], [-17.394276, 81.40884], [-17.14684, 81.413398], [-17.150624, 81.425116], [-17.200917, 81.454088], [-17.220204, 81.481024], [-17.017323, 81.484117], [-16.925445, 81.516832], [-16.835317, 81.524115], [-16.812652, 81.536689], [-16.835927, 81.550727], [-16.987538, 81.553209], [-17.046539, 81.562242], [-17.019887, 81.584662], [-16.976226, 81.592597], [-16.915639, 81.59101], [-16.838002, 81.624457], [-16.729319, 81.631049], [-16.578521, 81.616197], [-16.461293, 81.630072], [-16.451812, 81.639716], [-16.463246, 81.648993], [-16.540028, 81.684556], [-16.518137, 81.690334], [-16.5006, 81.706], [-16.485219, 81.749457], [-16.154042, 81.756049], [-16.138905, 81.783352], [-16.127431, 81.787177], [-15.941151, 81.772773], [-15.845123, 81.781806], [-15.825673, 81.789862], [-15.828969, 81.800971], [-15.816558, 81.823228], [-15.792714, 81.832017], [-15.290028, 81.838813], [-15.235707, 81.831732], [-15.256663, 81.824774], [-15.206654, 81.814765], [-13.920481, 81.812201], [-13.056793, 81.715522], [-12.918853, 81.72309], [-12.802805, 81.714789], [-12.694447, 81.692939], [-12.570058, 81.696234], [-12.027659, 81.637274], [-11.869049, 81.598293], [-11.745107, 81.550482], [-11.708323, 81.516303], [-11.681508, 81.504096], [-11.432525, 81.490546], [-11.37682, 81.47602], [-11.395863, 81.460883], [-11.63858, 81.388414], [-12.165679, 81.331855], [-12.244985, 81.288072], [-12.532623, 81.222724], [-12.528188, 81.193061], [-12.538197, 81.186957], [-13.141835, 81.087836], [-13.203969, 81.092231], [-13.288686, 81.0633], [-13.354604, 81.019924], [-13.684641, 81.0008], [-14.078969, 81.020331], [-14.552724, 80.990627], [-14.491526, 80.968817], [-14.203725, 80.914374], [-14.132192, 80.886176], [-14.157053, 80.841498], [-14.294911, 80.784329], [-14.621327, 80.746405], [-14.72468, 80.752102], [-15.320709, 80.714789], [-15.359364, 80.697333], [-15.395823, 80.659613], [-15.4204, 80.648383], [-16.252756, 80.637274], [-16.358551, 80.656806], [-17.062978, 80.662828], [-17.171864, 80.709215], [-17.239898, 80.722317], [-17.463368, 80.71662], [-17.439809, 80.653713], [-17.459096, 80.640937], [-17.617014, 80.647854], [-17.837758, 80.628607], [-18.065297, 80.576646], [-18.322255, 80.558051], [-18.593861, 80.573432], [-18.952789, 80.632066], [-19.166127, 80.634589], [-19.235829, 80.648342], [-19.471669, 80.665432], [-20.0, 80.59571295059503], [-20.0, 81.51046131811758], [-19.851186, 81.542914]]], [[[-19.488026, 80.634833], [-19.021555, 80.588853], [-18.962026, 80.575263], [-18.843251, 80.572252], [-18.677398, 80.541409], [-18.118072, 80.505439], [-18.055084, 80.491767], [-17.309926, 80.512437], [-16.89623, 80.583686], [-16.823232, 80.573432], [-16.697621, 80.527981], [-16.448232, 80.479153], [-15.793446, 80.437242], [-15.755198, 80.41942], [-15.789174, 80.40469], [-16.270009, 80.290473], [-16.309926, 80.298326], [-16.346262, 80.323554], [-16.375315, 80.325914], [-16.401723, 80.30858], [-16.404897, 80.295966], [-16.380116, 80.276068], [-16.327463, 80.261542], [-16.384185, 80.235745], [-16.447336, 80.219306], [-16.846303, 80.202826], [-16.890696, 80.191555], [-17.122141, 80.182929], [-17.288442, 80.218004], [-17.872874, 80.161119], [-18.665639, 80.200873], [-18.77359, 80.221584], [-19.02599, 80.236151], [-19.179555, 80.268012], [-19.474355, 80.260199], [-19.638092, 80.221381], [-19.72704, 80.162584], [-19.779856, 80.146308], [-20.0, 80.12268632722552], [-20.0, 80.538454914161], [-19.488026, 80.634833]]], [[[-19.966461, 80.083238], [-20.0, 80.06720080694686], [-20.0, 80.08548497788397], [-19.966461, 80.083238]]], [[[-19.996327, 79.747707], [-19.976226, 79.738267], [-19.970448, 79.725328], [-19.975738, 79.686957], [-19.966949, 79.679389], [-19.848622, 79.682807], [-19.825307, 79.690579], [-19.804758, 79.719672], [-19.782704, 79.732489], [-19.485666, 79.773668], [-19.44518, 79.769599], [-19.207753, 79.708482], [-19.203521, 79.694281], [-19.216379, 79.692694], [-19.258941, 79.661078], [-19.385325, 79.624091], [-19.352651, 79.57392], [-19.351796, 79.551337], [-19.406606, 79.520494], [-19.472279, 79.496039], [-19.511301, 79.423733], [-19.565907, 79.385932], [-19.572499, 79.373358], [-19.493072, 79.350246], [-19.468739, 79.328315], [-19.466054, 79.314765], [-19.520253, 79.247748], [-19.589589, 79.200832], [-19.603586, 79.179918], [-19.4322, 79.279853], [-19.320953, 79.290717], [-19.306508, 79.307196], [-19.31607, 79.336656], [-19.311269, 79.364569], [-19.276682, 79.391669], [-19.262278, 79.390692], [-19.230051, 79.354722], [-19.225331, 79.314521], [-19.240875, 79.273017], [-19.179677, 79.292467], [-19.138254, 79.28144], [-19.136708, 79.268256], [-18.937856, 79.261461], [-18.874745, 79.236558], [-18.878774, 79.225084], [-18.948964, 79.226386], [-19.00121, 79.206529], [-18.994537, 79.180162], [-18.95519, 79.148993], [-19.06786, 79.144599], [-19.154612, 79.171536], [-19.172922, 79.170356], [-19.190012, 79.162258], [-19.210276, 79.117499], [-19.231313, 79.097317], [-19.260894, 79.096381], [-19.354482, 79.117255], [-19.437123, 79.0869], [-19.468577, 79.084784], [-19.521718, 79.11286], [-19.55134, 79.113593], [-19.615956, 79.075873], [-19.73644, 79.074408], [-19.802724, 79.045722], [-19.878529, 79.031968], [-19.910553, 79.018256], [-19.905507, 78.993476], [-19.78425, 78.930813], [-19.769276, 78.916246], [-19.765696, 78.89765], [-19.795318, 78.869208], [-19.881337, 78.836859], [-19.925852, 78.828681], [-20.0, 78.82818878486216], [-20.0, 79.74789958428437], [-19.996327, 79.747707]]], [[[-19.961008, 77.790961], [-19.35676, 77.7331], [-19.192698, 77.690823], [-19.12682, 77.683661], [-19.071685, 77.65119], [-18.979156, 77.616848], [-18.9947, 77.599921], [-19.112375, 77.597073], [-19.25536, 77.54267], [-19.357981, 77.526353], [-20.0, 77.68742039402984], [-20.0, 77.8039813391457], [-19.961008, 77.790961]]], [[[-19.727651, 77.341132], [-19.649078, 77.308173], [-19.492014, 77.293036], [-19.464508, 77.282131], [-19.451731, 77.262437], [-19.443715, 77.209866], [-19.381459, 77.217719], [-19.274566, 77.189276], [-19.062652, 77.186713], [-19.108713, 77.215481], [-19.09557, 77.240139], [-19.082509, 77.318427], [-19.036285, 77.320136], [-18.833811, 77.291449], [-18.623158, 77.294257], [-18.536122, 77.280951], [-18.444447, 77.23371], [-18.324452, 77.208482], [-18.296498, 77.179145], [-18.258778, 77.100165], [-18.270172, 77.014472], [-18.258616, 76.946967], [-18.26594, 76.920559], [-18.30016, 76.893378], [-18.345855, 76.835883], [-18.380279, 76.819403], [-18.458974, 76.808824], [-18.489166, 76.78498], [-18.51122, 76.740912], [-18.528472, 76.740709], [-18.585357, 76.766669], [-18.626047, 76.776109], [-18.638905, 76.752753], [-18.628407, 76.701606], [-18.756215, 76.760647], [-18.810699, 76.765123], [-18.878651, 76.791734], [-18.970693, 76.805894], [-19.032379, 76.83275], [-19.062652, 76.837877], [-19.391347, 76.831366], [-19.445302, 76.839545], [-19.521555, 76.877916], [-19.582875, 76.872707], [-19.647939, 76.877672], [-19.89509, 76.92536], [-20.0, 76.92719231338195], [-20.0, 77.3581358585024], [-19.727651, 77.341132]]], [[[-19.937734, 76.257961], [-19.847239, 76.24494], [-19.763051, 76.204983], [-19.69811, 76.143704], [-19.670562, 76.136054], [-19.721425, 76.075263], [-19.71524, 76.061591], [-19.99649, 76.063056], [-20.0, 76.06214643967037], [-20.0, 76.25538836196883], [-19.937734, 76.257961]]], [[[-19.934967, 75.934027], [-19.749379, 75.888983], [-19.570058, 75.778998], [-19.49706, 75.75727], [-19.345326, 75.732611], [-19.37267, 75.724595], [-19.481842, 75.738837], [-19.548655, 75.735785], [-19.575917, 75.725898], [-19.565053, 75.704657], [-19.612294, 75.684231], [-19.594838, 75.668362], [-19.503041, 75.643256], [-19.520863, 75.625922], [-19.501698, 75.610663], [-19.441558, 75.588609], [-19.39623, 75.559963], [-19.3815, 75.541327], [-19.36913, 75.461859], [-19.341908, 75.411322], [-19.363759, 75.373969], [-19.365834, 75.334174], [-19.402252, 75.252509], [-19.463857, 75.198391], [-19.530141, 75.176947], [-19.588612, 75.14232], [-19.879791, 75.149807], [-20.0, 75.18502895573549], [-20.0, 75.26721162194725], [-19.947987, 75.279527], [-19.991689, 75.301174], [-20.0, 75.3022728494307], [-20.0, 75.93234870474303], [-19.934967, 75.934027]]], [[[-19.981313, 74.623969], [-19.934967, 74.629055], [-19.869049, 74.621731], [-19.840688, 74.593899], [-19.718373, 74.58747], [-19.642568, 74.622138], [-19.531158, 74.649156], [-19.447743, 74.683661], [-19.402821, 74.689439], [-19.35554, 74.684516], [-19.269602, 74.648871], [-19.309478, 74.614163], [-19.312164, 74.597846], [-19.290761, 74.581244], [-19.386301, 74.560736], [-19.281361, 74.559719], [-19.263417, 74.539008], [-19.283844, 74.532782], [-19.268788, 74.52265], [-19.122182, 74.505561], [-19.044586, 74.504788], [-18.974762, 74.484361], [-19.045318, 74.459052], [-19.077748, 74.43769], [-19.084625, 74.416164], [-19.1669, 74.406195], [-19.178049, 74.397854], [-19.166575, 74.3758], [-19.184641, 74.348293], [-19.349233, 74.285468], [-19.365834, 74.269355], [-19.626536, 74.238593], [-20.0, 74.26537841984229], [-20.0, 74.63208596494846], [-19.981313, 74.623969]]], [[[-18.7235, 74.626614], [-18.749501, 74.607896], [-18.728912, 74.587551], [-18.736195, 74.57274], [-18.823354, 74.547309], [-19.146392, 74.551337], [-19.173492, 74.545233], [-19.152943, 74.560736], [-19.189931, 74.569566], [-19.221832, 74.58747], [-19.08023, 74.634833], [-18.904897, 74.675482], [-18.793365, 74.671617], [-18.763783, 74.663275], [-18.749501, 74.648871], [-18.785471, 74.641425], [-18.810292, 74.622219], [-18.735219, 74.632473], [-18.7235, 74.626614]]], [[[-18.303822, 74.711615], [-18.378896, 74.690497], [-18.378896, 74.683661], [-18.346832, 74.671332], [-18.324452, 74.652981], [-18.324086, 74.636298], [-18.358469, 74.629055], [-18.482574, 74.629218], [-18.499013, 74.633002], [-18.495595, 74.642646], [-18.507883, 74.653957], [-18.550282, 74.676825], [-18.54894, 74.693183], [-18.591176, 74.725287], [-18.471425, 74.711615], [-18.303822, 74.711615]]], [[[-19.741119, 74.881334], [-19.728871, 74.868598], [-19.734975, 74.855292], [-19.790395, 74.834418], [-19.891021, 74.774115], [-19.967763, 74.757229], [-20.0, 74.74271631454059], [-20.0, 74.92494124434323], [-19.741119, 74.881334]]], [[[-19.976877, 75.010647], [-19.961659, 74.998969], [-19.967152, 74.984605], [-19.985504, 74.974921], [-20.0, 74.97217112066492], [-20.0, 75.01525837741245], [-19.976877, 75.010647]]], [[[-17.380198, 75.100775], [-17.399526, 75.076972], [-17.385854, 75.04678], [-17.354604, 75.038967], [-17.355295, 75.025946], [-17.44933, 75.00727], [-17.515533, 75.005805], [-17.497629, 74.998114], [-17.496246, 74.985826], [-17.506215, 74.972398], [-17.549672, 74.949612], [-17.618398, 74.935736], [-17.645904, 74.944322], [-17.609039, 74.96369], [-17.611073, 74.997626], [-17.73469, 75.012641], [-17.817209, 75.005805], [-17.810374, 75.012641], [-17.836171, 75.030829], [-17.880116, 75.035956], [-18.100738, 75.038031], [-18.178212, 75.017524], [-18.447865, 74.985297], [-18.823842, 75.007148], [-18.892649, 74.999213], [-18.908681, 75.009101], [-18.927602, 75.04678], [-18.920888, 75.054511], [-18.927602, 75.081488], [-18.907216, 75.105048], [-18.831451, 75.156643], [-18.838938, 75.167711], [-18.886708, 75.190741], [-18.850413, 75.194159], [-18.836903, 75.205878], [-18.838206, 75.263088], [-18.853261, 75.294827], [-18.924672, 75.316107], [-18.948069, 75.334174], [-18.797271, 75.336249], [-18.713206, 75.360297], [-18.65982, 75.357001], [-18.539622, 75.375067], [-18.513417, 75.373196], [-18.421783, 75.340644], [-18.399403, 75.327867], [-18.385732, 75.30744], [-18.316803, 75.299994], [-18.213612, 75.310126], [-18.16039, 75.323065], [-18.125722, 75.341539], [-18.134185, 75.359036], [-18.135894, 75.384019], [-18.129465, 75.392076], [-18.105133, 75.403022], [-18.094065, 75.419338], [-18.05134, 75.420111], [-17.959462, 75.399482], [-17.919342, 75.373969], [-17.866851, 75.359931], [-17.845204, 75.348049], [-17.851308, 75.334174], [-17.802887, 75.314276], [-17.832509, 75.294745], [-17.975331, 75.259996], [-18.122792, 75.26675], [-18.146148, 75.25967], [-18.091542, 75.252183], [-18.198354, 75.241645], [-18.211049, 75.232082], [-18.209218, 75.222357], [-18.119781, 75.209418], [-18.027333, 75.232652], [-18.015777, 75.228949], [-18.022817, 75.210395], [-18.052358, 75.182359], [-18.02009, 75.158677], [-17.961171, 75.136135], [-17.91275, 75.136135], [-17.899159, 75.115627], [-17.813385, 75.088853], [-17.721669, 75.081488], [-17.602895, 75.098822], [-17.583852, 75.108222], [-17.585276, 75.116889], [-17.60497, 75.12873], [-17.589915, 75.152533], [-17.473948, 75.149807], [-17.394643, 75.159613], [-17.356068, 75.153998], [-17.316965, 75.136135], [-17.380198, 75.100775]]], [[[-18.550282, 75.998847], [-18.569081, 75.955308], [-18.550282, 75.944281], [-18.59789, 75.904608], [-18.629303, 75.892239], [-18.65331, 75.903266], [-18.652699, 75.921373], [-18.62914, 75.961575], [-18.635854, 75.982123], [-18.871002, 76.193996], [-18.902903, 76.238227], [-18.903147, 76.270168], [-18.891347, 76.29092], [-18.902333, 76.306789], [-18.948069, 76.335273], [-19.106435, 76.473456], [-19.132924, 76.513007], [-19.1256, 76.554999], [-19.095041, 76.581936], [-19.015248, 76.596381], [-18.815663, 76.58454], [-18.763173, 76.588568], [-18.778188, 76.600165], [-18.797271, 76.6022], [-18.78303, 76.616441], [-18.93578, 76.623847], [-18.984934, 76.616156], [-18.984975, 76.6258], [-19.030019, 76.657416], [-19.047434, 76.705471], [-19.083648, 76.718899], [-19.072743, 76.73432], [-19.030019, 76.759833], [-18.947865, 76.762274], [-18.898671, 76.740302], [-18.726226, 76.690741], [-18.673411, 76.655463], [-18.660146, 76.63288], [-18.660308, 76.60871], [-18.673166, 76.581732], [-18.721547, 76.527086], [-18.722971, 76.510972], [-18.701039, 76.478705], [-18.711497, 76.409166], [-18.707875, 76.383124], [-18.686147, 76.314439], [-18.607167, 76.234931], [-18.605458, 76.218573], [-18.652903, 76.180732], [-18.646474, 76.164008], [-18.608876, 76.112128], [-18.570709, 76.084866], [-18.550282, 76.054145], [-18.550282, 75.998847]]], [[[-18.227162, 77.637356], [-18.267201, 77.656724], [-18.228627, 77.665229], [-18.13683, 77.729397], [-17.993804, 77.772203], [-17.971791, 77.790473], [-17.967397, 77.824205], [-17.953359, 77.84455], [-17.890126, 77.868354], [-17.702748, 77.880194], [-17.698598, 77.870307], [-17.633534, 77.827826], [-17.617299, 77.806586], [-17.635976, 77.78026], [-17.718495, 77.7331], [-17.755767, 77.681586], [-17.808909, 77.655463], [-17.875803, 77.643744], [-18.227162, 77.637356]]], [[[-19.263417, 77.864814], [-19.241078, 77.847561], [-19.235463, 77.828681], [-19.261342, 77.808987], [-19.308461, 77.803697], [-20.0, 77.88967758924967], [-20.0, 77.99939295612282], [-19.995717, 77.999945], [-19.958404, 77.982489], [-19.897694, 77.930365], [-19.746653, 77.894436], [-19.358306, 77.89765], [-19.263417, 77.864814]]], [[[-19.107086, 78.042873], [-19.113881, 78.061347], [-19.29483, 78.104071], [-19.320424, 78.144477], [-19.152577, 78.108832], [-18.950551, 78.127387], [-18.859853, 78.144477], [-18.869618, 78.127102], [-18.926869, 78.094184], [-18.931956, 78.076606], [-18.925445, 78.056871], [-18.91161, 78.04328], [-18.894399, 78.04385], [-19.111562, 77.932278], [-19.172678, 77.918891], [-19.201772, 77.927436], [-19.202382, 77.958686], [-19.171376, 77.995307], [-19.107086, 78.042873]]], [[[-19.496693, 78.201361], [-19.514312, 78.209662], [-19.501291, 78.22842], [-19.558949, 78.249091], [-19.628407, 78.25495], [-19.647572, 78.264797], [-19.659047, 78.306871], [-19.646392, 78.350816], [-19.630035, 78.364814], [-19.607981, 78.361518], [-19.469106, 78.309638], [-19.429514, 78.280219], [-19.392201, 78.224433], [-19.352406, 78.21483], [-19.445058, 78.200019], [-19.496693, 78.201361]]], [[[-18.891103, 78.40648], [-18.889963, 78.394232], [-18.934641, 78.378607], [-18.9051, 78.341498], [-18.94225, 78.331692], [-19.040028, 78.330268], [-19.056386, 78.322903], [-19.063385, 78.308824], [-19.05663, 78.292304], [-19.040028, 78.280951], [-18.897084, 78.242133], [-18.880767, 78.231838], [-18.881459, 78.220201], [-18.893666, 78.210395], [-19.073801, 78.185045], [-19.088612, 78.198961], [-19.271108, 78.230658], [-19.257558, 78.257514], [-19.266428, 78.288886], [-19.3155, 78.347724], [-19.289215, 78.368109], [-19.257436, 78.384345], [-18.938466, 78.475287], [-18.923085, 78.467353], [-18.917836, 78.443549], [-18.891103, 78.40648]]], [[[-18.315053, 78.58039], [-18.473866, 78.549302], [-18.467641, 78.535061], [-18.509755, 78.52558], [-18.56371, 78.523627], [-18.615875, 78.532538], [-18.652699, 78.555487], [-18.633168, 78.567857], [-18.562367, 78.581488], [-18.502919, 78.611151], [-18.391998, 78.63642], [-18.256947, 78.632554], [-18.227447, 78.623765], [-18.315053, 78.58039]]], [[[-18.244862, 78.762519], [-18.232411, 78.777737], [-18.239858, 78.785142], [-18.206776, 78.812567], [-18.161773, 78.829291], [-18.113108, 78.832343], [-18.068593, 78.818671], [-18.00475, 78.779039], [-18.000315, 78.765815], [-18.042795, 78.745551], [-18.178944, 78.711493], [-18.20519, 78.695787], [-18.211008, 78.708197], [-18.20519, 78.736762], [-18.244862, 78.762519]]], [[[-19.155629, 78.701117], [-19.31432, 78.695624], [-19.395579, 78.705308], [-19.512074, 78.742825], [-19.604156, 78.756293], [-19.610666, 78.770006], [-19.583079, 78.789496], [-19.154856, 78.92829], [-19.075673, 78.931138], [-19.048004, 78.92357], [-19.055409, 78.909329], [-19.165273, 78.895657], [-19.147817, 78.885077], [-19.151682, 78.868354], [-19.139312, 78.864203], [-19.020741, 78.868354], [-19.047922, 78.85102], [-19.151112, 78.837551], [-19.185862, 78.820543], [-19.144846, 78.813666], [-19.176747, 78.796291], [-19.213206, 78.792629], [-19.180165, 78.783026], [-19.055409, 78.792629], [-19.062245, 78.786363], [-19.041819, 78.778998], [-19.094838, 78.764106], [-19.281361, 78.765937], [-19.260487, 78.752875], [-19.222157, 78.748196], [-19.121571, 78.757066], [-19.020741, 78.745429], [-19.137441, 78.717515], [-19.124379, 78.710679], [-19.155629, 78.701117]]], [[[-17.681996, 79.03852], [-17.704213, 79.032213], [-17.683095, 79.01789], [-17.725331, 79.005683], [-17.772532, 79.004299], [-17.745188, 78.990668], [-17.787913, 78.978909], [-17.833974, 78.976996], [-17.815175, 78.967963], [-17.828847, 78.960435], [-17.896637, 78.948065], [-17.964955, 78.955878], [-17.896637, 78.969468], [-17.959625, 79.009752], [-17.951283, 79.038398], [-17.921457, 79.06273], [-17.800404, 79.100531], [-17.745839, 79.153551], [-17.60554, 79.193834], [-17.567047, 79.175605], [-17.532053, 79.173082], [-17.421539, 79.136217], [-17.405914, 79.123277], [-17.408315, 79.104885], [-17.450999, 79.045233], [-17.498769, 79.045233], [-17.532948, 79.032213], [-17.681996, 79.03852]]], [[[-18.685414, 79.980902], [-18.577626, 80.016995], [-17.740834, 80.091213], [-17.663971, 80.088568], [-17.277496, 80.013129], [-17.260976, 80.003607], [-17.34203, 79.961615], [-17.355784, 79.943752], [-17.836293, 79.742499], [-18.17394, 79.693671], [-18.485219, 79.686103], [-18.568959, 79.708075], [-19.093088, 79.777777], [-19.249623, 79.831285], [-19.414174, 79.848131], [-19.357493, 79.870673], [-19.148915, 79.903266], [-19.067983, 79.927802], [-18.919423, 79.933661], [-18.924916, 79.946723], [-19.002349, 80.014309], [-18.826283, 80.025092], [-18.773183, 80.001207], [-18.764272, 79.973293], [-18.685414, 79.980902]]], [[[-19.655995, 80.022854], [-19.704091, 80.057563], [-19.628407, 80.085517], [-19.640207, 80.093695], [-19.604482, 80.115627], [-19.604237, 80.146308], [-19.592437, 80.15998], [-19.487375, 80.195868], [-19.349924, 80.213202], [-19.206695, 80.210191], [-18.737131, 80.13817], [-18.702992, 80.126451], [-18.77184, 80.11225], [-19.522857, 80.03026], [-19.655995, 80.022854]]], [[[-17.796376, 81.616889], [-18.21345, 81.692206], [-18.281484, 81.718492], [-18.225209, 81.735297], [-17.793772, 81.746161], [-17.74885, 81.720364], [-17.66393, 81.704901], [-17.561513, 81.67357], [-17.484202, 81.63939], [-17.335561, 81.608629], [-17.335561, 81.602484], [-17.379994, 81.591498], [-17.732818, 81.595649], [-17.796376, 81.616889]]], [[[-19.596669, 81.991767], [-19.634918, 82.014594], [-19.661936, 82.052232], [-19.667226, 82.075019], [-19.658193, 82.094062], [-19.524159, 82.117865], [-19.410553, 82.11994], [-19.260365, 82.09101], [-19.09142, 82.04267], [-19.050608, 81.996405], [-18.91983, 81.968166], [-18.67927, 81.869045], [-18.649403, 81.848212], [-18.63093, 81.819729], [-18.688385, 81.813707], [-19.045033, 81.8251], [-19.596669, 81.991767]]]]}}]}