{"type": "FeatureCollection", "features": [{"type": "Feature", "properties": {"name": "Antarctica"}, "geometry": {"type": "MultiPolygon", "coordinates": [[[[-100.0, -90.0], [-100.0, -75.36388924920404], [-99.831614, -75.329848], [-99.431386, -75.303399], [-99.014312, -75.339532], [-98.945668, -75.317071], [-98.772043, -75.320977], [-98.641957, -75.309503], [-98.579335, -75.273614], [-98.481191, -75.258884], [-98.402211, -75.236423], [-98.42984, -75.217869], [-98.478586, -75.21559], [-98.571401, -75.225844], [-98.744211, -75.224542], [-98.434316, -75.133396], [-98.547719, -75.123468], [-98.899078, -75.174981], [-99.040028, -75.146173], [-99.379709, -75.112726], [-99.335439, -75.076349], [-99.32787, -75.054132], [-99.323964, -74.962579], [-99.383412, -74.92669], [-99.438466, -74.913263], [-99.60204, -74.946547], [-99.741282, -74.9249], [-99.884429, -74.92197], [-100.0, -74.93305190674921], [-100.0, -74.79224091116679], [-99.919301, -74.769789], [-99.965321, -74.744806], [-100.0, -74.73489749550663], [-100.0, -74.59442192238971], [-99.876617, -74.577325], [-99.815785, -74.537856], [-99.800852, -74.536716], [-99.83316, -74.522231], [-99.881947, -74.524591], [-99.928131, -74.507745], [-100.0, -74.50819556113674], [-100.0, -73.73153580056056], [-99.867421, -73.733087], [-99.668609, -73.702407], [-99.584543, -73.706964], [-99.472076, -73.675551], [-99.585927, -73.634861], [-99.497304, -73.618585], [-99.210113, -73.64422], [-98.814361, -73.632257], [-98.867747, -73.593927], [-99.48526, -73.547459], [-99.587717, -73.522638], [-99.551584, -73.49977], [-99.502349, -73.489353], [-99.405588, -73.486586], [-99.60025, -73.448175], [-99.63622, -73.447849], [-99.714915, -73.467706], [-99.727528, -73.462009], [-99.730458, -73.448419], [-99.711334, -73.398858], [-99.73412, -73.372979], [-99.768056, -73.36419], [-100.0, -73.3582437866427], [-100.0, -73.02011578829313], [-99.853586, -72.995538], [-99.68224, -73.017267], [-97.717437, -73.025323], [-97.835439, -73.110447], [-97.981191, -73.169366], [-97.928822, -73.188409], [-97.81664, -73.201267], [-97.761138, -73.194106], [-97.60261, -73.136163], [-97.418853, -73.124933], [-97.335072, -73.149347], [-97.225738, -73.15309], [-97.180653, -73.180271], [-97.156565, -73.185968], [-96.992096, -73.19199], [-96.912099, -73.229181], [-96.705068, -73.267348], [-96.588287, -73.276056], [-96.474965, -73.299493], [-95.842681, -73.331476], [-95.794586, -73.275649], [-95.746571, -73.25506], [-95.688588, -73.244399], [-95.511342, -73.244806], [-95.338612, -73.220147], [-95.27831, -73.227146], [-95.233795, -73.211033], [-95.193756, -73.20908], [-95.003163, -73.244073], [-94.577992, -73.235528], [-94.531158, -73.246026], [-94.387034, -73.30934], [-94.335805, -73.321547], [-94.131012, -73.312595], [-93.935902, -73.279474], [-93.774322, -73.216241], [-93.697011, -73.212335], [-93.634267, -73.22381], [-93.616282, -73.216567], [-93.599029, -73.183038], [-93.571645, -73.175226], [-93.022694, -73.193129], [-92.801381, -73.142755], [-92.769846, -73.149102], [-92.742299, -73.178318], [-92.718332, -73.18377], [-92.539866, -73.166111], [-91.953847, -73.184503], [-91.933665, -73.191176], [-91.919301, -73.224216], [-91.843617, -73.25506], [-91.662994, -73.245212], [-91.114858, -73.300714], [-91.097076, -73.311212], [-91.089019, -73.334649], [-91.077382, -73.336602], [-90.759918, -73.308201], [-90.648915, -73.277602], [-90.534291, -73.280206], [-90.360422, -73.222752], [-90.206695, -73.149835], [-90.160797, -73.139744], [-90.070302, -73.142999], [-89.946848, -73.127211], [-89.799672, -73.143731], [-89.745595, -73.142267], [-89.536733, -73.104262], [-89.443186, -73.120864], [-89.283803, -73.106622], [-89.230295, -73.111261], [-89.281728, -73.062595], [-89.280019, -73.037693], [-89.242584, -73.016778], [-89.087961, -72.960056], [-89.054067, -72.929132], [-89.106313, -72.913344], [-89.119252, -72.90252], [-89.099517, -72.808364], [-89.110504, -72.764337], [-89.171376, -72.730564], [-89.358266, -72.677016], [-89.424713, -72.643487], [-89.3485, -72.634535], [-88.2235, -72.712335], [-88.173492, -72.73211], [-88.138905, -72.76214], [-88.123525, -72.825942], [-88.108754, -72.843357], [-88.195709, -72.876642], [-88.286122, -72.899591], [-88.406321, -72.91839], [-88.433583, -72.935968], [-88.441233, -72.95615], [-88.432769, -72.969415], [-88.393666, -72.990492], [-88.419301, -73.021091], [-88.714019, -73.119806], [-88.566396, -73.165297], [-88.478342, -73.242934], [-88.443837, -73.263604], [-88.40689, -73.270603], [-88.36913, -73.265883], [-88.229726, -73.212823], [-88.152333, -73.209893], [-88.118072, -73.214532], [-88.057769, -73.243422], [-87.921498, -73.252699], [-87.88561, -73.246515], [-87.824778, -73.221124], [-87.648793, -73.194513], [-87.504954, -73.201104], [-87.349517, -73.16961], [-87.323557, -73.184259], [-87.332346, -73.202081], [-87.360341, -73.219008], [-87.393666, -73.226251], [-87.358306, -73.256117], [-87.31843, -73.26865], [-87.134511, -73.287205], [-87.110748, -73.309747], [-87.133453, -73.352472], [-87.041331, -73.377211], [-86.946523, -73.383559], [-86.666615, -73.372003], [-86.594594, -73.34881], [-86.460357, -73.337335], [-86.413889, -73.311944], [-86.367747, -73.262791], [-86.317006, -73.257989], [-86.249257, -73.27988], [-86.222279, -73.277602], [-86.071197, -73.247328], [-85.986073, -73.201837], [-85.88683, -73.176935], [-85.782582, -73.169122], [-85.678619, -73.177504], [-85.580393, -73.200453], [-85.658599, -73.222101], [-85.668568, -73.241143], [-85.664906, -73.25506], [-85.594716, -73.283461], [-85.564076, -73.334893], [-85.503733, -73.35296], [-85.542877, -73.37184], [-85.531606, -73.385349], [-85.499827, -73.387628], [-85.439849, -73.410089], [-85.367177, -73.392022], [-85.339508, -73.396254], [-85.101471, -73.487074], [-84.919179, -73.513279], [-84.850331, -73.532322], [-84.466908, -73.569431], [-84.113026, -73.549574], [-84.041005, -73.567966], [-83.948964, -73.545994], [-83.864613, -73.565362], [-83.751698, -73.560235], [-83.752024, -73.612563], [-83.759755, -73.634942], [-83.83609, -73.644952], [-83.881581, -73.666681], [-83.866607, -73.679132], [-83.808746, -73.69378], [-83.820383, -73.722833], [-83.809316, -73.741306], [-83.691029, -73.726658], [-83.665761, -73.728448], [-83.631663, -73.752211], [-83.553456, -73.730645], [-83.519195, -73.737074], [-83.488637, -73.701918], [-83.450103, -73.685235], [-83.295766, -73.70615], [-82.933705, -73.710382], [-82.714263, -73.744236], [-82.67398, -73.770115], [-82.601186, -73.768731], [-82.348297, -73.826349], [-82.209218, -73.88006], [-82.137074, -73.889744], [-82.064768, -73.886977], [-81.998402, -73.870375], [-81.89269, -73.818292], [-81.707183, -73.826837], [-81.233998, -73.730239], [-81.184682, -73.704197], [-81.14684, -73.665948], [-81.111643, -73.604425], [-81.086252, -73.594496], [-81.115468, -73.569513], [-81.272572, -73.521742], [-81.328236, -73.480076], [-81.33552, -73.457289], [-81.332102, -73.433201], [-81.310943, -73.377374], [-81.309478, -73.353611], [-81.322662, -73.335626], [-81.355458, -73.323826], [-81.311187, -73.273045], [-81.23469, -73.247979], [-81.149281, -73.239923], [-80.81017, -73.263116], [-80.774566, -73.275974], [-80.709299, -73.324395], [-80.611969, -73.333754], [-80.393788, -73.414239], [-80.271392, -73.42254], [-80.232533, -73.417657], [-80.196848, -73.401951], [-80.225453, -73.399591], [-80.324696, -73.362563], [-80.351796, -73.345473], [-80.36384, -73.286391], [-80.436757, -73.188165], [-80.519399, -73.153253], [-80.564198, -73.109796], [-80.623769, -73.09824], [-80.65099, -73.084405], [-80.664377, -73.022882], [-80.646474, -72.996759], [-80.606313, -72.974786], [-80.492543, -72.953302], [-80.377675, -72.949965], [-80.0, -72.99584354548256], [-80.0, -77.81451190173159], [-80.02245, -77.815606], [-80.227162, -77.797784], [-80.386098, -77.75156], [-80.576405, -77.723728], [-80.769358, -77.669854], [-80.749623, -77.690037], [-80.65689, -77.724867], [-80.704986, -77.764093], [-80.762278, -77.789972], [-81.157094, -77.852309], [-81.398508, -77.833103], [-81.66747, -77.841485], [-81.6162, -77.862074], [-80.0, -78.07643063090606], [-80.0, -78.83387875110881], [-80.295237, -78.846775], [-82.404368, -78.470473], [-82.48705, -78.465753], [-83.677561, -78.011489], [-83.767649, -77.968032], [-83.824127, -77.973891], [-83.83137, -77.982192], [-83.828603, -77.996677], [-83.780019, -78.04754], [-83.725087, -78.135675], [-83.661773, -78.167739], [-83.559967, -78.177179], [-83.596669, -78.202081], [-83.591298, -78.226251], [-83.379709, -78.298517], [-83.305653, -78.302667], [-83.217885, -78.334568], [-83.18163, -78.360935], [-83.020985, -78.428481], [-82.994985, -78.466241], [-82.944936, -78.473321], [-82.985707, -78.491876], [-83.045888, -78.504815], [-83.105336, -78.505141], [-83.143788, -78.486261], [-83.113759, -78.469415], [-83.193471, -78.416681], [-83.239817, -78.398533], [-83.285797, -78.392185], [-83.417388, -78.405938], [-83.461822, -78.392755], [-83.428293, -78.371189], [-83.386871, -78.364679], [-83.407094, -78.351821], [-83.475413, -78.351739], [-83.681264, -78.327244], [-83.73998, -78.360935], [-83.734731, -78.385837], [-83.710032, -78.397231], [-83.744252, -78.418145], [-83.886138, -78.419366], [-83.803944, -78.501072], [-83.719635, -78.560154], [-83.541005, -78.629164], [-83.403391, -78.714939], [-83.253529, -78.772719], [-82.91808, -78.858575], [-82.728383, -78.875665], [-82.632476, -78.863946], [-82.585683, -78.867852], [-82.56664, -78.894708], [-82.607167, -78.911391], [-82.607045, -78.92962], [-82.579498, -78.944594], [-82.479848, -78.967055], [-82.389027, -78.969334], [-81.742787, -79.065362], [-81.706899, -79.091241], [-81.651112, -79.100763], [-81.451324, -79.16725], [-81.410146, -79.173598], [-81.453359, -79.188572], [-81.388254, -79.215509], [-81.277211, -79.194513], [-81.105702, -79.203383], [-81.222157, -79.233331], [-81.274973, -79.254815], [-81.319325, -79.298517], [-81.301584, -79.324884], [-81.168528, -79.448175], [-81.11734, -79.469903], [-80.49234, -79.577895], [-80.411936, -79.551935], [-80.393178, -79.535252], [-80.385976, -79.508233], [-80.401438, -79.489028], [-80.507069, -79.445977], [-80.5454, -79.414321], [-80.537221, -79.323663], [-80.530426, -79.304295], [-80.486562, -79.273614], [-80.429351, -79.258477], [-80.0, -79.26447570966023], [-80.0, -90.0], [-100.0, -90.0]]], [[[-89.852162, -72.858819], [-89.785512, -72.850274], [-89.571523, -72.86297], [-89.405629, -72.895685], [-89.330678, -72.927992], [-89.359364, -72.945977], [-89.478749, -72.975763], [-89.555247, -73.050714], [-89.585072, -73.070408], [-89.689117, -73.09059], [-89.796376, -73.09238], [-89.995676, -73.067641], [-90.132476, -73.094415], [-90.219146, -73.084242], [-90.295969, -73.049493], [-90.336293, -72.9874], [-90.28246, -72.941339], [-90.215688, -72.944513], [-90.093902, -72.986505], [-90.005523, -72.976739], [-89.963368, -72.958266], [-89.929351, -72.931573], [-89.892445, -72.884617], [-89.852162, -72.858819]]], [[[-93.749989, -72.905532], [-93.773549, -72.918227], [-93.86205, -72.928155], [-94.000111, -72.919041], [-94.070383, -72.902765], [-94.128163, -72.872979], [-94.068349, -72.82586], [-93.9829, -72.819024], [-93.818227, -72.856378], [-93.750803, -72.888604], [-93.749989, -72.905532]]], [[[-98.042348, -72.662286], [-97.940256, -72.657403], [-97.748687, -72.683282], [-97.831288, -72.716974], [-97.941233, -72.72503], [-98.050445, -72.714451], [-98.130767, -72.692315], [-98.042348, -72.662286]]], [[[-90.930531, -72.847914], [-90.861073, -72.835626], [-90.785878, -72.840997], [-90.739898, -72.864435], [-90.728261, -72.884454], [-90.724477, -72.912774], [-90.735341, -72.945408], [-90.761057, -72.980076], [-90.819488, -73.03631], [-90.917714, -73.101251], [-91.02538, -73.149835], [-91.2058, -73.194431], [-91.39037, -73.212823], [-91.506337, -73.197849], [-91.524648, -73.19256], [-91.486318, -73.124607], [-91.449086, -72.951837], [-91.386708, -72.929132], [-91.333404, -72.897556], [-91.528472, -72.783136], [-91.556223, -72.757257], [-91.620473, -72.669366], [-91.686513, -72.609959], [-91.390045, -72.550063], [-91.044179, -72.543145], [-90.915191, -72.562188], [-90.816396, -72.603448], [-90.779612, -72.636163], [-90.757965, -72.697442], [-90.787668, -72.744561], [-90.901601, -72.819757], [-90.930531, -72.847914]]], [[[-93.326812, -72.560235], [-93.276519, -72.545587], [-93.219106, -72.541762], [-93.110585, -72.559828], [-93.129872, -72.592706], [-93.160797, -72.61419], [-93.236318, -72.635512], [-93.314687, -72.630466], [-93.388783, -72.602472], [-93.326812, -72.560235]]], [[[-94.483266, -72.545587], [-94.39981, -72.607354], [-94.50475, -72.632745], [-95.201243, -72.677341], [-95.274281, -72.651788], [-95.269276, -72.636], [-95.197825, -72.588637], [-94.810455, -72.534601], [-94.580881, -72.468927], [-94.522084, -72.469415], [-94.502065, -72.479262], [-94.493804, -72.491469], [-94.483266, -72.545587]]], [[[-95.428863, -72.334242], [-95.437408, -72.355239], [-95.515492, -72.402032], [-95.755279, -72.437758], [-96.022572, -72.436456], [-96.096791, -72.461114], [-96.051747, -72.455662], [-95.990631, -72.47031], [-95.944407, -72.50156], [-95.943918, -72.546157], [-95.987945, -72.574314], [-96.054758, -72.583673], [-96.604319, -72.560805], [-96.714833, -72.517022], [-96.73998, -72.519789], [-96.773346, -72.54046], [-96.787506, -72.566502], [-96.936106, -72.580173], [-97.126047, -72.561212], [-97.168813, -72.546645], [-97.231272, -72.509942], [-97.259023, -72.507094], [-97.599355, -72.557224], [-98.580149, -72.572849], [-98.673004, -72.542169], [-98.624379, -72.529718], [-98.535471, -72.464125], [-99.396555, -72.498224], [-99.468088, -72.461358], [-99.401275, -72.42783], [-99.251047, -72.409763], [-99.186431, -72.375421], [-99.764638, -72.373468], [-99.891957, -72.332696], [-99.980377, -72.321222], [-100.0, -72.3161653533398], [-100.0, -71.97451928182899], [-99.945383, -71.978611], [-99.868316, -71.99627], [-99.902699, -72.030043], [-99.895375, -72.046075], [-99.861155, -72.049412], [-99.7176, -72.032322], [-99.631093, -71.955255], [-99.596832, -71.938735], [-99.499013, -71.930434], [-99.401357, -71.943292], [-99.204701, -71.997491], [-99.000396, -72.083917], [-98.822825, -72.091404], [-98.685536, -72.107354], [-98.634023, -72.098077], [-98.748769, -72.019301], [-98.785471, -72.002374], [-98.959706, -71.969822], [-99.104075, -71.921645], [-99.152577, -71.916192], [-99.126698, -71.888279], [-99.089711, -71.871189], [-98.970286, -71.838637], [-98.880523, -71.774184], [-98.856272, -71.765232], [-98.531646, -71.756768], [-97.982411, -71.859633], [-98.040191, -71.915623], [-98.115224, -71.946547], [-98.290883, -71.974216], [-98.228627, -72.045017], [-98.281484, -72.079197], [-98.308746, -72.128676], [-98.35261, -72.156427], [-98.273549, -72.149509], [-98.162506, -72.093194], [-98.069081, -72.07822], [-97.993642, -72.085056], [-97.852528, -72.116957], [-97.951975, -72.163995], [-97.825592, -72.161798], [-97.764312, -72.142511], [-97.753733, -72.094008], [-97.773061, -72.071384], [-97.854237, -72.050063], [-97.863922, -72.02044], [-97.856028, -71.980727], [-97.828847, -71.933364], [-97.892079, -71.91074], [-97.843495, -71.89544], [-97.739735, -71.883396], [-97.602773, -71.888116], [-97.47232, -71.907973], [-97.62267, -71.950453], [-97.407867, -71.986586], [-97.36498, -71.979913], [-97.412506, -72.034601], [-97.618316, -72.096124], [-97.588124, -72.106215], [-97.530588, -72.159438], [-97.473256, -72.191176], [-97.394114, -72.208429], [-97.305653, -72.176853], [-97.223134, -72.120294], [-97.137074, -72.032892], [-97.084462, -71.927667], [-97.048207, -71.876397], [-96.990102, -71.847345], [-96.922109, -71.834893], [-96.856516, -71.833591], [-96.736236, -71.860935], [-96.360463, -71.835056], [-96.282338, -71.842543], [-96.208811, -71.86061], [-96.065338, -71.913832], [-96.115061, -71.995782], [-96.139475, -72.013604], [-96.200266, -72.023696], [-96.422841, -72.004571], [-96.509592, -72.013767], [-96.407297, -72.055108], [-96.382151, -72.056899], [-96.498931, -72.091974], [-96.620107, -72.106622], [-96.999989, -72.214288], [-96.916005, -72.249119], [-96.820709, -72.265395], [-96.723785, -72.264093], [-96.441274, -72.193455], [-95.953277, -72.143813], [-95.737172, -72.056329], [-95.658111, -72.047621], [-95.59317, -72.076837], [-95.689361, -72.093357], [-95.719106, -72.103285], [-95.502919, -72.151625], [-95.541005, -72.176853], [-95.640981, -72.206638], [-96.231597, -72.234145], [-96.336171, -72.255141], [-96.415761, -72.289809], [-96.349192, -72.295668], [-96.038808, -72.257501], [-95.976186, -72.25921], [-95.921986, -72.277439], [-95.863271, -72.317804], [-95.810374, -72.33172], [-95.753285, -72.33294], [-95.555653, -72.312677], [-95.499216, -72.315606], [-95.428863, -72.334242]]], [[[-99.944407, -71.893813], [-99.993276, -71.932794], [-100.0, -71.93397332590428], [-100.0, -71.86014600409996], [-99.944407, -71.893813]]]]}}]}