{"type": "FeatureCollection", "features": [{"type": "Feature", "properties": {"name": "Antarctica"}, "geometry": {"type": "MultiPolygon", "coordinates": [[[[-180.0, -90.0], [-180.0, -84.352796], [-178.297556, -84.307712], [-178.17158, -84.323826], [-178.213857, -84.335138], [-178.03246, -84.356541], [-178.003041, -84.366632], [-177.997996, -84.386163], [-177.704701, -84.41839], [-177.53954, -84.40016], [-177.325022, -84.405532], [-177.106801, -84.383559], [-176.06432, -84.395929], [-176.116038, -84.40781], [-176.457712, -84.419854], [-176.51061, -84.435479], [-175.998728, -84.4874], [-176.042226, -84.493422], [-175.963002, -84.517022], [-175.91218, -84.542576], [-175.881337, -84.547459], [-175.248891, -84.497491], [-175.18989, -84.485121], [-175.142893, -84.452325], [-175.224802, -84.440199], [-175.207224, -84.420017], [-175.178049, -84.414809], [-168.254709, -84.648207], [-168.20995, -84.656915], [-168.123647, -84.695082], [-168.164866, -84.721856], [-168.056752, -84.770766], [-168.018625, -84.78102], [-167.508249, -84.811944], [-167.480092, -84.836358], [-167.555002, -84.848403], [-167.441762, -84.867446], [-166.911204, -84.820245], [-164.047434, -84.876072], [-163.934641, -84.895196], [-162.994089, -84.914158], [-162.848948, -84.883071], [-160.0, -85.02150949402451], [-160.0, -90.0], [-180.0, -90.0]]], [[[-163.862864, -84.5499], [-163.893178, -84.545343], [-163.91218, -84.53045], [-163.901723, -84.517999], [-163.910837, -84.513279], [-164.096628, -84.480564], [-163.265492, -84.491795], [-163.317209, -84.476983], [-163.660227, -84.429132], [-165.130686, -84.419854], [-165.194203, -84.434666], [-166.423451, -84.370294], [-165.504628, -84.398614], [-165.514597, -84.381117], [-165.409739, -84.364516], [-163.001088, -84.36297], [-163.057973, -84.340509], [-164.156687, -84.292087], [-164.182851, -84.282322], [-164.163808, -84.272068], [-164.115956, -84.271254], [-164.098337, -84.262628], [-164.272288, -84.238458], [-164.190297, -84.225518], [-164.623362, -84.185317], [-164.740224, -84.156183], [-165.154408, -84.137953], [-165.128, -84.117934], [-165.091908, -84.112563], [-165.018544, -84.11891], [-165.060292, -84.101658], [-165.093455, -84.072198], [-165.009714, -84.056736], [-163.70283, -84.0499], [-163.743113, -84.031915], [-164.039011, -83.990655], [-163.997751, -83.977146], [-163.918284, -83.973077], [-163.890126, -83.963556], [-163.993886, -83.93906], [-164.911326, -83.823012], [-164.979604, -83.796482], [-165.420725, -83.766778], [-165.514394, -83.745701], [-165.935374, -83.78574], [-166.068227, -83.817966], [-167.679189, -83.770115], [-167.625356, -83.790297], [-167.253529, -83.81113], [-167.19518, -83.825453], [-167.29955, -83.837823], [-168.08259, -83.779555], [-167.988515, -83.766778], [-168.053578, -83.753676], [-168.259511, -83.743585], [-167.677195, -83.744236], [-167.733347, -83.722589], [-168.216379, -83.713149], [-168.337473, -83.692804], [-168.455271, -83.654474], [-168.609731, -83.622491], [-168.634348, -83.604587], [-168.534169, -83.573012], [-168.547719, -83.542576], [-168.582631, -83.530369], [-169.01655, -83.515558], [-169.049916, -83.508071], [-169.075673, -83.48919], [-169.005727, -83.474542], [-168.779897, -83.475681], [-169.345448, -83.442478], [-169.433054, -83.409438], [-171.740956, -83.227227], [-171.694447, -83.216892], [-170.956654, -83.261895], [-174.027577, -82.915216], [-174.337473, -82.812107], [-174.369618, -82.778904], [-174.339833, -82.758884], [-174.268992, -82.755792], [-173.18102, -82.916436], [-172.74177, -82.91839], [-172.512441, -82.869887], [-171.408315, -82.95379], [-170.929799, -83.064142], [-170.835072, -83.128188], [-170.793406, -83.168878], [-170.719472, -83.196954], [-169.59968, -83.310479], [-169.535349, -83.301935], [-169.734568, -83.244399], [-168.085805, -83.255548], [-168.009389, -83.208103], [-167.443064, -83.226495], [-167.333201, -83.198012], [-165.086293, -83.202081], [-164.854115, -83.250258], [-164.873402, -83.265313], [-164.947703, -83.281345], [-164.953359, -83.289483], [-164.947947, -83.304783], [-164.983225, -83.340265], [-164.985829, -83.35589], [-164.95283, -83.355076], [-164.822255, -83.37713], [-164.779612, -83.390883], [-164.66808, -83.452081], [-164.696523, -83.468194], [-164.691029, -83.48504], [-164.657338, -83.498142], [-164.617258, -83.506931], [-164.177317, -83.527114], [-164.113962, -83.506443], [-164.173166, -83.469985], [-164.203236, -83.431736], [-164.203481, -83.416925], [-164.189768, -83.403578], [-164.166249, -83.396091], [-163.597361, -83.367608], [-163.465077, -83.337091], [-163.284128, -83.338556], [-163.133982, -83.315525], [-162.869944, -83.321466], [-162.827992, -83.333266], [-162.8037, -83.366143], [-162.827016, -83.372817], [-162.803578, -83.39186], [-162.370107, -83.424005], [-162.260081, -83.449884], [-162.308298, -83.462579], [-162.457265, -83.47381], [-162.406443, -83.495375], [-162.169057, -83.524672], [-160.070017, -83.479181], [-160.0, -83.4871184314404], [-160.0, -84.6994279239917], [-163.862864, -84.5499]]], [[[-162.267405, -82.946547], [-161.575795, -83.024347], [-161.844187, -83.045505], [-161.970041, -83.116306], [-162.012685, -83.126072], [-162.402415, -83.14837], [-163.261301, -83.080987], [-163.283884, -83.063084], [-163.268625, -83.045668], [-163.295603, -83.026625], [-163.507069, -83.010919], [-163.601552, -82.990167], [-163.629587, -82.970636], [-163.625111, -82.952813], [-163.562327, -82.924086], [-163.602406, -82.907892], [-163.730417, -82.889825], [-163.752756, -82.879978], [-163.688791, -82.871515], [-163.710032, -82.861423], [-163.811391, -82.846938], [-163.749705, -82.833591], [-162.481516, -82.876642], [-162.267405, -82.946547]]], [[[-168.89863, -83.188897], [-168.81017, -83.201837], [-168.787343, -83.2138], [-168.847157, -83.226821], [-169.802235, -83.184015], [-169.863149, -83.147393], [-171.831003, -82.863458], [-171.901357, -82.842055], [-171.820505, -82.82464], [-169.030344, -83.154229], [-168.89863, -83.188897]]], [[[-163.728505, -81.481622], [-163.753163, -81.470473], [-163.658193, -81.461602], [-163.670155, -81.45436], [-163.948842, -81.418878], [-163.990061, -81.403497], [-163.949208, -81.378351], [-163.922678, -81.343357], [-163.851186, -81.318943], [-162.983876, -81.270278], [-160.67573, -81.462823], [-160.628529, -81.496759], [-160.685129, -81.514744], [-160.442209, -81.560235], [-160.413889, -81.573663], [-160.445383, -81.590509], [-160.571116, -81.598891], [-163.728505, -81.481622]]], [[[-162.734242, -79.793878], [-162.687367, -79.814874], [-162.732004, -79.835056], [-162.782664, -79.841729], [-163.348988, -79.797784], [-163.400136, -79.782892], [-163.247996, -79.768324], [-163.151601, -79.767755], [-163.065663, -79.781996], [-163.038075, -79.777114], [-163.048777, -79.768324], [-163.162913, -79.739923], [-162.734242, -79.793878]]], [[[-160.71288, -79.854587], [-163.481516, -79.489679], [-163.570872, -79.454685], [-163.936635, -79.411716], [-164.160959, -79.333429], [-164.300893, -79.301935], [-164.326527, -79.287367], [-164.276438, -79.28102], [-164.222646, -79.28574], [-164.305369, -79.220147], [-164.276479, -79.19378], [-164.289296, -79.135675], [-164.271596, -79.120782], [-164.275461, -79.099542], [-164.215321, -79.095147], [-164.202626, -79.08408], [-164.216908, -79.058689], [-164.245676, -79.043227], [-164.214792, -79.031427], [-164.177805, -79.003513], [-164.148061, -78.99212], [-163.992421, -78.968032], [-163.940378, -78.943536], [-163.778676, -78.930352], [-163.775217, -78.921075], [-163.833608, -78.906915], [-163.736684, -78.872003], [-163.483957, -78.811212], [-163.470693, -78.802504], [-163.300282, -78.77337], [-163.265004, -78.757257], [-163.310984, -78.720961], [-163.242991, -78.706313], [-162.35322, -78.752618], [-162.296498, -78.783868], [-162.144114, -78.792413], [-161.381907, -78.959242], [-161.353261, -78.977716], [-161.372507, -78.985772], [-161.364084, -78.99684], [-160.521921, -79.1867], [-160.294871, -79.265802], [-160.114084, -79.292901], [-160.0, -79.32543082030531], [-160.0, -79.83905135252144], [-160.71288, -79.854587]]]]}}]}