{"type": "FeatureCollection", "features": [{"type": "Feature", "properties": {"name": "Indonesia"}, "geometry": {"type": "MultiPolygon", "coordinates": [[[[99.930431, -0.409438], [99.91033, -0.375177], [99.823985, -0.313409], [99.813813, -0.29461], [99.805919, -0.227797], [99.759451, -0.16839], [99.754893, -0.137302], [99.766775, -0.075372], [99.747244, -0.02984], [99.61085, 0.098578], [99.490489, 0.155422], [99.408214, 0.163886], [99.392589, 0.171698], [99.341075, 0.238756], [99.316173, 0.242621], [99.26059, 0.219875], [99.233409, 0.217027], [99.188813, 0.245592], [99.168712, 0.242621], [99.13795, 0.263088], [99.158458, 0.297838], [99.158458, 0.320014], [99.148448, 0.333157], [99.110606, 0.345649], [99.132335, 0.412055], [99.122569, 0.509019], [99.110606, 0.52383], [99.098399, 0.514228], [99.100271, 0.601752], [99.089854, 0.622016], [99.072765, 0.630805], [99.048595, 0.61994], [99.04005, 0.650458], [99.047374, 0.739732], [99.041759, 0.777045], [99.006114, 0.818752], [98.981212, 0.831732], [98.975841, 0.920844], [98.917328, 1.117174], [98.839041, 1.301256], [98.844574, 1.345893], [98.788585, 1.413804], [98.768077, 1.493598], [98.730235, 1.51439], [98.709646, 1.564114], [98.733653, 1.569892], [98.753429, 1.535631], [98.822602, 1.630439], [98.819102, 1.682318], [98.788097, 1.691352], [98.773936, 1.748603], [98.727061, 1.791897], [98.711111, 1.77912], [98.712738, 1.763902], [98.727061, 1.756496], [98.720225, 1.733466], [98.711111, 1.725775], [98.690684, 1.736274], [98.658214, 1.763902], [98.576182, 1.888088], [98.535167, 1.936469], [98.444021, 1.991156], [98.406993, 2.001939], [98.354503, 2.003811], [98.347179, 2.028998], [98.329845, 2.038275], [98.269216, 2.038072], [98.243663, 2.087551], [98.152599, 2.156928], [98.08961, 2.195868], [97.983572, 2.244371], [97.955903, 2.271715], [97.866873, 2.247463], [97.829438, 2.264228], [97.817719, 2.258938], [97.79477, 2.277818], [97.757335, 2.271674], [97.744395, 2.281073], [97.706065, 2.346137], [97.663585, 2.392076], [97.658214, 2.411566], [97.661143, 2.52733], [97.644054, 2.668891], [97.602712, 2.866197], [97.48463, 2.913031], [97.42213, 2.928371], [97.40504, 2.943345], [97.313487, 3.061672], [97.270763, 3.214423], [97.240489, 3.238023], [97.182628, 3.245998], [97.171641, 3.254828], [97.018565, 3.522691], [96.999766, 3.545885], [96.921723, 3.605699], [96.883556, 3.68244], [96.838145, 3.712633], [96.760509, 3.748684], [96.559825, 3.746568], [96.519867, 3.754828], [96.479503, 3.778713], [96.430349, 3.825263], [96.279307, 4.025784], [96.211436, 4.09394], [96.197765, 4.121283], [96.159679, 4.141303], [96.125173, 4.13642], [96.065196, 4.205024], [96.01002, 4.225653], [95.80714, 4.446112], [95.758962, 4.484442], [95.725841, 4.531684], [95.656505, 4.579983], [95.616547, 4.628404], [95.56544, 4.637519], [95.560883, 4.645738], [95.572927, 4.660712], [95.57252, 4.673814], [95.554047, 4.676215], [95.526866, 4.697252], [95.468435, 4.789496], [95.42628, 4.827338], [95.348888, 5.037502], [95.296886, 5.1164], [95.279796, 5.122504], [95.299164, 5.150336], [95.301606, 5.172431], [95.29127, 5.191636], [95.248709, 5.231024], [95.231944, 5.282294], [95.198985, 5.292873], [95.231944, 5.344631], [95.253591, 5.411566], [95.231944, 5.450751], [95.245453, 5.460517], [95.197276, 5.546373], [95.212738, 5.573147], [95.223888, 5.580268], [95.279796, 5.574368], [95.335297, 5.612128], [95.369151, 5.621283], [95.431895, 5.65469], [95.449718, 5.649563], [95.511241, 5.603013], [95.533702, 5.622138], [95.576182, 5.631252], [95.611583, 5.626654], [95.762218, 5.57685], [95.83961, 5.528551], [95.887543, 5.512152], [95.903575, 5.450751], [95.930431, 5.414496], [96.054942, 5.313625], [96.088064, 5.295478], [96.126231, 5.281806], [96.290538, 5.258979], [96.362153, 5.225491], [96.406586, 5.217231], [96.429454, 5.218329], [96.466319, 5.235541], [96.527354, 5.211168], [96.650564, 5.216254], [96.82838, 5.280178], [96.894379, 5.262112], [96.973399, 5.273424], [97.074339, 5.238155], [97.149345, 5.198772], [97.175955, 5.161282], [97.226553, 5.146221], [97.268368, 5.155068], [97.496837, 5.251899], [97.526215, 5.242255], [97.664399, 5.073432], [97.830089, 4.938788], [97.873871, 4.91885], [97.90919, 4.889594], [97.963227, 4.789496], [97.975352, 4.706244], [98.007009, 4.633857], [98.007091, 4.597724], [97.992524, 4.553778], [97.996837, 4.546454], [98.038829, 4.551947], [98.048025, 4.539008], [98.06129, 4.554836], [98.08961, 4.532782], [98.113536, 4.539008], [98.138194, 4.53441], [98.159679, 4.522284], [98.185802, 4.484442], [98.20574, 4.498033], [98.275564, 4.42536], [98.282481, 4.364936], [98.267751, 4.292629], [98.266368, 4.211575], [98.240489, 4.190172], [98.185802, 4.169745], [98.178966, 4.108222], [98.217052, 4.14411], [98.237071, 4.149237], [98.263031, 4.177314], [98.305675, 4.080308], [98.362966, 4.087551], [98.405772, 4.078925], [98.477224, 4.04621], [98.507986, 4.004584], [98.557791, 4.0008], [98.567882, 3.966457], [98.5949, 3.943671], [98.67662, 3.914547], [98.700269, 3.875304], [98.699718, 3.83393], [98.710623, 3.803778], [98.796582, 3.725443], [98.896583, 3.681402], [98.95753, 3.671332], [99.009252, 3.635417], [99.07391, 3.608994], [99.10134, 3.582579], [99.179761, 3.546338], [99.368175, 3.407945], [99.433279, 3.38288], [99.489757, 3.336249], [99.506033, 3.295966], [99.558116, 3.244574], [99.589366, 3.227973], [99.750743, 3.180487], [99.781586, 3.120754], [99.852875, 3.047268], [99.857921, 3.011461], [99.889985, 3.018256], [99.930512, 2.975409], [99.979503, 2.948472], [99.990245, 2.914496], [99.997895, 2.79914], [99.953461, 2.696234], [99.992686, 2.668769], [99.987641, 2.654608], [100.0, 2.63464400070891], [100.0, -0.4554446995146889], [99.930431, -0.409438]]], [[[99.973969, 2.70307], [99.985688, 2.718451], [100.0, 2.724208100708704], [100.0, 2.686537670997936], [99.973969, 2.70307]]], [[[99.986827, -2.767185], [100.0, -2.6939950990611456], [100.0, -2.76548267665332], [99.986827, -2.767185]]], [[[99.996267, -2.638767], [99.967133, -2.615004], [99.975597, -2.594903], [99.960948, -2.552911], [99.97462, -2.49391], [99.984141, -2.484633], [100.0, -2.489919052130434], [100.0, -2.674227540824435], [99.996267, -2.638767]]], [[[99.858735, -2.356866], [99.857921, -2.37477], [99.857921, -2.367364], [99.846202, -2.38006], [99.833344, -2.352309], [99.788097, -2.344415], [99.761729, -2.320896], [99.71339, -2.313409], [99.671723, -2.271254], [99.603526, -2.265558], [99.60255, -2.253025], [99.616466, -2.233575], [99.603526, -2.224054], [99.593923, -2.227797], [99.589854, -2.211033], [99.576182, -2.224054], [99.52768, -2.14544], [99.531016, -2.13421], [99.564464, -2.131117], [99.548839, -2.10117], [99.54835, -2.061456], [99.564952, -2.030857], [99.594005, -2.014825], [99.631358, -2.018487], [99.662852, -2.054295], [99.694347, -2.067804], [99.707205, -2.127699], [99.775401, -2.237563], [99.775401, -2.258722], [99.823253, -2.292901], [99.858735, -2.356866]]], [[[99.294281, -1.686212], [99.292003, -1.718927], [99.274425, -1.73797], [99.254161, -1.654474], [99.226736, -1.614435], [99.200043, -1.628106], [99.245372, -1.715509], [99.254893, -1.772068], [99.244151, -1.778985], [99.208181, -1.770603], [99.18214, -1.773696], [99.1185, -1.802341], [98.985688, -1.740004], [98.960134, -1.713067], [98.884776, -1.679376], [98.843028, -1.62127], [98.822602, -1.607599], [98.830333, -1.570245], [98.811697, -1.528985], [98.651378, -1.298517], [98.63087, -1.284845], [98.63087, -1.264418], [98.593761, -1.198419], [98.648936, -1.072035], [98.658214, -0.963474], [98.684825, -0.948012], [98.723643, -0.942966], [98.788585, -0.956638], [98.840017, -0.922459], [98.898204, -0.915704], [98.891612, -0.935479], [98.917979, -0.940118], [98.937511, -0.960056], [98.945811, -0.984633], [98.939301, -1.003676], [98.924815, -0.992446], [98.905284, -0.990655], [98.929454, -1.029962], [98.938324, -1.065118], [98.980317, -1.093683], [99.00172, -1.144708], [99.032563, -1.18255], [99.036388, -1.205499], [99.067638, -1.241388], [99.069591, -1.251397], [99.053071, -1.272638], [99.077647, -1.28338], [99.11671, -1.366632], [99.164724, -1.414239], [99.165294, -1.456231], [99.124278, -1.428888], [99.130626, -1.448175], [99.178884, -1.504571], [99.203624, -1.517267], [99.209727, -1.572931], [99.262055, -1.586684], [99.278087, -1.62005], [99.274425, -1.634942], [99.294281, -1.686212]]], [[[98.501638, -0.486098], [98.486827, -0.510919], [98.502696, -0.535414], [98.500499, -0.565606], [98.493663, -0.565606], [98.486827, -0.545587], [98.473481, -0.556736], [98.458995, -0.551853], [98.467784, -0.538832], [98.447927, -0.5263], [98.431651, -0.531996], [98.425548, -0.54339], [98.422048, -0.586602], [98.39031, -0.577081], [98.316742, -0.535089], [98.275157, -0.52516], [98.302013, -0.510919], [98.336111, -0.517755], [98.364024, -0.44199], [98.364024, -0.36004], [98.389415, -0.320896], [98.425466, -0.298598], [98.41863, -0.257582], [98.42921, -0.243829], [98.451182, -0.258396], [98.507335, -0.364923], [98.500499, -0.387384], [98.51238, -0.422947], [98.501638, -0.486098]]], [[[98.497325, -0.199802], [98.559825, -0.278253], [98.555186, -0.318536], [98.555186, -0.31227], [98.541515, -0.343032], [98.549001, -0.381117], [98.541515, -0.381117], [98.512462, -0.319024], [98.405528, -0.168227], [98.343516, -0.044732], [98.301768, -0.018731], [98.295665, -0.007257], [98.364024, 0.010484], [98.406098, -0.007379], [98.44337, -0.052016], [98.469981, -0.107517], [98.497325, -0.199802]]], [[[98.590668, 1.651923], [98.599132, 1.631985], [98.559906, 1.623603], [98.497569, 1.627265], [98.439952, 1.649848], [98.431651, 1.661526], [98.434825, 1.691962], [98.462657, 1.709296], [98.477061, 1.703599], [98.504161, 1.664944], [98.521007, 1.655585], [98.555186, 1.682034], [98.590668, 1.651923]]], [[[97.123057, 2.039293], [97.124278, 2.021674], [97.102306, 2.016059], [97.069021, 2.087144], [97.100352, 2.111274], [97.120128, 2.113349], [97.142914, 2.092271], [97.151134, 2.058092], [97.123057, 2.039293]]], [[[96.668224, 2.11343], [96.671723, 2.101996], [96.665375, 2.087877], [96.622895, 2.070624], [96.60963, 2.080146], [96.613292, 2.119127], [96.627696, 2.129462], [96.668224, 2.11343]]], [[[97.341075, 2.105699], [97.342296, 2.058092], [97.321788, 2.03144], [97.321788, 2.058092], [97.306163, 2.057196], [97.278087, 2.103095], [97.207367, 2.175523], [97.102794, 2.212714], [97.125173, 2.225491], [97.171723, 2.2331], [97.19158, 2.20893], [97.208018, 2.207587], [97.246755, 2.230658], [97.281261, 2.229071], [97.289236, 2.221177], [97.281505, 2.20893], [97.319835, 2.178656], [97.341075, 2.105699]]], [[[96.481212, 2.364], [96.420909, 2.343004], [96.36964, 2.367255], [96.351085, 2.355048], [96.334972, 2.355455], [96.307628, 2.374091], [96.328136, 2.394517], [96.306163, 2.405097], [96.285167, 2.436428], [96.239919, 2.448676], [96.065684, 2.579413], [96.020274, 2.600002], [95.986095, 2.600002], [95.965099, 2.614244], [95.955089, 2.600002], [95.931407, 2.595608], [95.883067, 2.620429], [95.874766, 2.645819], [95.862559, 2.654608], [95.790538, 2.654608], [95.78533, 2.66059], [95.794281, 2.696234], [95.758962, 2.724107], [95.761567, 2.739936], [95.735199, 2.75788], [95.740082, 2.778062], [95.698009, 2.778754], [95.692638, 2.812812], [95.699555, 2.831773], [95.714854, 2.840155], [95.78004, 2.846381], [95.766775, 2.878119], [95.791515, 2.942532], [95.814138, 2.922105], [95.884044, 2.919013], [95.911876, 2.906236], [95.910411, 2.873684], [95.890798, 2.889106], [95.882986, 2.883938], [95.883067, 2.846381], [95.917247, 2.860663], [95.927745, 2.84455], [95.964529, 2.827948], [95.9817, 2.790351], [96.003266, 2.777004], [96.090505, 2.757799], [96.126313, 2.73371], [96.13087, 2.715277], [96.101817, 2.675442], [96.102794, 2.654608], [96.118663, 2.666002], [96.129731, 2.664781], [96.161876, 2.647773], [96.160899, 2.6612], [96.143728, 2.678778], [96.15797, 2.680406], [96.246104, 2.600002], [96.3213, 2.566148], [96.359141, 2.52143], [96.375255, 2.473863], [96.390147, 2.469672], [96.395274, 2.477362], [96.396495, 2.524848], [96.410655, 2.508938], [96.424327, 2.510565], [96.444102, 2.490383], [96.479503, 2.414984], [96.481212, 2.364]]], [[[95.191091, 5.608466], [95.171397, 5.607245], [95.156261, 5.594794], [95.111583, 5.611884], [95.109141, 5.622016], [95.135753, 5.646308], [95.141775, 5.66413], [95.191091, 5.608466]]], [[[95.126964, 5.702053], [95.133311, 5.691311], [95.122081, 5.669257], [95.094737, 5.68358], [95.06072, 5.656236], [95.06072, 5.68358], [95.047862, 5.689643], [95.057302, 5.700914], [95.048676, 5.718451], [95.06072, 5.732001], [95.023123, 5.732001], [95.012706, 5.735826], [95.014659, 5.744615], [95.033946, 5.759914], [95.058279, 5.75731], [95.122081, 5.704657], [95.115245, 5.711493], [95.126964, 5.702053]]], [[[95.382823, 5.841864], [95.382823, 5.807074], [95.355479, 5.827582], [95.355317, 5.795152], [95.350434, 5.783637], [95.33839, 5.779202], [95.302745, 5.785712], [95.27296, 5.807074], [95.252696, 5.854967], [95.231456, 5.869289], [95.213552, 5.902533], [95.21461, 5.910102], [95.247813, 5.905219], [95.283865, 5.857408], [95.29713, 5.858588], [95.324962, 5.898017], [95.341807, 5.89643], [95.382823, 5.841864]]], [[[97.93922, 0.98607], [97.934418, 0.963609], [97.901378, 0.905951], [97.904063, 0.814887], [97.892589, 0.777045], [97.882986, 0.642971], [97.874278, 0.622016], [97.819347, 0.558539], [97.774262, 0.585191], [97.764171, 0.567572], [97.72641, 0.585191], [97.704112, 0.57274], [97.678722, 0.598863], [97.690929, 0.624213], [97.658214, 0.674628], [97.65919, 0.715399], [97.61378, 0.823554], [97.574392, 0.860907], [97.486339, 0.914211], [97.491873, 0.93301], [97.47934, 0.943427], [97.395356, 0.944892], [97.388845, 0.952094], [97.387706, 1.018785], [97.371593, 1.05976], [97.308279, 1.174872], [97.278575, 1.199693], [97.271332, 1.222235], [97.256847, 1.235012], [97.247244, 1.267035], [97.19158, 1.297756], [97.168224, 1.342841], [97.128429, 1.382636], [97.082286, 1.40762], [97.068614, 1.394599], [97.06365, 1.415229], [97.080414, 1.429145], [97.106944, 1.436021], [97.139496, 1.432196], [97.164806, 1.410712], [97.23585, 1.416693], [97.277354, 1.436225], [97.321056, 1.474066], [97.334809, 1.500149], [97.33546, 1.537665], [97.349783, 1.545396], [97.391612, 1.508938], [97.416759, 1.519232], [97.437999, 1.495266], [97.441661, 1.479682], [97.486339, 1.476549], [97.493175, 1.456041], [97.528087, 1.422919], [97.539887, 1.39057], [97.604747, 1.322333], [97.616547, 1.280911], [97.693614, 1.186021], [97.792247, 1.143988], [97.819021, 1.109931], [97.836274, 1.069973], [97.890391, 1.058173], [97.93922, 0.98607]]], [[[98.625416, 0.175154], [98.673149, 0.169812], [98.717352, 0.17512], [98.805744, 0.160916], [98.835799, 0.141469], [98.851685, 0.109621], [98.844589, 0.084859], [98.763256, 0.086648], [98.689004, 0.070775], [98.620081, 0.086703], [98.53874, 0.090335], [98.524601, 0.145197], [98.547597, 0.159327], [98.625416, 0.175154]]]]}}, {"type": "Feature", "properties": {"name": "Malaysia"}, "geometry": {"type": "MultiPolygon", "coordinates": [[[[99.800442, 6.272811], [99.836978, 6.294227], [99.839782, 6.277297], [99.824859, 6.25772], [99.826428, 6.190675], [99.805596, 6.171793], [99.77471, 6.204017], [99.767234, 6.223804], [99.786292, 6.241822], [99.800442, 6.272811]]], [[[99.91627, 6.331529], [99.870508, 6.304924], [99.865692, 6.290527], [99.849418, 6.300712], [99.844586, 6.324686], [99.825333, 6.324099], [99.807307, 6.317532], [99.778032, 6.282973], [99.761664, 6.282843], [99.728735, 6.261476], [99.715458, 6.310058], [99.722132, 6.327483], [99.719044, 6.353231], [99.658702, 6.362616], [99.646007, 6.394192], [99.645228, 6.435841], [99.669444, 6.426886], [99.688751, 6.435305], [99.721371, 6.434152], [99.736478, 6.423984], [99.770927, 6.419842], [99.785996, 6.422854], [99.814292, 6.454037], [99.839203, 6.45482], [99.832774, 6.470852], [99.842029, 6.469639], [99.851085, 6.465644], [99.866466, 6.429674], [99.898936, 6.410346], [99.897594, 6.402047], [99.913341, 6.390204], [99.900617, 6.364304], [99.91627, 6.331529]]]]}}, {"type": "Feature", "properties": {"name": "India"}, "geometry": {"type": "MultiPolygon", "coordinates": [[[[93.928722, 7.012356], [93.929861, 6.959052], [93.893565, 6.876776], [93.889415, 6.841783], [93.904145, 6.819241], [93.903087, 6.808295], [93.889903, 6.800971], [93.859386, 6.804267], [93.834239, 6.745551], [93.812673, 6.753974], [93.813731, 6.808295], [93.784434, 6.836412], [93.793224, 6.849189], [93.775727, 6.867377], [93.779552, 6.890204], [93.766124, 6.901109], [93.76531, 6.924302], [93.748057, 6.92357], [93.71754, 6.992621], [93.703624, 7.006293], [93.664561, 7.026516], [93.649181, 7.013088], [93.649669, 7.119615], [93.676443, 7.181871], [93.717296, 7.18769], [93.73463, 7.205512], [93.76531, 7.219143], [93.772146, 7.211737], [93.813975, 7.241848], [93.830821, 7.235907], [93.865001, 7.20067], [93.887055, 7.089301], [93.928722, 7.012356]]], [[[93.728526, 7.337104], [93.67921, 7.298326], [93.644216, 7.257514], [93.628184, 7.253323], [93.617931, 7.259955], [93.615082, 7.287421], [93.594005, 7.314765], [93.606944, 7.326402], [93.61671, 7.367255], [93.667247, 7.382758], [93.696951, 7.445054], [93.699474, 7.398749], [93.731212, 7.369371], [93.728526, 7.337104]]], [[[93.459809, 7.910793], [93.454438, 7.869289], [93.421235, 7.891791], [93.367849, 7.878607], [93.354259, 7.883287], [93.340343, 7.901272], [93.348155, 7.924872], [93.340668, 7.931708], [93.332693, 7.924954], [93.31365, 7.929185], [93.305024, 7.949937], [93.322602, 8.002102], [93.370291, 8.01732], [93.391368, 8.01557], [93.401215, 7.967963], [93.429454, 7.955268], [93.459809, 7.910793]]], [[[93.574229, 7.968817], [93.573985, 7.924872], [93.518321, 7.965806], [93.510753, 7.98017], [93.511485, 7.99551], [93.520763, 8.004381], [93.539317, 7.999335], [93.540294, 8.016181], [93.54835, 8.020087], [93.565929, 7.999335], [93.574229, 7.968817]]], [[[93.514903, 8.027655], [93.494965, 7.996283], [93.484386, 7.991889], [93.480805, 8.040513], [93.495616, 8.049384], [93.497813, 8.061998], [93.514822, 8.05622], [93.516938, 8.0633], [93.497813, 8.082506], [93.492198, 8.063625], [93.479747, 8.063218], [93.466319, 8.074408], [93.446625, 8.154364], [93.446544, 8.164496], [93.48585, 8.22012], [93.504649, 8.226996], [93.523448, 8.225816], [93.531668, 8.213202], [93.531016, 8.193752], [93.505219, 8.14704], [93.537608, 8.057318], [93.531912, 8.034735], [93.514903, 8.027655]]], [[[93.173025, 8.221259], [93.17628, 8.212877], [93.167328, 8.204535], [93.153494, 8.205512], [93.10255, 8.221503], [93.065766, 8.268134], [93.059581, 8.291409], [93.064301, 8.336127], [93.083751, 8.355902], [93.10141, 8.345771], [93.104015, 8.27558], [93.134532, 8.24018], [93.173025, 8.221259]]], [[[93.628184, 8.486558], [93.618337, 8.453925], [93.609711, 8.438422], [93.60141, 8.438178], [93.607677, 8.507066], [93.594981, 8.55801], [93.607677, 8.569159], [93.607677, 8.548041], [93.628184, 8.486558]]], [[[92.833849, 9.202359], [92.831981, 9.145025], [92.799565, 9.110154], [92.731212, 9.130845], [92.720225, 9.147121], [92.708507, 9.201606], [92.713878, 9.213446], [92.745128, 9.229071], [92.754405, 9.244452], [92.750987, 9.261217], [92.763031, 9.264146], [92.811373, 9.23117], [92.833849, 9.202359]]]]}}, {"type": "Feature", "properties": {"name": "Thailand"}, "geometry": {"type": "MultiPolygon", "coordinates": [[[[99.158458, 9.990546], [99.165294, 9.867621], [99.17213, 9.850246], [99.151622, 9.829169], [99.144786, 9.788235], [99.172862, 9.665229], [99.212087, 9.597724], [99.223155, 9.542629], [99.26531, 9.46601], [99.323578, 9.391547], [99.290782, 9.390082], [99.288748, 9.377265], [99.235525, 9.33633], [99.234141, 9.278266], [99.255056, 9.232489], [99.350759, 9.219184], [99.378184, 9.192939], [99.474783, 9.200995], [99.50172, 9.220282], [99.521495, 9.269924], [99.535818, 9.281684], [99.593516, 9.274848], [99.672374, 9.302191], [99.689464, 9.315863], [99.733735, 9.312161], [99.739513, 9.320502], [99.752778, 9.31977], [99.781586, 9.308417], [99.803396, 9.322659], [99.853526, 9.294664], [99.85963, 9.257758], [99.877778, 9.226467], [99.885997, 9.233303], [99.886485, 9.157904], [99.91627, 9.101996], [99.919444, 9.038398], [99.933116, 9.000556], [99.919444, 8.980048], [99.931163, 8.878974], [99.92628, 8.863349], [99.93922, 8.832465], [99.967133, 8.605658], [99.984141, 8.579413], [100.0, 8.569934166893237], [100.0, 6.57140500426121], [99.991222, 6.597846], [99.984141, 6.6022], [99.964122, 6.593736], [99.973969, 6.622707], [99.960948, 6.660549], [99.937348, 6.66474], [99.928477, 6.692613], [99.891449, 6.725043], [99.867524, 6.7626], [99.851736, 6.776435], [99.82488, 6.769599], [99.797211, 6.821682], [99.710704, 6.854153], [99.685802, 6.877346], [99.69044, 6.935492], [99.713878, 6.942206], [99.707205, 6.961005], [99.680919, 6.973619], [99.686209, 7.013373], [99.67921, 7.02676], [99.70574, 7.075426], [99.748057, 7.126044], [99.740571, 7.137112], [99.692882, 7.116116], [99.677582, 7.123277], [99.672374, 7.170722], [99.614106, 7.136664], [99.61085, 7.150865], [99.583995, 7.15644], [99.557872, 7.197455], [99.54005, 7.244127], [99.545421, 7.266303], [99.566742, 7.278022], [99.585216, 7.306708], [99.603526, 7.376166], [99.597341, 7.376166], [99.569021, 7.322211], [99.549571, 7.301825], [99.524669, 7.311347], [99.525401, 7.370022], [99.521495, 7.383612], [99.508149, 7.384955], [99.490977, 7.35102], [99.488292, 7.285712], [99.470714, 7.279975], [99.378184, 7.32095], [99.336599, 7.383612], [99.347423, 7.423489], [99.344005, 7.46898], [99.329845, 7.503404], [99.295584, 7.507148], [99.308849, 7.528306], [99.292735, 7.620673], [99.268321, 7.6164], [99.249766, 7.627753], [99.246755, 7.634101], [99.262218, 7.643256], [99.255707, 7.657375], [99.243663, 7.671454], [99.214366, 7.679999], [99.192556, 7.705146], [99.153087, 7.730658], [99.137543, 7.74433], [99.130544, 7.767239], [99.124278, 7.767239], [99.112153, 7.705512], [99.091482, 7.69184], [99.056, 7.69892], [99.033214, 7.722805], [99.02768, 7.788886], [99.014415, 7.815009], [99.062266, 7.859361], [99.069591, 7.924872], [99.050304, 7.905463], [99.028087, 7.903754], [99.000255, 7.942572], [98.967784, 7.956204], [98.96046, 8.006781], [98.929454, 8.030992], [98.917979, 8.051337], [98.898936, 8.042711], [98.888194, 8.021064], [98.843598, 8.002875], [98.829438, 8.006781], [98.812755, 8.044989], [98.800304, 8.052436], [98.770274, 8.023668], [98.765391, 8.047105], [98.747406, 8.068264], [98.744151, 8.214911], [98.727061, 8.253852], [98.706554, 8.225898], [98.703136, 8.298529], [98.6963, 8.308498], [98.648204, 8.284857], [98.63087, 8.287991], [98.624034, 8.281155], [98.626231, 8.346096], [98.655447, 8.379625], [98.603526, 8.397203], [98.598888, 8.374905], [98.552013, 8.360012], [98.526052, 8.33633], [98.510427, 8.331122], [98.493663, 8.343207], [98.486664, 8.324897], [98.466319, 8.335761], [98.466319, 8.32274], [98.445649, 8.3251], [98.428233, 8.316962], [98.422211, 8.306342], [98.453136, 8.294013], [98.462901, 8.216132], [98.446137, 8.175116], [98.424978, 8.148424], [98.405528, 8.164496], [98.391287, 8.136542], [98.356944, 8.185004], [98.331228, 8.195054], [98.323985, 8.209621], [98.286876, 8.219916], [98.277599, 8.240709], [98.277599, 8.283515], [98.26238, 8.312812], [98.242035, 8.40648], [98.199474, 8.534369], [98.198009, 8.556057], [98.209727, 8.581488], [98.215668, 8.553371], [98.247325, 8.514553], [98.253103, 8.534654], [98.219981, 8.569159], [98.240489, 8.651068], [98.219981, 8.726223], [98.250743, 8.759955], [98.261567, 8.850653], [98.283539, 8.884955], [98.292735, 8.924384], [98.32488, 8.975246], [98.333018, 8.980048], [98.364024, 8.973944], [98.358084, 8.995998], [98.391287, 9.035305], [98.342459, 9.018215], [98.332693, 9.026068], [98.329845, 9.052069], [98.342052, 9.062893], [98.382009, 9.071926], [98.370779, 9.103583], [98.32838, 9.164374], [98.322276, 9.209377], [98.339692, 9.199774], [98.370779, 9.226467], [98.352306, 9.235907], [98.351899, 9.25137], [98.383311, 9.316555], [98.397146, 9.378811], [98.425466, 9.432522], [98.443207, 9.520819], [98.457205, 9.548529], [98.486827, 9.528062], [98.531098, 9.566107], [98.528494, 9.575873], [98.493663, 9.575873], [98.483409, 9.596381], [98.46339, 9.604438], [98.47169, 9.621161], [98.500499, 9.634508], [98.514171, 9.654731], [98.493663, 9.685736], [98.51002, 9.686591], [98.513194, 9.694892], [98.493663, 9.71369], [98.500499, 9.719916], [98.531423, 9.703925], [98.543956, 9.706488], [98.565766, 9.742621], [98.521007, 9.754625], [98.507986, 9.740383], [98.507986, 9.774563], [98.555431, 9.798041], [98.583018, 9.842841], [98.549001, 9.809272], [98.512706, 9.836859], [98.549001, 9.883734], [98.559906, 9.873033], [98.576182, 9.87759], [98.570486, 9.884223], [98.589854, 9.905463], [98.571625, 9.915473], [98.59197, 9.942694], [98.63087, 9.952704], [98.633149, 9.962958], [98.612559, 9.965969], [98.610362, 9.96011], [98.59962, 9.973863], [98.603526, 9.993598], [98.60762921586038, 10.0], [99.16401520751675, 10.0], [99.158458, 9.990546]]], [[[97.840017, 9.404283], [97.835297, 9.412055], [97.843598, 9.424954], [97.85727, 9.428697], [97.868419, 9.420396], [97.87615, 9.390204], [97.871837, 9.379584], [97.840017, 9.404283]]], [[[99.703461, 9.521308], [99.681488, 9.512885], [99.668142, 9.519192], [99.698741, 9.542222], [99.703461, 9.521308]]], [[[99.680431, 9.612209], [99.678071, 9.610419], [99.675304, 9.624457], [99.684255, 9.620022], [99.680431, 9.612209]]], [[[99.260265, 6.565823], [99.257579, 6.56094], [99.217296, 6.536933], [99.174001, 6.539008], [99.158458, 6.554389], [99.176443, 6.550198], [99.195567, 6.571234], [99.213715, 6.574856], [99.206309, 6.574856], [99.239268, 6.576809], [99.260265, 6.565823]]], [[[99.670421, 6.501451], [99.658702, 6.492336], [99.634148, 6.552055], [99.600271, 6.583441], [99.623871, 6.622707], [99.623871, 6.657416], [99.642426, 6.671332], [99.656993, 6.723822], [99.680512, 6.672919], [99.68029, 6.624039], [99.704438, 6.558295], [99.699718, 6.533271], [99.675792, 6.524563], [99.670421, 6.501451]]], [[[99.445811, 7.250922], [99.453868, 7.239], [99.417247, 7.235338], [99.383311, 7.194078], [99.377778, 7.252346], [99.385509, 7.27558], [99.445811, 7.250922]]], [[[99.075857, 7.608954], [99.086111, 7.536526], [99.117442, 7.479193], [99.099946, 7.467231], [99.05714, 7.504055], [99.031261, 7.561916], [99.020681, 7.636868], [99.034923, 7.644273], [99.075857, 7.608954]]], [[[99.124034, 7.606838], [99.108735, 7.594184], [99.069591, 7.622545], [99.044607, 7.663398], [99.067068, 7.675198], [99.104503, 7.669379], [99.124278, 7.657375], [99.124034, 7.606838]]], [[[98.602387, 8.063463], [98.610362, 8.034735], [98.611827, 7.926093], [98.603526, 7.903754], [98.588227, 7.904934], [98.577322, 7.919623], [98.563243, 7.986314], [98.580414, 7.996161], [98.582286, 8.015367], [98.574392, 8.031806], [98.551117, 8.042548], [98.531016, 8.088568], [98.528494, 8.123481], [98.540538, 8.104926], [98.602387, 8.063463]]], [[[98.431651, 7.917426], [98.439789, 7.886623], [98.431814, 7.874945], [98.399669, 7.864569], [98.398123, 7.815009], [98.362315, 7.832424], [98.343923, 7.832913], [98.32309, 7.770941], [98.309093, 7.767727], [98.29184, 7.777493], [98.281423, 7.855943], [98.267751, 7.890082], [98.28533, 7.903754], [98.281423, 7.917426], [98.254161, 7.92829], [98.274099, 7.953681], [98.265961, 7.973782], [98.281423, 8.003079], [98.274425, 8.069322], [98.290212, 8.130113], [98.281423, 8.191799], [98.311534, 8.185533], [98.330089, 8.170478], [98.343516, 8.109198], [98.360118, 8.118842], [98.405528, 8.082506], [98.422618, 8.099311], [98.439138, 8.082506], [98.438487, 8.065741], [98.41863, 8.027289], [98.41863, 7.99315], [98.398123, 7.972642], [98.401541, 7.935777], [98.41863, 7.903754], [98.431651, 7.917426]]], [[[98.62086, 8.089993], [98.5796, 8.106147], [98.570079, 8.118883], [98.59669, 8.130316], [98.592296, 8.146796], [98.624034, 8.191799], [98.635753, 8.185533], [98.62086, 8.089993]]], [[[98.317393, 9.117133], [98.323009, 9.076239], [98.302013, 9.055162], [98.309337, 9.048977], [98.274181, 9.035956], [98.254242, 9.036811], [98.240489, 9.048977], [98.24822, 9.150092], [98.273285, 9.15998], [98.317393, 9.117133]]], [[[99.946625, 9.418199], [99.936697, 9.474555], [99.92628, 9.493964], [99.941173, 9.511868], [99.92628, 9.565985], [99.93629, 9.577704], [99.959483, 9.580756], [100.0, 9.572769876052192], [100.0, 9.423727972245539], [99.946625, 9.418199]]], [[[98.416677, 9.733466], [98.398123, 9.706244], [98.384939, 9.727932], [98.411632, 9.774563], [98.416677, 9.733466]]], [[[99.987641, 9.719916], [99.989919, 9.742906], [99.970551, 9.764594], [99.987641, 9.801825], [100.0, 9.800214475088968], [100.0, 9.713324203624898], [99.987641, 9.719916]]], [[[97.84962, 9.442125], [97.853282, 9.461371], [97.871837, 9.473049], [97.895274, 9.467353], [97.900157, 9.45307], [97.894786, 9.438707], [97.869884, 9.440741], [97.869965, 9.425238], [97.84962, 9.442125]]], [[[98.310883, 8.978176], [98.306977, 8.957913], [98.270518, 8.877183], [98.261567, 8.878567], [98.250987, 8.918443], [98.252208, 8.997016], [98.260916, 9.012926], [98.288422, 9.004462], [98.310883, 8.978176]]]]}}, {"type": "Feature", "properties": {"name": "Myanmar"}, "geometry": {"type": "MultiPolygon", "coordinates": [[[[98.543142, 9.987454], [98.53645738344888, 10.0], [98.55387431425119, 10.0], [98.543142, 9.987454]]], [[[98.037608, 9.790717], [98.018321, 9.794908], [98.008067, 9.80744], [98.015391, 9.826402], [98.030284, 9.833401], [98.046072, 9.827948], [98.056895, 9.814358], [98.057465, 9.796861], [98.037608, 9.790717]]], [[[98.243907, 9.96011], [98.193533, 9.931464], [98.178966, 9.932807], [98.17156, 9.898098], [98.133474, 9.845608], [98.131196, 9.864488], [98.120616, 9.861314], [98.117198, 9.882025], [98.127452, 9.96011], [98.148204, 9.970364], [98.16661446934596, 10.0], [98.2676729136064, 10.0], [98.243907, 9.96011]]]]}}, {"type": "Feature", "properties": {"name": "Sri Lanka"}, "geometry": {"type": "MultiPolygon", "coordinates": [[[[81.89031, 7.019924], [81.884613, 6.98017], [81.838552, 6.821438], [81.831554, 6.765367], [81.808279, 6.707953], [81.779796, 6.663601], [81.786632, 6.639268], [81.775645, 6.610419], [81.681488, 6.462144], [81.650076, 6.430854], [81.592052, 6.389879], [81.547699, 6.370673], [81.362071, 6.225409], [81.324962, 6.20539], [81.204438, 6.162746], [81.202647, 6.178046], [81.187673, 6.181586], [81.176443, 6.150377], [81.112559, 6.120307], [80.90268, 6.070787], [80.877452, 6.061103], [80.862315, 6.039862], [80.835216, 6.045152], [80.809093, 6.035102], [80.714366, 5.957913], [80.656261, 5.957913], [80.590831, 5.923733], [80.539561, 5.944281], [80.46518, 5.94066], [80.444021, 5.970893], [80.411957, 5.959947], [80.378591, 5.964748], [80.358409, 5.97842], [80.340994, 5.970933], [80.327322, 5.985256], [80.247569, 6.009182], [80.211192, 6.033637], [80.203868, 6.02619], [80.094005, 6.136054], [80.031993, 6.266343], [80.012055, 6.361314], [80.0, 6.382810073292736], [80.0, 8.995962127703574], [80.005138, 9.000556], [80.048025, 9.026272], [80.105642, 9.192857], [80.115977, 9.233832], [80.118175, 9.300442], [80.066173, 9.332587], [80.052989, 9.391547], [80.087087, 9.414984], [80.14088, 9.430325], [80.162852, 9.459215], [80.197032, 9.473456], [80.161306, 9.520575], [80.067882, 9.57803], [80.052989, 9.596381], [80.085216, 9.595364], [80.175955, 9.54857], [80.233409, 9.534247], [80.272227, 9.504136], [80.278087, 9.493313], [80.26588, 9.487128], [80.272146, 9.473456], [80.26588, 9.466702], [80.286876, 9.452704], [80.426606, 9.50019], [80.504242, 9.483303], [80.567149, 9.455227], [80.614757, 9.446194], [80.546723, 9.492418], [80.496349, 9.510484], [80.471446, 9.528062], [80.444021, 9.528062], [80.428966, 9.517768], [80.415701, 9.527493], [80.368663, 9.530219], [80.297537, 9.591254], [80.186046, 9.648505], [80.173595, 9.648668], [80.175955, 9.624335], [80.199962, 9.599189], [80.186046, 9.584133], [80.115489, 9.635728], [80.094005, 9.644843], [80.13559, 9.603827], [80.087413, 9.618354], [80.000987, 9.674709], [80.0, 9.675137082997987], [80.0, 9.82259562373945], [80.122325, 9.818915], [80.130138, 9.77733], [80.170909, 9.767279], [80.180431, 9.755805], [80.211192, 9.760891], [80.222341, 9.754462], [80.338552, 9.629218], [80.444021, 9.575914], [80.444021, 9.583319], [80.407725, 9.601508], [80.319835, 9.672756], [80.247813, 9.755072], [80.138682, 9.798733], [80.136729, 9.81391], [80.157725, 9.822943], [80.246755, 9.825873], [80.26059, 9.81623], [80.278982, 9.769843], [80.409923, 9.617499], [80.468272, 9.581366], [80.744395, 9.359687], [80.798839, 9.294867], [80.786632, 9.28852], [80.762462, 9.308417], [80.736501, 9.308987], [80.79363, 9.250556], [80.813975, 9.239488], [80.803559, 9.271633], [80.823904, 9.270494], [80.882172, 9.145168], [80.840099, 9.155992], [80.834483, 9.14175], [80.873057, 9.126451], [80.875336, 9.103583], [80.896495, 9.116604], [80.916352, 9.062161], [80.935313, 9.033433], [80.958344, 9.01789], [80.953624, 9.003852], [80.944347, 9.000556], [80.930675, 9.020982], [80.875336, 9.04149], [80.922862, 8.992255], [80.923188, 8.973212], [80.935069, 8.964911], [80.914887, 8.943915], [80.930675, 8.931627], [80.947602, 8.932929], [80.978526, 8.979967], [81.046723, 8.882148], [81.092784, 8.85163], [81.114268, 8.799994], [81.150157, 8.777167], [81.176524, 8.698879], [81.182302, 8.712226], [81.19752, 8.705715], [81.194591, 8.696112], [81.2317, 8.651068], [81.231619, 8.633043], [81.204356, 8.610093], [81.224946, 8.616848], [81.246593, 8.570136], [81.249766, 8.545803], [81.224864, 8.541815], [81.229991, 8.557929], [81.223318, 8.570868], [81.21225, 8.572699], [81.204356, 8.555487], [81.218028, 8.522528], [81.210623, 8.507066], [81.159028, 8.534573], [81.142345, 8.527574], [81.129405, 8.510321], [81.133962, 8.501288], [81.149425, 8.503648], [81.170258, 8.520697], [81.213145, 8.472398], [81.281098, 8.467027], [81.296641, 8.476793], [81.286388, 8.50023], [81.334158, 8.514553], [81.365733, 8.482164], [81.389415, 8.363715], [81.351817, 8.40469], [81.356619, 8.362494], [81.362071, 8.350043], [81.399262, 8.33926], [81.448497, 8.127997], [81.430349, 8.103013], [81.403575, 8.191799], [81.396251, 8.191799], [81.396251, 8.136542], [81.435557, 8.093166], [81.452403, 8.09455], [81.458263, 8.116034], [81.464366, 8.116034], [81.480642, 8.065375], [81.519705, 7.999335], [81.533946, 8.013617], [81.540212, 7.986314], [81.56072, 7.999335], [81.565929, 7.986802], [81.56072, 7.958401], [81.59547, 7.917426], [81.581716, 7.9112], [81.575857, 7.88939], [81.587576, 7.855292], [81.608246, 7.831692], [81.636404, 7.835517], [81.653656, 7.797756], [81.710704, 7.731147], [81.713145, 7.711819], [81.690929, 7.705146], [81.64324, 7.754136], [81.626638, 7.760199], [81.60255, 7.74844], [81.59547, 7.726264], [81.618988, 7.719224], [81.636404, 7.7331], [81.659028, 7.723334], [81.663748, 7.705146], [81.711599, 7.650539], [81.705089, 7.638861], [81.711599, 7.622545], [81.717784, 7.630072], [81.714041, 7.643744], [81.749034, 7.622545], [81.77296, 7.567979], [81.766124, 7.540676], [81.77296, 7.523912], [81.757579, 7.505439], [81.779796, 7.472357], [81.769054, 7.464626], [81.771007, 7.456977], [81.793386, 7.465522], [81.800792, 7.410346], [81.807791, 7.410346], [81.821462, 7.458726], [81.818696, 7.473375], [81.82602, 7.474189], [81.855724, 7.412177], [81.880707, 7.327094], [81.875987, 7.091946], [81.89031, 7.019924]]], [[[81.725108, 7.69892], [81.725108, 7.739936], [81.806326, 7.598578], [81.823253, 7.511379], [81.822602, 7.49136], [81.807791, 7.479193], [81.787364, 7.496812], [81.787364, 7.593451], [81.73878, 7.660468], [81.725108, 7.69892]]]]}}]}