{"type": "FeatureCollection", "features": [{"type": "Feature", "properties": {"name": "Russia"}, "geometry": {"type": "MultiPolygon", "coordinates": [[[[140.033214, 71.472113], [140.035167, 71.484036], [140.025564, 71.491889], [140.0, 71.4985756829631], [140.0, 71.52398491251948], [140.000987, 71.52497], [140.0, 71.52535675642464], [140.0, 72.15585040263619], [140.027599, 72.148749], [140.132091, 72.153876], [140.192882, 72.166734], [140.219493, 72.186347], [140.197113, 72.213813], [140.145518, 72.224921], [140.0, 72.22668274925358], [140.0, 72.48681690514762], [140.072765, 72.479234], [140.576508, 72.496324], [140.794688, 72.531643], [140.877778, 72.537746], [140.934093, 72.567776], [141.11085, 72.586982], [140.996593, 72.587388], [140.932628, 72.600653], [140.987966, 72.634711], [140.980479, 72.642239], [141.010997, 72.668402], [141.01295, 72.690823], [140.991547, 72.709418], [140.952403, 72.724107], [140.885916, 72.734442], [140.849376, 72.760484], [140.664236, 72.809027], [140.658946, 72.83397], [140.583181, 72.867499], [140.581309, 72.88467], [140.594249, 72.89289], [140.725841, 72.898627], [141.065684, 72.869696], [141.272716, 72.86636], [141.389903, 72.843329], [141.461925, 72.805813], [141.550629, 72.774319], [141.655935, 72.766099], [141.7317, 72.747626], [142.2317, 72.701565], [142.542817, 72.717841], [143.036388, 72.699856], [143.090668, 72.689399], [143.486827, 72.7001], [143.602794, 72.688707], [143.707205, 72.666653], [144.303884, 72.641995], [144.568614, 72.608873], [145.409516, 72.555894], [145.714122, 72.496324], [145.959239, 72.47191], [146.124685, 72.469875], [146.270356, 72.440863], [146.410492, 72.426947], [146.483735, 72.401679], [146.802013, 72.354478], [146.854015, 72.354193], [146.832856, 72.340522], [146.840343, 72.346747], [146.792003, 72.330715], [146.108653, 72.352607], [146.060232, 72.343817], [145.687673, 72.363959], [145.470225, 72.360053], [145.352875, 72.346747], [145.276866, 72.395168], [145.204438, 72.402086], [145.181326, 72.408189], [145.188731, 72.415676], [145.170258, 72.4206], [145.125987, 72.414374], [145.092296, 72.400214], [145.035655, 72.427069], [144.943207, 72.438178], [144.850922, 72.42414], [144.708263, 72.374091], [144.547862, 72.257392], [144.520763, 72.225002], [144.385509, 72.285346], [144.342459, 72.293769], [144.263194, 72.292141], [144.206798, 72.267483], [144.105479, 72.277899], [144.194347, 72.24433], [144.193858, 72.228013], [144.210704, 72.221747], [144.415538, 72.175035], [144.599132, 72.175442], [144.622569, 72.180569], [144.698416, 72.222724], [144.751638, 72.2331], [144.950531, 72.242255], [145.068696, 72.26435], [146.92921, 72.312649], [146.892833, 72.27147], [146.775727, 72.228461], [146.677582, 72.162746], [146.495372, 72.065985], [146.243826, 71.986558], [145.972504, 71.856269], [145.939789, 71.857245], [145.941661, 71.888088], [145.993419, 71.925605], [145.999034, 71.938707], [145.986583, 71.96662], [146.00294, 71.991523], [145.993012, 72.029731], [146.032725, 72.043524], [146.1067, 72.038886], [146.195486, 72.072984], [146.261729, 72.088446], [146.281261, 72.113715], [146.346934, 72.127631], [146.324392, 72.141303], [146.237071, 72.154975], [146.234711, 72.172431], [146.078949, 72.170396], [146.046886, 72.156928], [146.065603, 72.122707], [145.995128, 72.090888], [145.983409, 72.068508], [145.968028, 72.070502], [145.934825, 72.100328], [145.954763, 72.112454], [145.96225, 72.126776], [145.941661, 72.154975], [145.849376, 72.162177], [145.839122, 72.182847], [145.907481, 72.203355], [145.880056, 72.219062], [145.692068, 72.25727], [145.613292, 72.24433], [145.701996, 72.217027], [145.741466, 72.221259], [145.750336, 72.209621], [145.723399, 72.162177], [145.6338, 72.093492], [145.621918, 72.092353], [145.621104, 72.080268], [145.674001, 72.032864], [145.750336, 72.038886], [145.79127, 72.028306], [145.801524, 71.983222], [145.818126, 71.963202], [145.805675, 71.929023], [145.747569, 71.909898], [145.566742, 71.906073], [145.329356, 71.870998], [145.256114, 71.907457], [145.161876, 71.934027], [145.078461, 71.940619], [145.022146, 71.954088], [144.970958, 71.980292], [144.956228, 71.934516], [144.974376, 71.913723], [145.063324, 71.880032], [145.188731, 71.856024], [145.215994, 71.843329], [145.196462, 71.813056], [145.101817, 71.800727], [145.029063, 71.770657], [144.926768, 71.782538], [144.886404, 71.771389], [144.920665, 71.743476], [144.901134, 71.732571], [144.906261, 71.698879], [144.89324, 71.675198], [144.953461, 71.701728], [144.985606, 71.700181], [145.01059, 71.682034], [145.003103, 71.675198], [145.078136, 71.696275], [145.181326, 71.675198], [145.250743, 71.686713], [145.276866, 71.682034], [145.298839, 71.663275], [145.333263, 71.661078], [145.569998, 71.740953], [145.729991, 71.729804], [145.827159, 71.747626], [145.922699, 71.776435], [146.036306, 71.786363], [146.156505, 71.820705], [146.258556, 71.879462], [146.365408, 71.905951], [146.3838, 71.939276], [146.469249, 71.970038], [146.58961, 72.041978], [146.619477, 72.074856], [146.670421, 72.087144], [147.104666, 72.305569], [147.195567, 72.329901], [147.243826, 72.333075], [147.330089, 72.323554], [147.43393, 72.339911], [147.66505, 72.325588], [147.746755, 72.338813], [148.402029, 72.31094], [148.964854, 72.25137], [149.611339, 72.148383], [149.672618, 72.126532], [149.724783, 72.120795], [149.74464, 72.100328], [149.951345, 71.999945], [150.066905, 71.921942], [150.074229, 71.894232], [150.056407, 71.866645], [150.02003, 71.848578], [149.709483, 71.772895], [149.669607, 71.771186], [149.631358, 71.78144], [149.554861, 71.822252], [149.477875, 71.851508], [149.40797, 71.896715], [149.368988, 71.903795], [149.286469, 71.881252], [149.326834, 71.874457], [149.303722, 71.855211], [149.210704, 71.825995], [149.148692, 71.771389], [149.106212, 71.766791], [148.833995, 71.812323], [148.833995, 71.806138], [148.891368, 71.775336], [149.039399, 71.764594], [149.039399, 71.757758], [149.01002, 71.734198], [149.002126, 71.717475], [149.005219, 71.703111], [148.866059, 71.69538], [148.827159, 71.675198], [149.003103, 71.66767], [149.026052, 71.670111], [149.101573, 71.703111], [149.182872, 71.688788], [149.312999, 71.686713], [149.358735, 71.677314], [149.772472, 71.647895], [149.868012, 71.668362], [149.924083, 71.657213], [149.953298, 71.669867], [149.985362, 71.641059], [150.068858, 71.615058], [150.102061, 71.594713], [150.085785, 71.581488], [150.00587, 71.57217], [150.012055, 71.600043], [149.951671, 71.59162], [149.938813, 71.574123], [149.968028, 71.534735], [149.96461, 71.529364], [149.868012, 71.497016], [149.87436, 71.479804], [149.868012, 71.462226], [150.117198, 71.515692], [150.27711, 71.521226], [150.327403, 71.510688], [150.306895, 71.503852], [150.327159, 71.498521], [150.417735, 71.517646], [150.478201, 71.510688], [150.579926, 71.518541], [150.63502, 71.51496], [150.670665, 71.49018], [150.670177, 71.466376], [150.651622, 71.445217], [150.554047, 71.402655], [150.528005, 71.365668], [150.533458, 71.3605], [150.515147, 71.346422], [150.354828, 71.316474], [150.282888, 71.288235], [150.209809, 71.279731], [150.094412, 71.235419], [150.026866, 71.222642], [150.046723, 71.209662], [150.096202, 71.210517], [150.144542, 71.221381], [150.243337, 71.268297], [150.280121, 71.277899], [150.408702, 71.28498], [150.557791, 71.339179], [150.618012, 71.379381], [150.656993, 71.390286], [150.738943, 71.393988], [150.660411, 71.356757], [150.625987, 71.298407], [150.5949, 71.277899], [150.630138, 71.284857], [150.692882, 71.318061], [150.759451, 71.333319], [150.825206, 71.366604], [151.033051, 71.393988], [151.144705, 71.365546], [151.492442, 71.333157], [151.591156, 71.310248], [151.622569, 71.298041], [151.650401, 71.274237], [151.718272, 71.250637], [151.767345, 71.223334], [151.753184, 71.209662], [151.799164, 71.181383], [151.905772, 71.142035], [151.988536, 71.087307], [152.103526, 71.050116], [152.136729, 71.017279], [152.133962, 70.998114], [152.060883, 70.9831], [151.657481, 70.990546], [151.681488, 70.975898], [151.969086, 70.94481], [152.210948, 70.880561], [152.504893, 70.847846], [152.549083, 70.827094], [152.540782, 70.791327], [152.576834, 70.820299], [152.613048, 70.834621], [152.990245, 70.834621], [153.310883, 70.857611], [153.327485, 70.861151], [153.31544, 70.873236], [153.348155, 70.882514], [153.459321, 70.880683], [153.453136, 70.873236], [153.617849, 70.883246], [153.663748, 70.861029], [153.930431, 70.89411], [154.178722, 70.942125], [154.23878, 70.964993], [155.02947, 71.033149], [155.479828, 71.061591], [155.507579, 71.057359], [155.521983, 71.045152], [155.49464, 71.004218], [155.515636, 70.980658], [155.529796, 70.976223], [155.546397, 71.019232], [155.604503, 71.06566], [155.936371, 71.099351], [156.287364, 71.086127], [156.684581, 71.092719], [157.286876, 71.07453], [157.585785, 71.074856], [157.773448, 71.054267], [157.989106, 71.047512], [158.180675, 71.010403], [158.279552, 71.005439], [158.369395, 70.980536], [158.523611, 70.968817], [159.237804, 70.829291], [159.689464, 70.670966], [159.84311, 70.581529], [160.0, 70.44163427323531], [160.0, 70.19518703872694], [159.993663, 70.192084], [159.958669, 70.141059], [159.938243, 70.128485], [159.90089, 70.126614], [159.737559, 70.145941], [159.68865, 70.133979], [159.744395, 70.126207], [159.796641, 70.106024], [159.889985, 70.107652], [159.914561, 70.098578], [159.851329, 70.054918], [159.846365, 70.030341], [159.869314, 70.005032], [159.86673101384451, 70.0], [140.0, 70.0], [140.0, 71.4761557546257], [140.033214, 71.472113]]], [[[143.565113, 73.23115], [143.526287, 73.207807], [143.406557, 73.188394], [143.174945, 73.17658], [142.757181, 73.220866], [142.538282, 73.213832], [142.343927, 73.235239], [141.512435, 73.299352], [140.788621, 73.410005], [140.502654, 73.405442], [140.288703, 73.383173], [140.159608, 73.347183], [140.0, 73.33026606841878], [140.0, 73.46569605397801], [140.234874, 73.452297], [140.493302, 73.485044], [140.659923, 73.579983], [140.731944, 73.652777], [140.792166, 73.700263], [140.866384, 73.779771], [140.899181, 73.801459], [140.934744, 73.819281], [141.127208, 73.881659], [141.166026, 73.88231], [141.207774, 73.86933], [141.368012, 73.863837], [141.594737, 73.906073], [142.045177, 73.916571], [142.273774, 73.865709], [142.48113, 73.847602], [142.582774, 73.825344], [142.883556, 73.710598], [142.945079, 73.699449], [143.009125, 73.665717], [143.153331, 73.642401], [143.407237, 73.542792], [143.536957, 73.443549], [143.440929, 73.408759], [143.4546, 73.360989], [143.472179, 73.353949], [143.474946, 73.320624], [143.565113, 73.23115]]], [[[141.071137, 74.125067], [141.082042, 74.106106], [141.069835, 74.09398], [141.081716, 74.082506], [141.081065, 74.064602], [141.056814, 74.04682], [141.052989, 74.021145], [141.037771, 74.003852], [140.940766, 73.976752], [140.843516, 73.976508], [140.796153, 73.970445], [140.743419, 73.952338], [140.624766, 73.943183], [140.545095, 73.915839], [140.437755, 73.908433], [140.326671, 73.938625], [140.198362, 74.025582], [140.164716, 74.070638], [140.177975, 74.154365], [140.193136, 74.190698], [140.221889, 74.220082], [140.3499, 74.254216], [140.891449, 74.276516], [140.979259, 74.263332], [141.05836, 74.234442], [141.112641, 74.166083], [141.071137, 74.125067]]], [[[150.958018, 75.14232], [150.910167, 75.139553], [150.858653, 75.125678], [150.812266, 75.103013], [150.779796, 75.074042], [150.787364, 75.067288], [150.77003, 75.052965], [150.704763, 75.032457], [150.702403, 75.018134], [150.654063, 75.00788], [150.646495, 75.002387], [150.651378, 74.990709], [150.690684, 74.959784], [150.680512, 74.933783], [150.645274, 74.906643], [150.609223, 74.8935], [149.795909, 74.805121], [149.71754, 74.76557], [149.293712, 74.77204], [149.208995, 74.758002], [148.17213, 74.803534], [147.853201, 74.888007], [147.801606, 74.908596], [147.74879, 74.916083], [147.723643, 74.923814], [147.730479, 74.93065], [147.663829, 74.953437], [147.518321, 74.971177], [147.315115, 74.973456], [147.087901, 75.005194], [146.955821, 75.054185], [146.648448, 75.128404], [146.218028, 75.176337], [146.11964, 75.205024], [146.08074, 75.227362], [146.071788, 75.240302], [146.110606, 75.251207], [146.172862, 75.290717], [146.183767, 75.34398], [146.16863, 75.396186], [146.263927, 75.391343], [146.284923, 75.403022], [146.256358, 75.41474], [146.250743, 75.425238], [146.263845, 75.436672], [146.319591, 75.459459], [146.407074, 75.47134], [146.350434, 75.500678], [146.341482, 75.52265], [146.353038, 75.5539], [146.389171, 75.58515], [146.436209, 75.596747], [146.486339, 75.594387], [146.663097, 75.555609], [146.694184, 75.525214], [146.770763, 75.506741], [146.729503, 75.488227], [146.681977, 75.484931], [146.688813, 75.47134], [146.634288, 75.43773], [146.642833, 75.423163], [146.709483, 75.409857], [146.796723, 75.36636], [147.15504, 75.336371], [147.32545, 75.34984], [147.347423, 75.355211], [147.311697, 75.374823], [147.168142, 75.362047], [147.192638, 75.381171], [147.271658, 75.406317], [147.350271, 75.409857], [147.361339, 75.408352], [147.360525, 75.396796], [147.436209, 75.38935], [147.42156, 75.40644], [147.333181, 75.430365], [147.373871, 75.440375], [147.686209, 75.442084], [147.838552, 75.419094], [148.407725, 75.421088], [148.580089, 75.382514], [148.552745, 75.346747], [148.457286, 75.310858], [148.444509, 75.287299], [148.479828, 75.265815], [148.560313, 75.238593], [148.557628, 75.222357], [148.610362, 75.215522], [148.703624, 75.225531], [148.784923, 75.218736], [148.899913, 75.222724], [148.946625, 75.238227], [149.126801, 75.268622], [150.129405, 75.225531], [150.174815, 75.212877], [150.214692, 75.186998], [150.213878, 75.177191], [150.163422, 75.156643], [150.213064, 75.168402], [150.266449, 75.165717], [150.417491, 75.134589], [150.560802, 75.12873], [150.471365, 75.101386], [150.500255, 75.094468], [150.632823, 75.116523], [150.660411, 75.132392], [150.673676, 75.15998], [150.709646, 75.166897], [150.827647, 75.163398], [150.958018, 75.14232]]], [[[145.390391, 75.516832], [145.265473, 75.520331], [145.071951, 75.500637], [144.967947, 75.472398], [144.782481, 75.446926], [144.72934, 75.431586], [144.697927, 75.404771], [144.702159, 75.379096], [144.667247, 75.341539], [144.677745, 75.327826], [144.893809, 75.292304], [144.941091, 75.273342], [144.889171, 75.258043], [144.768403, 75.261176], [144.721365, 75.246039], [144.727061, 75.225979], [144.720876, 75.200507], [144.688162, 75.15998], [144.576996, 75.137763], [144.496349, 75.111965], [144.376313, 75.053046], [144.152843, 75.046454], [143.998546, 75.02497], [143.8449, 75.050116], [143.750743, 75.081773], [143.51588, 75.087307], [143.414806, 75.067084], [143.360606, 75.071112], [143.255219, 75.09516], [143.08253, 75.110826], [143.049815, 75.12873], [142.94516, 75.133734], [142.884451, 75.146796], [142.872244, 75.156643], [142.872732, 75.174547], [142.859386, 75.184027], [142.837576, 75.225531], [142.80893, 75.232815], [142.740001, 75.23017], [142.707774, 75.238593], [142.709809, 75.254788], [142.675548, 75.267279], [142.659516, 75.308783], [142.6421, 75.319973], [142.535004, 75.345526], [142.507009, 75.359809], [142.494314, 75.375678], [142.535899, 75.427232], [142.510753, 75.45189], [142.515391, 75.465074], [142.534516, 75.476549], [142.619884, 75.490465], [142.63738, 75.516059], [142.724376, 75.550686], [142.846934, 75.561347], [143.01352, 75.602444], [143.034923, 75.617621], [143.042979, 75.646674], [143.00115, 75.707953], [142.904063, 75.724555], [142.714854, 75.711493], [142.660167, 75.732978], [142.514903, 75.71894], [142.337901, 75.725653], [142.29005, 75.711493], [142.366466, 75.706488], [142.406912, 75.695258], [142.434093, 75.677965], [142.381358, 75.661811], [142.008311, 75.663723], [142.206879, 75.63581], [142.18336, 75.628241], [142.008311, 75.622748], [142.139659, 75.59516], [142.080577, 75.534735], [142.097667, 75.516303], [142.187022, 75.47134], [142.156016, 75.399359], [142.162852, 75.379096], [142.19988, 75.348822], [142.410167, 75.26675], [142.426606, 75.252183], [142.425792, 75.212958], [142.439464, 75.203111], [142.537446, 75.1789], [142.580333, 75.159735], [142.611583, 75.122504], [142.604177, 75.115627], [142.628184, 75.096991], [142.668712, 75.087958], [142.833018, 75.070624], [143.01295, 75.065131], [143.245372, 75.027086], [143.448009, 75.005805], [143.559825, 75.015611], [143.614513, 75.011135], [143.666759, 74.985297], [143.707774, 74.947455], [143.668224, 74.929999], [143.464529, 74.900051], [143.003429, 74.882148], [142.924164, 74.89411], [142.8213, 74.87641], [142.758637, 74.895941], [142.715099, 74.895168], [142.679698, 74.889879], [142.650401, 74.875678], [142.625255, 74.848131], [142.694347, 74.853339], [142.714041, 74.848131], [142.677989, 74.83397], [142.514008, 74.817369], [142.355642, 74.82453], [141.974132, 74.933783], [141.974132, 74.94538], [142.080577, 74.96483], [142.191661, 74.952826], [142.295421, 74.922797], [142.331879, 74.92121], [142.364513, 74.93065], [142.326182, 74.951728], [142.241059, 74.975409], [142.237315, 74.991034], [142.198741, 75.004218], [141.843761, 74.998969], [141.673106, 74.96483], [141.371104, 74.919501], [141.114024, 74.916653], [140.637543, 74.875434], [140.549164, 74.877631], [140.351329, 74.840074], [140.068696, 74.827948], [140.007823, 74.862372], [140.0, 74.8717596], [140.0, 75.82785716823955], [140.150401, 75.800523], [140.259939, 75.831122], [140.480724, 75.80093], [140.509532, 75.790473], [140.537608, 75.774319], [140.545909, 75.75552], [140.456309, 75.704657], [140.432953, 75.656562], [140.475841, 75.640326], [140.676768, 75.623277], [140.765636, 75.631293], [140.901866, 75.615912], [140.986501, 75.620673], [141.03004, 75.630805], [141.062266, 75.650092], [140.974294, 75.677965], [141.007823, 75.691067], [140.864431, 75.738837], [140.891124, 75.769517], [140.905284, 75.808905], [140.904959, 75.848375], [140.878754, 75.896918], [140.898204, 75.928778], [140.908946, 75.984117], [140.932628, 76.013129], [141.000987, 76.047431], [141.230968, 76.057074], [141.585216, 76.007514], [141.624685, 76.013129], [141.607107, 76.030178], [141.514822, 76.054145], [141.448985, 76.104397], [141.391368, 76.129218], [141.391368, 76.1435], [141.310069, 76.184475], [141.366954, 76.18122], [141.593923, 76.129706], [141.702159, 76.120998], [141.913097, 76.060736], [142.145681, 76.011908], [142.427257, 75.913886], [142.488048, 75.875963], [142.546886, 75.862982], [142.928722, 75.832221], [143.058849, 75.80683], [143.277517, 75.815985], [143.38559, 75.807074], [143.358897, 75.834418], [143.383962, 75.846259], [143.584809, 75.869818], [143.685802, 75.862698], [143.782888, 75.841864], [143.802257, 75.829047], [143.858735, 75.841864], [143.947113, 75.834784], [144.191417, 75.766995], [144.423595, 75.736721], [144.60963, 75.698472], [144.724132, 75.695014], [144.76295, 75.663723], [144.809825, 75.644232], [145.174164, 75.608222], [145.276378, 75.583441], [145.366222, 75.540229], [145.390391, 75.516832]]], [[[149.263218, 76.710583], [149.238218, 76.667958], [149.262002, 76.645191], [149.255801, 76.633768], [149.20009, 76.626806], [148.78532, 76.629369], [148.594248, 76.622493], [148.452203, 76.623336], [148.431789, 76.629326], [148.437182, 76.641543], [148.468756, 76.656938], [148.723571, 76.697669], [148.866735, 76.733998], [149.453497, 76.768779], [149.443976, 76.750495], [149.263218, 76.710583]]], [[[152.890798, 76.134467], [152.884288, 76.116116], [152.825043, 76.088813], [152.773448, 76.083401], [152.704112, 76.09398], [152.554861, 76.13935], [152.569835, 76.152411], [152.620453, 76.16942], [152.709809, 76.186672], [152.829275, 76.196194], [152.877696, 76.19123], [152.863536, 76.166327], [152.890798, 76.134467]]], [[[156.673025, 77.095404], [156.670909, 77.087795], [156.653331, 77.084174], [156.515798, 77.087714], [156.49171, 77.098212], [156.507498, 77.11164], [156.550304, 77.1258], [156.588634, 77.125556], [156.660981, 77.107611], [156.673025, 77.095404]]]]}}]}