{"type": "FeatureCollection", "features": [{"type": "Feature", "properties": {"name": "Antarctica"}, "geometry": {"type": "MultiPolygon", "coordinates": [[[[68.758067, -70.018324], [68.606293, -70.026951], [68.572602, -70.020929], [68.528575, -70.002211], [68.5256145053526, -70.0], [68.85869901175754, -70.0], [68.758067, -70.018324]]], [[[67.865408, -70.002048], [67.605479, -70.014825], [67.5713, -70.024509], [67.55836, -70.039646], [67.566173, -70.096612], [67.506358, -70.115899], [67.481944, -70.136407], [67.478689, -70.201755], [67.22462, -70.252618], [67.217947, -70.262791], [67.220958, -70.297621], [67.229177, -70.304457], [67.712738, -70.275486], [67.74586, -70.287042], [67.728852, -70.300063], [67.657888, -70.323337], [67.677908, -70.345798], [67.750255, -70.356703], [67.762462, -70.392511], [67.77768, -70.398207], [67.870372, -70.391697], [67.917166, -70.437433], [67.976085, -70.454197], [68.034679, -70.440851], [68.076671, -70.453546], [68.099783, -70.451755], [68.149425, -70.433852], [68.42213, -70.401951], [68.51059, -70.465753], [68.562673, -70.472426], [68.632579, -70.448826], [68.65089, -70.388604], [68.687999, -70.353692], [68.748383, -70.334405], [68.923513, -70.30462], [69.146332, -70.308852], [69.167979, -70.316583], [69.248383, -70.406915], [69.257498, -70.431573], [69.205414, -70.693129], [69.192149, -70.71087], [69.079275, -70.777276], [69.099783, -70.793227], [69.091563, -70.812107], [69.029063, -70.855727], [69.017589, -70.873712], [69.016287, -70.894464], [69.026622, -70.918552], [69.00766, -70.942071], [68.85434, -71.024835], [68.896495, -71.036228], [68.809906, -71.079685], [68.587413, -71.149509], [68.547862, -71.180922], [68.590505, -71.198175], [68.669688, -71.203709], [68.522309, -71.247735], [68.339122, -71.257501], [68.319102, -71.264418], [68.312348, -71.280043], [68.32309, -71.309177], [68.259451, -71.327081], [68.055024, -71.354669], [68.083263, -71.365411], [67.923188, -71.480564], [67.862153, -71.509373], [67.83253, -71.538507], [67.835704, -71.551853], [67.860118, -71.555759], [67.844574, -71.578302], [67.819184, -71.590427], [67.854828, -71.60296], [67.894216, -71.603692], [67.87908, -71.63006], [67.847992, -71.636651], [67.876313, -71.649347], [67.882335, -71.665297], [67.870616, -71.682224], [67.788829, -71.715916], [67.76295, -71.748142], [67.709321, -71.767511], [67.533376, -71.797459], [67.547862, -71.815688], [67.566254, -71.824151], [67.611176, -71.826837], [67.472667, -71.872328], [67.449067, -71.895929], [67.531912, -71.945489], [67.516856, -71.955743], [67.507009, -71.993341], [67.447602, -72.027276], [67.426524, -72.051935], [67.398692, -72.063735], [67.369884, -72.071954], [67.283865, -72.07171], [67.262218, -72.081231], [67.251964, -72.10711], [67.271983, -72.120294], [67.331798, -72.129083], [67.326834, -72.14837], [67.337169, -72.172621], [67.315603, -72.216241], [67.315196, -72.263849], [67.304942, -72.303318], [67.315115, -72.327895], [67.293142, -72.36712], [67.213227, -72.439386], [67.230642, -72.450291], [67.202403, -72.47381], [67.171886, -72.539158], [67.083832, -72.634047], [67.090343, -72.680271], [67.078787, -72.719659], [67.048025, -72.773207], [67.032481, -72.838556], [66.999766, -72.903497], [66.977387, -72.926446], [66.942393, -72.947849], [66.861095, -72.975763], [66.694184, -72.998142], [66.557302, -73.036554], [66.482921, -73.090509], [66.325938, -73.131443], [66.354259, -73.148126], [66.385427, -73.201837], [66.405935, -73.215427], [66.55836, -73.231541], [66.641124, -73.220147], [66.686534, -73.241876], [66.733897, -73.244724], [66.918142, -73.197686], [66.973399, -73.201349], [67.02296, -73.217543], [67.100597, -73.197849], [67.101817, -73.224379], [67.078868, -73.24391], [67.016449, -73.270929], [67.049978, -73.284601], [67.163259, -73.265883], [67.165701, -73.30169], [67.223155, -73.312433], [67.34197, -73.302341], [67.821788, -73.18377], [67.876964, -73.179132], [67.959158, -73.14658], [68.022309, -73.146742], [68.055675, -73.057061], [68.044281, -73.031427], [68.089854, -73.013849], [68.102794, -73.000584], [68.117361, -72.952732], [68.107677, -72.929132], [68.082286, -72.904962], [68.07488, -72.876235], [67.999685, -72.855727], [67.959727, -72.827325], [67.953624, -72.805108], [67.969086, -72.753188], [67.960704, -72.73919], [67.91863, -72.711196], [67.921072, -72.693048], [67.948009, -72.674086], [68.014822, -72.646661], [68.041189, -72.624444], [68.201915, -72.589288], [68.178233, -72.576755], [68.332774, -72.507501], [68.413585, -72.481622], [68.494314, -72.474867], [68.621837, -72.482192], [68.708507, -72.498142], [68.752289, -72.493585], [69.042166, -72.420343], [69.083832, -72.416274], [69.15504, -72.425958], [69.347179, -72.416436], [69.515147, -72.431899], [69.480642, -72.462986], [69.517589, -72.469496], [69.559255, -72.463962], [69.631847, -72.430759], [69.589854, -72.397149], [69.620291, -72.359633], [69.636567, -72.355564], [69.611013, -72.344415], [69.668793, -72.303155], [69.738129, -72.281996], [69.797374, -72.275486], [69.844574, -72.254815], [69.930919, -72.265558], [69.95045, -72.258071], [69.940196, -72.219822], [69.916026, -72.199884], [69.804942, -72.187677], [69.835297, -72.134047], [69.856944, -72.119317], [69.890391, -72.109796], [69.923839, -72.11297], [69.954112, -72.077244], [70.172048, -72.062595], [70.27003, -72.072035], [70.364757, -72.05462], [70.53004, -72.047947], [70.654552, -71.995375], [70.729503, -71.946059], [70.705414, -71.92311], [70.733409, -71.912042], [70.628591, -71.902114], [70.566905, -71.874607], [70.442393, -71.862237], [70.432872, -71.856378], [70.432465, -71.838962], [70.446951, -71.830173], [70.687266, -71.831638], [70.849132, -71.803481], [70.971202, -71.751397], [71.121104, -71.730564], [71.149669, -71.735447], [71.182791, -71.752699], [71.212413, -71.753839], [71.278168, -71.728285], [71.134613, -71.697524], [71.053477, -71.670994], [71.065766, -71.659926], [71.077891, -71.627211], [71.09547, -71.621352], [71.16212, -71.627211], [71.219005, -71.607517], [71.410492, -71.639337], [71.539806, -71.610284], [71.413748, -71.568536], [71.368175, -71.539646], [71.312673, -71.533461], [71.180431, -71.492283], [71.159516, -71.472589], [71.158214, -71.45615], [71.199474, -71.433526], [71.253429, -71.387953], [71.224376, -71.365004], [71.202485, -71.335056], [71.247813, -71.3235], [71.300629, -71.28631], [71.435557, -71.276951], [71.493826, -71.253188], [71.535899, -71.245538], [71.526052, -71.226821], [71.555837, -71.215916], [71.533865, -71.20436], [71.429454, -71.200372], [71.341563, -71.182061], [71.360688, -71.156996], [71.392345, -71.150811], [71.395193, -71.118097], [71.541759, -70.960138], [71.583832, -70.951104], [71.686046, -70.953709], [71.652354, -70.912205], [71.69809, -70.908461], [71.714366, -70.890558], [71.748871, -70.874933], [71.799327, -70.87656], [71.827647, -70.866795], [71.848155, -70.844659], [71.859386, -70.809666], [71.781261, -70.799981], [71.726817, -70.774021], [71.796235, -70.716404], [71.821544, -70.704197], [71.940115, -70.688735], [71.999522, -70.662693], [72.043712, -70.664483], [72.155528, -70.704848], [72.148448, -70.667413], [72.192231, -70.652927], [72.252778, -70.655532], [72.345958, -70.67547], [72.402517, -70.646091], [72.441091, -70.603774], [72.437348, -70.570082], [72.494965, -70.557387], [72.477387, -70.546319], [72.612071, -70.511651], [72.626475, -70.477309], [72.645763, -70.467543], [72.765473, -70.469171], [72.852794, -70.444757], [72.86964, -70.433364], [72.866222, -70.415948], [72.844005, -70.389418], [72.821544, -70.378839], [72.812836, -70.34824], [72.78004, -70.311293], [72.694347, -70.263279], [72.627452, -70.194594], [72.625662, -70.179132], [72.639496, -70.160252], [72.729015, -70.109145], [72.766287, -70.069024], [72.906423, -70.026951], [72.969493, -70.025486], [73.00701880542782, -70.0], [73.01173690931198, -70.0], [73.056163, -70.014581], [73.08024357104291, -70.0], [80.0, -70.0], [80.0, -90.0], [60.0, -90.0], [60.0, -70.0], [67.86967705919004, -70.0], [67.865408, -70.002048]]], [[[68.840017, -72.155369], [68.862559, -72.193455], [68.852306, -72.212579], [68.809093, -72.239841], [68.742035, -72.264581], [68.451915, -72.314142], [68.417654, -72.312433], [68.394705, -72.297052], [68.449962, -72.249688], [68.604991, -72.171645], [68.62615, -72.149672], [68.631847, -72.122003], [68.647472, -72.109308], [68.725841, -72.088556], [68.751801, -72.090427], [68.760997, -72.108819], [68.840017, -72.155369]]], [[[69.899913, -71.948337], [69.806163, -72.024347], [69.796153, -72.042169], [69.804861, -72.047052], [69.787364, -72.055434], [69.726899, -72.05641], [69.749197, -72.041436], [69.702973, -71.988051], [69.682791, -71.97503], [69.722016, -71.952081], [69.724783, -71.931899], [69.774099, -71.89658], [69.862071, -71.890232], [69.92449, -71.908949], [69.899913, -71.948337]]], [[[72.220225, -70.630466], [72.193614, -70.643813], [72.084483, -70.653985], [71.826915, -70.624933], [71.786957, -70.607843], [71.660492, -70.503106], [71.636892, -70.453058], [71.623302, -70.35475], [71.676117, -70.304376], [71.714692, -70.279067], [71.761241, -70.263604], [71.80836, -70.265883], [71.819102, -70.276788], [71.829845, -70.314386], [71.847911, -70.329034], [71.847504, -70.361749], [71.862071, -70.389418], [71.885997, -70.412286], [71.946544, -70.446059], [72.035411, -70.466078], [72.049327, -70.476658], [72.073009, -70.522719], [72.088145, -70.533136], [72.200857, -70.541192], [72.214041, -70.563246], [72.197032, -70.597914], [72.220225, -70.630466]]], [[[72.661306, -70.006524], [72.71811, -70.000746], [72.730154, -70.004815], [72.73113, -70.022556], [72.56072, -70.090265], [72.459321, -70.108657], [72.411957, -70.074802], [72.456065, -70.051853], [72.471934, -70.050877], [72.4817, -70.058852], [72.526622, -70.043634], [72.58256764853407, -70.0], [72.648404478056, -70.0], [72.661306, -70.006524]]]]}}]}