{"type": "FeatureCollection", "features": [{"type": "Feature", "properties": {"name": "Antarctica"}, "geometry": {"type": "MultiPolygon", "coordinates": [[[[-140.0, -90.0], [-140.0, -75.28952115082387], [-139.849721, -75.240655], [-139.767405, -75.236261], [-139.674184, -75.21852], [-139.676991, -75.196384], [-139.659413, -75.176365], [-139.611236, -75.153497], [-139.56664, -75.148045], [-139.35143, -75.147719], [-139.204254, -75.124933], [-139.03425, -75.14072], [-137.904286, -75.105564], [-137.848704, -75.09588], [-137.785959, -75.069594], [-137.74234, -75.060642], [-137.477447, -75.088149], [-137.094879, -75.179864], [-137.071645, -75.177911], [-137.018381, -75.146091], [-136.995229, -75.144789], [-136.918935, -75.156183], [-136.346018, -75.17783], [-136.381988, -75.146091], [-136.430084, -75.133884], [-136.335032, -75.125421], [-136.374379, -75.108087], [-136.877594, -75.038181], [-136.964752, -75.013604], [-137.009877, -75.009861], [-136.88561, -74.981378], [-136.864329, -74.964614], [-136.863108, -74.947931], [-136.891225, -74.880304], [-136.882436, -74.85475], [-136.884877, -74.828302], [-136.866811, -74.792576], [-136.834299, -74.760431], [-136.794301, -74.749933], [-136.565297, -74.758559], [-136.417795, -74.73919], [-136.349273, -74.717706], [-136.224843, -74.70143], [-136.122955, -74.701104], [-135.936147, -74.723565], [-135.856068, -74.74977], [-135.701812, -74.747328], [-135.647817, -74.713474], [-135.656646, -74.699477], [-135.700103, -74.677992], [-135.633778, -74.640558], [-135.495473, -74.581231], [-135.419993, -74.565118], [-135.342397, -74.560154], [-134.518625, -74.643243], [-134.488922, -74.657485], [-134.501373, -74.676853], [-134.570872, -74.717055], [-134.586252, -74.736261], [-134.568105, -74.756117], [-134.515248, -74.780857], [-134.392242, -74.801528], [-134.373036, -74.8117], [-134.377553, -74.829197], [-134.414703, -74.858982], [-134.355621, -74.870375], [-134.176137, -74.854913], [-134.05899, -74.884942], [-133.929189, -74.88421], [-133.953725, -74.895766], [-133.956614, -74.907159], [-133.94811, -74.920343], [-133.865549, -74.928318], [-133.318227, -74.834893], [-133.199818, -74.840265], [-132.791168, -74.76865], [-132.76122, -74.768487], [-132.690012, -74.803481], [-132.635732, -74.818943], [-132.578725, -74.825779], [-132.093129, -74.763279], [-131.778798, -74.780938], [-131.555409, -74.845961], [-131.012807, -74.816502], [-130.954661, -74.83115], [-130.815826, -74.815688], [-130.731923, -74.838637], [-129.975087, -74.913263], [-129.274648, -74.840753], [-129.22761, -74.820571], [-129.186838, -74.82643], [-128.711497, -74.822524], [-128.650217, -74.812921], [-128.532704, -74.773045], [-128.473012, -74.763442], [-128.005035, -74.741306], [-127.959137, -74.717706], [-127.850494, -74.726332], [-127.795969, -74.703871], [-127.629872, -74.719822], [-127.352366, -74.706801], [-127.24474, -74.680108], [-127.125803, -74.689711], [-126.939076, -74.67669], [-126.676137, -74.719985], [-126.594635, -74.742446], [-126.113433, -74.761489], [-126.05606, -74.748224], [-125.933583, -74.752537], [-125.740061, -74.704767], [-124.935943, -74.715102], [-124.826324, -74.736017], [-124.47643, -74.713637], [-124.423004, -74.721449], [-124.365631, -74.706964], [-124.307362, -74.712335], [-124.199859, -74.747328], [-124.076283, -74.807061], [-124.05134, -74.81113], [-123.466135, -74.781834], [-123.344146, -74.756443], [-123.217844, -74.755629], [-123.224436, -74.774835], [-123.118235, -74.796319], [-123.009877, -74.796482], [-122.836252, -74.76572], [-122.723378, -74.776056], [-122.454823, -74.753351], [-122.333119, -74.776625], [-122.200022, -74.753839], [-122.003896, -74.77516], [-121.912831, -74.765558], [-121.829416, -74.784112], [-121.772532, -74.786065], [-121.743479, -74.757094], [-121.715688, -74.751072], [-121.635894, -74.759047], [-121.474924, -74.755792], [-121.433827, -74.73504], [-121.254628, -74.724705], [-121.317698, -74.747735], [-121.203114, -74.755955], [-121.145497, -74.74505], [-121.071645, -74.716404], [-121.043365, -74.716078], [-121.016469, -74.721856], [-120.975657, -74.746352], [-120.946645, -74.747817], [-120.829335, -74.739841], [-120.71703, -74.713311], [-120.153961, -74.660089], [-120.042714, -74.677423], [-120.0, -74.67873803627585], [-120.0, -90.0], [-140.0, -90.0]]], [[[-132.496571, -74.385024], [-132.342275, -74.404474], [-132.377309, -74.421808], [-132.363678, -74.428318], [-132.375844, -74.438165], [-132.437815, -74.457452], [-132.477203, -74.486505], [-132.53185, -74.498956], [-132.589752, -74.501072], [-132.857533, -74.470961], [-132.883534, -74.459893], [-132.847768, -74.446873], [-132.898508, -74.426365], [-132.837026, -74.426365], [-132.805165, -74.412693], [-132.746002, -74.41546], [-132.571156, -74.388442], [-132.496571, -74.385024]]], [[[-130.952301, -74.458917], [-130.956654, -74.513767], [-130.978017, -74.523696], [-130.972727, -74.532485], [-131.038564, -74.569106], [-131.080881, -74.582208], [-131.088246, -74.599054], [-131.205922, -74.60711], [-131.728668, -74.537286], [-131.846059, -74.554295], [-131.90807, -74.517511], [-132.02831, -74.504653], [-132.082753, -74.491143], [-132.012074, -74.465427], [-132.028717, -74.467869], [-132.107004, -74.436293], [-132.181264, -74.423761], [-132.016754, -74.381524], [-131.981679, -74.359552], [-131.806264, -74.321954], [-131.683705, -74.320489], [-131.632314, -74.333754], [-131.564117, -74.331231], [-131.612375, -74.348891], [-131.588368, -74.365004], [-131.553212, -74.375095], [-131.127553, -74.427911], [-130.983754, -74.410821], [-130.959543, -74.416599], [-130.94518, -74.438735], [-130.920481, -74.444268], [-130.952301, -74.458917]]], [[[-127.141428, -74.488214], [-127.233957, -74.530938], [-127.173818, -74.554295], [-127.215932, -74.588149], [-127.415883, -74.635512], [-127.506256, -74.646173], [-127.551747, -74.64365], [-127.905629, -74.552992], [-127.895823, -74.541925], [-127.898508, -74.527602], [-127.995229, -74.487726], [-128.018707, -74.482192], [-128.088246, -74.488539], [-128.10912, -74.477797], [-128.065907, -74.462335], [-128.069244, -74.450453], [-128.110707, -74.425551], [-128.098744, -74.412042], [-128.108998, -74.404474], [-128.139272, -74.402032], [-128.132883, -74.388442], [-128.159535, -74.344415], [-128.189198, -74.316095], [-128.175404, -74.305108], [-128.137847, -74.303481], [-127.758046, -74.342706], [-127.504018, -74.404718], [-127.434193, -74.411065], [-127.337961, -74.404555], [-127.235992, -74.423435], [-127.200592, -74.450453], [-127.151845, -74.452569], [-127.128489, -74.469415], [-127.141428, -74.488214]]], [[[-132.144032, -74.167576], [-132.174672, -74.17311], [-132.274403, -74.157647], [-132.295155, -74.147882], [-132.300526, -74.134942], [-132.228668, -74.125909], [-132.184885, -74.129327], [-132.121897, -74.149591], [-132.144032, -74.167576]]], [[[-120.295888, -73.952325], [-120.240793, -73.966729], [-120.237294, -73.981541], [-120.275543, -74.003188], [-121.027211, -74.155857], [-121.054067, -74.17669], [-121.05724, -74.203383], [-121.033599, -74.223077], [-121.04955, -74.233087], [-121.085439, -74.234633], [-121.049428, -74.265558], [-121.071889, -74.275567], [-120.944244, -74.308689], [-121.099029, -74.348077], [-122.243479, -74.413263], [-122.460683, -74.379164], [-122.572092, -74.386489], [-122.626373, -74.382094], [-122.687327, -74.36533], [-122.903798, -74.337009], [-122.988759, -74.297784], [-123.011098, -74.278416], [-123.005116, -74.263442], [-123.028188, -74.248305], [-122.955149, -74.228774], [-122.762196, -74.226251], [-122.729156, -74.215753], [-122.746571, -74.203709], [-122.796946, -74.193292], [-122.830881, -74.167087], [-122.94636, -74.135186], [-122.945302, -74.110284], [-122.924184, -74.091567], [-122.820465, -74.079278], [-122.817535, -74.063735], [-122.804026, -74.058526], [-122.749013, -74.055597], [-122.74474, -74.046075], [-122.752838, -74.026137], [-122.736562, -74.000177], [-122.607655, -73.964288], [-122.552561, -73.961602], [-122.327382, -73.915704], [-122.43635, -73.899672], [-122.591298, -73.907322], [-122.934071, -73.879327], [-122.972239, -73.839776], [-123.016957, -73.830824], [-123.349273, -73.848403], [-123.349762, -73.8388], [-123.33727, -73.831231], [-123.237375, -73.820245], [-123.230784, -73.815118], [-123.234242, -73.804946], [-123.276926, -73.78574], [-123.289133, -73.774509], [-123.286773, -73.76393], [-123.193023, -73.706801], [-123.120229, -73.682794], [-123.065582, -73.675388], [-122.272369, -73.682224], [-122.055776, -73.715753], [-120.686431, -73.767267], [-120.540151, -73.753351], [-120.429067, -73.772556], [-120.375803, -73.796482], [-120.378041, -73.830987], [-120.41511, -73.846856], [-120.695709, -73.868097], [-120.735178, -73.87949], [-120.647369, -73.896742], [-120.285715, -73.917413], [-120.26122, -73.92783], [-120.295888, -73.952325]]], [[[-127.418202, -73.534601], [-127.415191, -73.525567], [-127.42516, -73.485935], [-127.48648, -73.451267], [-127.495432, -73.42962], [-127.426096, -73.398533], [-127.374094, -73.357192], [-127.303212, -73.318129], [-127.226389, -73.292169], [-127.148997, -73.277276], [-127.107004, -73.277602], [-127.074574, -73.290704], [-127.114003, -73.305597], [-127.029897, -73.309259], [-126.52717, -73.268324], [-126.104075, -73.296157], [-125.942494, -73.375909], [-125.599273, -73.429376], [-125.565785, -73.44378], [-125.571441, -73.461196], [-125.629709, -73.494561], [-125.606068, -73.517267], [-125.46996, -73.578871], [-125.246327, -73.610528], [-125.212799, -73.639825], [-125.210194, -73.660577], [-125.22175, -73.679946], [-125.270009, -73.698826], [-125.730784, -73.716404], [-125.825836, -73.703709], [-125.878041, -73.704767], [-125.912262, -73.723403], [-125.907135, -73.75506], [-125.865305, -73.78102], [-125.776438, -73.810317], [-125.683502, -73.826104], [-125.589426, -73.823907], [-125.370025, -73.791762], [-125.260569, -73.791925], [-125.183827, -73.820571], [-125.082102, -73.832778], [-125.060129, -73.84295], [-125.0572, -73.858331], [-125.090077, -73.865411], [-125.070058, -73.876072], [-124.992421, -73.882257], [-124.912953, -73.869887], [-124.93517, -73.854262], [-124.935414, -73.828546], [-124.948842, -73.814386], [-124.90274, -73.795505], [-124.758168, -73.774835], [-124.629506, -73.730727], [-124.534291, -73.727634], [-124.515777, -73.736586], [-124.508453, -73.753188], [-124.027455, -73.855239], [-124.019928, -73.875746], [-124.036529, -73.889581], [-124.208811, -73.93434], [-124.177073, -73.960626], [-124.132192, -73.97617], [-123.93106, -74.002699], [-123.972524, -74.023858], [-123.894643, -74.031183], [-123.839508, -74.064874], [-123.754384, -74.072524], [-123.777008, -74.087579], [-123.78303, -74.109633], [-123.85204, -74.119806], [-123.860219, -74.128513], [-123.842152, -74.151625], [-123.848297, -74.163995], [-123.899281, -74.178155], [-123.806264, -74.21502], [-123.865102, -74.244561], [-123.928293, -74.261814], [-124.007436, -74.263442], [-124.244985, -74.214776], [-124.78425, -74.226007], [-125.20344, -74.163018], [-125.240224, -74.150079], [-125.109283, -74.122817], [-125.718902, -74.040297], [-125.749135, -74.024672], [-125.758127, -74.000665], [-125.811391, -73.983168], [-125.78893, -73.972914], [-125.812734, -73.966567], [-125.927846, -73.956801], [-126.011342, -73.921319], [-126.475453, -73.842218], [-126.421783, -73.821547], [-126.401194, -73.802504], [-126.405507, -73.778416], [-126.429107, -73.767348], [-126.496165, -73.757501], [-126.514638, -73.742608], [-126.51183, -73.730645], [-126.471995, -73.715997], [-126.46349, -73.705662], [-126.561106, -73.684666], [-126.546539, -73.670343], [-126.725168, -73.665216], [-126.835439, -73.646173], [-126.87267, -73.646742], [-126.952138, -73.667657], [-126.984242, -73.685479], [-126.952545, -73.726658], [-127.005238, -73.740411], [-127.25121, -73.728936], [-127.26887, -73.717869], [-127.254262, -73.644138], [-127.166005, -73.602634], [-127.36734, -73.562758], [-127.450551, -73.559828], [-127.473175, -73.549574], [-127.418202, -73.534601]]]]}}]}