{"type": "FeatureCollection", "features": [{"type": "Feature", "properties": {"name": "Tibet Autonomous Region", "country": "CHN"}, "geometry": {"type": "Polygon", "coordinates": [[[99.12145406400003, 29.340099191000036], [99.12145406400003, 29.36133159700006], [99.05833224500009, 29.723771816000067], [99.06338199100009, 29.846485861000076], [99.09873020900005, 29.975610929000027], [99.10882970000006, 30.084907747000045], [99.00409797900005, 30.19600433000005], [98.99601838600006, 30.33975453800008], [99.00571389700008, 30.513925504000042], [98.98763580900004, 30.76418420600004], [98.96996169900007, 30.809734436000042], [98.90936475400008, 30.848760310000046], [98.85381755200007, 30.91160194300005], [98.84119319000007, 30.957082211000056], [98.83614344300008, 31.030671031000054], [98.80836984400008, 31.07825705500005], [98.67960133300005, 31.21223496300007], [98.67518280600007, 31.307605571000067], [98.78959110300008, 31.31434666000007], [98.84876780800005, 31.391834491000054], [98.87638360200003, 31.462528452000072], [98.83298735300008, 31.516354722000074], [98.72646928400007, 31.593675688000076], [98.59233542000004, 31.677647480000076], [98.51737825900005, 31.785020647000067], [98.48187223800005, 31.842012], [98.48581735100004, 31.969277160000047], [98.44242110000005, 32.109733660000074], [98.29645189400009, 32.21994101700005], [98.29250678100004, 32.38666753200005], [98.17809848600007, 32.43662562700007], [98.05974507500008, 32.50984744500005], [97.94928189300003, 32.53645879000004], [97.70073973400008, 32.57968541300005], [97.51531939100005, 32.692641141000024], [97.43043593900006, 32.832427395000025], [97.21012539800006, 32.78170891600007], [97.18992641600005, 32.720127578000074], [97.25052336300007, 32.645748608000076], [97.23789899800005, 32.545770900000036], [97.20002590700005, 32.456334808000065], [97.13185434300004, 32.34548128600005], [97.13690409000009, 32.255846458000065], [96.96521274200006, 32.052774432000035], [96.77363802200006, 31.768251793000047], [96.65133950100005, 31.711214959000074], [96.46197404400004, 31.805139258000054], [96.31600483900007, 31.815196920000062], [96.15820029400004, 31.727994145000025], [96.05957245100007, 31.727994145000025], [95.80314006400005, 31.85541661800005], [95.60588438100007, 31.85541661800005], [95.50725654000007, 31.992701538000063], [95.45991517500005, 32.18989768700004], [95.29027528900008, 32.229953253000076], [95.16797676500005, 32.27332686900007], [94.99439176300007, 32.39666136200003], [94.91154437800009, 32.50984744500005], [94.72612403400007, 32.59298172300004], [94.48941721600005, 32.58965783100007], [94.26107403800006, 32.594710098000064], [94.16765374500005, 32.605345519000025], [93.52886094200005, 32.55002754100008], [93.28899803200005, 32.61810636000007], [93.13498079400006, 32.645748608000076], [92.97591381100005, 32.63299170800008], [92.82694632100004, 32.72225178100007], [92.67040421000007, 32.728624086000025], [92.48861337300008, 32.69250833500007], [92.32702151700005, 32.71375466500007], [92.25127533500006, 32.745614674000024], [92.18310377100005, 32.79868937700007], [92.04171089800008, 32.881422677000046], [91.94576573400008, 32.945011177000026], [91.80689773200004, 32.993731413000035], [91.70842769500007, 33.002201754000055], [91.51653736800006, 33.002201754000055], [91.47866427600007, 33.017022894000036], [91.44079118500008, 33.046657700000026], [91.31202267500004, 33.061471367000024], [91.24385111100008, 33.061471367000024], [91.15295569400007, 33.067819317000044], [91.05448565600005, 33.09320654100003], [90.98631409200004, 33.139730746000055], [90.85249583700005, 33.137616544000025], [90.67322987200004, 33.14395899700003], [90.45104107000003, 33.137616544000025], [90.41316798000008, 33.22214488000003], [90.37529488900003, 33.28337690700005], [90.35257103300006, 33.34667520900007], [90.28944921600004, 33.43310851600006], [90.22885227000006, 33.50682500700003], [90.15563096100004, 33.58047876200004], [90.00918834100008, 33.717097626000054], [89.98898935900007, 33.75489218400003], [89.95364114200004, 33.90171262600006], [89.91829292200003, 33.916380797000045], [89.88546957800008, 33.95618167600003], [89.80719852300007, 33.99177721600006], [89.72640259400004, 34.088019805000044], [89.58975648200004, 34.22240878900004], [89.56228586600008, 34.26515440000003], [89.55905403000008, 34.29719935800006], [89.56551770300007, 34.367922011000076], [89.55905403000008, 34.40792726800004], [89.58006097100008, 34.445248254000035], [89.58167688900005, 34.48122056400007], [89.54935851800008, 34.49453970900004], [89.50734463600008, 34.52383433600005], [89.48148993800004, 34.56243424500008], [89.46694667100007, 34.61564611500006], [89.46856259000003, 34.68477057700005], [89.50411279900004, 34.73790400300004], [89.76750752300006, 34.781713377000074], [89.79659405600006, 34.83743712800003], [89.82083283600008, 34.946122460000026], [89.72710955900004, 35.04408084000005], [89.74488466200006, 35.190798388000076], [89.78043487100007, 35.329341863000025], [89.82406467200008, 35.43868945100007], [89.91617203000004, 35.629362370000024], [89.88708549600005, 35.86804752000006], [89.76427568500009, 35.92040978600005], [89.59298831900009, 35.93218652200005], [89.57198137800003, 36.01980263400003], [89.72226180300004, 36.073370476000036], [89.84183977700008, 36.15039191900007], [89.82024837300008, 36.29902461800003], [89.60268383000005, 36.28076412100006], [89.32312991900005, 36.22864131000006], [88.88683191100006, 36.360184434000075], [88.80118822700007, 36.371895331000076], [88.51840248000008, 36.45512198500006], [88.38751307800004, 36.504495605000045], [88.24531224400005, 36.52787212700008], [88.03039507700004, 36.54475077800004], [87.83486893300005, 36.54604898300005], [87.45189623400006, 36.504495605000045], [87.24021090400004, 36.345868719000066], [86.46295408000003, 36.22864131000006], [86.28358711900006, 36.18561382000007], [86.14138628700005, 36.10732143800004], [85.95878749100007, 35.970121852000034], [85.68408133700007, 35.78681759300008], [85.57904663100004, 35.748794418000045], [85.47239600600005, 35.750105864000034], [85.33827476600004, 35.77239714900003], [85.15244413100004, 35.78681759300008], [84.93591104600006, 35.69631884100005], [84.41289638300003, 35.51403230400007], [84.33280887300003, 35.47038146700004], [84.20374222600003, 35.43479658900003], [84.06143797500005, 35.49140149700003], [83.92244312600008, 35.47145955000008], [83.90258671800007, 35.48978476700006], [83.76094434700008, 35.46552991000004], [83.70865580800006, 35.47577174300005], [83.27487604600003, 35.684769577000054], [83.20868802100006, 35.684769577000054], [83.06286753200004, 35.668807842000035], [82.91084191400006, 35.71752313500008], [82.61092743000006, 35.67468885200003], [82.43718386700004, 35.736833029000024], [82.29550012900006, 35.72172133600003], [82.09900443100008, 35.61669997700005], [82.00696171000004, 35.52837531600005], [81.95421812900008, 35.37083234700003], [81.89630360800004, 35.252684018000025], [81.59903923200005, 35.16702430600003], [81.54732983800005, 35.22248634700003], [81.44067921300007, 35.322749928000064], [81.31786940200004, 35.34779642600006], [81.14819795400007, 35.36888219200006], [80.98499018100006, 35.306927087000076], [80.44527338400007, 35.41762193300008], [80.39356399100006, 35.45448647400008], [80.26642351900006, 35.50985686200005], [80.24573976100004, 35.43321242700006], [80.20540643400005, 35.34046783300005], [80.11956884000006, 35.23156794700003], [79.98635251400003, 35.08508259900003], [80.01668783100007, 34.97672983500007], [79.99683142300006, 34.95937328700006], [79.91211075200005, 34.920307610000066], [79.85320341100004, 34.914337604000025], [79.87769298000006, 34.87525048100008], [79.92071519400008, 34.76494642500006], [79.94272271400007, 34.66882389400007], [79.77305126600004, 34.40659406800006], [79.47733817000005, 34.462570191000054], [79.29473937200004, 34.42525694100004], [79.20586385200005, 34.43192124400008], [79.09759731000008, 34.40659406800006], [78.98356692300007, 34.35575348300006], [78.99396622500007, 34.353845653000064], [79.02929020900007, 34.22385626600004], [78.97511231900006, 34.12973048200007], [78.73672959700008, 34.048967719000075], [78.87217432600005, 33.71613499400007], [78.88842769300004, 33.431756406000034], [79.06721473500005, 33.255243766000035], [79.24058398800008, 33.164585799000065], [79.16386809300008, 33.05585401900004], [79.24015056400003, 32.858014155000035], [79.29909611000005, 32.72101336000003], [79.30603088100008, 32.510731150000026], [79.00090099600004, 32.33804895600008], [78.82753174300007, 32.42882149700006], [78.76858619600006, 32.61301335400003], [78.46692369700008, 32.51365511700004], [78.54667355400005, 32.32046954700007], [78.52586924400003, 32.23838718600007], [78.51893447400005, 32.03873548100006], [78.75818404100005, 31.888710282000034], [78.76511881300007, 31.744337820000055], [78.83793389800007, 31.584972402000062], [78.78939050800005, 31.425333978000026], [78.85180343800005, 31.25949548500006], [79.08065085200008, 31.001274864000038], [79.36150904100003, 31.02504861400007], [79.59035645400007, 30.888268629000038], [79.86427987300004, 30.900170314000036], [80.11393159600004, 30.787044628000046], [80.20755099300004, 30.60218523700007], [80.36705070500005, 30.515597351000054], [80.67218059000004, 30.384075254000038], [80.89756061900005, 30.24938067900007], [81.08826679600008, 30.16247949500007], [81.25816866400004, 29.919349814000043], [81.69159179500008, 30.336205066000048], [81.77134165100006, 30.195451045000027], [82.17160791200007, 30.111689238000054], [82.41540842400008, 29.928740876000063], [82.61586662300004, 29.924045455000055], [82.84341376700007, 29.674871809000024], [82.98969407300007, 29.660749100000032], [83.36893931300006, 29.41092151600003], [83.43395278300005, 29.184131266000065], [83.69942445000004, 28.99001659000004], [83.80778023300007, 29.032658457000025], [83.93238938400003, 29.255057313000066], [84.07866969000008, 29.226692788000037], [84.15993652800006, 29.080017656000052], [84.19244326300003, 28.72904578200007], [84.60419523600007, 28.66726618900003], [84.91300921800007, 28.524558899000056], [85.09179626000008, 28.600693567000064], [85.17306309700007, 28.562633117000075], [85.13513857200007, 28.43884163000007], [85.26516551300006, 28.209922806000066], [85.56856170500004, 28.23379150200003], [85.92071799900003, 28.05225574900004], [86.00198483600008, 27.875202234000028], [86.16993629900009, 28.00443210000003], [86.35955892000004, 27.860833824000053], [86.50042143600007, 27.87041297500008], [86.70087963500004, 28.033128839000028], [87.31952343300009, 27.747616075000053], [87.51422522900003, 27.844966490000047], [87.75971880100008, 27.755107663000047], [88.54699128500005, 28.016987864000043], [88.69090130900008, 28.069287788000054], [88.91099899400007, 27.934750936000057], [88.89406840200007, 27.78506886100007], [88.83481133300006, 27.477576400000032], [88.93639488100007, 27.35734552200006], [89.23268022200006, 27.702655726000046], [89.52896556800005, 27.994565829000067], [89.97762623000006, 28.270777430000066], [90.40935630200005, 28.211116366000056], [90.68024576100004, 27.979615214000034], [90.88341285300004, 27.949707767000064], [91.34053881200003, 27.979615214000034], [91.54370590500008, 27.81502180600006], [92.06008893200004, 27.702655726000046], [92.02093186100007, 27.440439034000065], [92.12495341300007, 27.280305078000026], [92.01746447500005, 27.107594661000064], [92.13188818200007, 26.888238949000026], [92.78722395800008, 26.953163350000068], [93.08888645700006, 26.90370052800006], [93.43215757600007, 26.943890724000028], [93.73382007500004, 27.011872261000065], [93.84824378300004, 27.17856166300004], [94.10483027600009, 27.409662037000032], [94.25739521900005, 27.557313303000058], [94.57292725900004, 27.66907324700003], [94.85465229400006, 27.72184107700008], [95.13637732800004, 27.87041297500008], [95.33683552700006, 28.047474340000065], [95.54271151500006, 28.157392900000048], [95.86777886300007, 28.286283840000067], [96.08449042900008, 28.181273329000078], [96.34454430800008, 28.176497668000025], [96.60459818500004, 28.07615960100003], [96.92966553500008, 27.87041297500008], [97.28723961800006, 27.745818017000033], [97.41726655800005, 28.06181792700005], [97.35225308700007, 28.276741702000038], [97.65564927900004, 28.495994207000024], [97.75858727300005, 28.495994207000024], [97.89403200200007, 28.333981700000038], [98.03489452000008, 28.338750310000023], [98.15436570600008, 28.213301262000073], [98.26400728000004, 28.287008650000075], [98.36904198600007, 28.37661694600007], [98.50639506300007, 28.306928135000078], [98.67445059300007, 28.38372547800003], [98.65505957000005, 28.637896440000077], [98.66798692000003, 28.741376626000033], [98.69707345200004, 28.854661968000073], [98.67445059300007, 28.970651495000027], [98.82957877500007, 29.015880494000044], [98.93622939900007, 29.13168940500003], [98.93138164400006, 29.272743395000077], [98.98147511800005, 29.31783964600004], [99.04772778000006, 29.33897165600007], [99.12145406400003, 29.340099191000036]]]}}, {"type": "Feature", "properties": {"name": "Balochistan", "country": "PAK"}, "geometry": {"type": "Polygon", "coordinates": [[[66.68992751384377, 24.914246073097843], [66.72032670161605, 24.910649912663416], [66.74905352989657, 24.920248473088634], [66.79743555590625, 24.94629794229627], [66.8246504457615, 24.94766881396464], [66.84884145966566, 24.95589372741364], [66.85640115089245, 24.97508305204127], [66.86849665829419, 24.98741746704252], [66.96526071121292, 24.99426938462443], [66.98642784826666, 25.00797207495134], [67.00457110846992, 25.028523242953327], [67.01364273812192, 25.06139795405238], [67.01515467654713, 25.097002273036537], [67.02573824462434, 25.124383162453057], [67.05900088818049, 25.158600645903164], [67.09831128453823, 25.187335917019027], [67.12250229844238, 25.199648958732496], [67.1361097424707, 25.22837454864657], [67.14971718829764, 25.24068343908948], [67.15727687952443, 25.280336937599657], [67.17390820130248, 25.29810843965282], [67.18449176937969, 25.35687253164207], [67.1860037078049, 25.384194943541843], [67.211706659235, 25.42789794443462], [67.21926635136106, 25.44837827283908], [67.23740961156437, 25.47022011816398], [67.27520806949684, 25.49205799837796], [67.28579163847337, 25.5029754496573], [67.29032745284974, 25.522078603045145], [67.29939908250174, 25.528900420318166], [67.33114978763263, 25.535721850882737], [67.34022141818394, 25.554819790900694], [67.34778110941073, 25.590279317236764], [67.39616313631973, 25.640722834890994], [67.41279445809784, 25.680244752693227], [67.42791384145067, 25.691145044008636], [67.4566406697312, 25.72111570482599], [67.45966454658162, 25.764695910487944], [67.44908097760509, 25.853168948887912], [67.45966454658162, 25.883098694149453], [67.46268842343204, 25.990511129285267], [67.45966454658162, 26.025840619948724], [67.3991870131702, 26.099183263696716], [67.38709150576841, 26.13855201526337], [67.36592436961405, 26.18062117822484], [67.34929304783594, 26.22810037483248], [67.31300652832869, 26.276915904645307], [67.29486326812537, 26.31351408330835], [67.2570648101929, 26.358229495095145], [67.23740961156437, 26.390738938451307], [67.22229022731221, 26.44354726569378], [67.21019472170912, 26.457083966352002], [67.1996111536319, 26.534212755913984], [67.19053952308059, 26.54909129722563], [67.17542013972775, 26.595067313006155], [67.17542013972775, 26.620751751891873], [67.18449176937969, 26.645079057152827], [67.1980992152067, 26.66534785242152], [67.202635029583, 26.709926527687173], [67.202635029583, 26.906943794420613], [67.2086827832839, 26.921773679711578], [67.22380216573742, 26.94064526126982], [67.23136185786353, 26.974336654812817], [67.23136185786353, 27.07400407183053], [67.20112309205712, 27.133223817924886], [67.20112309205712, 27.23543860330892], [67.21775441293585, 27.25828961117668], [67.23438573471395, 27.29054186641406], [67.23136185786353, 27.372474183237046], [67.23892154998958, 27.431535280828598], [67.260088686144, 27.462395560906486], [67.28881551532385, 27.48385848767913], [67.30998265057895, 27.510681265927758], [67.32207815798068, 27.55224365102373], [67.34173335660915, 27.56564751821844], [67.35836467748794, 27.58843033589136], [67.37953181454168, 27.635321231989337], [67.40221089002063, 27.64335765563135], [67.42791384145067, 27.67951425367994], [67.42942577987588, 27.74510121694766], [67.45210485535483, 27.75045351231978], [67.46420036095793, 27.833380445151477], [67.48234362206057, 27.838728396798103], [67.50955851191583, 27.838728396798103], [67.53677340177114, 27.83070637040271], [67.58364348935561, 27.825358023953697], [67.60632256483456, 27.826695135072498], [67.65621653016876, 27.85744415102681], [67.69099111125087, 27.86412756623423], [67.83916106792901, 27.861454249613985], [67.86335208093385, 27.90689166142107], [67.95860419542731, 27.929603214117094], [67.98430714775674, 27.942960723058945], [68.03268917466573, 28.003049065861774], [68.18085913134388, 28.101788161294678], [68.24133666385603, 28.15645588902811], [68.29123062919024, 28.187110936620456], [68.31693358062029, 28.199103997751365], [68.40613794231223, 28.207098624501953], [68.43184089464165, 28.224418263092446], [68.44393640114407, 28.24839466278354], [68.44544833956928, 28.27103409165005], [68.4575438460717, 28.279023330562325], [68.46963935347344, 28.304318631000058], [68.47115129189865, 28.32295342645949], [68.48778261277744, 28.3269461726278], [68.52860494845964, 28.368195759127047], [68.56942728234327, 28.373517118720088], [68.66467939773605, 28.37484741747437], [68.79319415578573, 28.382828856566505], [68.85518362762235, 28.382828856566505], [68.95799543424198, 28.388149483212146], [69.00032970745008, 28.396129921358806], [69.08046243949002, 28.400119914702373], [69.36621878386984, 28.400119914702373], [69.40401724270163, 28.41208899541084], [69.40250530517574, 28.428045663776402], [69.381338168122, 28.437352610934283], [69.37226653757068, 28.451976157573654], [69.37075459914547, 28.475901236552886], [69.35865909264305, 28.49450588673733], [69.34051583243979, 28.505135642196194], [69.34051583243979, 28.52373513926534], [69.35865909264305, 28.535690226522775], [69.39192173619921, 28.543659531062588], [69.43274407098215, 28.562252229257012], [69.44786345433499, 28.58216933384773], [69.44786345433499, 28.60871960672455], [69.47205446733983, 28.631282063516494], [69.4735664057651, 28.66445333865073], [69.49019772754315, 28.688330157310986], [69.53555587760172, 28.713527561148055], [69.55521107623025, 28.73341596117774], [69.55369913780504, 28.759927940921784], [69.53706781602693, 28.77980750870961], [69.49926935809447, 28.804982856673575], [69.49170966596836, 28.82220459146879], [69.49170966596836, 28.836774604164702], [69.50229323404557, 28.864584418036486], [69.52043649424888, 28.888415480989693], [69.55672301465546, 28.91356455975665], [69.58847371888709, 28.944000025281014], [69.59603341101314, 28.97045838294804], [69.61871248559277, 28.987652688420894], [69.62778411614408, 29.011455470393685], [69.70035715605798, 29.06829547185862], [69.70489297043429, 29.094722010612372], [69.72606010748802, 29.115858360275183], [69.73664367556523, 29.155477310429603], [69.73361979871481, 29.183201486359565], [69.75327499734328, 29.204319640938706], [69.76385856542049, 29.225433444597854], [69.76234662699528, 29.250500435047115], [69.73210786118892, 29.26896691968767], [69.68372583338055, 29.26369112154805], [69.66558257407661, 29.276880107431055], [69.64743931387329, 29.307208313512888], [69.64139156107171, 29.374425670308483], [69.62324830086845, 29.38496554662271], [69.61871248559277, 29.398138855523825], [69.58696178046188, 29.398138855523825], [69.57335433643351, 29.406042023020973], [69.56881852025856, 29.42184651260652], [69.56730658273267, 29.444231999906947], [69.5718423980083, 29.462663400195822], [69.58393790451072, 29.473194125908208], [69.5899856573123, 29.486355994533596], [69.59603341101314, 29.53109355842105], [69.59300953416272, 29.57581134261943], [69.59452147258793, 29.599477449224935], [69.60812891751561, 29.6073649172572], [69.62173636244324, 29.620509328242974], [69.62173636244324, 29.634966199030885], [69.63534380737087, 29.65599067123253], [69.66558257407661, 29.667815006057708], [69.71698847783603, 29.677010752044623], [69.74117949174018, 29.695399717822795], [69.79107345527581, 29.78073295945859], [69.81375253075475, 29.805662803295775], [69.81980028355628, 29.830586434616293], [69.87423006416617, 29.889591289506484], [69.87423006416617, 29.926287808135896], [69.8938852627947, 29.9393904312235], [69.90144495402149, 29.962970801861047], [69.90598076929712, 30.00880551076574], [69.94982698093048, 30.025824441244993], [69.95738667215727, 30.05069300707669], [69.95889861058248, 30.137030024316232], [70.02693583612, 30.20761327823027], [70.02992584540152, 30.227683146160302], [70.02125578552614, 30.248549290017763], [70.00701211791494, 30.260852887950477], [69.96366182123614, 30.27422461517392], [69.94446383343922, 30.28599022876608], [69.93579377446315, 30.310586498767975], [69.94136738309828, 30.329296917318914], [69.95932679219777, 30.336780084333498], [69.95889861058248, 30.368197294769402], [69.96343442585811, 30.382545653359273], [69.98006574763622, 30.39167533065205], [69.99064931571343, 30.409932124867737], [69.99367319256385, 30.441221543439553], [69.99972094626469, 30.459469069242175], [70.01181645276716, 30.46598521414637], [70.02693583612, 30.511586023776033], [70.036007465772, 30.527215667169344], [70.04961491069963, 30.535029545477187], [70.06624623247768, 30.563675056158957], [70.07229398527926, 30.589709093000295], [70.06775817090295, 30.639154498980986], [70.05112684912484, 30.66516825161358], [70.04507909542394, 30.680773142966245], [70.05566266440047, 30.695075412200538], [70.08892530795663, 30.708075635781995], [70.10706856726063, 30.71847455325809], [70.13730733486568, 30.743167488688698], [70.15545059416962, 30.748365195097733], [70.16905803909731, 30.75616122905751], [70.18115354559973, 30.78214344876119], [70.18720129930057, 30.806820058798735], [70.2189520035322, 30.83927962845212], [70.22651169655762, 30.861345868117382], [70.22651169655762, 30.90027390331801], [70.22197588128194, 30.93918611494729], [70.22499975813241, 30.984563681368854], [70.24465495586156, 31.002708670069126], [70.24919077113725, 31.05323721322685], [70.25372658641288, 31.236986175671518], [70.25070270956246, 31.35067982041744], [70.25221464798767, 31.411346340960904], [70.22953557250872, 31.42553922925208], [70.21441618915588, 31.42811952359716], [70.18568936087536, 31.415217341407242], [70.16452222472094, 31.39844185200991], [70.10706856726063, 31.382954123434104], [70.08287755425579, 31.353262172411405], [70.08136561583058, 31.33130992001685], [70.06775817090295, 31.319686064760106], [70.05415072597526, 31.31581112798125], [70.03298358892152, 31.34938861789044], [70.03298358892152, 31.39973238094467], [70.02844777454521, 31.42940964334042], [70.00425676064106, 31.43843998961387], [69.97704187078574, 31.43843998961387], [69.95889861058248, 31.450049158042248], [69.94982698093048, 31.46294654504709], [69.94680310408006, 31.484868027137793], [69.95738667215727, 31.502917157101194], [69.97401799483464, 31.511940415817605], [69.97704187078574, 31.598261796544705], [69.94831504250527, 31.636887260238893], [69.9437792281289, 31.67807008106945], [69.94529116655417, 31.708945215249514], [69.94982698093048, 31.73209482231823], [69.96645830270853, 31.741095886665903], [69.98308962448664, 31.764237461889422], [69.98460156201253, 31.79379883225033], [69.95133891935569, 31.80793353890175], [69.92261209107522, 31.80793353890175], [69.907492706823, 31.814357690355166], [69.89993301559628, 31.904248875085557], [69.88632557156791, 31.90938286632627], [69.86213455766375, 31.90938286632627], [69.84399129746049, 31.915799952705697], [69.84399129746049, 31.935048524669753], [69.86667037293944, 31.96198975622235], [69.86969424889054, 31.983793536842313], [69.8455032358857, 31.99918132285984], [69.81224059232954, 32.009438411853296], [69.78653764089944, 32.004310010798406], [69.77293019597181, 31.990205427838248], [69.73059592276365, 31.985075951194233], [69.69884521763277, 31.986358347559758], [69.68221389585466, 31.974816137255004], [69.67465420372855, 31.950444481927377], [69.67314226620266, 31.922216590323444], [69.64139156107171, 31.90168177199621], [69.62627217681955, 31.882426217695865], [69.58847371888709, 31.881142371623184], [69.57789015080988, 31.863166637130632], [69.52799618637493, 31.85931423826156], [69.381338168122, 31.85931423826156], [69.35412327736742, 31.87985850666479], [69.34051583243979, 31.913233171573665], [69.31783675786016, 31.924783120544646], [69.30563572131155, 31.92737195305324], [69.27276209569419, 31.915479108773923], [69.21842681224763, 31.869346190974], [69.12629306996928, 31.760943354951905], [69.09321941894109, 31.738845702866968], [69.07432018952517, 31.70468441445422], [69.02470971298294, 31.664478551444063], [68.93021356770203, 31.620231994910682], [68.89477751277207, 31.61419674268558], [68.84516703622978, 31.61419674268558], [68.80264377049366, 31.61822028793597], [68.7672077155637, 31.64436909086089], [68.72232204682507, 31.702674534901917], [68.63727551535283, 31.797091770069187], [68.6183762859369, 31.815160677923018], [68.58766503881054, 31.831218962485195], [68.54277937007191, 31.83924705750576], [68.51206812204623, 31.82519743301515], [68.48844408572603, 31.805122831953156], [68.47663206801559, 31.78102755178014], [68.44828322389174, 31.766969071665358], [68.33488784919496, 31.766969071665358], [68.30890140897293, 31.76897755636918], [68.27346535404291, 31.785043868279956], [68.25692852852882, 31.805122831953156], [68.20495564808476, 31.84125397199324], [68.1813316117645, 31.84125397199324], [68.16006997934613, 31.83322605144116], [68.14117074993021, 31.805122831953156], [68.14117074993021, 31.78102755178014], [68.12699632831794, 31.744872857596363], [68.10100988809592, 31.72076188335427], [68.06793623706773, 31.700664612182152], [68.0254129713316, 31.656435289357148], [67.98761451339914, 31.652413397060684], [67.91201759663483, 31.65040238526194], [67.87894394560664, 31.64436909086089], [67.8624071200926, 31.620231994910682], [67.80570943184483, 31.57998958794917], [67.76791097391236, 31.54375655921791], [67.68050203943761, 31.54174320108791], [67.63325396589784, 31.549796374603034], [67.60254271877153, 31.545769875079714], [67.57655627854945, 31.5336893314975], [67.57655627854945, 31.515565586582625], [67.60254271877153, 31.479307549503858], [67.5978179118672, 31.465203405412865], [67.6001803148697, 31.439004358264583], [67.6214419481874, 31.422878226149294], [67.65924040611992, 31.41481411957602], [67.76082376310626, 31.416830210745673], [67.79625981803622, 31.41481411957602], [67.81279664355031, 31.38053393539286], [67.81279664355031, 31.356328623167485], [67.79389741413439, 31.338170548432117], [67.72302530427442, 31.317990799535835], [67.67577723163402, 31.299825327876647], [67.640341176704, 31.277618327224047], [67.60962992957764, 31.265503213702402], [67.53167060981087, 31.25338654525291], [67.47733532546494, 31.23520862517796], [67.32614149193637, 31.23318863994382], [67.1725852554053, 31.237228566345323], [67.14423641128138, 31.241268320076983], [67.1395116043771, 31.251366948525913], [67.09698833864098, 31.26348387687949], [67.07100189841896, 31.267522507357853], [67.07336430232073, 31.338170548432117], [66.99068017475031, 31.334134945071696], [66.88909681776397, 31.287713067004518], [66.79696307548562, 31.231168612441536], [66.75207740674699, 31.1988422917384], [66.73317817733107, 31.174590300202226], [66.73081577342924, 31.111910575312834], [66.6056083801227, 30.99452765162988], [66.48748819852159, 30.972249046056675], [66.4544145474934, 30.958069043251783], [66.43551531807753, 30.937808244754763], [66.42134089646527, 30.901327983399767], [66.40480407095117, 30.885110070073722], [66.39062964843959, 30.80803749083759], [66.37645522682732, 30.797891754101215], [66.36700561211939, 30.757298098028855], [66.36464320821756, 30.718718265035932], [66.35519359350957, 30.706531950389262], [66.3410191718973, 30.678091231525173], [66.3339319610912, 30.637447101902296], [66.31975753947893, 30.613052423030922], [66.31030792477094, 30.57848277226219], [66.31267032867277, 30.54390079178819], [66.32920715418686, 30.521517650818964], [66.35283119050712, 30.499129353137164], [66.36464320821756, 30.466555356444587], [66.37173041902366, 30.395261755925333], [66.35991840131322, 30.274963271537786], [66.35046878660529, 30.250477705381854], [66.3339319610912, 30.221903497448523], [66.2772342737428, 30.146345987177597], [66.26069744822871, 30.080952246848767], [66.27959667764463, 30.05232887837508], [66.29849590616118, 30.040059186682186], [66.33156955718937, 30.025742626321176], [66.37881763072915, 29.980734262176497], [66.38118003373165, 29.96640913937034], [66.37645522682732, 29.947988088479576], [66.30558311696734, 29.880415048915438], [66.27250946593915, 29.870172710602162], [66.22998620110235, 29.851733851336235], [65.93232334184881, 29.779994810312303], [65.51890270309735, 29.671263509503433], [65.32518560473193, 29.630202232047395], [65.13383090936901, 29.572688316412723], [65.07949562502313, 29.56446936546888], [64.94247621400615, 29.59528697991027], [64.87160410504549, 29.605557427433382], [64.77710795886526, 29.61377303199987], [64.62118931843236, 29.605557427433382], [64.43455942997377, 29.580906597361604], [64.34242568769537, 29.55213968629755], [64.25501675322062, 29.51514162138875], [64.16760781784654, 29.46373297739507], [64.11563493830181, 29.43699017675533], [64.02586359992523, 29.46990339142843], [63.93609226064939, 29.488412381626176], [63.84632092227281, 29.50280592575291], [63.78017362021643, 29.506917991272303], [63.704576703452176, 29.519253185985804], [63.640791805297624, 29.52130890578144], [63.527396430600845, 29.51102989041715], [63.35257856075202, 29.508973961978825], [63.080902141720514, 29.478130027079146], [62.99585561024827, 29.4760734304445], [62.910809078776026, 29.459619159096974], [62.64858227445245, 29.4308177599317], [62.50683805563182, 29.42464496899015], [62.3154833602689, 29.494581293791725], [61.91151233712469, 29.599395284464833], [61.76976811830406, 29.630202232047395], [61.39650834228621, 29.736926690314533], [61.257126527367404, 29.76974217476163], [61.122469519352876, 29.808696603265673], [60.990174915240175, 29.83943938691823], [60.87688104972074, 29.860737626240507], [60.88150434744773, 29.835340894866476], [60.93583963089429, 29.76359008981086], [61.032698180976354, 29.689735617604697], [61.11538230854677, 29.601449373789592], [61.30673700390963, 29.416413996808558], [61.32799863632806, 29.364955319932108], [61.33036104022989, 29.315530512023543], [61.337448251035994, 29.272264155366543], [61.368159498162356, 29.20217502675615], [61.41540757170213, 29.15679767886985], [61.4532060296346, 29.12997436192734], [61.493366891468895, 29.10933627804684], [61.52171573559281, 29.072177294746382], [61.57605101903937, 28.923407440800815], [61.6091246700675, 28.875838656428925], [61.63038630338525, 28.830317690409117], [61.70598321925024, 28.74750128785422], [61.78866734682066, 28.670837604272094], [61.92332435483519, 28.56507404822878], [61.984746849987175, 28.538097683761123], [62.04853174814173, 28.517341932584145], [62.10050462858578, 28.513190291498802], [62.150115105128066, 28.498658262568824], [62.218624811086215, 28.469588200834835], [62.27059769063095, 28.465434681065744], [62.3154833602689, 28.450896078990922], [62.400529891741144, 28.450896078990922], [62.4477779643816, 28.43220065213842], [62.499750844825655, 28.390643434546917], [62.51392526643792, 28.36778001693426], [62.56117333907838, 28.319958769481673], [62.58715977930041, 28.284598798096113], [62.634407851940864, 28.25547000073999], [62.665119099966546, 28.25547000073999], [62.75016563053947, 28.27627709691052], [62.811588125691515, 28.26587405694221], [62.81395052959334, 28.118041389198822], [62.80450091488535, 28.103455272343012], [62.78560168546949, 28.05968502554356], [62.78087687856515, 27.980436409812512], [62.79268889627559, 27.949138012409378], [62.79268889627559, 27.91574305429856], [62.80922572178969, 27.857277060587933], [62.83993696981537, 27.823853753148228], [62.8493865845233, 27.729795543529576], [62.85174898752581, 27.671229422899614], [62.86119860223374, 27.602164748004782], [62.858836198331915, 27.48696020624857], [62.83757456591354, 27.451327105361656], [62.81395052959334, 27.424070493258682], [62.802138510983525, 27.39051465542707], [62.79505130017742, 27.34016180292491], [62.80450091488535, 27.287686575575037], [62.83284975810989, 27.26458961571825], [62.898997061065586, 27.24568853279959], [62.98876839944211, 27.243588214724355], [63.09035175552913, 27.27508882918619], [63.137599829068904, 27.27928823686267], [63.21792155273755, 27.298183606388363], [63.27225683618411, 27.27718855280949], [63.31241769891773, 27.24568853279959], [63.34076654214226, 27.1700521043212], [63.31714250582206, 27.15533906254774], [63.28406885479387, 27.142726341547473], [63.26280722237544, 27.11539389591161], [63.25099520376568, 26.91124129115269], [63.22264635964183, 26.902814673258604], [63.22028395663932, 26.795320210059685], [63.20374713112528, 26.77634000838475], [63.180123094805026, 26.66239221073198], [63.07381493001509, 26.660280991074956], [63.01947964656847, 26.675058707593337], [62.922621097385786, 26.675058707593337], [62.86119860223374, 26.68139142947092], [62.811588125691515, 26.67294772265933], [62.790326493273085, 26.658169732747012], [62.74071601673086, 26.637054997390294], [62.68401832848315, 26.618048398814608], [62.641495063646346, 26.613824281365567], [62.51156286253615, 26.613824281365567], [62.4477779643816, 26.605375577021334], [62.376905855420944, 26.57580019971948], [62.32493297497689, 26.54833051034484], [62.28004730533894, 26.503942494050932], [62.26587288372667, 26.482799312238512], [62.25642326901868, 26.461652243556273], [62.25642326901868, 26.383374319169548], [62.24697365431075, 26.360092261748548], [62.22334961799055, 26.353741796246936], [62.21153759938079, 26.305043309601103], [62.19972558167029, 26.27750902192389], [62.143027894321904, 26.279627276077974], [62.12649106880781, 26.29868982417611], [62.119403858001704, 26.330453770924862], [62.050894152043554, 26.355858656451858], [62.01309569321171, 26.345273965121464], [61.95403560286081, 26.31351408330835], [61.92568675873696, 26.31139644788783], [61.890250703807, 26.302925519497194], [61.86898907138857, 26.29233598981415], [61.817016190944514, 26.25208695664776], [61.80284176933225, 26.22030155027636], [61.79102975072249, 26.20546538681822], [61.78630494381815, 26.08670806972168], [61.77449292520839, 26.04851043600786], [61.76268090749795, 25.96995398978487], [61.76268090749795, 25.927469180858054], [61.739056870278375, 25.89347030191294], [61.7414192741802, 25.861587455796496], [61.75323129278996, 25.844579753353003], [61.78630494381815, 25.840327445755065], [61.793392154624314, 25.812683719578047], [61.78630494381815, 25.776524497307776], [61.69653360544157, 25.765887333233877], [61.639835917193864, 25.75099370219766], [61.639835917193864, 25.70843018190743], [61.63038630338525, 25.616867068460465], [61.62802389948342, 25.555075545500074], [61.62329909167977, 25.520970020450136], [61.613849477871156, 25.50817794855351], [61.6069512586937, 25.438821219723536], [61.6069512586937, 25.315877336370022], [61.58880799849038, 25.300842286042723], [61.58880799849038, 25.24205101654121], [61.67045266895559, 25.237948238320598], [61.69464368196043, 25.22837454864657], [61.70069143566127, 25.216064411743275], [61.73697795516853, 25.195544749690498], [61.75058540009621, 25.175021629744492], [61.744537647294635, 25.143546134246776], [61.73697795516853, 25.123014263897232], [61.72185857181569, 25.103848070731942], [61.69615562038564, 25.090156093129224], [61.68557205230843, 25.080570797704183], [61.68859592915885, 25.050440696980615], [61.71883469586459, 25.040852292599254], [61.755121215371844, 25.039482459647843], [61.81408681035805, 25.054549783046127], [61.829206193710945, 25.073723697790456], [61.839789761788154, 25.098371463872013], [61.857933021991414, 25.128489766389634], [61.99400747216714, 25.1339650242665], [62.051461128728135, 25.139440036628457], [62.05750888242903, 25.164074552998272], [62.05448500557861, 25.202385021951272], [62.07414020420714, 25.22016792920664], [62.0953073403615, 25.22974226459388], [62.122522230216816, 25.255725945695872], [62.149737120072075, 25.258460747165827], [62.26918024846975, 25.191440403052184], [62.2858115702478, 25.164074552998272], [62.28732350867307, 25.14765209426878], [62.27825187902107, 25.13533380051456], [62.27069218689496, 25.11480054880633], [62.27220412532017, 25.101109797878905], [62.30244289202591, 25.08741751360742], [62.33116972030638, 25.08741751360742], [62.3598965485869, 25.09563306781189], [62.37199205508932, 25.117538514990542], [62.36745624071301, 25.13533380051456], [62.349312980509694, 25.143546134246776], [62.341753288383586, 25.158600645903164], [62.346289103659274, 25.191440403052184], [62.37199205508932, 25.227006817410768], [62.38711143844216, 25.23247765062314], [62.40525469864548, 25.23384532070503], [62.50655456683984, 25.278969791822476], [62.57307985395215, 25.280336938498976], [62.613902188735096, 25.276235452604112], [62.64565289386604, 25.258460747165827], [62.67891553742214, 25.248888673573504], [62.70159461200177, 25.248888673573504], [62.76056020698803, 25.225639070886473], [62.86941976730844, 25.224271308174366], [62.90117047154007, 25.23384532070503], [62.91024210209139, 25.248888673573504], [62.946528621598645, 25.248888673573504], [63.00549421658491, 25.20648900076685], [63.047828490692325, 25.207856962229073], [63.08109113334916, 25.217432267085485], [63.118889592181006, 25.24752117346344], [63.147616420461475, 25.262562832908486], [63.17331937189158, 25.262562832908486], [63.19751038489642, 25.258460747165827], [63.25345210393152, 25.225639070886473], [63.27915505536157, 25.22153573778411], [63.38952655320793, 25.22153573778411], [63.419765319913665, 25.20922490930218], [63.434884703266505, 25.198280904640114], [63.50140999037882, 25.202385021951272], [63.50896968160555, 25.257093354075096], [63.522577126533236, 25.285805369622153], [63.56491140064071, 25.303576069480073], [63.60119792014797, 25.3459418378456], [63.626900871578016, 25.359605051531958], [63.6737709600618, 25.370534510559253], [63.81891703988953, 25.369168381915358], [63.853691621870894, 25.355506249214102], [63.912657216857156, 25.317244066660407], [63.95045567478962, 25.315877336370022], [64.00639739382473, 25.321344164901348], [64.0351242221052, 25.335010155694192], [64.0517555438833, 25.336376670147274], [64.16212704172966, 25.336376670147274], [64.18480611720861, 25.32544412374739], [64.21504488301497, 25.32544412374739], [64.26796272519965, 25.307676630871867], [64.29215373820449, 25.295374532109008], [64.38287003832164, 25.237948238320598], [64.4161326818778, 25.224271308174366], [64.46451470878685, 25.214696542011836], [64.506848981995, 25.22016792920664], [64.53255193342505, 25.231109965252756], [64.56127876170552, 25.248888673573504], [64.58546977471042, 25.25299108307206], [64.60966078861458, 25.25299108307206], [64.63687567846983, 25.23247765062314], [64.64443536969662, 25.20512102311676], [64.64141149374552, 25.188704094318553], [64.62931598634373, 25.17228495318807], [64.62780404881784, 25.151757916694578], [64.65653087709836, 25.14217745062888], [64.6973532118813, 25.13807130624582], [64.72608004016178, 25.153126493293087], [64.73363973138856, 25.177758246046267], [64.72003228646093, 25.190072256329643], [64.69130545818041, 25.207856962229073], [64.69130545818041, 25.23247765062314], [64.70642484153325, 25.257093354075096], [64.73212779296335, 25.285805369622153], [64.75178299159182, 25.302209185405616], [64.80470083377651, 25.309043453792412], [64.8802977496415, 25.315877336370022], [64.96950211133344, 25.317244066660407], [65.01939607666765, 25.311777052868763], [65.04358708967249, 25.300842286042723], [65.0617303498758, 25.285805369622153], [65.08894523973106, 25.278969791822476], [65.24013907325968, 25.28307118508718], [65.25677039503773, 25.302209185405616], [65.26281814783931, 25.3227108331385], [65.28852110016868, 25.324077486087162], [65.36411801693299, 25.34730822909154], [65.53950286346645, 25.34457543131117], [65.5591580611956, 25.34184257327621], [65.56974163017213, 25.309043453792412], [65.60451621125418, 25.300842286042723], [65.6816250664437, 25.29810843965282], [65.73303097020317, 25.304942939165358], [65.74361453828038, 25.315877336370022], [65.78594881148854, 25.324077486087162], [65.8131637013438, 25.340476119976984], [65.87364123475521, 25.356872532541388], [65.91143969358706, 25.352773637593373], [65.99762017842852, 25.354139951497586], [66.02332312985862, 25.370534510559253], [66.04902608128867, 25.381462980332344], [66.09740810819767, 25.380096975794856], [66.2002199148173, 25.397853832388478], [66.27128101630592, 25.414242457723276], [66.3166391663645, 25.412876823706483], [66.40281965120602, 25.391024581319414], [66.42852260353538, 25.391024581319414], [66.44666586283938, 25.366436078762092], [66.47236881516875, 25.355506249214102], [66.5071433962508, 25.359605051531958], [66.51319114995164, 25.380096975794856], [66.50260758187449, 25.396488013111366], [66.46783299989306, 25.412876823706483], [66.45573749339064, 25.412876823706483], [66.42852260353538, 25.42107039398354], [66.41037934333207, 25.4374558644966], [66.3846763910027, 25.452473921234514], [66.35594956272217, 25.462029890666997], [66.29244815335966, 25.45929969102798], [66.24557806487587, 25.44018655966204], [66.21685123659535, 25.422435935370174], [66.19870797639203, 25.418339266244175], [66.16695727126114, 25.422435935370174], [66.16090951845956, 25.452473921234514], [66.16695727126114, 25.477044881616052], [66.18358859303919, 25.500246179917326], [66.22289898939692, 25.513891908984476], [66.26523326350434, 25.516620869357666], [66.34536599464496, 25.531629038949063], [66.38770026785312, 25.53026473772752], [66.42398678825975, 25.515256397264977], [66.48900013604748, 25.477044881616052], [66.52982247172974, 25.464760028252726], [66.60239551164358, 25.41697367899212], [66.61449101814605, 25.337743169311864], [66.60088357321837, 25.29127355523042], [66.61146714129558, 25.27076658980633], [66.63868203115089, 25.251623628827474], [66.69462374928668, 25.22016792920664], [66.72032670161605, 25.20922490930218], [66.75812515954851, 25.1845995165545], [66.76568485167462, 25.13533380051456], [66.7626609748242, 25.101109797878905], [66.75056546832178, 25.069615254740256], [66.72335057846647, 25.05318010297941], [66.72032670161605, 25.021673235531466], [66.70369537983794, 24.94766881486396], [66.68992751384377, 24.914246073097843]]]}}, {"type": "Feature", "properties": {"name": "Sindh", "country": "PAK"}, "geometry": {"type": "Polygon", "coordinates": [[[66.68992751384377, 24.914246073097843], [66.67194467470705, 24.87773489395022], [66.67648048998268, 24.853042874029484], [66.70218344141273, 24.83520668284217], [66.73242220811846, 24.832462425000983], [66.82767432261193, 24.83520668284217], [66.88210410322182, 24.821484785694338], [66.95770101998613, 24.781682692202537], [66.99398753949339, 24.781682692202537], [67.02573824462434, 24.785800742710137], [67.05144119605438, 24.80089909092038], [67.08016802433491, 24.781682692202537], [67.09679934611302, 24.75971744910106], [67.14518137302201, 24.719895547141846], [67.17239626287727, 24.71714873882331], [67.18297983095448, 24.693798423758324], [67.16634851007575, 24.64708466622443], [67.16483657165054, 24.53159931205863], [67.18902758465538, 24.495832277837394], [67.25706480929358, 24.41050061181386], [67.26764837827011, 24.389847177405386], [67.27823194634732, 24.33062196163428], [67.29486326812537, 24.30857759887715], [67.30242295935216, 24.22587713692036], [67.31603040427979, 24.154159922442545], [67.34626917098552, 24.07273969488108], [67.3734840617401, 24.02303413931412], [67.41884221089936, 23.9594935096178], [67.46268842253272, 23.906979790385094], [67.5670121675775, 23.830935298125553], [67.6305135778394, 23.80188835526343], [67.70157467932802, 23.80188835526343], [67.73483732288418, 23.792204597564194], [67.75902833588907, 23.779752990108477], [67.79985067157128, 23.76868389424635], [67.82404168457612, 23.76868389424635], [67.84369688320464, 23.78943767680738], [67.85579238970706, 23.841999089786214], [67.86637595778427, 23.86688916919985], [67.8860311564128, 23.86412384114243], [67.89056697078911, 23.833701334848797], [67.90266247819085, 23.803271690636052], [67.95255644262579, 23.764532740593552], [67.98884296303237, 23.741007034347206], [68.0175697913129, 23.731318744064822], [68.04024886589252, 23.738239025410735], [68.04629661959336, 23.756230035787553], [68.04629661959336, 23.808804883738446], [68.05083243486905, 23.833701334848797], [68.05839212609578, 23.84891348057272], [68.07199957102341, 23.84753063173332], [68.07955926314952, 23.82955225773054], [68.11735772108204, 23.825403048412], [68.14759648778772, 23.828169202946412], [68.16725168641625, 23.843381997980885], [68.19446657627151, 23.84891348057272], [68.21563371242593, 23.86688916919985], [68.24738441755687, 23.869654438801376], [68.26855155461061, 23.879332415658496], [68.27459930741219, 23.893156841814857], [68.28518287638872, 23.90145078812344], [68.3320529648725, 23.908362004303115], [68.33961265609923, 23.941530693886477], [68.36077979315297, 23.962256797113525], [68.37892305245697, 23.967783195837853], [68.39555437423502, 23.958111843386916], [68.39706631266023, 23.944294367191333], [68.43032895621639, 23.937385073762186], [68.69189428759137, 23.941530693886477], [68.75388375942799, 23.94567618091105], [68.75690763627847, 23.96916475864674], [68.75085988257757, 24.23414960382121], [68.75993151312889, 24.276882116616434], [68.82040904564099, 24.275503872305933], [68.8385523058443, 24.26034220283043], [68.83704036741909, 24.21898300336295], [68.85971944289804, 24.209330590634295], [68.8778627031013, 24.2134674288788], [68.88844627117851, 24.22863468584211], [68.8960059624053, 24.250692925138424], [68.90810146980704, 24.26447738272509], [68.92775666753624, 24.271369051240754], [68.94136411246387, 24.26309900441555], [68.94892380458998, 24.242421533826757], [68.9700909407444, 24.21898300336295], [69.00788939957619, 24.21760413222495], [69.02452072135424, 24.221740701572173], [69.04266398065823, 24.231392174509324], [69.05929530243634, 24.24655729648208], [69.0834863163405, 24.256206888037525], [69.13338028077538, 24.236906973777877], [69.2089771975397, 24.22863468584211], [69.24223984109585, 24.238285636273133], [69.25433534759827, 24.25344993626561], [69.30271737450727, 24.257585340990772], [69.44635151590978, 24.25344993626561], [69.47205446733983, 24.236906973777877], [69.53404393917651, 24.239664283479954], [69.58242596608551, 24.26999074757498], [69.60056922628883, 24.271369051240754], [69.62022442401803, 24.257585340990772], [69.64139156107171, 24.22587713692036], [69.68070195742945, 24.196919270108253], [69.69582134078229, 24.169334234587325], [69.72757204591323, 24.15829855033786], [70.03147165049631, 24.154159922442545], [70.06473429405247, 24.161057560657923], [70.0783417389801, 24.176231052621006], [70.09194918390779, 24.20657262352779], [70.09950887603384, 24.23552829599413], [70.12823570431436, 24.2782603456385], [70.18568936087536, 24.2865294059074], [70.2068564979291, 24.29893198592248], [70.27640566099251, 24.31408904907039], [70.30059667399735, 24.32786662594407], [70.3429309472055, 24.33062196163428], [70.38828909726408, 24.340265164405878], [70.45330244595118, 24.36368131434125], [70.50773222566175, 24.389847177405386], [70.55762619099596, 24.392601164112477], [70.58030526557559, 24.378830631628375], [70.58484108085128, 24.34302023029943], [70.57123363592359, 24.256206888037525], [70.5818172040008, 24.23414960382121], [70.62112760035853, 24.210709551704497], [70.68916482589606, 24.209330590634295], [70.77383337231231, 24.20105651124902], [70.85094222750183, 24.2134674288788], [70.89327650070999, 24.24655729648208], [70.9114197609133, 24.287907529708775], [70.94014658919377, 24.320978024116584], [70.97492117117514, 24.336132453150242], [71.05505390231582, 24.337510038257733], [71.07470910094429, 24.347152716724565], [71.08831654587198, 24.374699179423658], [71.10645980607524, 24.389847177405386], [71.10797174450045, 24.409123820807736], [71.1004120523744, 24.42013772527588], [71.0202793203344, 24.42839752252769], [70.99911218418004, 24.468312248911218], [70.99288299855158, 24.552669579537508], [71.00546232502631, 24.60986602459741], [71.06255311683293, 24.649448252734715], [71.0664236784101, 24.665277632856544], [71.05771491351248, 24.708358545710382], [71.0306209788751, 24.73912150565303], [71.0228798548215, 24.777784144622615], [70.95375403412146, 24.880478147248766], [70.91897945214004, 24.939443352828505], [70.91444363776372, 24.976453603551022], [70.89327650070999, 25.02030318854139], [70.8857168094832, 25.118907475599542], [70.86908548770515, 25.146283456516358], [70.76778561951079, 25.22837454864657], [70.74208266718142, 25.254358522028213], [70.71789165417658, 25.281704068987665], [70.71637971575132, 25.304942939165358], [70.7042842092489, 25.33227708092261], [70.64985442953832, 25.380096975794856], [70.64229473741227, 25.411511174401255], [70.64229473741227, 25.606641710246777], [70.64078279898706, 25.654352561421604], [70.63624698371137, 25.684332478960812], [70.61054403228133, 25.707493612640178], [70.57879332715038, 25.710218155543487], [70.56216200537233, 25.707493612640178], [70.54553068449354, 25.69523239705751], [70.42911143204702, 25.687057551564806], [70.27640566099251, 25.692507511512474], [70.24767883271204, 25.70068198198794], [70.24163107901114, 25.73746015456254], [70.22953557250872, 25.755164106738164], [70.2008087442282, 25.78648001843817], [70.16905803909731, 25.805537830706385], [70.08892530795663, 25.883098694149453], [70.06171041720205, 25.929338835418946], [70.05868654125095, 25.986433966454456], [70.04356715789805, 26.00545951914154], [70.03751940419721, 26.047576560210132], [70.08892530795663, 26.137194692780895], [70.10404469130953, 26.156195769519172], [70.11765213623715, 26.184691581751167], [70.12521182746394, 26.215893287645144], [70.11916407376305, 26.248442670792656], [70.11916407376305, 26.274204468461505], [70.14486702609241, 26.32842113942411], [70.13730733396636, 26.52339078475694], [70.12823570431436, 26.546386251624256], [70.10555662883542, 26.566672541404728], [70.07531786212968, 26.573433839699987], [70.03751940419721, 26.597771210173278], [70.01181645276716, 26.60453067205293], [69.96948217955901, 26.596419269233934], [69.91958821422475, 26.573433839699987], [69.76990631912139, 26.580194739595584], [69.73361979961413, 26.60047504258921], [69.6549990059994, 26.66399671097946], [69.59452147258793, 26.68426214728032], [69.56428270588225, 26.705874641201774], [69.53404393917651, 26.712627705304385], [69.48566191226752, 26.73423481768276], [69.45693508398699, 26.75988793318163], [69.45542314556178, 26.91907748253982], [69.46600671453831, 26.99858821827172], [69.48263803631636, 27.024181417338582], [69.49624548124405, 27.060540671314982], [69.49775741966926, 27.102271949091232], [69.5219484326741, 27.148023858314446], [69.56125882903177, 27.185687840621426], [69.59300953416272, 27.23006121325443], [69.68674971113035, 27.303977542629525], [69.73966755241565, 27.356361135358156], [69.79863314740192, 27.387242416404433], [69.89690913964512, 27.49727069428718], [69.93621953600285, 27.548222171516045], [69.96041054900769, 27.56966835920747], [69.98308962448664, 27.596470200339525], [70.00274482221585, 27.629963288874706], [70.04356715789805, 27.74510121604834], [70.06927010932816, 27.77453558954585], [70.11141199147028, 27.833501127874797], [70.10555662883542, 27.850760323929876], [70.08590143110621, 27.874820173512262], [70.05415072597526, 27.877493160081315], [70.03449552734679, 27.886848095063613], [69.95889861058248, 27.948303264384208], [69.94529116655417, 28.005718881421274], [69.92714790545153, 28.017732234854805], [69.9105165845728, 28.037751512322473], [69.85911068081333, 28.068440502127544], [69.84247935903522, 28.10312185229168], [69.8394554821848, 28.217757196037837], [69.83491966780849, 28.245730885272167], [69.81677640760518, 28.26171255658926], [69.80770477795318, 28.276360317474712], [69.80619283952797, 28.305649795801514], [69.80014508582713, 28.333600414727414], [69.78956151774992, 28.35489119147536], [69.78956151774992, 28.382828856566505], [69.76990632002071, 28.396129921358806], [69.74722724454176, 28.39878993340875], [69.71547653941082, 28.42006763041684], [69.62778411614408, 28.422727041719668], [69.58393790451072, 28.461280999418648], [69.55672301465546, 28.470585021081888], [69.50985292527236, 28.470585021081888], [69.47205446733983, 28.46659768343642], [69.44635151590978, 28.440011587864547], [69.41913662605452, 28.42006763041684], [69.40326124561005, 28.42006763041684], [69.40401724270163, 28.41208899541084], [69.36621878386984, 28.400119914702373], [69.08046243949002, 28.400119914702373], [69.00032970745008, 28.396129921358806], [68.95799543424198, 28.388149483212146], [68.85518362762235, 28.382828856566505], [68.79319415578573, 28.382828856566505], [68.66467939773605, 28.37484741747437], [68.56942728234327, 28.373517118720088], [68.52860494845964, 28.368195759127047], [68.48778261277744, 28.3269461726278], [68.47115129189865, 28.32295342645949], [68.46963935347344, 28.304318631000058], [68.4575438460717, 28.279023330562325], [68.44544833956928, 28.27103409165005], [68.44393640114407, 28.24839466278354], [68.43184089464165, 28.224418263092446], [68.40613794231223, 28.207098624501953], [68.31693358062029, 28.199103997751365], [68.29123062919024, 28.187110936620456], [68.24133666385603, 28.15645588902811], [68.18085913134388, 28.101788161294678], [68.03268917466573, 28.003049065861774], [67.98430714775674, 27.942960723058945], [67.95860419542731, 27.929603214117094], [67.86335208093385, 27.90689166142107], [67.83916106792901, 27.861454249613985], [67.69099111125087, 27.86412756623423], [67.65621653016876, 27.85744415102681], [67.60632256483456, 27.826695135072498], [67.58364348935561, 27.825358023953697], [67.53677340177114, 27.83070637040271], [67.50955851191583, 27.838728396798103], [67.48234362206057, 27.838728396798103], [67.46420036095793, 27.833380445151477], [67.45210485535483, 27.75045351231978], [67.42942577987588, 27.74510121694766], [67.42791384145067, 27.67951425367994], [67.40221089002063, 27.64335765563135], [67.37953181454168, 27.635321231989337], [67.35836467748794, 27.58843033589136], [67.34173335660915, 27.56564751821844], [67.32207815798068, 27.55224365102373], [67.30998265057895, 27.510681265927758], [67.28881551532385, 27.48385848767913], [67.260088686144, 27.462395560906486], [67.23892154998958, 27.431535280828598], [67.23136185786353, 27.372474183237046], [67.23438573471395, 27.29054186641406], [67.21775441293585, 27.25828961117668], [67.20112309205712, 27.23543860330892], [67.20112309205712, 27.133223817924886], [67.23136185786353, 27.07400407183053], [67.23136185786353, 26.974336654812817], [67.22380216573742, 26.94064526126982], [67.2086827832839, 26.921773679711578], [67.202635029583, 26.906943794420613], [67.202635029583, 26.709926527687173], [67.1980992152067, 26.66534785242152], [67.18449176937969, 26.645079057152827], [67.17542013972775, 26.620751751891873], [67.17542013972775, 26.595067313006155], [67.19053952308059, 26.54909129722563], [67.1996111536319, 26.534212755913984], [67.21019472170912, 26.457083966352002], [67.22229022731221, 26.44354726569378], [67.23740961156437, 26.390738938451307], [67.2570648101929, 26.358229495095145], [67.29486326812537, 26.31351408330835], [67.31300652832869, 26.276915904645307], [67.34929304783594, 26.22810037483248], [67.36592436961405, 26.18062117822484], [67.38709150576841, 26.13855201526337], [67.3991870131702, 26.099183263696716], [67.45966454658162, 26.025840619948724], [67.46268842343204, 25.990511129285267], [67.45966454658162, 25.883098694149453], [67.44908097760509, 25.853168948887912], [67.45966454658162, 25.764695910487944], [67.4566406697312, 25.72111570482599], [67.42791384145067, 25.691145044008636], [67.41279445809784, 25.680244752693227], [67.39616313631973, 25.640722834890994], [67.34778110941073, 25.590279317236764], [67.34022141818394, 25.554819790900694], [67.33114978763263, 25.535721850882737], [67.29939908250174, 25.528900420318166], [67.29032745284974, 25.522078603045145], [67.28579163847337, 25.5029754496573], [67.27520806949684, 25.49205799837796], [67.23740961156437, 25.47022011816398], [67.21926635136106, 25.44837827283908], [67.211706659235, 25.42789794443462], [67.1860037078049, 25.384194943541843], [67.18449176937969, 25.35687253164207], [67.17390820130248, 25.29810843965282], [67.15727687952443, 25.280336937599657], [67.14971718829764, 25.24068343908948], [67.1361097424707, 25.22837454864657], [67.12250229844238, 25.199648958732496], [67.09831128453823, 25.187335917019027], [67.05900088818049, 25.158600645903164], [67.02573824462434, 25.124383162453057], [67.01515467654713, 25.097002273036537], [67.01364273812192, 25.06139795405238], [67.00457110846992, 25.028523242953327], [66.98642784826666, 25.00797207495134], [66.96526071121292, 24.99426938462443], [66.86849665829419, 24.98741746704252], [66.85640115089245, 24.97508305204127], [66.84884145966566, 24.95589372741364], [66.8246504457615, 24.94766881396464], [66.79743555590625, 24.94629794229627], [66.74905352989657, 24.920248473088634], [66.72032670161605, 24.910649912663416], [66.68992751384377, 24.914246073097843]]]}}, {"type": "Feature", "properties": {"name": "Punjab", "country": "PAK"}, "geometry": {"type": "Polygon", "coordinates": [[[69.40326124561005, 28.42006763041684], [69.41913662605452, 28.42006763041684], [69.44635151590978, 28.440011587864547], [69.47205446733983, 28.46659768343642], [69.50985292527236, 28.470585021081888], [69.55672301465546, 28.470585021081888], [69.58393790451072, 28.461280999418648], [69.62778411614408, 28.422727041719668], [69.71547653941082, 28.42006763041684], [69.74722724454176, 28.39878993340875], [69.76990632002071, 28.396129921358806], [69.78956151774992, 28.382828856566505], [69.78956151774992, 28.35489119147536], [69.80014508582713, 28.333600414727414], [69.80619283952797, 28.305649795801514], [69.80770477795318, 28.276360317474712], [69.81677640760518, 28.26171255658926], [69.83491966780849, 28.245730885272167], [69.8394554821848, 28.217757196037837], [69.84247935903522, 28.10312185229168], [69.85911068081333, 28.068440502127544], [69.9105165845728, 28.037751512322473], [69.92714790545153, 28.017732234854805], [69.94529116655417, 28.005718881421274], [69.95889861058248, 27.948303264384208], [70.03449552734679, 27.886848095063613], [70.05415072597526, 27.877493160081315], [70.08590143110621, 27.874820173512262], [70.10555662883542, 27.850760323929876], [70.11141199147028, 27.833501127874797], [70.12521182746394, 27.852097122084558], [70.21895200443151, 27.932274848105806], [70.27640566099251, 27.989698993413867], [70.36258614583403, 28.015062716970874], [70.39584878939019, 28.031078833221613], [70.44120693944876, 28.032413401957], [70.46237407560318, 28.02974424829847], [70.48354121265692, 28.020401687088224], [70.55006649886991, 27.972341427714753], [70.58030526557559, 27.949638858346702], [70.59391271050322, 27.932274848105806], [70.59996046420412, 27.90555553865721], [70.60298434105454, 27.838728396798103], [70.61054403228133, 27.824020895747765], [70.63171116933506, 27.799949777660174], [70.65741412076511, 27.741086821399733], [70.67555738096843, 27.721012629529298], [70.70277227082369, 27.711643407916995], [70.86152579557904, 27.708966339325173], [70.89176456228478, 27.719674218890134], [70.90839588406283, 27.73841047676217], [70.92805108269135, 27.747777397009315], [70.97189729432472, 27.761157316157266], [71.0338867661614, 27.799949777660174], [71.10948368202634, 27.813323279245992], [71.13216275750528, 27.836054454249734], [71.18961641406634, 27.85744415102681], [71.2818446526087, 27.860117566572512], [71.34383412444532, 27.882838936267945], [71.44815786859084, 27.87882962908418], [71.57667262753978, 27.881502516727835], [71.65529342025519, 27.88952078485636], [71.68250831100983, 27.90956385658677], [71.72333064579271, 27.930939040104647], [71.7959036857066, 27.956316579946247], [71.82765439083755, 27.976347268012034], [71.84579765104081, 28.084448671069367], [71.89569161547576, 28.185778290635653], [71.96524077853917, 28.25239020584337], [72.00303923737096, 28.27103409165005], [72.09073166063769, 28.333600415626734], [72.13004205699536, 28.378838212113862], [72.15272113247437, 28.41075916340469], [72.17237633020352, 28.519749808906624], [72.20412703533447, 28.583497006581638], [72.22227029553778, 28.66975976859851], [72.24192549416625, 28.704245012597312], [72.30996271880451, 28.7758318982236], [72.36590443694024, 28.807632540009763], [72.41882227912492, 28.823529221796207], [72.44754910740545, 28.84207228460832], [72.48081175006229, 28.853991079724608], [72.64561302851848, 28.944000025281014], [72.67433985679901, 28.96516725226695], [72.75749646568937, 28.999554764241054], [72.84972470423179, 29.024676868742574], [72.87240377881142, 29.0378965745673], [72.89508285339105, 29.06829547185862], [72.90566642236757, 29.109253717585034], [72.92229774414562, 29.144913749569923], [73.01906179706435, 29.261053120405222], [73.04325281006919, 29.278198911950255], [73.06593188554814, 29.317755143385227], [73.09012289855298, 29.373108108652332], [73.12489748053434, 29.435015044308898], [73.14455267916287, 29.456081141631444], [73.19444664359776, 29.53109355842105], [73.20503021167497, 29.586330297105576], [73.2246854103035, 29.60867943560754], [73.2261973487287, 29.629709394572956], [73.2352689783807, 29.657304554661494], [73.24887642330833, 29.682265085165625], [73.26399580666123, 29.737419002584943], [73.27760325248818, 29.761047118229953], [73.28818682056539, 29.825339870738503], [73.30633008076865, 29.860748829994577], [73.32447334007264, 29.94856123990934], [73.37890312068254, 29.977378275587], [73.40460607211259, 29.97999759241503], [73.43635677724353, 29.987855126512954], [73.48625074167842, 30.00880551076574], [73.51648950838415, 30.025824441244993], [73.57545510337036, 30.034987270246404], [73.60266999322567, 30.048075557241248], [73.6707072187632, 30.058544941995535], [73.72664893689898, 30.07163011553746], [73.75991158045514, 30.08994645206718], [73.88540246165434, 30.18147722679265], [73.89749796905608, 30.19977319187933], [73.90808153713328, 30.24027358465827], [73.90052184500718, 30.258558617586175], [73.89296215378045, 30.326444644604692], [73.87481889357713, 30.34340880727069], [73.81736523701613, 30.369501778484334], [73.81434136016571, 30.399500088958007], [73.83702043564466, 30.412539959151843], [73.8612114486495, 30.45295248816683], [73.87784277042755, 30.46598521414637], [73.90052184500718, 30.476410140016014], [73.9186651052105, 30.494651074687397], [73.93378448856333, 30.5194011593361], [73.96099937841865, 30.535029545477187], [74.01089334375285, 30.544144943334516], [74.03810823360817, 30.564976923746087], [74.04113211045859, 30.598819353930082], [74.04869180168538, 30.622241807213697], [74.07137087716433, 30.644357809065696], [74.09858576701959, 30.650861554117455], [74.16511105323258, 30.650861554117455], [74.20593338891484, 30.65476359016759], [74.23466021719531, 30.66386773031155], [74.24373184684731, 30.674271411496477], [74.25280347649931, 30.722373858966478], [74.25885123020015, 30.736669961549524], [74.28001836725389, 30.765255804012213], [74.32235264046204, 30.793833158673408], [74.38585404982462, 30.8470682933671], [74.40399731002788, 30.884704587346903], [74.42970026145798, 30.914543551443785], [74.46145096658887, 30.948263352771562], [74.50378523979703, 30.980675020935507], [74.53251206807755, 31.014371482158253], [74.55367920513129, 31.04546533685584], [74.57787021813613, 31.068779063902753], [74.62625224504512, 31.068779063902753], [74.6867297784566, 31.08172866644486], [74.69580140810854, 31.09985514529876], [74.69126559373223, 31.12962685269713], [74.67009845667849, 31.142568159892733], [74.62927612189554, 31.142568159892733], [74.58391797183697, 31.12315553629901], [74.54309563705408, 31.128332623951508], [74.4962255485703, 31.16715177823204], [74.49471361014503, 31.18914224102167], [74.50378523979703, 31.20595503070018], [74.52797625370118, 31.23310784035459], [74.52646431527597, 31.363590871721385], [74.54460757547929, 31.388116983811813], [74.58845378711266, 31.419088182673534], [74.6050851088907, 31.464236186350945], [74.6035731704655, 31.49002527754459], [74.59601347833939, 31.505495320053058], [74.57787021813613, 31.51580725959741], [74.56879858848413, 31.555755276185096], [74.55670308198171, 31.580231094589408], [74.5491433898556, 31.639461721581256], [74.53402400650276, 31.651045914037752], [74.51285687034834, 31.68964946035436], [74.4901777948694, 31.71537624202], [74.4916897332946, 31.77966196452809], [74.50983299349792, 31.809218404805563], [74.5400717602036, 31.841334247277757], [74.6232283681947, 31.89141264467787], [74.65800295017607, 31.922216591222764], [74.66707457982807, 31.944029812925578], [74.6867297784566, 31.950444481927377], [74.70033722338422, 31.942746825705512], [74.7456953734428, 31.94659573430573], [74.78046995542417, 31.955575893912453], [74.78424980058787, 31.97561772637704], [74.80551143390562, 32.003668939869726], [74.85039710264425, 32.03571696356704], [74.87165873596194, 32.05974562286224], [74.89764517618397, 32.07776297707977], [74.93780603801832, 32.07776297707977], [74.94961805572876, 32.065751801804254], [74.99214132146489, 32.04973444808638], [75.05356381661687, 32.05774347568092], [75.11262390786709, 32.087771084268184], [75.22129447565959, 32.097778095183], [75.27799216300798, 32.12979316322395], [75.28744177771591, 32.14979687792362], [75.31342821793794, 32.16779646963141], [75.33232744645454, 32.20978168537653], [75.38193792299683, 32.245753595052406], [75.39611234550841, 32.26573183645513], [75.38902513380293, 32.291696976234505], [75.34177706116247, 32.32564017185649], [75.3394146572607, 32.33562104487538], [75.29925379542635, 32.37752868869808], [75.20948245704983, 32.43337532601055], [75.12443592557759, 32.43536921022093], [75.11026150396532, 32.4612856840871], [75.07718785293713, 32.49715772494909], [75.04411420190894, 32.50313500777446], [75.02049016558874, 32.48918739518217], [75.00631574397647, 32.47324461954361], [74.98032930375444, 32.4612856840871], [74.95198045963059, 32.465272171873266], [74.92363161640606, 32.47922349147103], [74.90709479089196, 32.47922349147103], [74.86457152515584, 32.495165208607546], [74.68739125140519, 32.495165208607546], [74.68266644450085, 32.50911189399875], [74.66849202198927, 32.52504831412847], [74.65668000427883, 32.5330154647919], [74.65668000427883, 32.55293024913175], [74.62360635325064, 32.572840616001656], [74.61888154544704, 32.59672722198377], [74.6306935640568, 32.61662786448443], [74.66376721508499, 32.64050279816564], [74.66376721508499, 32.67033750577133], [74.64959279347272, 32.6941981015612], [74.6377807748629, 32.72401488028254], [74.65044325894928, 32.739833602538795], [74.6716103951037, 32.80212727455415], [74.67009845667849, 32.822458619469785], [74.65346713490044, 32.82881121096864], [74.62625224504512, 32.80085641019525], [74.6202044922436, 32.78179127744556], [74.60962092326707, 32.77289281675013], [74.56879858848413, 32.76272205817651], [74.55821502040692, 32.75255013767878], [74.53251206807755, 32.74492043423072], [74.50378523979703, 32.748735367343386], [74.47959422679219, 32.75763624271849], [74.46296290501414, 32.76780758315351], [74.45237933693693, 32.78433353136745], [74.43423607673361, 32.79323084812518], [74.39946149565156, 32.77543532518018], [74.3737585433222, 32.77289281675013], [74.35561528311888, 32.77543532518018], [74.33898396224015, 32.78560463134869], [74.33796001664149, 32.79765509710512], [74.31479294833593, 32.79915308614608], [74.26141841242986, 32.827059942262565], [74.24098459696165, 32.84245307654828], [74.14445243333319, 32.87441490292548], [74.05426179864315, 32.91287219429637], [73.96336654962664, 32.94303468410345], [73.94434196371071, 32.95426906096844], [73.92461276166966, 32.97555133282782], [73.91686200407827, 32.99505557755293], [73.89995126024252, 33.01810049094496], [73.87176668718291, 33.03109753002707], [73.84640057052997, 33.03227898468742], [73.79144065306372, 33.00805601337436], [73.77664375220746, 33.00628333900494], [73.74634533526904, 33.01573718772107], [73.6949084894353, 33.05177068656798], [73.66320084474324, 33.05118009278709], [73.63431165645784, 33.05826696275017], [73.61246861143735, 33.068305718833926], [73.59062556821544, 33.093692754616995], [73.5878071100102, 33.112580675957474], [73.61458245531611, 33.15742321500943], [73.61035476935717, 33.179246157484215], [73.58287481062405, 33.20342199083228], [73.57653328078635, 33.22287574042315], [73.57301020915389, 33.30948078980663], [73.5518717793592, 33.32243470010138], [73.54693947907373, 33.38658702886835], [73.55257639368568, 33.40423533369375], [73.56737329544131, 33.4136462973388], [73.57582866735919, 33.44069713736303], [73.57512405303265, 33.48713433987791], [73.58498865360355, 33.5206242079409], [73.58921633866316, 33.54822891163502], [73.58357942495059, 33.56701855865958], [73.55891792262406, 33.592260709164464], [73.5497579363797, 33.61984252061586], [73.55469023666512, 33.725393334834564], [73.5518717793592, 33.76113393078634], [73.54341640744133, 33.77050604821562], [73.54200717788899, 33.78749039616491], [73.55116716503272, 33.81208244744704], [73.55398562233864, 33.87645670011665], [73.49902570397313, 33.94604329566164], [73.49338878936118, 33.974095752916696], [73.4849334174433, 33.9904554146857], [73.47305358725333, 34.062150424902256], [73.4362269520123, 34.04604740536354], [73.3736043538579, 34.0255012268002], [73.35528438046981, 34.01148463710638], [73.34823823720495, 33.99571320749857], [73.33837363663406, 33.989871195299486], [73.3256492926808, 33.969441530202516], [73.31532779334304, 33.96373468071101], [73.30156579452586, 33.9494658806459], [73.29468479556692, 33.932340161968966], [73.27404179689148, 33.91663856112075], [73.2706012983113, 33.90236186770608], [73.26027979897361, 33.88665474232255], [73.20007105403596, 33.873801306984774], [73.18458880592868, 33.85523181579572], [73.17942805625984, 33.836658286650675], [73.16050530867312, 33.81808071954964], [73.14854294679964, 33.810981539666386], [73.16174091511118, 33.792175141869336], [73.19556240368206, 33.77718305575348], [73.22712912550878, 33.75543986965431], [73.24201058062386, 33.73481623608046], [73.26996967745873, 33.72544021829151], [73.28981161671283, 33.702933595009426], [73.29522305420062, 33.68604975619132], [73.29432114840233, 33.67516730382806], [73.28665494417038, 33.66578477224948], [73.24246153307337, 33.65339826491805], [73.23569723553902, 33.631999189111355], [73.23163865719835, 33.57566042388953], [73.2136005304402, 33.559878974035485], [73.19962098202274, 33.54033604047595], [73.15497661757689, 33.50048483680581], [73.14595755419782, 33.49371582772335], [73.13197800578041, 33.49108329265988], [73.0954507989153, 33.49409189812263], [73.06568788958447, 33.50574925582356], [73.06388407708852, 33.515149207270156], [73.07966743800193, 33.5384566795322], [73.08192220384666, 33.55085970830896], [73.07786362460666, 33.570775997214525], [73.0661388429333, 33.58167164622955], [73.05757073200374, 33.601205225041156], [73.0431402302375, 33.61209703035371], [73.0264549635258, 33.63612924916555], [73.01113847935738, 33.645209698468875], [72.95647266807924, 33.63333678676332], [72.93533423828455, 33.61984252061586], [72.90433120701965, 33.613387993661036], [72.89376199212228, 33.60575929385635], [72.8796697055925, 33.58756505378426], [72.86416819040971, 33.58052109227464], [72.84655283224748, 33.57758593893999], [72.83246054481833, 33.59636919808008], [72.8070944290647, 33.61632193021296], [72.80286674310577, 33.62746997396016], [72.7866606135965, 33.64154965289424], [72.78172831331108, 33.65855952630113], [72.78313754196404, 33.67673877737275], [72.78806984224946, 33.68670641237111], [72.80638981473822, 33.70019019692012], [72.86557741906267, 33.719532800198635], [72.88526533412795, 33.7322858199347], [72.86290208616242, 33.73800815215458], [72.83537808852805, 33.768044136128026], [72.83021733975846, 33.7894919668808], [72.83069900855247, 33.84054477342261], [72.82739612962774, 33.85334607236342], [72.81088173140682, 33.87254442348643], [72.80427597265805, 33.89173845606496], [72.79216541330322, 33.90087695390832], [72.76243949668549, 33.90270453638527], [72.75363181715471, 33.914582864707484], [72.75142989727198, 33.929200072925084], [72.73931933881647, 33.941074709530255], [72.72830973940302, 33.937421151664864], [72.70188670170995, 33.92006461209223], [72.69087710319582, 33.89265234982611], [72.66885790526817, 33.882598978859846], [72.64793966728189, 33.879856944142716], [72.62371854947156, 33.88351297064713], [72.6160118298821, 33.8871688397702], [72.61380990999942, 33.897221672042576], [72.61380990999942, 33.90910076478849], [72.62481950941287, 33.91915101151005], [72.62481950941287, 33.9282865712683], [72.6160118298821, 33.94198807359078], [72.59179071207177, 33.95751377783864], [72.56316575539535, 33.961166473254195], [72.55655999574725, 33.9675583120665], [72.55105519604052, 33.9958592538016], [72.54004559752639, 34.004073890697555], [72.46738224409535, 34.004073890697555], [72.45086784587443, 34.00133576623267], [72.420040968416, 33.983079349732236], [72.40352657019514, 33.97760166008857], [72.39141601173958, 33.96847139194125], [72.38591121203285, 33.95386092594106], [72.3704977737533, 33.937421151664864], [72.32866129688142, 33.931027048359624], [72.31544977848455, 33.91732378246667], [72.27911810221872, 33.90087695390832], [72.27361330251193, 33.88991063886493], [72.24058450517083, 33.868887927535866], [72.23618066630479, 33.837801388823095], [72.23618066630479, 33.77101855566184], [72.22627202683265, 33.75637426076355], [72.21526242831845, 33.752712796058745], [72.20755570872905, 33.74355845036223], [72.19544515027354, 33.737149826603286], [72.08645012057667, 33.736234269096315], [72.06663284163238, 33.72707816522518], [72.0402098048387, 33.70418362927114], [72.02259444577709, 33.695024105278264], [72.00277716773218, 33.65104480297532], [71.97855604992185, 33.6207959890437], [71.96534453152498, 33.5868680207426], [71.94993109324543, 33.574944214603875], [71.94662821342138, 33.55384421463884], [71.94332533359733, 33.45837118797999], [71.93561861400786, 33.450104149387016], [71.91800325584563, 33.445511009525546], [71.8937821380353, 33.40691903298705], [71.86956102022498, 33.39221281526926], [71.85855142171079, 33.37750410912736], [71.84203702348992, 33.368309903679176], [71.80570534632471, 33.366470945677634], [71.7814842294137, 33.35083823739478], [71.76166695046942, 33.34532014031225], [71.73414295373436, 33.320484376352965], [71.71872951455549, 33.31680440180173], [71.71762855461418, 33.275393984145126], [71.69450839674516, 33.25698304523138], [71.69010455787912, 33.24040988350936], [71.69671031662784, 33.21738638927047], [71.70992183592404, 33.201726951337776], [71.73414295373436, 33.190671544955876], [71.74515255224856, 33.17224276439214], [71.74735447213124, 33.12984186491019], [71.73854679260046, 33.10310033231451], [71.72313335432091, 33.09387722625303], [71.70661895609999, 33.071737824940726], [71.69340743770317, 33.0625114291592], [71.67248919971684, 33.056052376815785], [71.64936904184788, 33.056052376815785], [71.63175368278627, 33.06066603470981], [71.62074408427213, 33.071737824940726], [71.60863352491731, 33.09111010584678], [71.58881624687234, 33.14551414965831], [71.58110952818225, 33.158418636810666], [71.57120088871011, 33.16763496378263], [71.54697977089978, 33.17132122369554], [71.5293644127375, 33.17039967310649], [71.51285001451663, 33.16302692125544], [71.5007394551618, 33.15104487681964], [71.48532601688225, 33.14920133947027], [71.47101353854401, 33.158418636810666], [71.45780201924782, 33.17224276439214], [71.43247994149618, 33.174085817006926], [71.41816746315794, 33.17039967310649], [71.41046074446785, 33.15657525504406], [71.41046074446785, 33.13260776583576], [71.42807610263009, 33.100333502389276], [71.43027802251277, 33.03759533056012], [71.42697514268872, 33.01821126943457], [71.43908570114422, 33.00528619410261], [71.45229722044041, 33.00528619410261], [71.46110489907187, 32.999746296554406], [71.45890297918919, 32.97573605267672], [71.444590500851, 32.9628047540362], [71.43247994149618, 32.95726219089744], [71.33339355127146, 32.95356695485111], [71.28825419547479, 32.93878446652997], [71.20788412335367, 32.92584776026598], [71.1660476473811, 32.8962710465716], [71.14292748951209, 32.874082026964004], [71.12421117140849, 32.85003765471407], [71.11650445181903, 32.77416272423039], [71.11540349187771, 32.646324641269246], [71.11870637170176, 32.62592773487711], [71.136321729864, 32.59625120812683], [71.13742268980536, 32.57862611840068], [71.14402844945346, 32.556357893701886], [71.15393708802623, 32.54707783537384], [71.17045148714647, 32.53965309821194], [71.2067831634123, 32.53872496278683], [71.22329756163322, 32.53501232575826], [71.22990332128131, 32.48394800429702], [71.23430716104673, 32.470945182574155], [71.30476859369571, 32.46258523502064], [71.31137435334381, 32.40590291438804], [71.30807147351976, 32.339883557979874], [71.29596091506426, 32.313834500661756], [71.23650908003009, 32.29057008164398], [71.19467260405747, 32.25333459301709], [71.1737543660712, 32.23005465349951], [71.1660476473811, 32.21142640780255], [71.15944188773301, 32.10797030708403], [71.14953324826087, 32.101442112163795], [71.0856775743606, 32.080921891632045], [71.07686989572915, 32.063196175862856], [71.0735670159051, 32.0380010895787], [71.07466797584647, 32.00066228953307], [71.066961256257, 31.978251706651008], [71.05044685803614, 31.965176338417336], [71.04384109838804, 31.9558356495956], [71.04494205832941, 31.92407020277767], [71.040538218564, 31.90444488502345], [71.02402382034307, 31.89509802325523], [71.01851902063635, 31.880141071853018], [71.01961998057772, 31.83806162694259], [71.01631710165299, 31.79877015591802], [70.97337966573906, 31.765078448511645], [70.95136046781141, 31.722010078502365], [70.90401919213207, 31.67423696006773], [70.89300959271861, 31.655495690273938], [70.87649519449769, 31.644249114105378], [70.86768751496692, 31.612376426730748], [70.85337503662868, 31.596435989329507], [70.8445673570979, 31.576741092827206], [70.84566831703927, 31.537338815434055], [70.85227407668737, 31.50730686581926], [70.85227407668737, 31.481020992724666], [70.85887983633546, 31.444396217511496], [70.86768751496692, 31.424669252084357], [70.86548559508418, 31.366403523903557], [70.85667791645272, 31.351361338355105], [70.82364911911162, 31.332555222945246], [70.81263952059743, 31.318448168648104], [70.81263952059743, 31.284582617793603], [70.80273088112534, 31.2610577155412], [70.79172128261115, 31.248822447198222], [70.78291360308037, 31.222464178678933], [70.75649056538737, 31.20928228664826], [70.74217808704913, 31.21963964195595], [70.7256636888282, 31.24599869918069], [70.71025025054865, 31.250704900011158], [70.68823105262106, 31.243174866626873], [70.6177696190727, 31.2422335705229], [70.58914466149696, 31.243174866626873], [70.57373122411673, 31.246939957513064], [70.5495101063064, 31.259175469572313], [70.53299570808554, 31.25541086611861], [70.5164813089653, 31.243174866626873], [70.50657267039247, 31.229995862319242], [70.48785635228887, 31.21963964195595], [70.45482755494777, 31.21399031580046], [70.43390931696149, 31.20269065175222], [70.41739491874057, 31.17443558443472], [70.41959683862325, 31.148056581146363], [70.4162939587992, 31.12544016323301], [70.39977956057834, 31.11978521541539], [70.35133732495763, 31.11978521541539], [70.32601524720593, 31.116015063144687], [70.30950084898507, 31.099990246852485], [70.26656341307114, 31.084905596216345], [70.24959919015055, 31.070376013442342], [70.24465495586156, 31.002708670069126], [70.22499975813241, 30.984563681368854], [70.22197588128194, 30.93918611494729], [70.22651169655762, 30.90027390331801], [70.22651169655762, 30.861345868117382], [70.2189520035322, 30.83927962845212], [70.18720129930057, 30.806820058798735], [70.18115354559973, 30.78214344876119], [70.16905803909731, 30.75616122905751], [70.15545059416962, 30.748365195097733], [70.13730733486568, 30.743167488688698], [70.10706856726063, 30.71847455325809], [70.08892530795663, 30.708075635781995], [70.05566266440047, 30.695075412200538], [70.04507909542394, 30.680773142966245], [70.05112684912484, 30.66516825161358], [70.06775817090295, 30.639154498980986], [70.07229398527926, 30.589709093000295], [70.06624623247768, 30.563675056158957], [70.04961491069963, 30.535029545477187], [70.036007465772, 30.527215667169344], [70.02693583612, 30.511586023776033], [70.01181645276716, 30.46598521414637], [69.99972094626469, 30.459469069242175], [69.99367319256385, 30.441221543439553], [69.99064931571343, 30.409932124867737], [69.98006574763622, 30.39167533065205], [69.96343442585811, 30.382545653359273], [69.95889861058248, 30.368197294769402], [69.95932679219777, 30.336780084333498], [69.94136738309828, 30.329296917318914], [69.93579377446315, 30.310586498767975], [69.94446383343922, 30.28599022876608], [69.96366182123614, 30.27422461517392], [70.00701211791494, 30.260852887950477], [70.02125578552614, 30.248549290017763], [70.02992584540152, 30.227683146160302], [70.02693583612, 30.20761327823027], [69.95889861058248, 30.137030024316232], [69.95738667215727, 30.05069300707669], [69.94982698093048, 30.025824441244993], [69.90598076929712, 30.00880551076574], [69.90144495402149, 29.962970801861047], [69.8938852627947, 29.9393904312235], [69.87423006416617, 29.926287808135896], [69.87423006416617, 29.889591289506484], [69.81980028355628, 29.830586434616293], [69.81375253075475, 29.805662803295775], [69.79107345527581, 29.78073295945859], [69.74117949174018, 29.695399717822795], [69.71698847783603, 29.677010752044623], [69.66558257407661, 29.667815006057708], [69.63534380737087, 29.65599067123253], [69.62173636244324, 29.634966199030885], [69.62173636244324, 29.620509328242974], [69.60812891751561, 29.6073649172572], [69.59452147258793, 29.599477449224935], [69.59300953416272, 29.57581134261943], [69.59603341101314, 29.53109355842105], [69.5899856573123, 29.486355994533596], [69.58393790451072, 29.473194125908208], [69.5718423980083, 29.462663400195822], [69.56730658273267, 29.444231999906947], [69.56881852025856, 29.42184651260652], [69.57335433643351, 29.406042023020973], [69.58696178046188, 29.398138855523825], [69.61871248559277, 29.398138855523825], [69.62324830086845, 29.38496554662271], [69.64139156107171, 29.374425670308483], [69.64743931387329, 29.307208313512888], [69.66558257407661, 29.276880107431055], [69.68372583338055, 29.26369112154805], [69.73210786118892, 29.26896691968767], [69.76234662699528, 29.250500435047115], [69.76385856542049, 29.225433444597854], [69.75327499734328, 29.204319640938706], [69.73361979871481, 29.183201486359565], [69.73664367556523, 29.155477310429603], [69.72606010748802, 29.115858360275183], [69.70489297043429, 29.094722010612372], [69.70035715605798, 29.06829547185862], [69.62778411614408, 29.011455470393685], [69.61871248559277, 28.987652688420894], [69.59603341101314, 28.97045838294804], [69.58847371888709, 28.944000025281014], [69.55672301465546, 28.91356455975665], [69.52043649424888, 28.888415480989693], [69.50229323404557, 28.864584418036486], [69.49170966596836, 28.836774604164702], [69.49170966596836, 28.82220459146879], [69.49926935809447, 28.804982856673575], [69.53706781602693, 28.77980750870961], [69.55369913780504, 28.759927940921784], [69.55521107623025, 28.73341596117774], [69.53555587760172, 28.713527561148055], [69.49019772754315, 28.688330157310986], [69.4735664057651, 28.66445333865073], [69.47205446733983, 28.631282063516494], [69.44786345433499, 28.60871960672455], [69.44786345433499, 28.58216933384773], [69.43274407098215, 28.562252229257012], [69.39192173619921, 28.543659531062588], [69.35865909264305, 28.535690226522775], [69.34051583243979, 28.52373513926534], [69.34051583243979, 28.505135642196194], [69.35865909264305, 28.49450588673733], [69.37075459914547, 28.475901236552886], [69.37226653757068, 28.451976157573654], [69.381338168122, 28.437352610934283], [69.40250530517574, 28.428045663776402], [69.40326124561005, 28.42006763041684]]]}}]}