{"type": "FeatureCollection", "features": [{"type": "Feature", "properties": {"name": "India"}, "geometry": {"type": "MultiPolygon", "coordinates": [[[[79.952159, 12.229926], [79.943858, 12.217841], [79.953136, 12.213568], [80.0, 12.238980829045035], [80.0, 12.233889326088015], [79.861827, 12.02204], [79.861827, 11.977973], [79.820323, 11.878648], [79.803233, 11.796088], [79.785899, 11.769192], [79.751964, 11.576972], [79.785981, 11.426174], [79.797374, 11.434882], [79.792979, 11.453518], [79.816661, 11.443061], [79.819347, 11.381496], [79.769298, 11.380927], [79.749848, 11.373684], [79.684337, 11.312201], [79.67628, 11.296454], [79.751964, 11.340522], [79.759288, 11.358344], [79.796886, 11.359036], [79.833018, 11.341986], [79.834972, 11.263861], [79.855317, 11.159857], [79.852224, 11.006985], [79.840668, 10.950141], [79.850271, 10.592108], [79.85963, 10.551459], [79.86378, 10.37873], [79.8567, 10.29328], [79.851329, 10.282213], [79.795095, 10.269232], [79.778575, 10.275377], [79.78004, 10.296617], [79.757091, 10.309068], [79.633149, 10.328599], [79.621267, 10.324164], [79.614106, 10.309556], [79.661794, 10.307074], [79.703624, 10.289049], [79.758962, 10.282213], [79.773692, 10.273668], [79.772472, 10.261705], [79.759776, 10.258246], [79.556651, 10.298651], [79.551768, 10.3133], [79.604015, 10.329088], [79.607107, 10.336005], [79.586925, 10.343695], [79.567719, 10.335883], [79.528575, 10.338324], [79.532237, 10.323188], [79.459727, 10.308295], [79.398123, 10.324652], [79.286143, 10.252834], [79.272227, 10.234442], [79.269216, 10.197821], [79.248302, 10.189195], [79.236339, 10.166571], [79.254161, 10.054267], [79.279063, 10.035834], [79.240733, 10.010565], [79.23014675617506, 10.0], [76.27306121262718, 10.0], [76.269298, 10.016262], [76.273936, 10.035834], [76.255056, 10.047675], [76.245128, 10.1022], [76.227712, 10.109565], [76.215343, 10.138251], [76.20753, 10.117133], [76.229015, 10.065904], [76.24049968558317, 10.0], [76.23317315847467, 10.0], [76.21461, 10.024482], [76.182384, 10.105658], [76.184581, 10.144924], [76.177501, 10.17064], [76.224132, 10.196926], [76.24171, 10.223944], [76.240245, 10.238959], [76.22283, 10.234442], [76.206309, 10.262885], [76.194835, 10.268622], [76.207856, 10.234565], [76.201671, 10.199693], [76.184093, 10.189358], [76.170584, 10.193752], [76.153168, 10.22016], [76.10613, 10.38467], [76.070079, 10.432807], [76.052419, 10.513983], [76.008067, 10.567084], [75.999685, 10.605536], [75.922048, 10.76557], [75.924083, 10.780707], [75.94158, 10.79621], [75.911143, 10.809231], [75.894542, 10.849758], [75.880138, 10.932685], [75.832774, 11.097846], [75.730805, 11.331732], [75.729259, 11.343655], [75.742442, 11.35871], [75.735525, 11.371527], [75.722179, 11.367499], [75.664806, 11.462633], [75.616547, 11.473619], [75.608897, 11.484931], [75.600841, 11.523383], [75.581879, 11.549791], [75.585297, 11.563381], [75.530772, 11.693671], [75.506114, 11.72724], [75.379731, 11.864976], [75.355805, 11.857652], [75.324555, 11.899115], [75.307628, 11.932196], [75.326508, 11.935858], [75.400238, 11.920233], [75.382823, 11.945502], [75.393403, 11.97484], [75.349132, 11.947577], [75.302257, 11.966051], [75.278819, 12.003241], [75.281098, 12.010647], [75.329763, 12.012641], [75.30421, 12.043158], [75.264334, 12.013332], [75.260509, 11.997789], [75.276703, 11.967434], [75.222179, 12.02204], [75.208507, 12.008368], [75.193696, 12.022284], [75.180512, 12.077297], [75.13087, 12.207831], [75.139659, 12.248603], [75.12672, 12.245836], [75.105479, 12.221259], [75.098643, 12.269029], [75.082856, 12.305894], [75.018403, 12.41474], [75.009939, 12.443793], [74.992035, 12.461737], [74.985362, 12.49136], [74.955251, 12.537258], [74.879649, 12.725491], [74.855724, 12.759426], [74.852306, 12.797309], [74.827647, 12.824652], [74.824962, 12.838202], [74.859141, 12.824612], [74.881114, 12.848049], [74.917491, 12.85814], [74.940929, 12.878607], [74.850597, 12.857164], [74.817556, 12.861762], [74.770274, 13.052436], [74.783376, 13.084662], [74.76295, 13.118801], [74.715099, 13.331041], [74.689464, 13.381578], [74.694591, 13.393134], [74.680919, 13.468248], [74.693696, 13.415269], [74.708263, 13.413031], [74.701915, 13.420356], [74.701427, 13.461371], [74.677094, 13.52676], [74.673513, 13.619086], [74.666677, 13.632758], [74.677094, 13.630316], [74.680919, 13.646959], [74.709972, 13.64057], [74.735606, 13.653795], [74.712901, 13.656195], [74.688324, 13.68594], [74.701427, 13.69477], [74.687755, 13.711819], [74.676036, 13.701077], [74.660492, 13.660061], [74.623057, 13.774156], [74.614594, 13.835517], [74.583995, 13.903876], [74.495372, 14.030585], [74.495372, 14.071519], [74.474864, 14.105699], [74.467459, 14.181383], [74.429047, 14.240424], [74.43336, 14.263373], [74.471039, 14.248684], [74.508962, 14.250312], [74.427745, 14.28384], [74.415375, 14.301093], [74.412608, 14.344794], [74.396983, 14.372748], [74.394216, 14.410793], [74.353852, 14.505072], [74.351899, 14.530219], [74.388845, 14.462714], [74.407237, 14.461982], [74.401134, 14.479722], [74.427745, 14.476264], [74.372406, 14.530219], [74.379242, 14.544582], [74.368337, 14.549709], [74.358735, 14.544582], [74.358735, 14.571234], [74.342947, 14.563666], [74.339041, 14.523993], [74.32488, 14.517239], [74.300548, 14.527411], [74.295177, 14.587307], [74.307384, 14.601874], [74.339041, 14.605943], [74.339041, 14.612779], [74.323904, 14.618598], [74.28712, 14.605943], [74.27589, 14.610175], [74.266856, 14.631293], [74.276215, 14.640082], [74.25294, 14.71894], [74.22047, 14.738105], [74.194347, 14.715806], [74.173839, 14.749945], [74.153331, 14.749945], [74.145844, 14.763617], [74.096446, 14.793362], [74.091319, 14.811428], [74.109141, 14.802639], [74.118663, 14.831855], [74.140473, 14.838772], [74.159516, 14.82567], [74.178966, 14.856269], [74.208018, 14.866645], [74.233084, 14.864569], [74.235199, 14.876532], [74.211192, 14.887356], [74.208018, 14.900824], [74.14088, 14.852688], [74.111827, 14.846177], [74.091156, 14.8876], [74.035981, 14.921291], [74.031261, 14.995307], [73.995779, 15.010688], [73.964366, 15.064643], [73.913097, 15.078925], [73.928966, 15.120592], [73.962169, 15.152045], [73.954112, 15.16828], [73.947276, 15.160834], [73.891287, 15.343207], [73.882579, 15.355292], [73.827403, 15.36518], [73.782888, 15.407904], [73.860118, 15.407864], [73.884939, 15.398017], [73.899587, 15.407904], [73.93336, 15.395413], [73.954112, 15.366278], [73.967784, 15.373765], [73.927582, 15.417385], [73.885916, 15.435207], [73.858572, 15.435207], [73.841563, 15.448879], [73.796397, 15.448879], [73.800466, 15.475002], [73.817556, 15.496649], [73.872244, 15.510932], [73.859548, 15.521145], [73.865977, 15.537584], [73.786388, 15.492174], [73.766287, 15.49726], [73.751231, 15.513129], [73.756114, 15.537584], [73.736827, 15.571723], [73.737071, 15.598538], [73.760427, 15.632025], [73.838145, 15.654283], [73.838145, 15.661119], [73.783865, 15.659125], [73.728282, 15.619574], [73.718272, 15.627143], [73.685883, 15.704291], [73.700857, 15.723212], [73.646251, 15.736884], [73.646251, 15.792141], [73.604666, 15.880845], [73.490977, 15.993476], [73.487315, 16.014228], [73.515961, 16.017401], [73.515961, 16.024848], [73.483897, 16.028225], [73.447032, 16.068915], [73.460704, 16.08633], [73.46339, 16.159573], [73.487966, 16.189358], [73.465017, 16.182278], [73.45281, 16.166571], [73.447032, 16.113593], [73.435232, 16.217841], [73.419688, 16.216702], [73.413585, 16.223944], [73.378673, 16.332709], [73.378673, 16.35692], [73.358246, 16.367499], [73.364431, 16.389309], [73.384939, 16.401597], [73.352061, 16.418118], [73.341319, 16.432074], [73.319184, 16.509752], [73.302989, 16.533026], [73.307302, 16.563178], [73.344005, 16.523586], [73.378673, 16.518297], [73.350841, 16.538153], [73.371267, 16.559272], [73.336436, 16.565619], [73.322765, 16.576158], [73.314626, 16.599433], [73.358246, 16.620673], [73.363048, 16.596829], [73.371267, 16.610175], [73.366466, 16.628079], [73.354259, 16.63467], [73.323497, 16.620673], [73.312185, 16.644721], [73.321625, 16.69245], [73.300304, 16.713202], [73.289561, 16.74022], [73.303722, 16.813137], [73.296886, 16.80565], [73.286632, 16.820868], [73.269379, 16.875637], [73.279552, 16.887641], [73.270518, 16.945014], [73.289399, 16.983832], [73.254568, 17.006741], [73.262706, 17.018541], [73.251231, 17.032172], [73.251475, 17.042426], [73.258962, 17.044094], [73.269379, 17.031643], [73.275727, 17.078599], [73.255138, 17.120998], [73.26059, 17.150539], [73.236176, 17.199205], [73.236013, 17.220608], [73.214854, 17.268744], [73.187022, 17.305976], [73.231212, 17.279283], [73.249034, 17.284857], [73.195974, 17.369371], [73.170584, 17.389716], [73.165294, 17.413031], [73.185395, 17.441881], [73.17335, 17.457424], [73.180675, 17.477688], [73.131684, 17.539374], [73.125987, 17.556545], [73.12794, 17.564683], [73.163422, 17.569485], [73.200694, 17.586493], [73.139171, 17.600775], [73.121349, 17.62641], [73.12615, 17.655422], [73.105479, 17.68891], [73.123302, 17.735785], [73.101329, 17.796332], [73.079438, 17.824612], [73.065196, 17.878363], [73.018565, 17.951728], [73.0171, 17.972113], [73.035411, 17.991848], [73.018891, 17.992499], [73.005219, 18.012356], [73.0088, 18.025946], [73.042247, 18.048977], [73.043468, 18.066962], [73.022716, 18.057685], [73.0088, 18.039008], [72.987315, 18.066555], [72.980968, 18.080552], [72.988129, 18.096015], [72.976085, 18.118638], [72.967296, 18.19599], [72.954845, 18.217515], [72.926931, 18.223944], [72.939952, 18.251288], [72.933279, 18.266588], [72.939952, 18.286038], [72.953136, 18.281317], [72.972667, 18.244696], [73.012462, 18.24315], [73.050955, 18.227484], [73.063487, 18.210354], [73.047618, 18.201158], [73.047618, 18.188788], [73.057465, 18.185614], [73.071544, 18.204088], [73.065278, 18.257554], [73.071544, 18.273017], [73.056977, 18.280951], [73.012462, 18.279202], [72.977387, 18.295071], [72.968028, 18.310614], [72.974783, 18.327582], [72.958751, 18.328111], [72.933604, 18.354926], [72.912608, 18.361151], [72.910167, 18.399237], [72.891449, 18.429389], [72.895763, 18.502997], [72.907237, 18.523586], [72.924653, 18.535631], [72.946788, 18.532416], [73.0088, 18.450507], [73.014985, 18.469957], [72.98878, 18.489936], [72.960297, 18.554674], [72.910167, 18.558987], [72.882172, 18.635484], [72.864513, 18.648912], [72.851736, 18.719672], [72.852387, 18.769924], [72.865571, 18.799384], [72.879161, 18.807359], [72.912608, 18.799994], [72.926931, 18.826646], [72.974783, 18.779486], [72.966319, 18.76142], [72.969574, 18.746975], [72.995128, 18.731024], [72.988048, 18.753852], [72.99171, 18.779364], [73.016287, 18.813625], [72.981293, 18.832709], [72.974783, 18.848334], [72.9817, 18.871487], [72.972179, 18.874254], [72.946137, 18.858303], [72.91627, 18.87051], [72.896821, 18.894477], [72.912608, 18.923489], [72.928071, 18.911363], [72.936778, 18.947414], [72.977224, 18.948432], [72.988292, 18.964423], [72.953624, 18.964423], [72.953624, 18.971259], [73.046641, 18.995185], [73.056814, 19.015326], [73.039806, 19.017524], [72.988292, 18.998603], [72.987804, 19.036933], [72.980968, 19.046373], [72.991873, 19.067206], [72.967296, 19.09101], [72.974783, 19.163072], [72.967296, 19.163072], [72.935557, 19.115058], [72.926931, 19.06684], [72.94337, 19.055121], [72.934255, 19.034084], [72.891449, 18.991767], [72.885265, 19.025865], [72.869314, 19.01142], [72.836274, 18.959133], [72.8213, 18.903306], [72.812511, 18.897447], [72.802745, 18.909817], [72.802745, 18.957587], [72.775401, 18.93651], [72.770356, 18.948188], [72.802419, 18.999661], [72.802745, 19.040188], [72.817068, 19.032701], [72.824229, 19.053534], [72.8213, 19.063178], [72.809581, 19.06684], [72.82309, 19.108466], [72.809581, 19.146308], [72.82309, 19.169257], [72.811209, 19.175523], [72.792166, 19.150458], [72.781586, 19.159654], [72.802501, 19.211615], [72.830089, 19.252427], [72.815115, 19.253648], [72.775401, 19.204657], [72.772227, 19.265123], [72.775645, 19.299018], [72.785411, 19.31391], [72.867035, 19.316799], [72.885509, 19.296047], [72.900564, 19.290758], [72.930349, 19.286566], [72.972667, 19.293687], [72.988292, 19.27912], [73.010509, 19.224311], [73.026622, 19.205512], [73.049653, 19.217719], [73.03004, 19.227729], [73.029145, 19.259345], [72.987804, 19.300686], [72.970958, 19.307034], [72.898936, 19.307034], [72.836925, 19.348049], [72.818533, 19.330268], [72.802094, 19.331936], [72.763438, 19.380194], [72.74822, 19.444241], [72.746837, 19.467963], [72.754405, 19.481757], [72.879161, 19.532375], [72.8567, 19.541327], [72.795909, 19.526801], [72.781261, 19.536566], [72.770681, 19.566148], [72.741954, 19.580797], [72.734548, 19.580797], [72.740733, 19.560736], [72.734548, 19.546617], [72.755626, 19.519355], [72.749197, 19.5126], [72.741547, 19.516018], [72.722504, 19.536282], [72.710785, 19.587592], [72.718028, 19.606676], [72.686697, 19.724799], [72.707774, 19.697455], [72.72641, 19.705797], [72.714041, 19.745836], [72.731293, 19.754584], [72.732758, 19.779731], [72.728282, 19.793647], [72.690115, 19.748969], [72.677908, 19.746568], [72.679861, 19.800482], [72.649181, 19.851996], [72.664236, 19.881578], [72.665212, 19.952948], [72.684337, 19.964016], [72.70338, 19.997626], [72.710297, 20.082913], [72.728282, 20.129462], [72.737641, 20.184272], [72.755626, 20.215155], [72.741954, 20.225043], [72.74822, 20.280341], [72.777517, 20.330064], [72.781586, 20.352281], [72.817068, 20.375922], [72.829438, 20.437934], [72.886485, 20.531562], [72.891449, 20.575141], [72.885265, 20.619208], [72.902599, 20.641913], [72.909434, 20.698676], [72.898936, 20.732164], [72.946788, 20.759467], [72.944998, 20.770006], [72.919444, 20.787421], [72.924978, 20.810614], [72.919444, 20.821519], [72.900238, 20.79914], [72.885753, 20.807115], [72.880138, 20.829901], [72.900401, 20.868109], [72.881196, 20.865668], [72.836925, 20.835842], [72.854259, 20.887152], [72.864919, 20.897284], [72.836681, 20.929918], [72.886485, 20.962104], [72.888438, 20.982611], [72.832693, 20.972357], [72.816091, 20.99901], [72.787608, 21.006903], [72.771983, 21.023871], [72.766856, 21.03856], [72.82309, 21.03384], [72.844981, 21.038316], [72.849864, 21.048], [72.809581, 21.130032], [72.755626, 21.109565], [72.741954, 21.123236], [72.734548, 21.092475], [72.700369, 21.074774], [72.705821, 21.10635], [72.728689, 21.148098], [72.714041, 21.16413], [72.676443, 21.153632], [72.671235, 21.099799], [72.637869, 21.085395], [72.615001, 21.105862], [72.615489, 21.119818], [72.630382, 21.135972], [72.711762, 21.194037], [72.734548, 21.19892], [72.687673, 21.220445], [72.673188, 21.239081], [72.646983, 21.253607], [72.645763, 21.273383], [72.618419, 21.252916], [72.602061, 21.277655], [72.586762, 21.341213], [72.590505, 21.348538], [72.645763, 21.362779], [72.638682, 21.371243], [72.594086, 21.362779], [72.578868, 21.367011], [72.564626, 21.38581], [72.635102, 21.407457], [72.728282, 21.465806], [72.747081, 21.452867], [72.748546, 21.479641], [72.738292, 21.482856], [72.66505, 21.457221], [72.612478, 21.421861], [72.583669, 21.417426], [72.61964, 21.487372], [72.690115, 21.540676], [72.773204, 21.580512], [72.82309, 21.643948], [72.889659, 21.64053], [72.965343, 21.678778], [73.116954, 21.73725], [73.132009, 21.757799], [73.12615, 21.766832], [73.118826, 21.764716], [73.022472, 21.71601], [72.926931, 21.684963], [72.858165, 21.694973], [72.819184, 21.675035], [72.798106, 21.673529], [72.733246, 21.687486], [72.676443, 21.678127], [72.616059, 21.685452], [72.550304, 21.666693], [72.534679, 21.672919], [72.528494, 21.695136], [72.556326, 21.774319], [72.566905, 21.849351], [72.58546, 21.858873], [72.618419, 21.925116], [72.65211, 21.941067], [72.690115, 21.938788], [72.702322, 21.947577], [72.714041, 21.982978], [72.734548, 21.986558], [72.734548, 21.994045], [72.707774, 21.994045], [72.693533, 21.972317], [72.623057, 21.96662], [72.581798, 21.928168], [72.542735, 21.910834], [72.50172, 21.97602], [72.522227, 22.054267], [72.519542, 22.088446], [72.535899, 22.14053], [72.57545, 22.194525], [72.614106, 22.211737], [72.634451, 22.210395], [72.681895, 22.181586], [72.707774, 22.185777], [72.74822, 22.164049], [72.812266, 22.234117], [72.847423, 22.240424], [72.897227, 22.213039], [72.916026, 22.22309], [72.922699, 22.254584], [72.917491, 22.27143], [72.905772, 22.281399], [72.899669, 22.269192], [72.869477, 22.262397], [72.838634, 22.276557], [72.818207, 22.273424], [72.756602, 22.24372], [72.659434, 22.273912], [72.625011, 22.271389], [72.606619, 22.28384], [72.573741, 22.288235], [72.553071, 22.282457], [72.50172, 22.240424], [72.466156, 22.232571], [72.454845, 22.245307], [72.46697, 22.255845], [72.463878, 22.263983], [72.448741, 22.266832], [72.413748, 22.246324], [72.391856, 22.253485], [72.380382, 22.312405], [72.404959, 22.332953], [72.408051, 22.353461], [72.397227, 22.366767], [72.361013, 22.343451], [72.328298, 22.260728], [72.275157, 22.260321], [72.263194, 22.276353], [72.264659, 22.295233], [72.240408, 22.301907], [72.208507, 22.300442], [72.200938, 22.291449], [72.206309, 22.273912], [72.148774, 22.277899], [72.166026, 22.260321], [72.190684, 22.251288], [72.240408, 22.288235], [72.246104, 22.27558], [72.234141, 22.243557], [72.239106, 22.238918], [72.268321, 22.226752], [72.306488, 22.22956], [72.317231, 22.184882], [72.307628, 22.079006], [72.295665, 22.051174], [72.25766, 22.012152], [72.220958, 22.010972], [72.214366, 21.994045], [72.206309, 21.994045], [72.19988, 22.006985], [72.173106, 21.975653], [72.163422, 21.973212], [72.151703, 21.993883], [72.134288, 22.004584], [72.097016, 22.007025], [72.128103, 21.983547], [72.124848, 21.972317], [72.114919, 21.969387], [72.076508, 21.979722], [72.104503, 21.959215], [72.102061, 21.945054], [72.055186, 21.953518], [72.028656, 21.938788], [72.104503, 21.91767], [72.156505, 21.925849], [72.145356, 21.910834], [72.15919, 21.904608], [72.152354, 21.897854], [72.16977, 21.890448], [72.160004, 21.865912], [72.169444, 21.841376], [72.13087, 21.846259], [72.098481, 21.88052], [72.057953, 21.898749], [72.049327, 21.880439], [72.086436, 21.865627], [72.104503, 21.835761], [72.062836, 21.834377], [72.004161, 21.857733], [71.99464, 21.839504], [71.996104, 21.799506], [72.001475, 21.787909], [72.021821, 21.800971], [72.021821, 21.774319], [72.073904, 21.788723], [72.103201, 21.775214], [72.117442, 21.776597], [72.166026, 21.793931], [72.177013, 21.766669], [72.202403, 21.748114], [72.223806, 21.700588], [72.240408, 21.691718], [72.271739, 21.690904], [72.295665, 21.653876], [72.298839, 21.626288], [72.275157, 21.595526], [72.242198, 21.48078], [72.2199, 21.444729], [72.16684, 21.392076], [72.151622, 21.360175], [72.104503, 21.315009], [72.111501, 21.296088], [72.097016, 21.287665], [72.10255, 21.2744], [72.090831, 21.252916], [72.104747, 21.205064], [72.055024, 21.168362], [71.990733, 21.136379], [71.92628, 21.130032], [71.76295, 21.032294], [71.717621, 21.03205], [71.639985, 20.996812], [71.583507, 20.958238], [71.549571, 20.951239], [71.569347, 20.979193], [71.551117, 20.973578], [71.493419, 20.929145], [71.480724, 20.900377], [71.46225, 20.885321], [71.318614, 20.849311], [71.140636, 20.765692], [71.09547, 20.763739], [71.062348, 20.738959], [71.00766, 20.741604], [71.000824, 20.722154], [70.982432, 20.71015], [70.84018, 20.70189], [70.801606, 20.709052], [70.774587, 20.727362], [70.740245, 20.718492], [70.698578, 20.746405], [70.541515, 20.807847], [70.451427, 20.855902], [70.398774, 20.90351], [70.336681, 20.927069], [70.054445, 21.153155], [69.958263, 21.273342], [69.844981, 21.389594], [69.814708, 21.433661], [69.808604, 21.465806], [69.788748, 21.469306], [69.756358, 21.490424], [69.629731, 21.616034], [69.568207, 21.650133], [69.49936, 21.720201], [69.478526, 21.752631], [69.427419, 21.781236], [69.397716, 21.815253], [69.39088, 21.876695], [69.367849, 21.856106], [69.355479, 21.853176], [69.336192, 21.862454], [69.198416, 21.979722], [69.150645, 22.041205], [69.103038, 22.076361], [69.048188, 22.157904], [68.994151, 22.203925], [68.944591, 22.295071], [68.944021, 22.318264], [68.983246, 22.419379], [69.007498, 22.443183], [69.073578, 22.481879], [69.085216, 22.472886], [69.082286, 22.45954], [69.048188, 22.431586], [69.071788, 22.399482], [69.097423, 22.398871], [69.122732, 22.411078], [69.146983, 22.404853], [69.178559, 22.427639], [69.202159, 22.414862], [69.20574, 22.398668], [69.18214, 22.366441], [69.185313, 22.349677], [69.169688, 22.327948], [69.173839, 22.308295], [69.212087, 22.281399], [69.212087, 22.273912], [69.286469, 22.284613], [69.335704, 22.306138], [69.346446, 22.324897], [69.359874, 22.329169], [69.435395, 22.33039], [69.479666, 22.342231], [69.502696, 22.37226], [69.519867, 22.377631], [69.525645, 22.392076], [69.513682, 22.431586], [69.515961, 22.448147], [69.547862, 22.452094], [69.561697, 22.391588], [69.554698, 22.377631], [69.616059, 22.355902], [69.629731, 22.383775], [69.640391, 22.375963], [69.669444, 22.409247], [69.699392, 22.404283], [69.733409, 22.480048], [69.794932, 22.418606], [69.806977, 22.420966], [69.833263, 22.463813], [69.884776, 22.473578], [69.972992, 22.541449], [70.059093, 22.558417], [70.144705, 22.547797], [70.178477, 22.561957], [70.319102, 22.778266], [70.32252, 22.822659], [70.342947, 22.843166], [70.375255, 22.902655], [70.404633, 22.919501], [70.45338, 22.96662], [70.486339, 22.96369], [70.504731, 22.97956], [70.527192, 23.023586], [70.528494, 23.047065], [70.523692, 23.07038], [70.50294, 23.104397], [70.467133, 23.129706], [70.450938, 23.105658], [70.410655, 23.086005], [70.398774, 23.069037], [70.410981, 23.023179], [70.401866, 22.999254], [70.401622, 22.953843], [70.392426, 22.940863], [70.34669, 22.931301], [70.325694, 22.945014], [70.303477, 22.938137], [70.291759, 22.95303], [70.269298, 22.958564], [70.233084, 23.000149], [70.231944, 22.974921], [70.222016, 22.959174], [70.163097, 22.948961], [70.147472, 22.966051], [70.12908, 22.969306], [70.130626, 22.993964], [70.109548, 22.959174], [70.132335, 22.941067], [70.135427, 22.929999], [70.061778, 22.918199], [69.996918, 22.893785], [69.833181, 22.858466], [69.780121, 22.82746], [69.760102, 22.808336], [69.728852, 22.754828], [69.715831, 22.746894], [69.653819, 22.760484], [69.585704, 22.761176], [69.556977, 22.77851], [69.500011, 22.781684], [69.338145, 22.833075], [69.23878, 22.841946], [69.201915, 22.85224], [69.039887, 22.950507], [68.866222, 23.019965], [68.654063, 23.157782], [68.649669, 23.180854], [68.622569, 23.191555], [68.599946, 23.225043], [68.595714, 23.240383], [68.609386, 23.226711], [68.623057, 23.267646], [68.57781, 23.255276], [68.552257, 23.259711], [68.541026, 23.278225], [68.561046, 23.316107], [68.606944, 23.325588], [68.592052, 23.340074], [68.571056, 23.346381], [68.561046, 23.363918], [68.541026, 23.357001], [68.520681, 23.369208], [68.515147, 23.399319], [68.529552, 23.411933], [68.541026, 23.411689], [68.536388, 23.421332], [68.501475, 23.423285], [68.490489, 23.409329], [68.475352, 23.404853], [68.462576, 23.409125], [68.458832, 23.419827], [68.465505, 23.445787], [68.44044, 23.434272], [68.423676, 23.445787], [68.447439, 23.487454], [68.48585, 23.514106], [68.481293, 23.525133], [68.458669, 23.52147], [68.437348, 23.548814], [68.446951, 23.502997], [68.431163, 23.493598], [68.411632, 23.494696], [68.406098, 23.508734], [68.408865, 23.621324], [68.427501, 23.631415], [68.491466, 23.618842], [68.492686, 23.6376], [68.468761, 23.640815], [68.469412, 23.659247], [68.533539, 23.679185], [68.583507, 23.735297], [68.637869, 23.761542], [68.654552, 23.799058], [68.670746, 23.815741], [68.725597, 23.818915], [68.821625, 23.878404], [68.805675, 23.884426], [68.78004, 23.874091], [68.766938, 23.878404], [68.717784, 23.84101], [68.633474, 23.833075], [68.598888, 23.781887], [68.554698, 23.768541], [68.51002, 23.744086], [68.47283, 23.737494], [68.427745, 23.714301], [68.34197, 23.623969], [68.353038, 23.610663], [68.327322, 23.5869], [68.181407, 23.594062], [68.143403, 23.612698], [68.150156, 23.631372], [68.17543, 23.631406], [68.184753, 23.652181], [68.199663, 23.659597], [68.220787, 23.65843], [68.232578, 23.644912], [68.245128, 23.659125], [68.27589, 23.665839], [68.280447, 23.685981], [68.240977, 23.674018], [68.208751, 23.696234], [68.19752, 23.714545], [68.197765, 23.774807], [68.169275, 23.748231], [68.163748, 23.757717], [68.183517, 23.8433], [68.207288, 23.877019], [68.26036, 23.895545], [68.251937, 23.904821], [68.25266, 23.920091], [68.263926, 23.93593], [68.274003, 23.937687], [68.286198, 23.916371], [68.300409, 23.910505], [68.325989, 23.927791], [68.335033, 23.940995], [68.330433, 23.966574], [68.342629, 23.968564], [68.353636, 23.939289], [68.385469, 23.960425], [68.431564, 23.967143], [68.724466, 23.965179], [68.725913, 24.289216], [68.747307, 24.331177], [68.79919, 24.329085], [68.813815, 24.30844], [68.819654, 24.250304], [68.838774, 24.236455], [68.885077, 24.313556], [68.904197, 24.320584], [68.921974, 24.310507], [68.962643, 24.257228], [68.980781, 24.255394], [69.067701, 24.288441], [69.166713, 24.253172], [69.206246, 24.258572], [69.280815, 24.283739], [69.563071, 24.276762], [69.59232, 24.264618], [69.670558, 24.188706], [69.714587, 24.168578], [69.769054, 24.162557], [69.972039, 24.165219], [70.015964, 24.174055], [70.052137, 24.202064], [70.097871, 24.298828], [70.242565, 24.330609], [70.29853, 24.363424], [70.353204, 24.366266], [70.416353, 24.401948], [70.520946, 24.424919], [70.562907, 24.424092], [70.575206, 24.400036], [70.546474, 24.373139], [70.545647, 24.362183], [70.567661, 24.272809], [70.621508, 24.241157], [70.755453, 24.231442], [70.851468, 24.264877], [70.857566, 24.271672], [70.840926, 24.30583], [70.856532, 24.323814], [70.917717, 24.361718], [70.936321, 24.367196], [70.996679, 24.356602], [71.025101, 24.38629], [71.082772, 24.411508], [71.07502, 24.436417], [71.00009, 24.452901], [70.977145, 24.464942], [70.973218, 24.48724], [70.980866, 24.534731], [70.957767, 24.556022], [70.954821, 24.584521], [70.977145, 24.639686], [71.063858, 24.682577], [71.036935, 24.72074], [71.00319, 24.808203], [70.915237, 24.946618], [70.848574, 25.163323], [70.734886, 25.267348], [70.710495, 25.335871], [70.654478, 25.39659], [70.646623, 25.431369], [70.653857, 25.674455], [70.632308, 25.701378], [70.592259, 25.708819], [70.477227, 25.676315], [70.360129, 25.673473], [70.303698, 25.684583], [70.249231, 25.707683], [70.213988, 25.786334], [70.114976, 25.881729], [70.083246, 25.929943], [70.064643, 25.980327], [70.078285, 26.099648], [70.132029, 26.18047], [70.146912, 26.217419], [70.151614, 26.254058], [70.142467, 26.313692], [70.160503, 26.371311], [70.158074, 26.530113], [70.1296, 26.562514], [70.056064, 26.589076], [69.815562, 26.580291], [69.772258, 26.59507], [69.659396, 26.677701], [69.50416, 26.735165], [69.472844, 26.766584], [69.465093, 26.80777], [69.507571, 27.050081], [69.534443, 27.125581], [69.575577, 27.188419], [69.666114, 27.270016], [69.730606, 27.310324], [69.848015, 27.410369], [69.908063, 27.497289], [69.993536, 27.571083], [70.016894, 27.60059], [70.101953, 27.81174], [70.199002, 27.90096], [70.267731, 27.945272], [70.341939, 28.01147], [70.456247, 28.039788], [70.534898, 28.015965], [70.633187, 27.93163], [70.64161, 27.911269], [70.640732, 27.854787], [70.671738, 27.791095], [70.710391, 27.74115], [70.761758, 27.709783], [70.831573, 27.701463], [70.91379, 27.717818], [71.150675, 27.822411], [71.226329, 27.845356], [71.397791, 27.868378], [71.477115, 27.862435], [71.560727, 27.868533], [71.860864, 27.950207], [71.874403, 27.95969], [71.89156, 28.097097], [71.908303, 28.135571], [71.988195, 28.228097], [72.149942, 28.353774], [72.197794, 28.44488], [72.256499, 28.645591], [72.28027, 28.687165], [72.354581, 28.767186], [72.901524, 29.022622], [72.930359, 29.047685], [72.962915, 29.116829], [73.050869, 29.228217], [73.232873, 29.536596], [73.370332, 29.927322], [73.385215, 29.942308], [73.52700515777182, 30.0], [80.0, 30.0], [80.0, 12.253515543838125], [79.952159, 12.229926]]], [[[73.640961, 10.069322], [73.632579, 10.057278], [73.633311, 10.077867], [73.643891, 10.09455], [73.640961, 10.069322]]], [[[73.657888, 10.139065], [73.654633, 10.141506], [73.65561, 10.144761], [73.662283, 10.144599], [73.657888, 10.139065]]], [[[72.63852, 10.559394], [72.627452, 10.554755], [72.648611, 10.573961], [72.63852, 10.559394]]], [[[72.548757, 10.779324], [72.541189, 10.772895], [72.540863, 10.776516], [72.548757, 10.779324]]], [[[73.681244, 10.82807], [73.684418, 10.827541], [73.672862, 10.824693], [73.671397, 10.829739], [73.681244, 10.82807]]], [[[72.744965, 11.109524], [72.739513, 11.108832], [72.739513, 11.113959], [72.750011, 11.119086], [72.744965, 11.109524]]], [[[73.010916, 11.490139], [73.005626, 11.479641], [73.004405, 11.496487], [73.013194, 11.502183], [73.010916, 11.490139]]], [[[72.705251, 11.687323], [72.700938, 11.686428], [72.705089, 11.692328], [72.716156, 11.694159], [72.705251, 11.687323]]], [[[72.179047, 10.8487], [72.200043, 10.878079], [72.200043, 10.864447], [72.172699, 10.809231], [72.179047, 10.8487]]], [[[72.795584, 11.257229], [72.775401, 11.186591], [72.770356, 11.20364], [72.789073, 11.261664], [72.795584, 11.257229]]]]}}, {"type": "Feature", "properties": {"name": "Iran"}, "geometry": {"type": "Polygon", "coordinates": [[[60.844379, 29.858179], [61.279184, 29.40663], [61.337372, 29.374384], [61.34657, 29.349062], [61.332824, 29.274907], [61.342333, 29.25452], [61.386981, 29.206642], [61.397937, 29.159074], [61.437727, 29.139618], [61.460879, 29.093884], [61.48775, 29.080655], [61.487234, 29.06293], [61.46801, 29.041743], [61.510901, 29.007378], [61.553173, 28.922138], [61.566505, 28.870978], [61.595341, 28.842685], [61.623969, 28.78765], [61.653012, 28.756334], [61.756158, 28.673961], [61.797706, 28.626574], [61.89279, 28.5426], [62.049111, 28.486324], [62.147503, 28.475266], [62.230702, 28.442451], [62.362787, 28.418887], [62.390538, 28.406123], [62.420975, 28.368554], [62.46428, 28.349821], [62.492288, 28.300703], [62.575643, 28.229027], [62.739302, 28.258328], [62.761523, 28.246442], [62.76638, 28.211483], [62.735684, 27.994985], [62.780281, 27.829724], [62.814698, 27.494964], [62.8086, 27.453364], [62.756045, 27.348099], [62.775682, 27.326912], [62.778783, 27.299833], [62.768086, 27.274357], [62.742351, 27.266812], [62.800642, 27.225161], [62.829322, 27.233636], [62.892419, 27.213482], [63.177105, 27.258441], [63.271259, 27.203405], [63.319628, 27.117312], [63.280561, 27.123203], [63.260924, 27.115607], [63.231365, 27.065843], [63.234982, 26.941147], [63.264851, 26.890039], [63.261647, 26.871746], [63.246661, 26.85955], [63.206043, 26.853711], [63.189559, 26.846011], [63.182272, 26.83025], [63.174314, 26.685039], [63.163772, 26.645093], [63.141344, 26.625404], [63.09804, 26.638375], [63.068894, 26.632536], [62.753564, 26.644163], [62.742712, 26.641321], [62.724729, 26.615121], [62.70194, 26.60401], [62.671037, 26.597706], [62.6406, 26.605147], [62.595331, 26.580704], [62.418495, 26.562307], [62.396687, 26.539053], [62.355863, 26.536624], [62.291991, 26.501226], [62.297882, 26.474044], [62.248996, 26.416528], [62.265119, 26.360976], [62.243415, 26.350641], [62.123835, 26.373999], [62.094173, 26.314829], [62.032265, 26.302892], [61.977746, 26.273178], [61.857133, 26.242379], [61.832949, 26.225377], [61.809901, 26.167448], [61.754504, 25.819975], [61.739311, 25.803284], [61.681434, 25.795481], [61.66035, 25.769178], [61.676369, 25.6928], [61.673475, 25.65828], [61.652495, 25.637299], [61.643193, 25.613321], [61.620042, 25.285486], [61.588227, 25.202094], [61.579763, 25.233466], [61.554454, 25.254096], [61.544688, 25.248277], [61.537283, 25.220364], [61.55836, 25.200507], [61.504242, 25.208808], [61.482595, 25.193671], [61.524181, 25.173163], [61.489513, 25.118598], [61.420584, 25.096869], [61.435069, 25.087714], [61.411717, 25.059408], [61.185068, 25.123249], [61.185476, 25.139608], [61.170269, 25.16444], [61.03061, 25.209784], [60.633474, 25.27497], [60.616954, 25.283189], [60.632335, 25.296088], [60.608165, 25.327582], [60.601573, 25.405951], [60.549653, 25.446926], [60.514171, 25.447333], [60.445649, 25.428168], [60.428477, 25.419623], [60.395274, 25.377875], [60.402029, 25.344672], [60.437673, 25.33393], [60.452207, 25.317385], [60.441091, 25.316596], [60.470063, 25.303087], [60.467246, 25.290276], [60.362559, 25.330552], [60.319223, 25.329851], [60.290294, 25.351304], [60.303966, 25.371161], [60.289399, 25.377183], [60.201508, 25.371161], [60.192556, 25.356147], [60.215974, 25.33828], [60.20921, 25.319689], [60.181977, 25.319892], [60.161876, 25.331977], [60.11671, 25.33983], [60.082038, 25.36595], [60.0, 25.359536959728075], [60.0, 30.0], [60.98175325021641, 30.0], [60.844379, 29.858179]]]}}, {"type": "Feature", "properties": {"name": "Pakistan"}, "geometry": {"type": "MultiPolygon", "coordinates": [[[[73.385215, 29.942308], [73.370332, 29.927322], [73.232873, 29.536596], [73.050869, 29.228217], [72.962915, 29.116829], [72.930359, 29.047685], [72.901524, 29.022622], [72.354581, 28.767186], [72.28027, 28.687165], [72.256499, 28.645591], [72.197794, 28.44488], [72.149942, 28.353774], [71.988195, 28.228097], [71.908303, 28.135571], [71.89156, 28.097097], [71.874403, 27.95969], [71.860864, 27.950207], [71.560727, 27.868533], [71.477115, 27.862435], [71.397791, 27.868378], [71.226329, 27.845356], [71.150675, 27.822411], [70.91379, 27.717818], [70.831573, 27.701463], [70.761758, 27.709783], [70.710391, 27.74115], [70.671738, 27.791095], [70.640732, 27.854787], [70.64161, 27.911269], [70.633187, 27.93163], [70.534898, 28.015965], [70.456247, 28.039788], [70.341939, 28.01147], [70.267731, 27.945272], [70.199002, 27.90096], [70.101953, 27.81174], [70.016894, 27.60059], [69.993536, 27.571083], [69.908063, 27.497289], [69.848015, 27.410369], [69.730606, 27.310324], [69.666114, 27.270016], [69.575577, 27.188419], [69.534443, 27.125581], [69.507571, 27.050081], [69.465093, 26.80777], [69.472844, 26.766584], [69.50416, 26.735165], [69.659396, 26.677701], [69.772258, 26.59507], [69.815562, 26.580291], [70.056064, 26.589076], [70.1296, 26.562514], [70.158074, 26.530113], [70.160503, 26.371311], [70.142467, 26.313692], [70.151614, 26.254058], [70.146912, 26.217419], [70.132029, 26.18047], [70.078285, 26.099648], [70.064643, 25.980327], [70.083246, 25.929943], [70.114976, 25.881729], [70.213988, 25.786334], [70.249231, 25.707683], [70.303698, 25.684583], [70.360129, 25.673473], [70.477227, 25.676315], [70.592259, 25.708819], [70.632308, 25.701378], [70.653857, 25.674455], [70.646623, 25.431369], [70.654478, 25.39659], [70.710495, 25.335871], [70.734886, 25.267348], [70.848574, 25.163323], [70.915237, 24.946618], [71.00319, 24.808203], [71.036935, 24.72074], [71.063858, 24.682577], [70.977145, 24.639686], [70.954821, 24.584521], [70.957767, 24.556022], [70.980866, 24.534731], [70.973218, 24.48724], [70.977145, 24.464942], [71.00009, 24.452901], [71.07502, 24.436417], [71.082772, 24.411508], [71.073057, 24.402103], [71.025101, 24.38629], [70.996679, 24.356602], [70.936321, 24.367196], [70.917717, 24.361718], [70.856532, 24.323814], [70.840926, 24.30583], [70.857566, 24.271672], [70.851468, 24.264877], [70.755453, 24.231442], [70.621508, 24.241157], [70.584714, 24.2579], [70.56022, 24.287253], [70.545647, 24.362183], [70.546474, 24.373139], [70.575206, 24.400036], [70.562907, 24.424092], [70.520946, 24.424919], [70.416353, 24.401948], [70.353204, 24.366266], [70.29853, 24.363424], [70.242565, 24.330609], [70.109705, 24.3049], [70.087174, 24.28255], [70.052137, 24.202064], [70.015964, 24.174055], [69.972039, 24.165219], [69.769054, 24.162557], [69.714587, 24.168578], [69.670558, 24.188706], [69.59232, 24.264618], [69.563071, 24.276762], [69.280815, 24.283739], [69.206246, 24.258572], [69.166713, 24.253172], [69.067701, 24.288441], [68.980781, 24.255394], [68.962643, 24.257228], [68.921974, 24.310507], [68.904197, 24.320584], [68.885077, 24.313556], [68.838774, 24.236455], [68.819654, 24.250304], [68.813815, 24.30844], [68.79919, 24.329085], [68.747307, 24.331177], [68.725913, 24.289216], [68.724466, 23.965179], [68.431564, 23.967143], [68.385469, 23.960425], [68.353636, 23.939289], [68.348882, 23.964611], [68.330433, 23.966574], [68.335033, 23.940995], [68.314052, 23.915906], [68.300409, 23.910505], [68.286198, 23.916371], [68.274003, 23.937687], [68.263926, 23.93593], [68.25266, 23.920091], [68.251937, 23.904821], [68.26036, 23.895545], [68.207288, 23.877019], [68.183035, 23.842108], [68.157481, 23.905097], [68.157481, 23.864163], [68.170584, 23.839911], [68.143321, 23.761135], [68.157481, 23.696234], [68.149099, 23.694525], [68.102224, 23.733832], [68.098888, 23.709296], [68.081716, 23.708686], [68.062755, 23.723131], [68.053884, 23.74372], [68.074392, 23.764838], [68.081716, 23.80565], [68.102224, 23.809516], [68.102224, 23.815741], [68.059418, 23.861884], [68.053884, 23.88467], [68.063731, 23.923163], [68.047699, 23.92121], [68.01352, 23.939276], [68.053884, 23.829413], [68.024425, 23.774604], [68.01352, 23.768541], [67.994151, 23.811184], [67.971934, 23.802069], [67.950857, 23.808905], [67.934255, 23.832994], [67.909923, 23.836249], [67.899913, 23.86758], [67.891938, 23.869574], [67.868907, 23.850491], [67.863292, 23.902818], [67.855235, 23.911933], [67.831716, 23.809516], [67.773204, 23.821112], [67.718598, 23.843695], [67.741059, 23.823065], [67.743663, 23.808783], [67.73227, 23.795233], [67.637706, 23.801744], [67.629242, 23.812649], [67.656586, 23.919379], [67.650401, 23.933051], [67.638031, 23.91592], [67.63738, 23.874254], [67.629242, 23.856676], [67.614513, 23.850084], [67.589366, 23.866523], [67.58839, 23.88467], [67.574555, 23.871772], [67.546641, 23.898261], [67.532563, 23.899156], [67.530121, 23.891262], [67.546641, 23.870998], [67.478526, 23.891506], [67.512543, 23.898261], [67.540538, 23.939276], [67.509044, 23.923245], [67.498871, 23.925605], [67.506358, 23.974026], [67.451182, 23.987698], [67.478201, 24.032416], [67.492198, 24.028022], [67.519867, 24.045071], [67.533051, 24.070258], [67.509776, 24.052069], [67.440684, 24.070258], [67.354015, 24.070868], [67.341319, 24.086371], [67.326427, 24.143785], [67.300304, 24.186265], [67.292328, 24.261868], [67.279145, 24.281236], [67.292817, 24.302965], [67.285981, 24.329576], [67.305919, 24.342841], [67.362478, 24.34394], [67.325369, 24.357611], [67.28297, 24.357611], [67.271658, 24.369086], [67.286632, 24.439521], [67.2588, 24.419094], [67.246837, 24.467963], [67.210948, 24.50845], [67.230805, 24.525092], [67.226736, 24.532375], [67.204112, 24.535102], [67.194591, 24.547268], [67.183604, 24.590318], [67.21811, 24.582424], [67.252615, 24.590318], [67.208995, 24.613756], [67.159923, 24.61225], [67.15211, 24.615709], [67.149587, 24.635077], [67.156993, 24.662909], [67.175548, 24.688707], [67.255544, 24.747992], [67.232677, 24.770738], [67.167328, 24.760159], [67.156016, 24.791571], [67.139659, 24.80329], [67.099946, 24.797065], [67.081228, 24.80329], [67.073741, 24.795803], [67.08253, 24.774156], [67.02296, 24.810045], [66.987315, 24.822211], [66.965099, 24.843573], [66.957693, 24.843573], [66.965099, 24.810045], [66.941173, 24.812567], [66.882091, 24.85102], [66.85377, 24.85224], [66.802501, 24.839545], [66.779633, 24.85102], [66.679698, 24.830552], [66.654145, 24.839179], [66.656749, 24.85871], [66.677013, 24.879543], [66.704438, 24.892035], [66.704438, 24.898871], [66.681326, 24.910549], [66.681326, 24.948879], [66.697032, 25.025458], [66.699555, 25.085273], [66.713552, 25.120754], [66.73227, 25.143256], [66.737153, 25.181098], [66.710216, 25.239244], [66.547862, 25.365627], [66.553722, 25.385443], [66.579275, 25.379381], [66.591156, 25.399604], [66.587087, 25.426215], [66.550548, 25.457099], [66.531016, 25.518134], [66.512706, 25.508368], [66.50587, 25.52204], [66.492849, 25.518052], [66.477875, 25.549302], [66.437022, 25.597724], [66.387706, 25.592434], [66.372569, 25.603909], [66.375499, 25.625678], [66.338552, 25.6081], [66.303233, 25.60456], [66.258149, 25.612006], [66.239757, 25.599921], [66.203949, 25.593207], [66.167166, 25.566067], [66.13738, 25.513821], [66.10963, 25.495429], [66.094412, 25.47484], [66.213064, 25.49136], [66.241547, 25.518459], [66.2588, 25.524848], [66.258149, 25.543118], [66.336436, 25.553371], [66.352712, 25.535549], [66.38852, 25.52204], [66.423188, 25.481024], [66.456228, 25.496039], [66.475841, 25.493313], [66.492198, 25.481024], [66.45753, 25.453762], [66.497895, 25.430487], [66.511567, 25.414211], [66.498383, 25.398505], [66.359548, 25.465237], [66.31186, 25.474921], [66.278656, 25.467353], [66.251801, 25.472886], [66.15919, 25.446926], [66.069021, 25.446234], [65.92449, 25.418606], [65.858409, 25.417548], [65.765391, 25.377997], [65.724376, 25.371161], [65.65211, 25.344468], [65.467784, 25.385443], [65.400727, 25.366685], [65.382335, 25.371161], [65.395356, 25.392279], [65.336192, 25.385321], [65.292328, 25.364976], [65.259776, 25.380439], [65.23227, 25.370673], [65.187999, 25.311021], [65.155284, 25.296088], [65.058849, 25.314521], [64.920665, 25.327053], [64.889659, 25.328355], [64.861095, 25.316596], [64.807302, 25.328518], [64.744395, 25.324042], [64.695974, 25.297593], [64.66863, 25.255113], [64.662771, 25.229071], [64.66863, 25.206732], [64.709158, 25.19066], [64.710216, 25.179389], [64.65504, 25.165717], [64.600352, 25.173163], [64.626964, 25.211615], [64.627696, 25.228461], [64.610606, 25.251695], [64.56544, 25.27025], [64.518403, 25.27558], [64.492035, 25.245673], [64.439301, 25.234605], [64.417491, 25.240912], [64.360688, 25.283026], [64.265798, 25.298651], [64.24464, 25.316596], [64.18393, 25.318671], [64.094493, 25.335883], [64.106944, 25.385443], [64.083507, 25.40351], [64.083751, 25.426744], [64.106212, 25.433254], [64.14088, 25.42886], [64.15089, 25.432115], [64.155284, 25.446926], [64.127289, 25.453762], [64.056488, 25.441718], [64.045421, 25.450344], [63.976573, 25.412787], [63.997081, 25.419623], [64.011729, 25.397284], [64.035167, 25.416205], [64.048839, 25.41649], [64.0796, 25.364976], [64.059744, 25.34455], [63.987071, 25.338324], [63.969737, 25.344468], [63.944102, 25.334906], [63.804942, 25.374986], [63.737804, 25.385321], [63.669932, 25.383612], [63.57252, 25.364976], [63.537608, 25.344468], [63.495779, 25.291409], [63.485199, 25.284329], [63.469493, 25.289252], [63.4817, 25.260159], [63.518728, 25.220852], [63.511729, 25.200263], [63.500499, 25.193671], [63.411143, 25.22248], [63.376964, 25.227769], [63.308116, 25.220364], [63.178477, 25.258043], [63.144054, 25.260932], [63.027843, 25.220364], [62.942393, 25.227769], [62.770518, 25.261908], [62.527479, 25.264188], [62.477179, 25.259064], [62.465017, 25.23725], [62.467621, 25.223538], [62.489431, 25.214179], [62.469493, 25.206732], [62.444347, 25.213935], [62.413829, 25.206529], [62.365896, 25.179389], [62.34311, 25.155463], [62.339122, 25.124742], [62.35199, 25.112829], [62.387243, 25.101575], [62.381052, 25.087572], [62.289954, 25.090016], [62.256055, 25.098627], [62.290782, 25.124742], [62.315278, 25.130194], [62.318126, 25.141832], [62.297479, 25.185133], [62.254222, 25.212032], [62.145193, 25.218411], [62.080031, 25.197152], [62.058989, 25.161636], [62.07309, 25.15058], [62.077828, 25.127713], [62.097179, 25.107123], [62.075551, 25.100749], [61.929498, 25.109563], [61.881114, 25.103013], [61.847341, 25.037909], [61.790478, 25.017763], [61.754868, 25.013467], [61.729551, 25.021783], [61.720064, 25.037436], [61.73585, 25.069525], [61.728526, 25.083075], [61.76002, 25.115383], [61.766775, 25.145657], [61.783702, 25.173163], [61.783051, 25.187974], [61.749522, 25.173163], [61.694184, 25.200507], [61.588227, 25.202094], [61.620042, 25.285486], [61.643193, 25.613321], [61.652495, 25.637299], [61.673475, 25.65828], [61.676369, 25.6928], [61.66035, 25.769178], [61.681434, 25.795481], [61.739311, 25.803284], [61.754504, 25.819975], [61.809901, 26.167448], [61.832949, 26.225377], [61.857133, 26.242379], [61.977746, 26.273178], [62.032265, 26.302892], [62.094173, 26.314829], [62.123835, 26.373999], [62.243415, 26.350641], [62.265119, 26.360976], [62.248996, 26.416528], [62.297882, 26.474044], [62.291991, 26.501226], [62.355863, 26.536624], [62.396687, 26.539053], [62.418495, 26.562307], [62.595331, 26.580704], [62.6406, 26.605147], [62.671037, 26.597706], [62.70194, 26.60401], [62.724729, 26.615121], [62.742712, 26.641321], [62.753564, 26.644163], [63.068894, 26.632536], [63.09804, 26.638375], [63.141344, 26.625404], [63.163772, 26.645093], [63.174314, 26.685039], [63.182272, 26.83025], [63.189559, 26.846011], [63.246661, 26.85955], [63.261647, 26.871746], [63.264851, 26.890039], [63.234982, 26.941147], [63.231365, 27.065843], [63.260924, 27.115607], [63.280561, 27.123203], [63.319628, 27.117312], [63.271259, 27.203405], [63.177105, 27.258441], [62.892419, 27.213482], [62.829322, 27.233636], [62.800642, 27.225161], [62.742351, 27.266812], [62.768086, 27.274357], [62.778783, 27.299833], [62.775682, 27.326912], [62.756045, 27.348099], [62.8086, 27.453364], [62.814698, 27.494964], [62.780281, 27.829724], [62.735684, 27.994985], [62.76638, 28.211483], [62.761523, 28.246442], [62.739302, 28.258328], [62.575643, 28.229027], [62.492288, 28.300703], [62.46428, 28.349821], [62.420975, 28.368554], [62.390538, 28.406123], [62.362787, 28.418887], [62.230702, 28.442451], [62.147503, 28.475266], [62.049111, 28.486324], [61.89279, 28.5426], [61.797706, 28.626574], [61.756158, 28.673961], [61.653012, 28.756334], [61.623969, 28.78765], [61.595341, 28.842685], [61.566505, 28.870978], [61.553173, 28.922138], [61.510901, 29.007378], [61.46801, 29.041743], [61.487234, 29.06293], [61.48775, 29.080655], [61.460879, 29.093884], [61.437727, 29.139618], [61.397937, 29.159074], [61.386981, 29.206642], [61.342333, 29.25452], [61.332824, 29.274907], [61.34657, 29.349062], [61.337372, 29.374384], [61.279184, 29.40663], [60.844379, 29.858179], [62.374466, 29.424872], [62.477509, 29.407819], [63.568605, 29.497477], [63.971991, 29.429574], [64.086093, 29.386605], [64.113378, 29.396295], [64.172599, 29.4843], [64.207739, 29.499983], [64.477697, 29.570367], [64.820312, 29.567886], [65.036371, 29.540162], [66.195628, 29.835338], [66.27521, 29.885154], [66.322442, 29.946545], [66.340529, 29.956571], [66.28353427712325, 30.0], [73.52700515777182, 30.0], [73.385215, 29.942308]]], [[[67.390391, 24.049262], [67.458018, 24.06273], [67.485362, 24.048529], [67.46518, 24.040595], [67.453949, 24.013414], [67.426931, 24.007514], [67.393403, 24.028062], [67.375499, 24.06273], [67.390391, 24.049262]]]]}}, {"type": "Feature", "properties": {"name": "Afghanistan"}, "geometry": {"type": "Polygon", "coordinates": [[[66.340529, 29.956571], [66.322442, 29.946545], [66.27521, 29.885154], [66.195628, 29.835338], [65.036371, 29.540162], [64.820312, 29.567886], [64.477697, 29.570367], [64.207739, 29.499983], [64.172599, 29.4843], [64.113378, 29.396295], [64.086093, 29.386605], [63.971991, 29.429574], [63.568605, 29.497477], [62.477509, 29.407819], [62.374466, 29.424872], [60.844379, 29.858179], [60.98175325021641, 30.0], [66.28353427712325, 30.0], [66.340529, 29.956571]]]}}]}