{"type": "FeatureCollection", "features": [{"type": "Feature", "properties": {"name": "Provincia Heredia", "country": "CRI"}, "geometry": {"type": "Polygon", "coordinates": [[[-84.1555931, 10.7860078], [-84.1627802, 10.5849999], [-84.1643939, 10.1956442], [-84.1602603, 10.0971], [-84.1610692, 10.0831297], [-84.1683969, 10.060809], [-84.1675328, 10.0456788], [-84.1728793, 10.0341167], [-84.173693, 10.0050244], [-84.1879721, 9.994197], [-84.1985441, 9.9912954], [-84.1947539, 9.9772917], [-84.1997005, 9.9760441], [-84.1997558, 9.9680269], [-84.1899349, 9.9743947], [-84.1842103, 9.9733084], [-84.1817887, 9.9684165], [-84.1728945, 9.9719723], [-84.1683839, 9.9656083], [-84.1548848, 9.9687574], [-84.1452245, 9.9619956], [-84.133042, 9.967385], [-84.1139017, 9.9593118], [-84.1088323, 9.9621206], [-84.1067162, 9.9603676], [-84.1064053, 9.9630762], [-84.0936954, 9.962442], [-84.0828944, 9.9703508], [-84.0764525, 9.966984], [-84.076077, 9.9692981], [-84.0690067, 9.9668466], [-84.060414, 9.9703305], [-84.0576572, 9.9687159], [-84.0574517, 9.9727218], [-84.05198, 9.9738947], [-84.0540858, 9.9766702], [-84.0480855, 9.9763031], [-84.0352528, 9.9904808], [-84.0252764, 9.9915282], [-84.0223562, 10.0140749], [-84.0194839, 10.0156694], [-84.0203925, 10.0188431], [-84.0106725, 10.0238993], [-84.0102799, 10.0345797], [-84.0281308, 10.059581], [-84.0278204, 10.0809838], [-84.0145749, 10.0803071], [-84.0046115, 10.0859578], [-84.0010664, 10.092378], [-83.9947893, 10.095516], [-83.9890977, 10.0936108], [-83.9822027, 10.098766], [-83.9781047, 10.1132227], [-83.9800723, 10.122828], [-83.9759581, 10.1288152], [-83.9789015, 10.1493694], [-83.9739416, 10.1655205], [-83.9149562, 10.1989686], [-83.8911169, 10.2238374], [-83.8823888, 10.2267208], [-83.8642382, 10.2399618], [-83.8561806, 10.252589], [-83.8521492, 10.2723418], [-83.8468841, 10.2782164], [-83.8517675, 10.2906888], [-83.8493258, 10.2966182], [-83.852287, 10.3165011], [-83.8496027, 10.3199021], [-83.8530143, 10.323861], [-83.8494151, 10.3270625], [-83.8513045, 10.3311868], [-83.8476804, 10.3363816], [-83.8561037, 10.346771], [-83.8523096, 10.3523137], [-83.8574847, 10.3662758], [-83.8736572, 10.3869467], [-83.8803517, 10.404083], [-83.8738243, 10.4292444], [-83.8598992, 10.4374697], [-83.8590046, 10.444709], [-83.8556358, 10.4469036], [-83.8439199, 10.4455531], [-83.830423, 10.462793], [-83.8389444, 10.4744535], [-83.8307888, 10.4819065], [-83.8305906, 10.4901842], [-83.827164, 10.4935969], [-83.8324097, 10.4952859], [-83.8301871, 10.5035752], [-83.8390351, 10.51137], [-83.8372563, 10.5338785], [-83.846655, 10.552441], [-83.8444234, 10.5631992], [-83.8376497, 10.5683438], [-83.8330079, 10.5821832], [-83.8339375, 10.5905863], [-83.8412477, 10.5954081], [-83.8422095, 10.6015118], [-83.8457935, 10.6032374], [-83.8397262, 10.6208799], [-83.842059, 10.6314339], [-83.838734, 10.6473144], [-83.8254549, 10.6466513], [-83.818648, 10.6511802], [-83.7967805, 10.6529001], [-83.7871535, 10.6581478], [-83.7848127, 10.6747765], [-83.7707765, 10.696739], [-83.7638859, 10.7000897], [-83.7439073, 10.6925494], [-83.7106848, 10.6929315], [-83.7170814, 10.7037075], [-83.7401136, 10.7222945], [-83.7399477, 10.7312647], [-83.7324402, 10.7366384], [-83.7399992, 10.7548243], [-83.7538882, 10.7678536], [-83.7605717, 10.7700976], [-83.78963, 10.7705879], [-83.7944279, 10.7673564], [-83.8016073, 10.753187], [-83.8397161, 10.7439113], [-83.8626865, 10.7175793], [-83.869561, 10.7158505], [-83.8885834, 10.7217417], [-83.9137022, 10.7110223], [-83.9319356, 10.707672], [-83.9368514, 10.7209653], [-83.965157, 10.7276954], [-83.9690408, 10.7327342], [-83.9708654, 10.7449232], [-83.9789335, 10.746947], [-83.992833, 10.7585919], [-84.0022794, 10.7622938], [-84.0210167, 10.7916192], [-84.0272507, 10.7920288], [-84.0310757, 10.7880949], [-84.0362684, 10.7710631], [-84.0412466, 10.7710631], [-84.0508596, 10.7794948], [-84.0553228, 10.778483], [-84.0618353, 10.7728677], [-84.0621827, 10.7639031], [-84.0702788, 10.7597537], [-84.0872518, 10.7621252], [-84.1019562, 10.7743999], [-84.1060904, 10.7742466], [-84.1167116, 10.7649713], [-84.1251353, 10.7643608], [-84.1320888, 10.7718276], [-84.1339971, 10.7857553], [-84.1555931, 10.7860078]]]}}, {"type": "Feature", "properties": {"name": "Provincia Guanacaste", "country": "CRI"}, "geometry": {"type": "MultiPolygon", "coordinates": [[[[-85.169816, 10.0463632], [-85.1789823, 10.053544], [-85.1838249, 10.0657481], [-85.1913194, 10.0628249], [-85.1894746, 10.0615477], [-85.1885522, 10.05607], [-85.1900799, 10.0491447], [-85.1779446, 10.0379334], [-85.1642816, 10.0371954], [-85.1593238, 10.0309509], [-85.1537317, 10.0313199], [-85.1496098, 10.0404879], [-85.1520022, 10.0497407], [-85.169816, 10.0463632]]], [[[-85.2591261, 11.0779935], [-85.3571706, 11.1262044], [-85.4236556, 11.1288362], [-85.5232835, 11.168113], [-85.5603954, 11.2100435], [-85.6099005, 11.2195684], [-85.69285086105623, 11.079306675585627], [-85.6815922, 11.0681005], [-85.67305, 11.06631], [-85.6700701, 11.06088], [-85.6674969, 11.0452541], [-85.6703028, 11.0379894], [-85.6753671, 11.0323677], [-85.6882827, 11.0271284], [-85.7076343, 11.0307009], [-85.71314, 11.02653], [-85.7229338, 11.0461426], [-85.7277409, 11.0491207], [-85.7411227, 11.0436203], [-85.7400981, 11.0395351], [-85.7346401, 11.037215], [-85.7359202, 11.0322277], [-85.745654, 11.0340989], [-85.7466668, 11.0276945], [-85.7549654, 11.0254165], [-85.7523907, 11.0181481], [-85.7367507, 11.0082421], [-85.7246999, 11.0062299], [-85.7104, 10.9968899], [-85.70939, 10.9889], [-85.6997501, 10.9857599], [-85.6891536, 10.9769742], [-85.6885783, 10.9689462], [-85.6916674, 10.963493], [-85.7023356, 10.9650824], [-85.7070234, 10.9548571], [-85.71995, 10.95544], [-85.7005735, 10.9469788], [-85.7046601, 10.93489], [-85.7114401, 10.93634], [-85.71407, 10.93146], [-85.71175, 10.9260301], [-85.7216802, 10.9239337], [-85.7232101, 10.92814], [-85.7187701, 10.9307001], [-85.7197899, 10.93431], [-85.7275601, 10.93825], [-85.72918, 10.9339599], [-85.7332201, 10.93514], [-85.7325501, 10.939], [-85.74795, 10.9366199], [-85.7591499, 10.93911], [-85.7651499, 10.93836], [-85.7664701, 10.9354099], [-85.76931, 10.9391501], [-85.7774, 10.9399599], [-85.78134, 10.9341799], [-85.7847099, 10.93947], [-85.7891501, 10.9363999], [-85.7889101, 10.9319], [-85.79466, 10.93165], [-85.79646, 10.9346199], [-85.7997299, 10.9318], [-85.7844835, 10.9153911], [-85.7955199, 10.90808], [-85.8068301, 10.91766], [-85.8176399, 10.9210501], [-85.81969, 10.92957], [-85.81054, 10.93545], [-85.81676, 10.94501], [-85.82302, 10.94555], [-85.82537, 10.94247], [-85.82615, 10.9452999], [-85.83267, 10.94301], [-85.8360501, 10.9466299], [-85.83815, 10.9438], [-85.85457, 10.94477], [-85.86915, 10.95088], [-85.87151, 10.94844], [-85.88428, 10.94977], [-85.8639799, 10.94132], [-85.86126, 10.93513], [-85.86481, 10.92625], [-85.87683, 10.9212701], [-85.88073, 10.92309], [-85.8810099, 10.9194801], [-85.8995599, 10.9102699], [-85.9123301, 10.9100599], [-85.9144401, 10.9056901], [-85.9332301, 10.90008], [-85.9496999, 10.8895701], [-85.9160299, 10.89886], [-85.9069099, 10.89587], [-85.9035401, 10.8899299], [-85.86683, 10.8769101], [-85.85658, 10.86295], [-85.85414, 10.85418], [-85.8448882, 10.8568616], [-85.83381, 10.85243], [-85.8289773, 10.8544171], [-85.8041, 10.8492201], [-85.7974882, 10.8542064], [-85.78701, 10.8427601], [-85.7904701, 10.83642], [-85.8019499, 10.83337], [-85.8015901, 10.82538], [-85.79457, 10.82148], [-85.7925099, 10.81529], [-85.7758299, 10.81291], [-85.7633601, 10.80294], [-85.75786, 10.8105201], [-85.74428, 10.81871], [-85.7257899, 10.8124499], [-85.72294, 10.80883], [-85.71693, 10.81125], [-85.7091299, 10.80595], [-85.7020901, 10.80629], [-85.69613, 10.7997], [-85.6854299, 10.80249], [-85.67894, 10.79602], [-85.6841199, 10.80351], [-85.67995, 10.8045201], [-85.6768501, 10.79549], [-85.67347, 10.79573], [-85.6768501, 10.79446], [-85.6735, 10.7877501], [-85.65835, 10.76603], [-85.6570799, 10.7590699], [-85.6617301, 10.7496001], [-85.66304, 10.7369401], [-85.6531481, 10.6758709], [-85.6579877, 10.6642542], [-85.6759098, 10.6613962], [-85.67094, 10.6594], [-85.67056, 10.6557899], [-85.6748799, 10.65092], [-85.6790368, 10.6523711], [-85.684642, 10.6442887], [-85.6798989, 10.6419936], [-85.6721792, 10.6450362], [-85.67049, 10.64214], [-85.6757713, 10.6355719], [-85.6840781, 10.6352623], [-85.6860812, 10.6304485], [-85.6883286, 10.6320131], [-85.6911852, 10.6255536], [-85.6854652, 10.6211188], [-85.6886401, 10.6127355], [-85.6992869, 10.6107234], [-85.6909701, 10.6058899], [-85.6898801, 10.6101031], [-85.6793329, 10.6113759], [-85.6740564, 10.6229007], [-85.6741227, 10.6315398], [-85.66505, 10.63438], [-85.6565527, 10.6424824], [-85.6518856, 10.6399739], [-85.6528542, 10.6428907], [-85.6496428, 10.6429543], [-85.6343099, 10.63528], [-85.6275021, 10.6237145], [-85.626036, 10.6252736], [-85.63048, 10.61903], [-85.6405537, 10.6137705], [-85.6443487, 10.6039125], [-85.6490001, 10.6040991], [-85.6516565, 10.5901393], [-85.6622843, 10.5875327], [-85.6640103, 10.5926686], [-85.6716801, 10.5901381], [-85.6761801, 10.5924199], [-85.68048, 10.5898699], [-85.6768224, 10.5805594], [-85.6823221, 10.5716536], [-85.6999678, 10.5728428], [-85.6996384, 10.5698647], [-85.6910379, 10.5654347], [-85.6968269, 10.5530055], [-85.7057227, 10.5501745], [-85.7140309, 10.5563268], [-85.7213517, 10.5463167], [-85.7259999, 10.5489744], [-85.7284636, 10.5440938], [-85.73576, 10.5437101], [-85.7426917, 10.5352218], [-85.7530775, 10.5300453], [-85.7653519, 10.5347919], [-85.7687919, 10.5420617], [-85.773936, 10.5401967], [-85.7779417, 10.5437317], [-85.7779618, 10.5384418], [-85.7829119, 10.5382118], [-85.7819101, 10.52957], [-85.78608, 10.52921], [-85.78688, 10.5239301], [-85.79131, 10.52434], [-85.79056, 10.51763], [-85.8007001, 10.51999], [-85.80045, 10.51741], [-85.8083399, 10.5142497], [-85.8114819, 10.5166543], [-85.8096388, 10.5127998], [-85.79802, 10.5071], [-85.80287, 10.49784], [-85.7948101, 10.4954899], [-85.79352, 10.4921301], [-85.7977199, 10.4823501], [-85.78809, 10.48219], [-85.78576, 10.4786999], [-85.78785, 10.47742], [-85.77978, 10.4753301], [-85.77699, 10.4575401], [-85.7717648, 10.4559492], [-85.7732048, 10.4468792], [-85.7833444, 10.4369759], [-85.7890982, 10.4383981], [-85.7869218, 10.4394212], [-85.7889314, 10.4424921], [-85.7999034, 10.4459517], [-85.7936707, 10.4396392], [-85.7958552, 10.4291477], [-85.7904446, 10.4223656], [-85.7987863, 10.4067327], [-85.8076322, 10.4005489], [-85.8153945, 10.399805], [-85.8199221, 10.4016728], [-85.8211701, 10.4095101], [-85.82637, 10.41082], [-85.82759, 10.39845], [-85.8329401, 10.3962801], [-85.8360501, 10.3995101], [-85.83503, 10.39255], [-85.8461693, 10.3802231], [-85.8470799, 10.3716001], [-85.8533598, 10.3713698], [-85.8554299, 10.36647], [-85.8653199, 10.3665001], [-85.87525, 10.3566099], [-85.8724, 10.34913], [-85.8622266, 10.3480376], [-85.86072, 10.34419], [-85.8574714, 10.3455401], [-85.8399211, 10.3187836], [-85.8382378, 10.3084584], [-85.8412667, 10.3015241], [-85.8539732, 10.2924099], [-85.8490872, 10.2852358], [-85.8445347, 10.2866034], [-85.8478389, 10.2895989], [-85.8441888, 10.2945864], [-85.8359796, 10.2844398], [-85.8386117, 10.2784335], [-85.8465813, 10.2751323], [-85.8472304, 10.2815757], [-85.8439049, 10.2859825], [-85.8491055, 10.2834515], [-85.8503788, 10.2850663], [-85.8484347, 10.2760835], [-85.8530801, 10.2622101], [-85.8515499, 10.25241], [-85.8468624, 10.2422201], [-85.8387133, 10.2356156], [-85.8364079, 10.2010263], [-85.8182246, 10.1785092], [-85.8081239, 10.1589035], [-85.8089289, 10.1499205], [-85.7993183, 10.1411271], [-85.800233, 10.1355249], [-85.7930973, 10.117716], [-85.7950609, 10.1095527], [-85.7876381, 10.1013558], [-85.78879, 10.09395], [-85.7822386, 10.0900719], [-85.7802292, 10.0826784], [-85.76988, 10.0727501], [-85.77114, 10.0676547], [-85.7669834, 10.0675819], [-85.7666672, 10.0621542], [-85.7500396, 10.0478026], [-85.7432052, 10.0359479], [-85.743321, 10.0292509], [-85.7397551, 10.0310128], [-85.7397237, 10.0261115], [-85.7314527, 10.0241384], [-85.7256343, 10.0137372], [-85.7196601, 10.01225], [-85.69947, 9.99336], [-85.6806, 9.96546], [-85.6865301, 9.9775901], [-85.6828899, 9.97757], [-85.68161, 9.9729301], [-85.6727699, 9.97444], [-85.67693, 9.97343], [-85.67824, 9.97034], [-85.68084, 9.97189], [-85.6785201, 9.9675099], [-85.6748501, 9.9738101], [-85.6687373, 9.9707935], [-85.67382, 9.9716001], [-85.6764399, 9.96723], [-85.6717501, 9.9685099], [-85.67268, 9.9651699], [-85.6772199, 9.9657001], [-85.68114, 9.9618399], [-85.6751901, 9.9543501], [-85.67468, 9.9504801], [-85.67781, 9.94844], [-85.6720999, 9.94609], [-85.66192, 9.9264601], [-85.6611901, 9.91306], [-85.6647065, 9.9078893], [-85.6714124, 9.9082068], [-85.6683746, 9.9035741], [-85.6582067, 9.9042251], [-85.6523003, 9.8991084], [-85.6525642, 9.9060871], [-85.64132, 9.9095], [-85.6293999, 9.9013401], [-85.6277709, 9.8959917], [-85.63021, 9.8938701], [-85.6100611, 9.8910761], [-85.6064229, 9.8873458], [-85.5948258, 9.8910038], [-85.5935842, 9.8857634], [-85.5852629, 9.8819465], [-85.5757263, 9.8819893], [-85.5693468, 9.8765651], [-85.5645426, 9.8804251], [-85.5588953, 9.8803203], [-85.541297, 9.8728168], [-85.5337501, 9.8742989], [-85.5292255, 9.8793651], [-85.5201297, 9.8801901], [-85.5084792, 9.870285], [-85.5093377, 9.8604297], [-85.5019978, 9.8640558], [-85.4988142, 9.862225], [-85.5004535, 9.8650189], [-85.4978706, 9.8688185], [-85.4890645, 9.87063], [-85.4827843, 9.8635101], [-85.4866947, 9.8586911], [-85.4676093, 9.8491923], [-85.4624989, 9.8495858], [-85.4602031, 9.8595321], [-85.4515002, 9.8625625], [-85.4299771, 9.8591585], [-85.4251841, 9.8521024], [-85.4142354, 9.8520451], [-85.4028255, 9.8473451], [-85.4040599, 9.85139], [-85.3962599, 9.8526499], [-85.3747099, 9.8468601], [-85.36877, 9.8406499], [-85.3602, 9.8398401], [-85.33197, 9.82244], [-85.3374, 9.8289], [-85.35286, 9.8362801], [-85.3550199, 9.83827], [-85.34852, 9.8403001], [-85.3475, 9.8346201], [-85.3322101, 9.8288799], [-85.3296401, 9.82191], [-85.33262, 9.82193], [-85.3343399, 9.81588], [-85.3216, 9.8176201], [-85.30191, 9.8063099], [-85.2988, 9.80681], [-85.30528, 9.8091601], [-85.3065499, 9.8140501], [-85.29256, 9.8065199], [-85.2852801, 9.80777], [-85.2858401, 9.7995299], [-85.29802, 9.8070601], [-85.2977699, 9.8047299], [-85.27913, 9.7922799], [-85.2651899, 9.77546], [-85.26089, 9.77802], [-85.2669799, 9.7798499], [-85.2685001, 9.7886199], [-85.2601601, 9.7927001], [-85.25888, 9.7888301], [-85.2539401, 9.7898301], [-85.25735, 9.7831501], [-85.2616741, 9.7816319], [-85.26025, 9.7768499], [-85.27514, 9.7600499], [-85.25259, 9.75066], [-85.23130222308417, 9.732899076698867], [-85.2399, 9.74364], [-85.23678, 9.7449101], [-85.2313601, 9.7376701], [-85.22755639962226, 9.7379101], [-85.20724, 9.75807], [-85.19555, 9.78359], [-85.19927, 9.8099], [-85.19428, 9.82624], [-85.17877, 9.85546], [-85.20057, 9.85848], [-85.22368, 9.89957], [-85.277717, 9.9150297], [-85.2799509, 9.9218365], [-85.2779929, 9.9273263], [-85.2678122, 9.9391074], [-85.2731463, 9.9509914], [-85.2697886, 9.9623622], [-85.257332, 9.9619361], [-85.2507824, 9.9658792], [-85.248288, 9.9721312], [-85.2371805, 9.9669055], [-85.2282815, 9.9666993], [-85.22044, 9.97048], [-85.2014, 9.96889], [-85.18941, 9.97161], [-85.17766, 9.98333], [-85.16931, 10.00966], [-85.1636285, 10.0174305], [-85.1712675, 10.0153052], [-85.1733624, 10.0158189], [-85.1735448, 10.0189048], [-85.1723898, 10.0156102], [-85.1632372, 10.0189896], [-85.1649994, 10.0218329], [-85.1701686, 10.0208658], [-85.168704, 10.0341037], [-85.1737505, 10.0330565], [-85.1861694, 10.0213535], [-85.1913028, 10.0247493], [-85.190556, 10.0293987], [-85.198692, 10.0271927], [-85.1904387, 10.0299441], [-85.1903587, 10.0242405], [-85.1850049, 10.0226477], [-85.1772896, 10.0339086], [-85.182787, 10.0383898], [-85.1862011, 10.0359124], [-85.1899344, 10.0361183], [-85.192361, 10.0387118], [-85.1930763, 10.0364239], [-85.1941762, 10.035781], [-85.1958365, 10.0368458], [-85.1923417, 10.0390805], [-85.1898114, 10.036627], [-85.1858238, 10.0387246], [-85.1884277, 10.0447503], [-85.1965777, 10.0446721], [-85.1927124, 10.0469431], [-85.1982664, 10.0493572], [-85.192415, 10.0478544], [-85.190338, 10.0551634], [-85.1964247, 10.0545875], [-85.1889321, 10.0557461], [-85.1897281, 10.0603976], [-85.195115, 10.0670814], [-85.1996101, 10.0672483], [-85.2043766, 10.0722333], [-85.1903034, 10.065218], [-85.1944417, 10.0831922], [-85.2037523, 10.0827503], [-85.2251545, 10.0919939], [-85.2296147, 10.0948458], [-85.2358728, 10.1077142], [-85.2389275, 10.1028714], [-85.2417766, 10.1074556], [-85.2459984, 10.1049184], [-85.2500475, 10.1057906], [-85.2510402, 10.1039065], [-85.2502855, 10.1058897], [-85.2495274, 10.106319], [-85.2457667, 10.1055413], [-85.2421953, 10.1080578], [-85.2397592, 10.1076031], [-85.2434347, 10.1116385], [-85.237308, 10.1125264], [-85.2405845, 10.122545], [-85.2391656, 10.1298883], [-85.2460339, 10.1343863], [-85.2458492, 10.1435211], [-85.249279, 10.1457955], [-85.2456603, 10.1446304], [-85.2435778, 10.1479275], [-85.2472309, 10.1763547], [-85.2428026, 10.2010149], [-85.2471531, 10.2096166], [-85.2408563, 10.2280637], [-85.2479894, 10.2454344], [-85.289974, 10.2693894], [-85.284798, 10.291572], [-85.3069809, 10.3060381], [-85.3123293, 10.3204499], [-85.3371222, 10.322787], [-85.3550284, 10.3138954], [-85.3593732, 10.3168249], [-85.3592911, 10.3244296], [-85.3569485, 10.316312], [-85.3421399, 10.32519], [-85.3137799, 10.32453], [-85.30626, 10.3188199], [-85.30346, 10.3074699], [-85.28348, 10.2977859], [-85.2781975, 10.2869172], [-85.2834847, 10.2696562], [-85.2683577, 10.2661225], [-85.248012, 10.2528549], [-85.2383527, 10.2529162], [-85.2464488, 10.2512405], [-85.2304084, 10.2362561], [-85.2279373, 10.2298116], [-85.2293958, 10.2186767], [-85.2345286, 10.2122756], [-85.2272449, 10.2042648], [-85.2268101, 10.1957599], [-85.21656, 10.1833003], [-85.1904853, 10.1734375], [-85.1757291, 10.1738399], [-85.1686207, 10.1667876], [-85.1586203, 10.1700473], [-85.1590831, 10.1666754], [-85.1520387, 10.1633462], [-85.1474774, 10.1652056], [-85.149154, 10.1632845], [-85.1429475, 10.1601178], [-85.1399583, 10.1626851], [-85.1335079, 10.1612909], [-85.129909, 10.1715475], [-85.119428, 10.175958], [-85.0989282, 10.1727191], [-85.1005451, 10.1780624], [-85.092807, 10.1704538], [-85.0935813, 10.1767587], [-85.0916952, 10.177799], [-85.0919795, 10.1703637], [-85.0894579, 10.1724282], [-85.0872231, 10.1699901], [-85.0881075, 10.1716026], [-85.0875278, 10.1772621], [-85.0861434, 10.1703737], [-85.08093, 10.1721739], [-85.0810244, 10.1764143], [-85.0788169, 10.1653278], [-85.0749165, 10.1730951], [-85.0721693, 10.1727338], [-85.0752779, 10.1712872], [-85.07665212978091, 10.162742723313581], [-85.05104, 10.16677], [-85.02779, 10.15419], [-84.97504, 10.1334], [-84.95329, 10.12047], [-84.94003, 10.12083], [-84.92735, 10.14337], [-84.9312, 10.16308], [-84.90941, 10.18287], [-84.88903, 10.18791], [-84.89452, 10.22378], [-84.87705, 10.26986], [-84.87016, 10.30575], [-84.85385, 10.3278], [-84.83598, 10.33608], [-84.81318, 10.32948], [-84.79653, 10.31583], [-84.784, 10.33635], [-84.77676, 10.35934], [-84.77084, 10.3631], [-84.78403, 10.38314], [-84.7676391, 10.4140257], [-84.7669989, 10.4248315], [-84.7736473, 10.4605569], [-84.7742422, 10.4970718], [-84.7920915, 10.4910637], [-84.796796, 10.4997702], [-84.8174966, 10.5133535], [-84.821797, 10.5263866], [-84.8355725, 10.5243627], [-84.8395679, 10.5302259], [-84.8458503, 10.5322126], [-84.845157, 10.5470853], [-84.8534274, 10.5480967], [-84.8663137, 10.5588065], [-84.8763408, 10.5628939], [-84.888446, 10.5602878], [-84.9041735, 10.5715543], [-84.9102219, 10.570336], [-84.9198375, 10.5750258], [-84.9228697, 10.5727742], [-84.9302012, 10.5795877], [-84.9299277, 10.5837004], [-84.9527735, 10.5881699], [-84.96088, 10.59729], [-84.97807, 10.60852], [-84.99956, 10.63464], [-85.00861, 10.65808], [-85.00995, 10.67454], [-85.01973, 10.70277], [-85.04475, 10.71379], [-85.07049, 10.71819], [-85.0879166, 10.7252546], [-85.0960649, 10.721031], [-85.1256922, 10.7208963], [-85.1432007, 10.7464268], [-85.1623575, 10.745755], [-85.2014675, 10.7522587], [-85.23889, 10.77062], [-85.27012, 10.76557], [-85.28915, 10.76716], [-85.29935, 10.77648], [-85.30394, 10.79075], [-85.3215156, 10.814986], [-85.3277597, 10.8137635], [-85.3350768, 10.8179577], [-85.3517352, 10.8366249], [-85.3611609, 10.8329796], [-85.3686281, 10.8363938], [-85.376825, 10.8353822], [-85.4020052, 10.8717046], [-85.4092364, 10.9155534], [-85.43202, 10.96124], [-85.42596, 10.9713], [-85.39281, 10.9833], [-85.37924, 10.99506], [-85.36572, 11.03112], [-85.35927, 11.03819], [-85.33516, 11.03854], [-85.32481, 11.04632], [-85.31486, 11.04629], [-85.29897, 11.02693], [-85.2827, 11.01567], [-85.27063, 11.0154], [-85.2591261, 11.0779935]]]]}}, {"type": "Feature", "properties": {"name": "Provincia Alajuela", "country": "CRI"}, "geometry": {"type": "Polygon", "coordinates": [[[-84.1555931, 10.7860078], [-84.1753656, 10.7859107], [-84.1911548, 10.7897818], [-84.2027081, 10.7817579], [-84.2077282, 10.7898098], [-84.204607, 10.7945626], [-84.2060866, 10.7973912], [-84.2113457, 10.8005687], [-84.2221777, 10.8007417], [-84.2287992, 10.8114715], [-84.2366149, 10.8138435], [-84.2366511, 10.8201135], [-84.2207727, 10.8245241], [-84.2147268, 10.8406804], [-84.2193046, 10.8636306], [-84.2252622, 10.8734297], [-84.2395155, 10.877117], [-84.2441503, 10.88504], [-84.2573225, 10.8909944], [-84.2832891, 10.8936371], [-84.2917702, 10.9111275], [-84.2993382, 10.9167508], [-84.3054286, 10.9156592], [-84.3102745, 10.921929], [-84.3165697, 10.9164448], [-84.3228764, 10.9180321], [-84.3325767, 10.9320962], [-84.3356458, 10.9450459], [-84.3505804, 10.9512818], [-84.3480054, 10.9661125], [-84.3417387, 10.9748968], [-84.358676, 10.9958462], [-84.3766406, 10.9777924], [-84.3995837, 10.9753551], [-84.4197724, 10.9553641], [-84.4500298, 10.9620993], [-84.4859338, 11.0009122], [-84.564502, 11.0330822], [-84.5748111, 11.0510699], [-84.6060841, 11.0383948], [-84.6662048, 11.0723797], [-84.6805456, 11.084402], [-84.7436432, 11.0482999], [-84.7497312, 11.041729], [-84.9102332, 10.943439], [-85.2302503, 11.0637171], [-85.2591261, 11.0779935], [-85.27063, 11.0154], [-85.2827, 11.01567], [-85.29897, 11.02693], [-85.31486, 11.04629], [-85.32481, 11.04632], [-85.33516, 11.03854], [-85.35927, 11.03819], [-85.36572, 11.03112], [-85.37924, 10.99506], [-85.39281, 10.9833], [-85.42596, 10.9713], [-85.43202, 10.96124], [-85.4092364, 10.9155534], [-85.4020052, 10.8717046], [-85.389946, 10.8530127], [-85.376825, 10.8353822], [-85.3686281, 10.8363938], [-85.3611609, 10.8329796], [-85.3517352, 10.8366249], [-85.3350768, 10.8179577], [-85.3277597, 10.8137635], [-85.3215156, 10.814986], [-85.30394, 10.79075], [-85.29935, 10.77648], [-85.28915, 10.76716], [-85.27012, 10.76557], [-85.23889, 10.77062], [-85.2014675, 10.7522587], [-85.1623575, 10.745755], [-85.1432007, 10.7464268], [-85.1256922, 10.7208963], [-85.0960649, 10.721031], [-85.0879166, 10.7252546], [-85.07049, 10.71819], [-85.04475, 10.71379], [-85.01973, 10.70277], [-85.00995, 10.67454], [-85.00861, 10.65808], [-84.99956, 10.63464], [-84.97807, 10.60852], [-84.96088, 10.59729], [-84.9527735, 10.5881699], [-84.9299277, 10.5837004], [-84.9302012, 10.5795877], [-84.9228697, 10.5727742], [-84.9198375, 10.5750258], [-84.9102219, 10.570336], [-84.9041735, 10.5715543], [-84.888446, 10.5602878], [-84.8763408, 10.5628939], [-84.8663137, 10.5588065], [-84.8534274, 10.5480967], [-84.845157, 10.5470853], [-84.8458503, 10.5322126], [-84.8395679, 10.5302259], [-84.8355725, 10.5243627], [-84.821797, 10.5263866], [-84.8174966, 10.5133535], [-84.796796, 10.4997702], [-84.7920915, 10.4910637], [-84.7742422, 10.4970718], [-84.7736473, 10.4605569], [-84.7669989, 10.4248315], [-84.7676391, 10.4140257], [-84.78403, 10.38314], [-84.77084, 10.3631], [-84.77676, 10.35934], [-84.784, 10.33635], [-84.79653, 10.31583], [-84.77896, 10.29049], [-84.74547, 10.26738], [-84.69505, 10.28794], [-84.68469, 10.28431], [-84.66199, 10.25851], [-84.65633, 10.23886], [-84.68066, 10.18989], [-84.669, 10.1821], [-84.66929, 10.12538], [-84.64768, 10.08394], [-84.63332, 10.07743], [-84.62582, 10.04492], [-84.57206, 10.04216], [-84.55656, 10.02667], [-84.55426, 10.00812], [-84.55923, 9.99059], [-84.58192, 9.98218], [-84.61034, 9.95081], [-84.64227, 9.94905], [-84.65076, 9.93952], [-84.66275, 9.91399], [-84.67501, 9.91006], [-84.6809962, 9.9010438], [-84.68363, 9.88282], [-84.67576, 9.87013], [-84.6503, 9.86571], [-84.61742, 9.86569], [-84.60223, 9.8616], [-84.60037, 9.84844], [-84.59507, 9.84168], [-84.5681167, 9.8272513], [-84.5583423, 9.8352391], [-84.5635634, 9.8388679], [-84.5561317, 9.8499394], [-84.5491879, 9.8475681], [-84.5469112, 9.8609304], [-84.5372194, 9.8626858], [-84.5445211, 9.8760832], [-84.5412684, 9.8776566], [-84.5335848, 9.8728791], [-84.5340309, 9.8779483], [-84.5295281, 9.8769542], [-84.5260764, 9.8848924], [-84.5183644, 9.8865383], [-84.5133462, 9.8928972], [-84.5099101, 9.8927109], [-84.5079789, 9.8876481], [-84.498711, 9.9109942], [-84.4941139, 9.9072806], [-84.4833569, 9.9104181], [-84.4755743, 9.9157151], [-84.4686744, 9.9158099], [-84.4632035, 9.9238791], [-84.4558579, 9.9209075], [-84.4398417, 9.9241006], [-84.4358494, 9.9207928], [-84.4243968, 9.9253846], [-84.4216262, 9.9203936], [-84.4172949, 9.9211275], [-84.4124601, 9.9289119], [-84.407261, 9.9269173], [-84.4000499, 9.9312726], [-84.3942621, 9.9303006], [-84.3938826, 9.9360391], [-84.3891308, 9.9362692], [-84.3859447, 9.9316969], [-84.3823356, 9.9331874], [-84.3735414, 9.9259402], [-84.3679369, 9.9299447], [-84.3486537, 9.9167022], [-84.3391687, 9.9149624], [-84.3347789, 9.9177317], [-84.328325, 9.9142447], [-84.3272042, 9.916784], [-84.3211744, 9.9156265], [-84.3190877, 9.9204675], [-84.3149609, 9.9174076], [-84.3102869, 9.923352], [-84.2994339, 9.9249581], [-84.2938797, 9.9305058], [-84.284374, 9.9285613], [-84.2607068, 9.9327074], [-84.2522906, 9.927669], [-84.2421814, 9.9374529], [-84.2360396, 9.9378481], [-84.2307176, 9.948686], [-84.2249839, 9.9456269], [-84.2202436, 9.9479565], [-84.2176568, 9.9586886], [-84.2124833, 9.9632879], [-84.2026174, 9.9616691], [-84.1901534, 9.9735192], [-84.1835389, 9.9720001], [-84.1899349, 9.9743947], [-84.1997558, 9.9680269], [-84.1997005, 9.9760441], [-84.1947539, 9.9772917], [-84.1985441, 9.9912954], [-84.1879721, 9.994197], [-84.173693, 10.0050244], [-84.1728793, 10.0341167], [-84.1675328, 10.0456788], [-84.1683969, 10.060809], [-84.1610692, 10.0831297], [-84.1602603, 10.0971], [-84.1643939, 10.1956442], [-84.1627802, 10.5849999], [-84.1555931, 10.7860078]]]}}, {"type": "Feature", "properties": {"name": "Provincia San Jos\u00e9", "country": "CRI"}, "geometry": {"type": "Polygon", "coordinates": [[[-84.1835389, 9.9720001], [-84.1901534, 9.9735192], [-84.2026174, 9.9616691], [-84.2124833, 9.9632879], [-84.2176568, 9.9586886], [-84.2202436, 9.9479565], [-84.2249839, 9.9456269], [-84.2307176, 9.948686], [-84.2360396, 9.9378481], [-84.2421814, 9.9374529], [-84.2522906, 9.927669], [-84.2607068, 9.9327074], [-84.284374, 9.9285613], [-84.2938797, 9.9305058], [-84.2994339, 9.9249581], [-84.3102869, 9.923352], [-84.3149609, 9.9174076], [-84.3190877, 9.9204675], [-84.3211744, 9.9156265], [-84.3272042, 9.916784], [-84.328325, 9.9142447], [-84.3347789, 9.9177317], [-84.3391687, 9.9149624], [-84.3486537, 9.9167022], [-84.3679369, 9.9299447], [-84.3735414, 9.9259402], [-84.3823356, 9.9331874], [-84.3859447, 9.9316969], [-84.3891308, 9.9362692], [-84.3938826, 9.9360391], [-84.3942621, 9.9303006], [-84.4000499, 9.9312726], [-84.407261, 9.9269173], [-84.4124601, 9.9289119], [-84.4131058, 9.9241695], [-84.4216262, 9.9203936], [-84.4243968, 9.9253846], [-84.4358494, 9.9207928], [-84.4398417, 9.9241006], [-84.4558579, 9.9209075], [-84.4632035, 9.9238791], [-84.4686744, 9.9158099], [-84.4755743, 9.9157151], [-84.4833569, 9.9104181], [-84.4941139, 9.9072806], [-84.498711, 9.9109942], [-84.5079789, 9.8876481], [-84.5099101, 9.8927109], [-84.5133462, 9.8928972], [-84.5183644, 9.8865383], [-84.5260764, 9.8848924], [-84.5295281, 9.8769542], [-84.5340309, 9.8779483], [-84.5335848, 9.8728791], [-84.5412684, 9.8776566], [-84.5445211, 9.8760832], [-84.5372194, 9.8626858], [-84.5469112, 9.8609304], [-84.5491879, 9.8475681], [-84.5561317, 9.8499394], [-84.5571725, 9.8452609], [-84.563043, 9.8422487], [-84.5635634, 9.8388679], [-84.5583423, 9.8352391], [-84.5605263, 9.8320771], [-84.5681167, 9.8272513], [-84.5730603, 9.8291741], [-84.58631, 9.81881], [-84.58687, 9.80559], [-84.56969, 9.80605], [-84.56153, 9.78316], [-84.54737, 9.78354], [-84.54075, 9.77292], [-84.55902, 9.75682], [-84.58318, 9.75798], [-84.59, 9.75359], [-84.59283, 9.72411], [-84.5835458, 9.7043346], [-84.5848118, 9.691607], [-84.5826553, 9.6891111], [-84.58705, 9.67685], [-84.58218, 9.66378], [-84.55859, 9.6386], [-84.55808, 9.61971], [-84.55309, 9.60214], [-84.53938, 9.5857], [-84.51382, 9.57738], [-84.48248, 9.57822], [-84.44733, 9.58396], [-84.44244, 9.56999], [-84.43226, 9.56156], [-84.39521, 9.60877], [-84.40359, 9.62865], [-84.39608, 9.64115], [-84.37277, 9.63788], [-84.32399, 9.64128], [-84.30683, 9.65375], [-84.28322, 9.63907], [-84.2552, 9.62932], [-84.22508, 9.63043], [-84.20336, 9.61931], [-84.17168, 9.63036], [-84.15022, 9.62823], [-84.1480702, 9.6238591], [-84.1395002, 9.6220153], [-84.1309465, 9.6091404], [-84.1320759, 9.5982042], [-84.1400367, 9.5976329], [-84.1433626, 9.580622], [-84.1404229, 9.5755651], [-84.1290933, 9.5698099], [-84.1236001, 9.5569872], [-84.1205746, 9.5542788], [-84.09763, 9.56782], [-84.07567, 9.55881], [-84.0719515, 9.5254999], [-84.0738612, 9.5191302], [-84.0895468, 9.5096705], [-84.0784532, 9.5124428], [-84.0754113, 9.5046618], [-84.0605179, 9.4960574], [-84.04542, 9.47619], [-84.00799, 9.45259], [-84.0035323, 9.4477298], [-84.0052315, 9.4422676], [-83.9829799, 9.4324884], [-83.97395, 9.40909], [-83.95448, 9.3916], [-83.93588, 9.3951], [-83.92159, 9.41349], [-83.90551, 9.41002], [-83.90233, 9.3927], [-83.8909979, 9.3686122], [-83.86548, 9.34537], [-83.85461, 9.34476], [-83.84271, 9.33968], [-83.85326, 9.31689], [-83.85011, 9.26656], [-83.82297, 9.24418], [-83.78933, 9.22708], [-83.76328, 9.22267], [-83.74077, 9.24968], [-83.70727, 9.22627], [-83.66569, 9.14876], [-83.62271, 9.13191], [-83.60612, 9.10925], [-83.55885, 9.08981], [-83.54562, 9.07996], [-83.52427, 9.08233], [-83.50788, 9.08997], [-83.49816, 9.09863], [-83.49075, 9.11474], [-83.4904, 9.13545], [-83.479374, 9.1473243], [-83.4800653, 9.1519896], [-83.4733662, 9.1490434], [-83.4700901, 9.1522426], [-83.4693889, 9.1598506], [-83.4772232, 9.1716649], [-83.4727802, 9.181815], [-83.4806212, 9.186414], [-83.4810911, 9.1961688], [-83.4869061, 9.2002557], [-83.4887207, 9.1927795], [-83.5018574, 9.2020678], [-83.5119719, 9.2003972], [-83.5151499, 9.2152949], [-83.522255, 9.2078359], [-83.5243698, 9.2108781], [-83.5117185, 9.2326941], [-83.5119441, 9.2439278], [-83.5056583, 9.2617827], [-83.4964261, 9.2634137], [-83.490161, 9.2686658], [-83.4757962, 9.29088], [-83.4676208, 9.3146389], [-83.4519567, 9.3331028], [-83.4459915, 9.3491309], [-83.4336669, 9.3577846], [-83.42514, 9.36917], [-83.44869, 9.38609], [-83.48028, 9.45395], [-83.4885806, 9.4842927], [-83.504465, 9.4947358], [-83.5073005, 9.5004661], [-83.5349335, 9.5098619], [-83.5503938, 9.5286153], [-83.5922566, 9.5439365], [-83.6189864, 9.5582991], [-83.63859, 9.58166], [-83.6507711, 9.5830992], [-83.6583321, 9.5806046], [-83.6723874, 9.5635549], [-83.6742007, 9.5569296], [-83.6820695, 9.5514728], [-83.7028988, 9.5541828], [-83.7070407, 9.5592501], [-83.7198472, 9.5525186], [-83.7267084, 9.5587752], [-83.7478757, 9.5617403], [-83.7631027, 9.5813098], [-83.7575666, 9.5926716], [-83.7641112, 9.6048582], [-83.7790457, 9.6047947], [-83.7999026, 9.6137228], [-83.8317243, 9.6175098], [-83.8344494, 9.6223756], [-83.847324, 9.6238354], [-83.8456161, 9.6477935], [-83.8488197, 9.6501662], [-83.8505923, 9.6654121], [-83.8550968, 9.6708626], [-83.8744972, 9.6704458], [-83.8817887, 9.6666202], [-83.8894102, 9.6701926], [-83.9014027, 9.6895458], [-83.9093916, 9.6838442], [-83.920475, 9.6827879], [-83.9241923, 9.6953828], [-83.9368387, 9.7009067], [-83.9431338, 9.699673], [-83.9504751, 9.712838], [-83.9488125, 9.725487], [-83.9511849, 9.7391296], [-83.9798213, 9.7451499], [-83.9777738, 9.7533075], [-83.9784497, 9.7577062], [-83.9828378, 9.7601487], [-83.9817649, 9.7701723], [-83.987773, 9.7714939], [-83.9925932, 9.7839731], [-83.9979513, 9.7840868], [-84.0073117, 9.7760024], [-84.0279587, 9.7684625], [-84.0289351, 9.7646878], [-84.0369817, 9.7643812], [-84.0409728, 9.7675003], [-84.0711101, 9.7634401], [-84.0881161, 9.7694931], [-84.0845544, 9.7748978], [-84.0826442, 9.7897511], [-84.076792, 9.795141], [-84.0759981, 9.8007737], [-84.0464195, 9.8136375], [-84.0305758, 9.8245725], [-84.0254511, 9.8401395], [-84.0159944, 9.8446169], [-84.018401, 9.8529439], [-83.9989637, 9.8690814], [-83.9993417, 9.8766824], [-84.0128562, 9.8823671], [-84.0371121, 9.8863779], [-84.0417127, 9.8965713], [-84.0341763, 9.8939566], [-84.0304814, 9.8966622], [-84.0258663, 9.8937614], [-84.015502, 9.899337], [-84.0168883, 9.9076711], [-84.0072206, 9.9172345], [-84.0040207, 9.929451], [-84.0083872, 9.9397034], [-83.9688595, 9.9435615], [-83.9641859, 9.9504448], [-83.9564097, 9.9494475], [-83.94733, 9.9565], [-83.93248, 9.95361], [-83.91448, 9.95709], [-83.90415, 9.96577], [-83.88654, 9.97224], [-83.87922, 9.96914], [-83.8617086, 9.9733939], [-83.85669, 9.98385], [-83.8637, 9.99836], [-83.8673, 10.03215], [-83.87463, 10.04725], [-83.89038, 10.06152], [-83.91109, 10.06935], [-83.92219, 10.07865], [-83.92825, 10.10278], [-83.9412003, 10.1289626], [-83.9471742, 10.1467379], [-83.946609, 10.1534799], [-83.9383965, 10.1676836], [-83.9329105, 10.1872534], [-83.9522158, 10.1795099], [-83.9739416, 10.1655205], [-83.9789015, 10.1493694], [-83.9759581, 10.1288152], [-83.9800723, 10.122828], [-83.9781047, 10.1132227], [-83.9822027, 10.098766], [-83.9890977, 10.0936108], [-83.9947893, 10.095516], [-84.0010664, 10.092378], [-84.0046115, 10.0859578], [-84.0145749, 10.0803071], [-84.0278204, 10.0809838], [-84.0281308, 10.059581], [-84.0102799, 10.0345797], [-84.0106725, 10.0238993], [-84.0203925, 10.0188431], [-84.0194839, 10.0156694], [-84.0223562, 10.0140749], [-84.0252764, 9.9915282], [-84.0352528, 9.9904808], [-84.0480855, 9.9763031], [-84.0540858, 9.9766702], [-84.05198, 9.9738947], [-84.0574517, 9.9727218], [-84.0576572, 9.9687159], [-84.060414, 9.9703305], [-84.0690067, 9.9668466], [-84.076077, 9.9692981], [-84.0764525, 9.966984], [-84.0828944, 9.9703508], [-84.0936954, 9.962442], [-84.1064053, 9.9630762], [-84.1067162, 9.9603676], [-84.1088323, 9.9621206], [-84.1139017, 9.9593118], [-84.133042, 9.967385], [-84.1452245, 9.9619956], [-84.1548848, 9.9687574], [-84.1683839, 9.9656083], [-84.1728945, 9.9719723], [-84.1817887, 9.9684165], [-84.1835389, 9.9720001]]]}}, {"type": "Feature", "properties": {"name": "Provincia Puntarenas", "country": "CRI"}, "geometry": {"type": "MultiPolygon", "coordinates": [[[[-87.09465, 5.5184201], [-87.0916901, 5.51817], [-87.09118, 5.51262], [-87.08397, 5.50914], [-87.0842301, 5.50605], [-87.0793401, 5.5045], [-87.07908, 5.50115], [-87.07342, 5.4990899], [-87.06699, 5.51249], [-87.06287, 5.51069], [-87.0515501, 5.5183001], [-87.04564, 5.5177799], [-87.03972, 5.5247501], [-87.0304499, 5.52694], [-87.0277501, 5.5346699], [-87.03175, 5.5504], [-87.03715, 5.5514301], [-87.0433201, 5.54808], [-87.0458999, 5.5498801], [-87.0448701, 5.55375], [-87.05027, 5.55671], [-87.04963, 5.5522], [-87.05284, 5.5498801], [-87.0623599, 5.54962], [-87.05709, 5.54627], [-87.05928, 5.54228], [-87.0713699, 5.54305], [-87.07343, 5.54008], [-87.0826901, 5.5395699], [-87.09465, 5.5184201]]], [[[-83.8681823, 8.7138864], [-83.8850486, 8.7112643], [-83.8955639, 8.7056367], [-83.8905799, 8.701954], [-83.8741878, 8.6991547], [-83.8680531, 8.7048736], [-83.8681823, 8.7138864]]], [[[-83.1690536, 8.6151471], [-83.1767406, 8.604737], [-83.178386, 8.6112641], [-83.1707169, 8.6250679], [-83.178577, 8.6109869], [-83.1749244, 8.5931377], [-83.1692308, 8.5893981], [-83.1591156, 8.5700686], [-83.1409, 8.55491], [-83.1451, 8.56493], [-83.1558711, 8.5700343], [-83.153601, 8.5719982], [-83.1557533, 8.5776733], [-83.1607001, 8.5782399], [-83.1672, 8.5884368], [-83.1598379, 8.5869396], [-83.1613674, 8.592088], [-83.1550441, 8.5954508], [-83.16069, 8.6033827], [-83.1522442, 8.6095368], [-83.1636061, 8.6074238], [-83.1690536, 8.6151471]]], [[[-84.8823901, 9.8498], [-84.8806299, 9.8405201], [-84.8897399, 9.83723], [-84.87309, 9.8397], [-84.8712801, 9.84123], [-84.87621, 9.8421701], [-84.87644, 9.84539], [-84.86812, 9.84791], [-84.86442, 9.8507699], [-84.8823901, 9.8498]]], [[[-84.8863429, 9.7732014], [-84.9016273, 9.7713914], [-84.8951898, 9.7635266], [-84.8903142, 9.7639482], [-84.8907099, 9.7668688], [-84.8831636, 9.7704661], [-84.8863429, 9.7732014]]], [[[-85.07665212978091, 10.162742723313581], [-85.0762711, 10.1586784], [-85.0679087, 10.1582993], [-85.0713559, 10.1580242], [-85.0725167, 10.1539038], [-85.0668499, 10.1519801], [-85.0716887, 10.1430771], [-85.0793464, 10.1426112], [-85.0765877, 10.135496], [-85.0596254, 10.132949], [-85.0474546, 10.1412323], [-85.0363266, 10.1332797], [-85.025312, 10.131925], [-85.0160795, 10.1245856], [-85.0032341, 10.1031967], [-84.9664803, 10.0887791], [-84.9601312, 10.0808602], [-84.957804, 10.0699037], [-84.9541651, 10.0704097], [-84.9511915, 10.0759141], [-84.9457241, 10.0784599], [-84.950761, 10.0752123], [-84.9481502, 10.072482], [-84.9515744, 10.0743535], [-84.9537246, 10.0682171], [-84.9657228, 10.0692095], [-84.9682407, 10.0648509], [-84.9582413, 10.0635662], [-84.9533397, 10.0591511], [-84.9459781, 10.0629931], [-84.9274078, 10.0382419], [-84.9195492, 10.0391879], [-84.9180233, 10.0433825], [-84.9142643, 10.0443624], [-84.9206549, 10.0357233], [-84.908131, 10.0282115], [-84.8989922, 10.0270344], [-84.8975589, 10.0225266], [-84.8839552, 10.011187], [-84.8756375, 10.0077915], [-84.8755812, 10.009967], [-84.8734565, 10.0130432], [-84.8757219, 10.0143595], [-84.8734424, 10.0138469], [-84.8728514, 10.0128907], [-84.8751138, 10.009776], [-84.8651093, 10.0029584], [-84.8638429, 10.0033187], [-84.8639273, 10.0054527], [-84.8610147, 10.0091386], [-84.8655736, 10.0091525], [-84.8659254, 10.0101917], [-84.863266, 10.0111894], [-84.8639836, 10.0128661], [-84.8629564, 10.0111478], [-84.86525, 10.0092217], [-84.8607192, 10.0092079], [-84.8630127, 10.0032356], [-84.8568356, 10.0076005], [-84.8609443, 10.0040808], [-84.8579753, 10.0047737], [-84.8575391, 10.0007829], [-84.8500945, 9.9955032], [-84.8475639, 9.9952372], [-84.8482303, 9.9974632], [-84.8474649, 10.0018532], [-84.8477992, 9.9971736], [-84.8402283, 9.9899823], [-84.8402913, 9.9923769], [-84.8381841, 9.9948779], [-84.8368693, 9.9946827], [-84.836392, 9.9960131], [-84.8366261, 9.9944699], [-84.8399921, 9.991488], [-84.8338636, 9.9865621], [-84.8313902, 9.9886191], [-84.8348804, 9.9918128], [-84.8348804, 9.9936803], [-84.828477, 9.9946276], [-84.8343308, 9.9920023], [-84.819748, 9.9854604], [-84.8169197, 9.988717], [-84.8196636, 9.9934424], [-84.8152734, 9.9953963], [-84.8192977, 9.9930544], [-84.8163991, 9.9891881], [-84.8179328, 9.9857514], [-84.8050298, 9.9865967], [-84.8047483, 9.9904907], [-84.8107312, 9.9937338], [-84.8050084, 9.9909026], [-84.8073494, 9.9944569], [-84.8014747, 9.9937121], [-84.7990651, 10.0004502], [-84.8013868, 9.9931924], [-84.8067513, 9.9941451], [-84.8032512, 9.9899012], [-84.8035678, 9.9867486], [-84.7998566, 9.9876147], [-84.8043593, 9.9855707], [-84.7924177, 9.9854702], [-84.7919566, 9.988741], [-84.790333, 9.9899818], [-84.7909201, 9.9861717], [-84.7952739, 9.9829656], [-84.78789, 9.9821056], [-84.7882322, 9.9872497], [-84.7867987, 9.9880856], [-84.7870228, 9.9823789], [-84.7841207, 9.9826387], [-84.7824058, 9.993032], [-84.7796356, 9.9957168], [-84.7751282, 9.9961491], [-84.7815044, 9.9934434], [-84.7816162, 9.984862], [-84.7612994, 9.9845008], [-84.7815078, 9.9844698], [-84.7847493, 9.9811106], [-84.8147968, 9.9828665], [-84.8249455, 9.9791925], [-84.8486971, 9.9781013], [-84.8515208, 9.9766014], [-84.850078, 9.9748464], [-84.8332601, 9.97468], [-84.8108093, 9.9803488], [-84.78697, 9.98031], [-84.750957, 9.9723993], [-84.7389964, 9.9652439], [-84.7403724, 9.9590264], [-84.7365501, 9.9595841], [-84.7402483, 9.9573783], [-84.7402483, 9.9498332], [-84.7351397, 9.9462765], [-84.7354681, 9.9411977], [-84.7224169, 9.9330422], [-84.7135901, 9.9223018], [-84.7124505, 9.9285452], [-84.7047908, 9.9258108], [-84.706128, 9.9294588], [-84.7054975, 9.9304659], [-84.704039, 9.9296773], [-84.7047508, 9.9254551], [-84.7107433, 9.9277697], [-84.710769, 9.9195863], [-84.7150446, 9.9213143], [-84.7151665, 9.9118391], [-84.7275352, 9.9137479], [-84.7232986, 9.9072505], [-84.7256983, 9.8994784], [-84.7297181, 9.9005031], [-84.7308724, 9.8934764], [-84.7055512, 9.8746582], [-84.6970154, 9.8642871], [-84.6985763, 9.8619013], [-84.6961294, 9.860469], [-84.7006743, 9.860968], [-84.7010167, 9.8583495], [-84.678116, 9.8412549], [-84.6545176, 9.810378], [-84.6277758, 9.7620721], [-84.6272086, 9.754279], [-84.630959, 9.7501334], [-84.6325081, 9.7397058], [-84.6452314, 9.7301896], [-84.6499548, 9.7300179], [-84.6587325, 9.7173016], [-84.6608186, 9.7068282], [-84.6657571, 9.7049627], [-84.6690454, 9.7085671], [-84.6681801, 9.7013721], [-84.6750588, 9.6964671], [-84.67521, 9.68695], [-84.6682999, 9.6719601], [-84.67189, 9.6596201], [-84.67866, 9.6576], [-84.68013, 9.6511701], [-84.6670141, 9.6520742], [-84.667213, 9.6499668], [-84.6641604, 9.6484292], [-84.6663501, 9.6506725], [-84.6637441, 9.6517294], [-84.6635106, 9.6493439], [-84.6625988, 9.6521625], [-84.65716, 9.648238], [-84.6550557, 9.639004], [-84.6637076, 9.6314887], [-84.6508801, 9.6220169], [-84.6392466, 9.6200178], [-84.6278633, 9.6102119], [-84.6211149, 9.5985438], [-84.6266368, 9.5910651], [-84.6179976, 9.581403], [-84.541204, 9.5289979], [-84.53547, 9.5185601], [-84.48402, 9.52927], [-84.488222, 9.5302973], [-84.4716964, 9.5305265], [-84.47054, 9.5278801], [-84.4244699, 9.5140199], [-84.3359392, 9.4902694], [-84.2986754, 9.4859506], [-84.2554311, 9.473404], [-84.2477488, 9.4746531], [-84.2491009, 9.4782696], [-84.2501335, 9.4761551], [-84.2543864, 9.4793798], [-84.2621717, 9.4780596], [-84.2776172, 9.4818593], [-84.2850857, 9.4875535], [-84.2885931, 9.4860268], [-84.284343, 9.4885026], [-84.2728308, 9.4822719], [-84.2660637, 9.483386], [-84.2616425, 9.4890189], [-84.2624325, 9.4866813], [-84.2550692, 9.4882234], [-84.2634718, 9.4828643], [-84.2485217, 9.4807135], [-84.2450241, 9.470534], [-84.2309234, 9.4654964], [-84.2414244, 9.4844602], [-84.2440956, 9.4838197], [-84.243346, 9.4895573], [-84.2499259, 9.4926387], [-84.2461028, 9.4939729], [-84.2330292, 9.4736261], [-84.2317036, 9.476032], [-84.2284705, 9.4779033], [-84.2323136, 9.4722226], [-84.2259714, 9.4669125], [-84.218377, 9.4626266], [-84.2129824, 9.4631532], [-84.2133006, 9.4659096], [-84.2242277, 9.4665467], [-84.2179056, 9.4669782], [-84.2179056, 9.4697251], [-84.2140006, 9.4716586], [-84.2175322, 9.4682212], [-84.1799868, 9.4545448], [-84.1850762, 9.4522], [-84.1834582, 9.4480104], [-84.1934163, 9.4556409], [-84.1954193, 9.4532239], [-84.1990948, 9.4570605], [-84.1995615, 9.4542022], [-84.2043455, 9.4601488], [-84.2173363, 9.4610222], [-84.2157976, 9.4578441], [-84.1866401, 9.4457599], [-84.1663073, 9.4304341], [-84.1685702, 9.4356303], [-84.1677624, 9.4385268], [-84.1649657, 9.4331025], [-84.1661878, 9.4274292], [-84.167557, 9.4280128], [-84.1698516, 9.4282637], [-84.1677068, 9.4255355], [-84.1725497, 9.4240709], [-84.1663574, 9.4210072], [-84.1687766, 9.41728], [-84.1648718, 9.4160658], [-84.1666102, 9.4101848], [-84.163565, 9.4045071], [-84.1670551, 9.4007888], [-84.1729299, 9.4025844], [-84.1760527, 9.3994828], [-84.17431, 9.3940803], [-84.164347, 9.397027], [-84.1533187, 9.3934303], [-84.1466433, 9.3859473], [-84.1467097, 9.3808171], [-84.1497817, 9.3804905], [-84.1477154, 9.3763642], [-84.1444711, 9.3768741], [-84.1441165, 9.3816235], [-84.1352785, 9.3768745], [-84.1355616, 9.3841911], [-84.1303733, 9.3865303], [-84.1233339, 9.3688834], [-84.1230368, 9.3734287], [-84.1153543, 9.3748391], [-84.0928284, 9.3719681], [-84.0334414, 9.3453342], [-83.9783669, 9.3269333], [-83.9308516, 9.3012402], [-83.9243074, 9.300328], [-83.9238936, 9.2966475], [-83.9076618, 9.2851253], [-83.9026088, 9.2852991], [-83.9030633, 9.2822472], [-83.8973913, 9.2770554], [-83.8727849, 9.2563511], [-83.8543853, 9.2453712], [-83.8487373, 9.2362004], [-83.8493359, 9.2384862], [-83.8450539, 9.2365266], [-83.840544, 9.2290765], [-83.84439, 9.2206001], [-83.83715, 9.2222], [-83.8340001, 9.21708], [-83.8301199, 9.21788], [-83.8217701, 9.21099], [-83.8192001, 9.2129499], [-83.8101099, 9.21031], [-83.80461, 9.20366], [-83.7947601, 9.20387], [-83.7887401, 9.1958101], [-83.7788875, 9.1929356], [-83.7674033, 9.1804813], [-83.7600862, 9.1665004], [-83.75457, 9.1672301], [-83.7589699, 9.16616], [-83.7573099, 9.15098], [-83.7488979, 9.153849], [-83.72902, 9.14682], [-83.72088, 9.1322001], [-83.7156901, 9.1319801], [-83.70496, 9.11791], [-83.6944002, 9.1115375], [-83.6860619, 9.0992712], [-83.6884539, 9.0954081], [-83.6814066, 9.0952508], [-83.6773324, 9.0905715], [-83.6795817, 9.0837038], [-83.6668868, 9.0785597], [-83.6678717, 9.073558], [-83.6529666, 9.0670685], [-83.6402882, 9.0517481], [-83.6419222, 9.0478902], [-83.650374, 9.0519232], [-83.6591524, 9.0653079], [-83.6609881, 9.0626571], [-83.641113, 9.0360247], [-83.6311047, 9.0156344], [-83.63195, 8.98221], [-83.6299351, 8.9726582], [-83.6241837, 8.9666582], [-83.6261533, 8.9572975], [-83.6210681, 8.9310402], [-83.6233988, 8.9200805], [-83.61971, 8.91817], [-83.6088827, 8.9245913], [-83.6039045, 8.9208604], [-83.6002996, 8.9113635], [-83.5927465, 8.9086501], [-83.5877683, 8.9025448], [-83.5839918, 8.9071238], [-83.5853651, 8.9013576], [-83.5886266, 8.9003401], [-83.599613, 8.9064454], [-83.5972097, 8.8988137], [-83.5917166, 8.8964394], [-83.5860517, 8.8984745], [-83.5766932, 8.8943828], [-83.5764387, 8.8920298], [-83.5837257, 8.8933697], [-83.589485, 8.8901643], [-83.5672462, 8.8876033], [-83.5829618, 8.884737], [-83.6071193, 8.8906172], [-83.6104276, 8.8816842], [-83.6073377, 8.8735432], [-83.5927465, 8.8655716], [-83.5790136, 8.8475924], [-83.5748937, 8.849119], [-83.5764113, 8.8606891], [-83.5709455, 8.8555644], [-83.5704305, 8.8499671], [-83.5730827, 8.8446919], [-83.5862234, 8.8433519], [-83.5913732, 8.8457266], [-83.5970906, 8.841505], [-83.595687, 8.836039], [-83.5847098, 8.8278985], [-83.5933753, 8.8317151], [-83.6063375, 8.8297571], [-83.6173183, 8.8224145], [-83.624914, 8.8211907], [-83.6385368, 8.8118082], [-83.6419219, 8.8027519], [-83.6514991, 8.7940217], [-83.6461325, 8.7941033], [-83.6382891, 8.779906], [-83.6335831, 8.779906], [-83.6259048, 8.783741], [-83.6221006, 8.7967033], [-83.6147192, 8.8041675], [-83.6118188, 8.7979303], [-83.6214986, 8.7746484], [-83.6288899, 8.7714401], [-83.63642, 8.77487], [-83.64608, 8.76785], [-83.6401143, 8.7367943], [-83.6492755, 8.7314712], [-83.6496053, 8.7080635], [-83.6552688, 8.696799], [-83.6696356, 8.6901725], [-83.6745285, 8.6967495], [-83.6849296, 8.6934756], [-83.6905354, 8.6957314], [-83.6990412, 8.689228], [-83.707867, 8.6884061], [-83.7122807, 8.6778389], [-83.7163538, 8.6758455], [-83.7131882, 8.651341], [-83.7225846, 8.6430517], [-83.73241, 8.6413763], [-83.7289524, 8.6316814], [-83.7359564, 8.6232068], [-83.7345161, 8.598757], [-83.7325399, 8.5917188], [-83.7226377, 8.5828634], [-83.7181863, 8.5861605], [-83.6980568, 8.5785923], [-83.6957871, 8.5803151], [-83.6963912, 8.575922], [-83.6938098, 8.57512], [-83.6980187, 8.5762276], [-83.6894145, 8.5652448], [-83.6529649, 8.527921], [-83.6486594, 8.5273114], [-83.6481659, 8.5211755], [-83.6042264, 8.488016], [-83.5924751, 8.4718398], [-83.5895827, 8.4595156], [-83.5714692, 8.4516047], [-83.5685418, 8.4418577], [-83.5455365, 8.4399092], [-83.5405626, 8.4439919], [-83.5125901, 8.44875], [-83.4770551, 8.4454952], [-83.4356799, 8.4352], [-83.39469, 8.4171599], [-83.40159, 8.4230399], [-83.3978401, 8.42384], [-83.39704, 8.41998], [-83.3795525, 8.4115757], [-83.3934001, 8.4164], [-83.34854, 8.39864], [-83.3392863, 8.3978531], [-83.2990515, 8.3754417], [-83.290369, 8.3741704], [-83.277374, 8.3865022], [-83.2810822, 8.3986945], [-83.27996, 8.4157901], [-83.2720199, 8.43], [-83.2835927, 8.4472662], [-83.2787801, 8.45778], [-83.27094, 8.4652999], [-83.27698, 8.4807299], [-83.2842499, 8.48479], [-83.2913301, 8.50124], [-83.2915392, 8.5066887], [-83.2849378, 8.5327129], [-83.2843506, 8.541425], [-83.2877479, 8.5416943], [-83.291798, 8.537584], [-83.2875601, 8.5411901], [-83.2850775, 8.5327721], [-83.2906899, 8.5234001], [-83.2929001, 8.5254399], [-83.2870001, 8.5347501], [-83.2927202, 8.532007], [-83.2916613, 8.5350954], [-83.3037859, 8.5423094], [-83.3064574, 8.5407622], [-83.3264171, 8.570649], [-83.3298503, 8.5675936], [-83.3511699, 8.5762299], [-83.37368, 8.57519], [-83.37659, 8.5846999], [-83.3887599, 8.5859099], [-83.4160999, 8.6133], [-83.42649, 8.6181301], [-83.42938, 8.62532], [-83.4382199, 8.6324801], [-83.4329437, 8.6442899], [-83.4346716, 8.6589242], [-83.4429865, 8.6670912], [-83.4465699, 8.6666775], [-83.4436753, 8.6689457], [-83.4492199, 8.6747913], [-83.4505181, 8.6718534], [-83.4564083, 8.6774428], [-83.4579983, 8.6850987], [-83.464412, 8.6863518], [-83.4681349, 8.680317], [-83.4672573, 8.6832957], [-83.469873, 8.6828731], [-83.4662466, 8.68562], [-83.4668474, 8.6914955], [-83.4710102, 8.6880381], [-83.4676735, 8.6948787], [-83.4701326, 8.69808], [-83.4721046, 8.696671], [-83.4719994, 8.7013252], [-83.4754841, 8.6986224], [-83.4736602, 8.696565], [-83.4765034, 8.6975513], [-83.4749391, 8.6960013], [-83.4742932, 8.693203], [-83.4752502, 8.6954498], [-83.4819644, 8.6932455], [-83.4836804, 8.6971377], [-83.4851717, 8.7065547], [-83.4806039, 8.7195766], [-83.4680399, 8.7198601], [-83.4644599, 8.7264499], [-83.4558999, 8.72225], [-83.4424401, 8.7244], [-83.43751, 8.72237], [-83.43774, 8.71749], [-83.4315, 8.7134101], [-83.4237699, 8.7189801], [-83.4173001, 8.71915], [-83.4155301, 8.7256], [-83.4065, 8.7313299], [-83.4046931, 8.7366281], [-83.39981, 8.7367799], [-83.39689, 8.73314], [-83.3938501, 8.7370801], [-83.3933001, 8.7314101], [-83.39044, 8.7304], [-83.3835355, 8.740078], [-83.3797788, 8.7398916], [-83.3830224, 8.7458265], [-83.3778401, 8.74503], [-83.3783801, 8.74747], [-83.3745101, 8.74827], [-83.3728699, 8.73515], [-83.3664199, 8.73828], [-83.35343, 8.73218], [-83.3532, 8.7357799], [-83.3467299, 8.7371099], [-83.34099, 8.72891], [-83.3307616, 8.7251692], [-83.3353258, 8.7246282], [-83.3329522, 8.7209806], [-83.3252987, 8.7220197], [-83.3356433, 8.7151949], [-83.3247927, 8.7165997], [-83.3299119, 8.7115189], [-83.3291185, 8.7053285], [-83.3330052, 8.7016855], [-83.3277369, 8.6910865], [-83.330433, 8.6847738], [-83.3287835, 8.6804294], [-83.3199349, 8.6738401], [-83.3061754, 8.6716723], [-83.3002962, 8.666467], [-83.2948294, 8.6535052], [-83.2918385, 8.6569533], [-83.2785366, 8.6597959], [-83.2723441, 8.6561416], [-83.2547816, 8.6572246], [-83.2462144, 8.6369724], [-83.2371196, 8.6272271], [-83.2327805, 8.6334004], [-83.2356782, 8.6351009], [-83.2342667, 8.6395385], [-83.2246245, 8.6413231], [-83.2188758, 8.6381531], [-83.2126551, 8.6285597], [-83.2064394, 8.6319641], [-83.203943, 8.6270017], [-83.1969178, 8.6286151], [-83.1820905, 8.6218287], [-83.1772239, 8.6255597], [-83.1743248, 8.6345095], [-83.1772945, 8.6348602], [-83.1765915, 8.6389901], [-83.1852417, 8.6406588], [-83.1841232, 8.6432965], [-83.1757815, 8.6410956], [-83.177158, 8.644117], [-83.175023, 8.6444246], [-83.1709727, 8.6418681], [-83.1711322, 8.6380916], [-83.1647715, 8.6366177], [-83.1543166, 8.6235837], [-83.1413663, 8.6141829], [-83.1355513, 8.6004668], [-83.1308199, 8.6031399], [-83.1207199, 8.60242], [-83.1144501, 8.59228], [-83.11887, 8.5952201], [-83.12996, 8.5895], [-83.1385099, 8.5909901], [-83.13731, 8.5845501], [-83.1402699, 8.58196], [-83.14365, 8.58349], [-83.1441401, 8.5798901], [-83.1536587, 8.5780678], [-83.1529861, 8.5705044], [-83.14564, 8.56982], [-83.13655, 8.5636899], [-83.1341699, 8.5554599], [-83.1175899, 8.5514301], [-83.11218, 8.55726], [-83.1080299, 8.55651], [-83.08964, 8.5513201], [-83.0811261, 8.5413032], [-83.0924799, 8.55106], [-83.10518, 8.5535599], [-83.10953, 8.5455499], [-83.1103599, 8.5544301], [-83.11732, 8.5500099], [-83.1053501, 8.5380999], [-83.1032401, 8.5290901], [-83.1063501, 8.53217], [-83.1065899, 8.52882], [-83.10451, 8.52638], [-83.1024501, 8.5280701], [-83.10631, 8.5241801], [-83.10228, 8.5206], [-83.1112, 8.5187501], [-83.11563, 8.52568], [-83.1168001, 8.5254101], [-83.11609, 8.5148601], [-83.1140299, 8.51616], [-83.1132301, 8.5123001], [-83.11453, 8.51358], [-83.1158199, 8.51304], [-83.11528, 8.50893], [-83.11866, 8.51304], [-83.1196901, 8.5100701], [-83.12254, 8.5112099], [-83.11707, 8.50236], [-83.12486, 8.5094001], [-83.1235899, 8.5135299], [-83.1269399, 8.5111901], [-83.1352799, 8.5219601], [-83.1300336, 8.5286228], [-83.1308265, 8.5337638], [-83.1386557, 8.529269], [-83.1463265, 8.5456101], [-83.1512877, 8.5477484], [-83.1397553, 8.5216456], [-83.1078261, 8.4824607], [-83.0919299, 8.45032], [-83.1029538, 8.4376109], [-83.11062, 8.41364], [-83.11964, 8.4061201], [-83.13152, 8.4019299], [-83.1375184, 8.3953396], [-83.1457323, 8.3802178], [-83.1454427, 8.3662528], [-83.1373279, 8.3554846], [-83.1101589, 8.3317863], [-83.03936, 8.2924099], [-83.00768, 8.2668101], [-82.98979, 8.2581401], [-82.9710699, 8.23942], [-82.93289, 8.17983], [-82.9227286, 8.1473581], [-82.9015984, 8.1101284], [-82.9005556, 8.0838711], [-82.9063435, 8.0760059], [-82.9133366, 8.0773039], [-82.9117621, 8.0736543], [-82.9148308, 8.0717033], [-82.91324, 8.0672062], [-82.9160367, 8.0599649], [-82.9089894, 8.0450715], [-82.90023599104477, 8.039714993878528], [-82.8900846, 8.0520903], [-82.8962591, 8.0606736], [-82.8873801, 8.0772401], [-82.8921017, 8.104294], [-82.8871878, 8.1049631], [-82.8857555, 8.1083461], [-82.8923591, 8.1149474], [-82.9081574, 8.1450951], [-82.909477, 8.1683482], [-82.9027125, 8.1752724], [-82.9121217, 8.1778955], [-82.9117462, 8.1981309], [-82.9168853, 8.1944089], [-82.9265251, 8.2088933], [-82.9358109, 8.2103534], [-82.9278984, 8.2416141], [-82.9382678, 8.2519082], [-82.9377207, 8.2627488], [-82.9417547, 8.2727821], [-82.951754, 8.2678557], [-82.9554983, 8.2796514], [-82.9672196, 8.2789507], [-82.9749497, 8.2893287], [-82.9795792, 8.2865789], [-82.985126, 8.2728883], [-82.9896107, 8.2712586], [-82.9988321, 8.2881768], [-83.0040678, 8.2897374], [-83.0026194, 8.2955978], [-83.0135521, 8.3028064], [-83.0236533, 8.3045847], [-83.0221512, 8.3113684], [-83.0269899, 8.3166022], [-83.0313083, 8.3134439], [-83.0375096, 8.3185661], [-83.0444028, 8.3152221], [-83.0517245, 8.3334255], [-83.0459317, 8.3374461], [-83.0459814, 8.3433719], [-83.0286485, 8.3523879], [-83.0193442, 8.3514848], [-83.0174213, 8.3558972], [-83.0078949, 8.3568406], [-82.9893351, 8.3757217], [-82.9840459, 8.372535], [-82.9694203, 8.3867102], [-82.9601076, 8.403654], [-82.9540819, 8.4079274], [-82.9534955, 8.4139658], [-82.9355404, 8.4239399], [-82.9309222, 8.4350043], [-82.9150903, 8.4286631], [-82.8683826, 8.4396725], [-82.8395788, 8.4802877], [-82.8317853, 8.5057773], [-82.8396915, 8.5460951], [-82.8221814, 8.567098], [-82.8252196, 8.5702305], [-82.825588, 8.579301], [-82.8341746, 8.5910837], [-82.8266118, 8.5999161], [-82.8273317, 8.6043679], [-82.8380854, 8.6124089], [-82.8362057, 8.6151093], [-82.8290431, 8.6144871], [-82.8300065, 8.6359948], [-82.844263, 8.6561734], [-82.8549253, 8.6635449], [-82.8583564, 8.6756255], [-82.8645534, 8.6789685], [-82.8620857, 8.6881468], [-82.8658516, 8.6906455], [-82.8673622, 8.6972697], [-82.880928, 8.6972743], [-82.8803999, 8.6999083], [-82.8913283, 8.710959], [-82.8918368, 8.7266224], [-82.9016817, 8.7278835], [-82.9050633, 8.7367645], [-82.9163028, 8.7410614], [-82.9201717, 8.7515912], [-82.9095351, 8.7590457], [-82.9158479, 8.7600149], [-82.9191589, 8.7651258], [-82.913683, 8.7672838], [-82.9145433, 8.7696577], [-82.9095351, 8.7737093], [-82.8854446, 8.77374], [-82.8900086, 8.7920599], [-82.8664043, 8.8052681], [-82.8624415, 8.8154824], [-82.8630477, 8.8182638], [-82.8696345, 8.8166236], [-82.8772499, 8.819694], [-82.8783614, 8.823235], [-82.8826915, 8.8225098], [-82.8843438, 8.8292695], [-82.8608905, 8.8527198], [-82.8558609, 8.8533473], [-82.8552429, 8.8561842], [-82.8484124, 8.8535932], [-82.8203673, 8.8603756], [-82.813067, 8.8644331], [-82.8089587, 8.8732784], [-82.797644, 8.8773023], [-82.7822448, 8.8749723], [-82.7732617, 8.8784093], [-82.7675494, 8.8855883], [-82.7606979, 8.8850556], [-82.7510444, 8.8926538], [-82.7460852, 8.9077544], [-82.7118698, 8.9219266], [-82.7168872, 8.9493839], [-82.7400391, 8.9666397], [-82.7367153, 8.9761542], [-82.7417256, 8.9854989], [-82.7555787, 8.9954389], [-82.7749314, 9.0001799], [-82.7811691, 9.0049611], [-82.801389, 9.003611], [-82.8043735, 9.0156127], [-82.8166816, 9.0199889], [-82.8141431, 9.0225129], [-82.8176708, 9.0299047], [-82.8233099, 9.0301611], [-82.8246982, 9.0341769], [-82.8355729, 9.0341684], [-82.8394954, 9.0398074], [-82.8552475, 9.0458744], [-82.8605775, 9.0556453], [-82.8699374, 9.0549969], [-82.8770613, 9.0601122], [-82.8797757, 9.0701074], [-82.8867366, 9.0793924], [-82.8871185, 9.0879039], [-82.8939758, 9.0890466], [-82.9274675, 9.074733], [-82.9359299, 9.0784693], [-82.95417, 9.06969], [-82.96771, 9.07983], [-82.97819, 9.09965], [-82.98846, 9.157], [-83.00285, 9.16471], [-83.05441, 9.17563], [-83.05607, 9.18099], [-83.05288, 9.19728], [-83.06531, 9.22216], [-83.06351, 9.23361], [-83.06706, 9.25392], [-83.14244, 9.28701], [-83.16406, 9.31734], [-83.17919, 9.33044], [-83.21583, 9.32436], [-83.23252, 9.32811], [-83.24568, 9.34666], [-83.25397, 9.35184], [-83.27882, 9.35658], [-83.30479, 9.38019], [-83.32497, 9.39075], [-83.33928, 9.38407], [-83.34306, 9.37887], [-83.34473, 9.36232], [-83.34966, 9.35468], [-83.3696, 9.35625], [-83.39543, 9.34085], [-83.39787, 9.35309], [-83.40717, 9.36245], [-83.42514, 9.36917], [-83.4336669, 9.3577846], [-83.4459915, 9.3491309], [-83.4519567, 9.3331028], [-83.4676208, 9.3146389], [-83.4757962, 9.29088], [-83.490161, 9.2686658], [-83.4964261, 9.2634137], [-83.5056583, 9.2617827], [-83.5119441, 9.2439278], [-83.5117185, 9.2326941], [-83.5243698, 9.2108781], [-83.522255, 9.2078359], [-83.5151499, 9.2152949], [-83.5119719, 9.2003972], [-83.5018574, 9.2020678], [-83.4887207, 9.1927795], [-83.4869061, 9.2002557], [-83.4810911, 9.1961688], [-83.4806212, 9.186414], [-83.4727802, 9.181815], [-83.4772232, 9.1716649], [-83.4693889, 9.1598506], [-83.4700901, 9.1522426], [-83.4733662, 9.1490434], [-83.4800653, 9.1519896], [-83.479374, 9.1473243], [-83.4904, 9.13545], [-83.49075, 9.11474], [-83.49816, 9.09863], [-83.50788, 9.08997], [-83.52427, 9.08233], [-83.54562, 9.07996], [-83.55885, 9.08981], [-83.60612, 9.10925], [-83.62271, 9.13191], [-83.66569, 9.14876], [-83.70727, 9.22627], [-83.74077, 9.24968], [-83.76328, 9.22267], [-83.78933, 9.22708], [-83.82297, 9.24418], [-83.85011, 9.26656], [-83.85326, 9.31689], [-83.84271, 9.33968], [-83.85461, 9.34476], [-83.86548, 9.34537], [-83.8909979, 9.3686122], [-83.90233, 9.3927], [-83.90551, 9.41002], [-83.92159, 9.41349], [-83.93588, 9.3951], [-83.95448, 9.3916], [-83.97395, 9.40909], [-83.9829799, 9.4324884], [-84.0052315, 9.4422676], [-84.0035323, 9.4477298], [-84.00799, 9.45259], [-84.04542, 9.47619], [-84.0605179, 9.4960574], [-84.0754113, 9.5046618], [-84.0784532, 9.5124428], [-84.0895468, 9.5096705], [-84.0738612, 9.5191302], [-84.0719515, 9.5254999], [-84.07567, 9.55881], [-84.09763, 9.56782], [-84.1205746, 9.5542788], [-84.1236001, 9.5569872], [-84.1290933, 9.5698099], [-84.1404229, 9.5755651], [-84.1433626, 9.580622], [-84.1400367, 9.5976329], [-84.1320759, 9.5982042], [-84.1309465, 9.6091404], [-84.1395002, 9.6220153], [-84.1480702, 9.6238591], [-84.15022, 9.62823], [-84.17168, 9.63036], [-84.20336, 9.61931], [-84.22508, 9.63043], [-84.2552, 9.62932], [-84.28322, 9.63907], [-84.30683, 9.65375], [-84.32399, 9.64128], [-84.37277, 9.63788], [-84.39608, 9.64115], [-84.40359, 9.62865], [-84.39521, 9.60877], [-84.43226, 9.56156], [-84.44244, 9.56999], [-84.44733, 9.58396], [-84.48248, 9.57822], [-84.51382, 9.57738], [-84.53938, 9.5857], [-84.55309, 9.60214], [-84.55808, 9.61971], [-84.55859, 9.6386], [-84.58218, 9.66378], [-84.58705, 9.67685], [-84.5826553, 9.6891111], [-84.5848118, 9.691607], [-84.5835458, 9.7043346], [-84.59283, 9.72411], [-84.59, 9.75359], [-84.58318, 9.75798], [-84.55902, 9.75682], [-84.54075, 9.77292], [-84.54737, 9.78354], [-84.56153, 9.78316], [-84.56969, 9.80605], [-84.58687, 9.80559], [-84.58631, 9.81881], [-84.5730603, 9.8291741], [-84.59507, 9.84168], [-84.60037, 9.84844], [-84.60223, 9.8616], [-84.61742, 9.86569], [-84.6503, 9.86571], [-84.67576, 9.87013], [-84.68363, 9.88282], [-84.6809962, 9.9010438], [-84.67501, 9.91006], [-84.66275, 9.91399], [-84.65076, 9.93952], [-84.64227, 9.94905], [-84.61034, 9.95081], [-84.58192, 9.98218], [-84.55923, 9.99059], [-84.55426, 10.00812], [-84.55656, 10.02667], [-84.57206, 10.04216], [-84.62582, 10.04492], [-84.63332, 10.07743], [-84.64768, 10.08394], [-84.66929, 10.12538], [-84.669, 10.1821], [-84.68066, 10.18989], [-84.65633, 10.23886], [-84.66199, 10.25851], [-84.68469, 10.28431], [-84.69505, 10.28794], [-84.74547, 10.26738], [-84.77896, 10.29049], [-84.79653, 10.31583], [-84.81318, 10.32948], [-84.83598, 10.33608], [-84.85385, 10.3278], [-84.87016, 10.30575], [-84.87705, 10.26986], [-84.89452, 10.22378], [-84.88903, 10.18791], [-84.90941, 10.18287], [-84.9312, 10.16308], [-84.92735, 10.14337], [-84.94003, 10.12083], [-84.95329, 10.12047], [-84.97504, 10.1334], [-85.02779, 10.15419], [-85.05104, 10.16677], [-85.07665212978091, 10.162742723313581]]], [[[-85.22755639962226, 9.7379101], [-85.2259399, 9.7305601], [-85.2198493, 9.7285936], [-85.2151599, 9.72376], [-85.22931, 9.73173], [-85.2170201, 9.71372], [-85.2151699, 9.70461], [-85.2045901, 9.69219], [-85.20267, 9.68805], [-85.2051599, 9.68317], [-85.20131, 9.6741199], [-85.1445, 9.6156001], [-85.1462166, 9.6074156], [-85.1429983, 9.6063512], [-85.14286, 9.5833899], [-85.13381, 9.5771599], [-85.13358, 9.57251], [-85.12551, 9.57531], [-85.1203299, 9.57323], [-85.1139169, 9.5652086], [-85.1167699, 9.56109], [-85.1103732, 9.5590975], [-85.1117695, 9.5615071], [-85.1066035, 9.5676327], [-85.09257, 9.5704899], [-85.09248, 9.58646], [-85.07779, 9.61524], [-85.0781, 9.62811], [-85.07379, 9.63299], [-85.073557, 9.641869], [-85.0679296, 9.654067], [-85.05858, 9.66047], [-85.0549, 9.6676699], [-85.0413701, 9.6719701], [-85.03742, 9.68148], [-85.00751, 9.68994], [-84.99496, 9.7046799], [-85.00141, 9.71283], [-85.0155078, 9.7132848], [-85.0204701, 9.7237999], [-85.01745, 9.7223301], [-85.0105899, 9.74006], [-85.0006801, 9.74709], [-84.9908099, 9.7476801], [-84.9926417, 9.750601], [-84.988135, 9.7486083], [-84.99285, 9.7536099], [-84.98164, 9.76153], [-84.9791101, 9.7506999], [-84.99186, 9.74588], [-84.98564, 9.7440399], [-84.9854, 9.7406901], [-84.97839, 9.74039], [-84.9732499, 9.7315999], [-84.9550901, 9.72788], [-84.95039, 9.73327], [-84.9560001, 9.74953], [-84.95414, 9.75699], [-84.94113, 9.7611599], [-84.9338799, 9.7573799], [-84.92903, 9.76431], [-84.93013, 9.77488], [-84.9183334, 9.7848564], [-84.9233486, 9.7862638], [-84.9229174, 9.7925202], [-84.9006399, 9.79814], [-84.9039799, 9.8033099], [-84.9015001, 9.8071601], [-84.90146, 9.8118], [-84.9045001, 9.8046001], [-84.91405, 9.8131601], [-84.89922, 9.8178499], [-84.9010701, 9.8122999], [-84.8989545, 9.8090275], [-84.8948175, 9.8146872], [-84.879655, 9.8122657], [-84.8768499, 9.82222], [-84.8682701, 9.82344], [-84.86421, 9.82857], [-84.8685099, 9.82782], [-84.8708745, 9.8318204], [-84.8949601, 9.83404], [-84.9216366, 9.8228789], [-84.9240999, 9.82636], [-84.9217487, 9.8282903], [-84.9287745, 9.8361817], [-84.9325553, 9.8371368], [-84.9357601, 9.83056], [-84.9412101, 9.83214], [-84.94118, 9.83703], [-84.93426, 9.84394], [-84.92449, 9.84491], [-84.9226401, 9.85173], [-84.91249, 9.8554001], [-84.9057499, 9.8533001], [-84.9090899, 9.85873], [-84.9203886, 9.8613167], [-84.9227699, 9.8722101], [-84.9336799, 9.87485], [-84.93417, 9.8784599], [-84.9383101, 9.8797799], [-84.9322299, 9.8977701], [-84.9275604, 9.9014633], [-84.91426, 9.9033301], [-84.9205599, 9.9144401], [-84.9216599, 9.9254], [-84.93206, 9.9245601], [-84.9360736, 9.9281476], [-84.93357, 9.9317801], [-84.9506377, 9.9360474], [-84.9584389, 9.9417225], [-84.9650662, 9.9378629], [-84.9711231, 9.9423723], [-84.9802925, 9.9367789], [-84.9832724, 9.9407263], [-84.9889864, 9.9375242], [-84.9976742, 9.940469], [-85.0005929, 9.9379368], [-85.0101091, 9.9393653], [-85.0210655, 9.9498514], [-85.0242646, 9.9599557], [-85.0385382, 9.9638945], [-85.0525201, 9.9758775], [-85.0584965, 9.9755163], [-85.0580183, 9.9707896], [-85.0591136, 9.9751102], [-85.06124, 9.9712055], [-85.0654934, 9.9725265], [-85.0659777, 9.9671893], [-85.0744176, 9.9666442], [-85.069183, 9.9710503], [-85.0748327, 9.9720042], [-85.0805516, 9.9659856], [-85.0790296, 9.9681659], [-85.0837172, 9.9669567], [-85.0814592, 9.9702127], [-85.0836028, 9.9719933], [-85.0784982, 9.9729644], [-85.0785113, 9.9757507], [-85.0742602, 9.9749015], [-85.0800811, 9.976204], [-85.0757287, 9.97734], [-85.0769795, 9.9790895], [-85.0917859, 9.9714805], [-85.1137121, 9.9799596], [-85.1175588, 9.9747337], [-85.1171789, 9.9775901], [-85.1215608, 9.9795197], [-85.1212048, 9.9817558], [-85.1173561, 9.9782559], [-85.1155465, 9.9826096], [-85.1191457, 9.9918288], [-85.1317624, 9.9909044], [-85.16156456008456, 10.017030575934632], [-85.16931, 10.00966], [-85.17766, 9.98333], [-85.18941, 9.97161], [-85.2014, 9.96889], [-85.22044, 9.97048], [-85.2282815, 9.9666993], [-85.2371805, 9.9669055], [-85.248288, 9.9721312], [-85.2507824, 9.9658792], [-85.257332, 9.9619361], [-85.2697886, 9.9623622], [-85.2731463, 9.9509914], [-85.2678122, 9.9391074], [-85.2779929, 9.9273263], [-85.2799509, 9.9218365], [-85.277717, 9.9150297], [-85.22368, 9.89957], [-85.20057, 9.85848], [-85.17877, 9.85546], [-85.19428, 9.82624], [-85.19927, 9.8099], [-85.19555, 9.78359], [-85.20724, 9.75807], [-85.22755639962226, 9.7379101]]], [[[-84.9105027, 9.951357], [-84.9025201, 9.9522], [-84.9024199, 9.94834], [-84.9057444, 9.9440432], [-84.9206301, 9.9445899], [-84.91848, 9.9353], [-84.90656, 9.93084], [-84.8927499, 9.93463], [-84.8911801, 9.9374501], [-84.8979687, 9.9442944], [-84.8929299, 9.9511303], [-84.9030351, 9.9543423], [-84.9105027, 9.951357]]], [[[-85.05032, 10.0061701], [-85.0239377, 9.9956645], [-85.0179923, 9.997696], [-85.05032, 10.0061701]]], [[[-85.078225, 9.983900256923075], [-85.0757051, 9.9876754], [-85.0724767, 9.9863309], [-85.0739525, 9.9832786], [-85.0671268, 9.9784821], [-85.0670161, 9.981807], [-85.0631974, 9.9829516], [-85.0505237, 9.9793905], [-85.0414104, 9.981589], [-85.0537889, 9.9916361], [-85.0695988, 9.9949427], [-85.0761478, 9.9889835], [-85.0842096, 9.9897466], [-85.078225, 9.983900256923075]]], [[[-84.98853, 9.99524], [-85.0110439, 9.995644], [-85.0127821, 9.9927239], [-85.0024689, 9.9925153], [-84.9961101, 9.9872999], [-84.9782201, 9.98113], [-84.9590001, 9.98011], [-84.9599901, 9.98656], [-84.9675401, 9.98455], [-84.97064, 9.98869], [-84.9885601, 9.9906001], [-84.98853, 9.99524]]], [[[-85.0940758, 10.0961163], [-85.1004047, 10.0988215], [-85.1073881, 10.0938335], [-85.1187735, 10.0915738], [-85.1223121, 10.0972649], [-85.1206375, 10.1036382], [-85.1270298, 10.0997314], [-85.1327075, 10.1019625], [-85.134206, 10.0976182], [-85.1357343, 10.099545], [-85.1326443, 10.1027609], [-85.1349168, 10.1043848], [-85.1394808, 10.1031673], [-85.1437405, 10.0962894], [-85.1441682, 10.1005713], [-85.1399771, 10.1032821], [-85.1464345, 10.10079], [-85.1461356, 10.0983875], [-85.1480679, 10.0972484], [-85.1466489, 10.1011697], [-85.142554, 10.1045044], [-85.1565562, 10.1044346], [-85.1594237, 10.1148566], [-85.1564178, 10.1154529], [-85.1590439, 10.11405], [-85.1550507, 10.1047383], [-85.1501655, 10.1064823], [-85.1538034, 10.1100015], [-85.1483591, 10.1159433], [-85.1522231, 10.109585], [-85.1492841, 10.1062658], [-85.1327072, 10.1046552], [-85.1356645, 10.1106604], [-85.1430243, 10.1125644], [-85.1361533, 10.1113317], [-85.1331027, 10.1073614], [-85.1320914, 10.1043704], [-85.1289327, 10.1010878], [-85.122447, 10.105422], [-85.1157874, 10.1023273], [-85.1042082, 10.1072001], [-85.1619692, 10.1263589], [-85.1801604, 10.1254398], [-85.1883924, 10.1194253], [-85.1943645, 10.1209794], [-85.1982729, 10.1141478], [-85.1902161, 10.1053826], [-85.1831089, 10.0849542], [-85.1581101, 10.0739733], [-85.1415799, 10.0728909], [-85.1078567, 10.0816239], [-85.0967599, 10.08785], [-85.0940758, 10.0961163]]], [[[-85.0950554904642, 10.158654911396999], [-85.0775278, 10.1447651], [-85.0702214, 10.1466786], [-85.0702549, 10.1519242], [-85.0766899, 10.1556192], [-85.0777624, 10.1590172], [-85.0950554904642, 10.158654911396999]]]]}}, {"type": "Feature", "properties": {"name": "Provincia Cartago", "country": "CRI"}, "geometry": {"type": "Polygon", "coordinates": [[[-83.5073005, 9.5004661], [-83.51225, 9.53009], [-83.51236, 9.55768], [-83.52608, 9.5864], [-83.43121, 9.67085], [-83.42483, 9.69202], [-83.42397, 9.71664], [-83.41415, 9.7334], [-83.33155, 9.83731], [-83.3393, 9.85719], [-83.33767, 9.88693], [-83.34506, 9.90412], [-83.34979, 9.94658], [-83.33569, 9.94937], [-83.33598, 9.96046], [-83.33114, 9.97138], [-83.31774, 9.97774], [-83.3107428, 9.9861258], [-83.61105, 9.9869], [-83.71331, 10.03512], [-83.78159, 10.06356], [-83.9471742, 10.1467379], [-83.92825, 10.10278], [-83.92219, 10.07865], [-83.91109, 10.06935], [-83.89038, 10.06152], [-83.87463, 10.04725], [-83.8673, 10.03215], [-83.8637, 9.99836], [-83.85669, 9.98385], [-83.8617086, 9.9733939], [-83.87922, 9.96914], [-83.88654, 9.97224], [-83.90415, 9.96577], [-83.91448, 9.95709], [-83.93248, 9.95361], [-83.94733, 9.9565], [-83.9564097, 9.9494475], [-83.9641859, 9.9504448], [-83.9688595, 9.9435615], [-84.0083872, 9.9397034], [-84.0040207, 9.929451], [-84.0072206, 9.9172345], [-84.0168883, 9.9076711], [-84.015502, 9.899337], [-84.0258663, 9.8937614], [-84.0304814, 9.8966622], [-84.0341763, 9.8939566], [-84.0417127, 9.8965713], [-84.0371121, 9.8863779], [-84.0128562, 9.8823671], [-83.9993417, 9.8766824], [-83.9989637, 9.8690814], [-84.018401, 9.8529439], [-84.0159944, 9.8446169], [-84.0254511, 9.8401395], [-84.0305758, 9.8245725], [-84.0464195, 9.8136375], [-84.0759981, 9.8007737], [-84.076792, 9.795141], [-84.0826442, 9.7897511], [-84.0845544, 9.7748978], [-84.0881161, 9.7694931], [-84.0711101, 9.7634401], [-84.0409728, 9.7675003], [-84.0369817, 9.7643812], [-84.0289351, 9.7646878], [-84.0279587, 9.7684625], [-84.0073117, 9.7760024], [-83.9979513, 9.7840868], [-83.9925932, 9.7839731], [-83.987773, 9.7714939], [-83.9817649, 9.7701723], [-83.9828378, 9.7601487], [-83.9784497, 9.7577062], [-83.9777738, 9.7533075], [-83.9798213, 9.7451499], [-83.9511849, 9.7391296], [-83.9488125, 9.725487], [-83.9504751, 9.712838], [-83.9431338, 9.699673], [-83.9368387, 9.7009067], [-83.9241923, 9.6953828], [-83.920475, 9.6827879], [-83.9093916, 9.6838442], [-83.9014027, 9.6895458], [-83.8894102, 9.6701926], [-83.8817887, 9.6666202], [-83.8744972, 9.6704458], [-83.8550968, 9.6708626], [-83.8505923, 9.6654121], [-83.8488197, 9.6501662], [-83.8456161, 9.6477935], [-83.847324, 9.6238354], [-83.8344494, 9.6223756], [-83.8317243, 9.6175098], [-83.7999026, 9.6137228], [-83.7790457, 9.6047947], [-83.7641112, 9.6048582], [-83.7575666, 9.5926716], [-83.7631027, 9.5813098], [-83.7478757, 9.5617403], [-83.7267084, 9.5587752], [-83.7198472, 9.5525186], [-83.7070407, 9.5592501], [-83.7028988, 9.5541828], [-83.6820695, 9.5514728], [-83.6742007, 9.5569296], [-83.6723874, 9.5635549], [-83.6583321, 9.5806046], [-83.6507711, 9.5830992], [-83.63859, 9.58166], [-83.6189864, 9.5582991], [-83.5922566, 9.5439365], [-83.5503938, 9.5286153], [-83.5349335, 9.5098619], [-83.5073005, 9.5004661]]]}}, {"type": "Feature", "properties": {"name": "Provincia Lim\u00f3n", "country": "CRI"}, "geometry": {"type": "Polygon", "coordinates": [[[-83.9329105, 10.1872534], [-83.9383965, 10.1676836], [-83.9455118, 10.1590109], [-83.9471742, 10.1467379], [-83.78159, 10.06356], [-83.71331, 10.03512], [-83.61105, 9.9869], [-83.3107428, 9.9861258], [-83.31774, 9.97774], [-83.33114, 9.97138], [-83.33598, 9.96046], [-83.33569, 9.94937], [-83.34979, 9.94658], [-83.34506, 9.90412], [-83.33767, 9.88693], [-83.3393, 9.85719], [-83.33155, 9.83731], [-83.41415, 9.7334], [-83.42397, 9.71664], [-83.42483, 9.69202], [-83.43121, 9.67085], [-83.52608, 9.5864], [-83.51236, 9.55768], [-83.51225, 9.53009], [-83.5073005, 9.5004661], [-83.504465, 9.4947358], [-83.4885806, 9.4842927], [-83.48028, 9.45395], [-83.44869, 9.38609], [-83.42514, 9.36917], [-83.40717, 9.36245], [-83.39787, 9.35309], [-83.39543, 9.34085], [-83.3696, 9.35625], [-83.34966, 9.35468], [-83.34473, 9.36232], [-83.34306, 9.37887], [-83.33928, 9.38407], [-83.32497, 9.39075], [-83.30479, 9.38019], [-83.27882, 9.35658], [-83.25397, 9.35184], [-83.24568, 9.34666], [-83.23252, 9.32811], [-83.21583, 9.32436], [-83.17919, 9.33044], [-83.16406, 9.31734], [-83.14244, 9.28701], [-83.06706, 9.25392], [-83.06351, 9.23361], [-83.06531, 9.22216], [-83.05288, 9.19728], [-83.05607, 9.18099], [-83.05441, 9.17563], [-83.00285, 9.16471], [-82.98846, 9.157], [-82.97819, 9.09965], [-82.96771, 9.07983], [-82.95417, 9.06969], [-82.9359299, 9.0784693], [-82.9360778, 9.4731248], [-82.8425801, 9.5014132], [-82.8482755, 9.5094751], [-82.8480093, 9.514489], [-82.8565387, 9.5109323], [-82.8529707, 9.5166605], [-82.8553864, 9.5200066], [-82.8651876, 9.5183294], [-82.8723297, 9.524588], [-82.8716373, 9.5333866], [-82.8744229, 9.5384305], [-82.8672675, 9.5452242], [-82.8682011, 9.5537409], [-82.8759949, 9.5527948], [-82.8848945, 9.5651419], [-82.8838585, 9.5711861], [-82.8768452, 9.5796123], [-82.8760143, 9.5930052], [-82.8603126, 9.5923935], [-82.8628577, 9.6012989], [-82.8558786, 9.6150091], [-82.8568769, 9.6197885], [-82.8482798, 9.6217815], [-82.8405608, 9.6107395], [-82.824376, 9.6117993], [-82.8206334, 9.6082227], [-82.8205762, 9.6007544], [-82.80887, 9.5955638], [-82.7937244, 9.6034841], [-82.7768222, 9.5847586], [-82.7619894, 9.5875888], [-82.7505366, 9.5812886], [-82.7487396, 9.5893505], [-82.7438667, 9.5889025], [-82.7396167, 9.5779497], [-82.7452663, 9.574001], [-82.7449362, 9.5684843], [-82.733441, 9.5647465], [-82.7310323, 9.5574083], [-82.7224927, 9.5596376], [-82.7235476, 9.5523335], [-82.7209644, 9.5484259], [-82.7115489, 9.5493502], [-82.7063605, 9.5446123], [-82.7068949, 9.5355257], [-82.7002152, 9.536196], [-82.6996169, 9.5451685], [-82.6959532, 9.5457756], [-82.6883498, 9.5333757], [-82.6922312, 9.5296591], [-82.7008441, 9.5303618], [-82.7025282, 9.5264195], [-82.6892109, 9.5194435], [-82.6857775, 9.5069069], [-82.6763207, 9.5080871], [-82.6699356, 9.5048512], [-82.67123, 9.4941222], [-82.6661048, 9.4953956], [-82.6548015, 9.5113938], [-82.651944, 9.498333], [-82.6390562, 9.4936437], [-82.6323062, 9.4956231], [-82.6260545, 9.5022346], [-82.6186889, 9.502434], [-82.6153799, 9.4983283], [-82.6058383, 9.5042645], [-82.6026485, 9.5108143], [-82.604757, 9.5219983], [-82.5981547, 9.5353576], [-82.6040089, 9.5530301], [-82.599976, 9.5594606], [-82.5796149, 9.5575151], [-82.559945, 9.5386146], [-82.5518543, 9.5435323], [-82.5545782, 9.5549255], [-82.566561, 9.5619791], [-82.5669167, 9.5753935], [-82.5914999, 9.5865099], [-82.61732, 9.6119], [-82.61982, 9.61601], [-82.61845, 9.63044], [-82.6218401, 9.6350701], [-82.6332801, 9.6379799], [-82.6418401, 9.63601], [-82.64913, 9.6398401], [-82.6582519, 9.6329046], [-82.6676677, 9.6317992], [-82.6797114, 9.6371974], [-82.6858997, 9.6438682], [-82.6990651, 9.6378632], [-82.7205274, 9.6455918], [-82.725978, 9.6442547], [-82.7472079, 9.6594617], [-82.7618629, 9.654438], [-82.7823258, 9.6662821], [-82.7978466, 9.686747], [-82.8142968, 9.7176372], [-82.8153361, 9.728038], [-82.8089951, 9.7448671], [-82.816156, 9.7499117], [-82.8201071, 9.7412721], [-82.8304436, 9.7342482], [-82.8387886, 9.7364413], [-82.8405943, 9.7410726], [-82.8462615, 9.7401396], [-82.8533804, 9.7440306], [-82.8650724, 9.7549261], [-82.8980101, 9.8016399], [-82.9320101, 9.84215], [-82.9344139, 9.8433339], [-82.9411499, 9.8500899], [-82.9455701, 9.8500701], [-82.94089, 9.85035], [-82.9341, 9.8439501], [-83.0262597, 9.9664703], [-83.0309168, 9.9844164], [-83.0284699, 9.9897962], [-83.0270343, 9.9870943], [-83.0275911, 9.9898273], [-83.0229413, 9.9878102], [-83.0240297, 9.9911444], [-83.0199902, 9.9882339], [-83.0278612, 9.9960922], [-83.024666, 10.000435], [-83.0352193, 10.0054081], [-83.032344, 10.0054187], [-83.0355841, 10.0081552], [-83.0391568, 10.0066126], [-83.0504006, 10.0121278], [-83.0616393, 10.0088803], [-83.0641498, 10.0150294], [-83.0666389, 10.0109089], [-83.0729689, 10.0134234], [-83.0790093, 10.0117224], [-83.076724, 10.0074539], [-83.078245, 9.9995513], [-83.0796959, 10.0055521], [-83.079948, 10.0017349], [-83.086197, 10.0006457], [-83.1038781, 10.0069217], [-83.1350201, 10.04161], [-83.1859451, 10.1126715], [-83.22023, 10.1502601], [-83.2733654, 10.2191014], [-83.3069001, 10.2547501], [-83.3723801, 10.3336099], [-83.4402299, 10.42994], [-83.4979101, 10.53431], [-83.5236008, 10.5884766], [-83.55779, 10.6783], [-83.5760599, 10.7400542], [-83.5848515, 10.7824017], [-83.5862963, 10.8056935], [-83.6209706, 10.8773272], [-83.6436572, 10.9118968], [-83.6665947, 10.9304895], [-83.6759516, 10.9251303], [-83.6759146, 10.9302721], [-83.6728013, 10.931738], [-83.6782568, 10.9362862], [-83.6980324, 10.9398513], [-83.6971224, 10.9347182], [-83.6888088, 10.9344974], [-83.6755703, 10.9114421], [-83.6793093, 10.909382], [-83.67646, 10.9030012], [-83.6828879, 10.8976917], [-83.6682588, 10.8888499], [-83.6669157, 10.8800946], [-83.6750361, 10.8528465], [-83.6704303, 10.8357577], [-83.6606437, 10.8187376], [-83.6688891, 10.7988488], [-83.6959685, 10.7873137], [-83.7153721, 10.7923752], [-83.7220306, 10.7854201], [-83.7609249, 10.7745654], [-83.7647921, 10.7689337], [-83.7538882, 10.7678536], [-83.7399992, 10.7548243], [-83.7324402, 10.7366384], [-83.7399477, 10.7312647], [-83.7401136, 10.7222945], [-83.7170814, 10.7037075], [-83.7106848, 10.6929315], [-83.7439073, 10.6925494], [-83.7638859, 10.7000897], [-83.7707765, 10.696739], [-83.7848127, 10.6747765], [-83.7871535, 10.6581478], [-83.7967805, 10.6529001], [-83.818648, 10.6511802], [-83.8254549, 10.6466513], [-83.838734, 10.6473144], [-83.842059, 10.6314339], [-83.8397262, 10.6208799], [-83.8457935, 10.6032374], [-83.8422095, 10.6015118], [-83.8412477, 10.5954081], [-83.8339375, 10.5905863], [-83.8330079, 10.5821832], [-83.8376497, 10.5683438], [-83.8444234, 10.5631992], [-83.846655, 10.552441], [-83.8372563, 10.5338785], [-83.8390351, 10.51137], [-83.8301871, 10.5035752], [-83.8324097, 10.4952859], [-83.827164, 10.4935969], [-83.8305906, 10.4901842], [-83.8307888, 10.4819065], [-83.8389444, 10.4744535], [-83.830423, 10.462793], [-83.8439199, 10.4455531], [-83.8556358, 10.4469036], [-83.8590046, 10.444709], [-83.8598992, 10.4374697], [-83.8738243, 10.4292444], [-83.8803517, 10.404083], [-83.8736572, 10.3869467], [-83.8574847, 10.3662758], [-83.8523096, 10.3523137], [-83.8561037, 10.346771], [-83.8476804, 10.3363816], [-83.8513045, 10.3311868], [-83.8494151, 10.3270625], [-83.8530143, 10.323861], [-83.8496027, 10.3199021], [-83.852287, 10.3165011], [-83.8493258, 10.2966182], [-83.8517675, 10.2906888], [-83.8468841, 10.2782164], [-83.8521492, 10.2723418], [-83.8561806, 10.252589], [-83.8642382, 10.2399618], [-83.8823888, 10.2267208], [-83.8911169, 10.2238374], [-83.9149562, 10.1989686], [-83.9248643, 10.1949763], [-83.9329105, 10.1872534]]]}}]}