{"type": "FeatureCollection", "features": [{"type": "Feature", "properties": {"name": "Peru"}, "geometry": {"type": "MultiPolygon", "coordinates": [[[[-80.004547, -6.740899], [-80.118916, -6.650611], [-80.298096, -6.544448], [-80.790528, -6.299692], [-80.853128, -6.239498], [-81.013894, -6.139071], [-81.101457, -6.072068], [-81.130811, -6.034561], [-81.15142, -5.975873], [-81.150216, -5.883073], [-81.129412, -5.86581], [-81.118854, -5.839907], [-81.096344, -5.838564], [-81.075194, -5.786785], [-81.057498, -5.787974], [-81.038279, -5.818103], [-80.971593, -5.845957], [-80.939931, -5.850844], [-80.903391, -5.81463], [-80.864012, -5.743936], [-80.856212, -5.650462], [-80.881216, -5.573868], [-80.931824, -5.463815], [-81.072196, -5.318921], [-81.107594, -5.317459], [-81.131606, -5.300402], [-81.198476, -5.208103], [-81.186878, -5.190025], [-81.173708, -5.184603], [-81.165988, -5.164328], [-81.177822, -5.142861], [-81.17669, -5.129886], [-81.162616, -5.126342], [-81.1714, -5.087299], [-81.162772, -5.072572], [-81.146938, -5.074632], [-81.129126, -5.064691], [-81.112573, -5.081584], [-81.082757, -5.079214], [-81.06759, -5.057202], [-81.063355, -5.022043], [-81.085021, -4.974486], [-81.149407, -4.917033], [-81.2234, -4.806488], [-81.337558, -4.678304], [-81.332688, -4.664447], [-81.305253, -4.643568], [-81.316518, -4.601251], [-81.307485, -4.534275], [-81.328928, -4.476658], [-81.324818, -4.461602], [-81.293813, -4.430434], [-81.27953, -4.396417], [-81.293813, -4.31756], [-81.264027, -4.252374], [-81.165639, -4.179376], [-81.110341, -4.107599], [-81.073313, -4.096775], [-80.992909, -3.972101], [-80.961578, -3.939386], [-80.867787, -3.872735], [-80.852366, -3.808282], [-80.807607, -3.739435], [-80.771718, -3.710138], [-80.613108, -3.615655], [-80.584584, -3.588067], [-80.542307, -3.526137], [-80.536244, -3.505304], [-80.493723, -3.48919], [-80.424184, -3.491469], [-80.384511, -3.478692], [-80.368235, -3.465509], [-80.340729, -3.393498], [-80.279746, -3.415553], [-80.265664, -3.426405], [-80.271633, -3.485523], [-80.249076, -3.497925], [-80.240291, -3.514048], [-80.249981, -3.577713], [-80.224995, -3.591873], [-80.216391, -3.63156], [-80.224943, -3.680653], [-80.216856, -3.726955], [-80.226313, -3.749279], [-80.221636, -3.769433], [-80.192723, -3.821626], [-80.18877, -3.857696], [-80.16505, -3.879504], [-80.165257, -3.890046], [-80.181148, -3.907926], [-80.259076, -3.943686], [-80.304628, -4.005181], [-80.325506, -4.015413], [-80.386458, -3.988954], [-80.427463, -3.981306], [-80.466143, -3.988128], [-80.491981, -4.014896], [-80.514073, -4.083419], [-80.487175, -4.131271], [-80.490767, -4.168995], [-80.469605, -4.21323], [-80.434724, -4.216951], [-80.345272, -4.198451], [-80.488545, -4.395958], [-80.492291, -4.413011], [-80.483532, -4.433992], [-80.425112, -4.471509], [-80.382867, -4.476263], [-80.255407, -4.38676], [-80.239671, -4.36981], [-80.221946, -4.31896], [-80.205048, -4.298186], [-80.140246, -4.283097], [-80.133864, -4.293949], [-80.079655, -4.309038], [-80.029271, -4.359681], [-80.0, -4.377605066717448], [-80.0, -6.746197503323553], [-80.004547, -6.740899]]], [[[-80.855428, -6.405528], [-80.841751, -6.428882], [-80.839584, -6.475246], [-80.863841, -6.475839], [-80.867092, -6.440578], [-80.87538, -6.433053], [-80.853135, -6.374988], [-80.84297, -6.381612], [-80.855428, -6.405528]]]]}}, {"type": "Feature", "properties": {"name": "Costa Rica"}, "geometry": {"type": "MultiPolygon", "coordinates": [[[[-83.009348, 9.949286], [-82.877268, 9.780097], [-82.833811, 9.739488], [-82.808258, 9.747219], [-82.78775, 9.672756], [-82.70523, 9.637926], [-82.635894, 9.634508], [-82.616444, 9.624335], [-82.59142, 9.586982], [-82.573598, 9.576199], [-82.562837, 9.538695], [-82.601103, 9.548669], [-82.618854, 9.486709], [-82.650713, 9.487846], [-82.678049, 9.497768], [-82.711691, 9.545], [-82.729364, 9.544897], [-82.771093, 9.579856], [-82.829022, 9.602722], [-82.847471, 9.600655], [-82.866048, 9.585075], [-82.879252, 9.559909], [-82.860209, 9.511204], [-82.844783, 9.500687], [-82.846385, 9.492548], [-82.933305, 9.470327], [-82.941703, 9.456349], [-82.939377, 9.059577], [-82.900232, 9.072057], [-82.88243, 9.04534], [-82.808171, 8.998367], [-82.74913, 8.974079], [-82.719365, 8.921524], [-82.73386, 8.897985], [-82.763781, 8.87995], [-82.87858, 8.829772], [-82.888321, 8.816931], [-82.875634, 8.807526], [-82.875789, 8.793909], [-82.92297, 8.756159], [-82.919223, 8.727065], [-82.862224, 8.6557], [-82.841864, 8.599476], [-82.835973, 8.529765], [-82.848297, 8.465169], [-82.870415, 8.438117], [-82.953511, 8.402098], [-82.997772, 8.360163], [-83.052109, 8.327632], [-83.053246, 8.315101], [-82.995524, 8.26482], [-82.968006, 8.267972], [-82.943666, 8.248567], [-82.939093, 8.216838], [-82.886409, 8.102194], [-82.897629, 8.034748], [-82.911244, 8.045356], [-82.90038, 8.105048], [-82.968495, 8.221218], [-83.150868, 8.369289], [-83.092681, 8.446682], [-83.137196, 8.514553], [-83.137725, 8.529324], [-83.102447, 8.548041], [-83.143422, 8.550238], [-83.165151, 8.563747], [-83.185048, 8.602688], [-83.178212, 8.61697], [-83.171376, 8.61697], [-83.15331, 8.577175], [-83.123565, 8.589016], [-83.123565, 8.596462], [-83.151723, 8.61286], [-83.171376, 8.637478], [-83.18578, 8.62519], [-83.240264, 8.623806], [-83.259307, 8.651313], [-83.273183, 8.658474], [-83.287384, 8.651068], [-83.319081, 8.669582], [-83.328359, 8.684597], [-83.322174, 8.705715], [-83.335805, 8.705715], [-83.331695, 8.722073], [-83.383656, 8.739814], [-83.389516, 8.728095], [-83.411529, 8.733669], [-83.421661, 8.715155], [-83.48172, 8.712592], [-83.486684, 8.692694], [-83.473012, 8.698879], [-83.404775, 8.589016], [-83.339223, 8.569159], [-83.299713, 8.534369], [-83.287384, 8.541815], [-83.294911, 8.493435], [-83.279815, 8.472927], [-83.273712, 8.437934], [-83.276357, 8.401557], [-83.287384, 8.376736], [-83.346425, 8.3876], [-83.380889, 8.40412], [-83.397247, 8.41767], [-83.369374, 8.410915], [-83.404775, 8.431952], [-83.404775, 8.41767], [-83.462432, 8.442694], [-83.561147, 8.438178], [-83.575592, 8.444973], [-83.7058, 8.579413], [-83.736806, 8.592719], [-83.739898, 8.623806], [-83.709462, 8.670356], [-83.686676, 8.68769], [-83.675933, 8.691799], [-83.667836, 8.682929], [-83.660919, 8.689846], [-83.630035, 8.733669], [-83.642568, 8.749538], [-83.627471, 8.767401], [-83.575429, 8.788275], [-83.575429, 8.79446], [-83.60794, 8.796047], [-83.638661, 8.772284], [-83.642568, 8.781887], [-83.623809, 8.815579], [-83.587636, 8.835354], [-83.582875, 8.846625], [-83.613881, 8.873236], [-83.616363, 8.890692], [-83.575429, 8.877631], [-83.612945, 8.907782], [-83.630035, 8.91177], [-83.617909, 8.919013], [-83.630035, 8.931667], [-83.625518, 8.942654], [-83.603383, 8.966376], [-83.634755, 9.044094], [-83.651153, 9.061957], [-83.657989, 9.055203], [-83.727203, 9.144314], [-83.767201, 9.151394], [-83.764882, 9.177191], [-83.786895, 9.199246], [-83.839508, 9.220282], [-83.91808, 9.294745], [-84.007436, 9.339748], [-84.103627, 9.377265], [-84.121938, 9.372626], [-84.13036, 9.384711], [-84.144073, 9.378852], [-84.161529, 9.394721], [-84.1787, 9.397773], [-84.167958, 9.416205], [-84.18224, 9.442206], [-84.208363, 9.464993], [-84.233388, 9.473456], [-84.233388, 9.466702], [-84.205434, 9.45303], [-84.231435, 9.457546], [-84.272694, 9.481594], [-84.457916, 9.526028], [-84.535024, 9.521308], [-84.555409, 9.552395], [-84.569122, 9.555447], [-84.562978, 9.541164], [-84.616567, 9.57807], [-84.627309, 9.606716], [-84.657948, 9.624335], [-84.662709, 9.651679], [-84.678375, 9.651028], [-84.678375, 9.692572], [-84.634429, 9.757025], [-84.634552, 9.783393], [-84.698394, 9.868842], [-84.725942, 9.884467], [-84.709706, 9.922553], [-84.734283, 9.942572], [-84.733632, 9.966946], [-84.762318, 9.975653], [-84.850942, 9.966946], [-84.850942, 9.974392], [-84.838653, 9.979153], [-84.788238, 9.980618], [-84.788238, 9.987454], [-84.848541, 9.993964], [-84.86254456520925, 10.0], [-83.02452508287591, 10.0], [-83.009348, 9.949286]]], [[[-85.144521, 9.999335], [-85.053131, 9.966946], [-85.014516, 9.944973], [-84.977569, 9.938788], [-84.959584, 9.946479], [-84.911122, 9.911689], [-84.911122, 9.905463], [-84.93106, 9.900702], [-84.930165, 9.886298], [-84.904937, 9.857082], [-84.932851, 9.836615], [-84.864613, 9.829169], [-84.945912, 9.760891], [-84.959584, 9.727362], [-85.007598, 9.744086], [-85.014801, 9.73078], [-84.994985, 9.703274], [-85.062611, 9.66531], [-85.089345, 9.588568], [-85.110463, 9.555447], [-85.117828, 9.555447], [-85.145782, 9.612616], [-85.234527, 9.737331], [-85.272979, 9.758002], [-85.275502, 9.782009], [-85.299306, 9.80801], [-85.439971, 9.864529], [-85.470367, 9.850246], [-85.525177, 9.877387], [-85.535553, 9.870754], [-85.61913, 9.89289], [-85.63858, 9.905463], [-85.663808, 9.900092], [-85.672719, 9.911689], [-85.665557, 9.930325], [-85.676137, 9.955512], [-85.7127666657743, 10.0], [-85.14527941228526, 10.0], [-85.144521, 9.999335]]], [[[-87.117665, 5.515082], [-87.104604, 5.537421], [-87.064605, 5.557847], [-87.065541, 5.534613], [-87.078521, 5.520657], [-87.117665, 5.515082]]], [[[-83.883464, 8.712993], [-83.869114, 8.713587], [-83.870305, 8.701776], [-83.878076, 8.698821], [-83.896618, 8.706492], [-83.883464, 8.712993]]]]}}, {"type": "Feature", "properties": {"name": "Ecuador"}, "geometry": {"type": "MultiPolygon", "coordinates": [[[[-80.029271, -4.359681], [-80.079655, -4.309038], [-80.133864, -4.293949], [-80.140246, -4.283097], [-80.205048, -4.298186], [-80.221946, -4.31896], [-80.239671, -4.36981], [-80.255407, -4.38676], [-80.382867, -4.476263], [-80.408498, -4.477503], [-80.469967, -4.446084], [-80.492291, -4.413011], [-80.488545, -4.395958], [-80.345272, -4.198451], [-80.434724, -4.216951], [-80.469605, -4.21323], [-80.490767, -4.168995], [-80.487175, -4.131271], [-80.514073, -4.083419], [-80.491981, -4.014896], [-80.466143, -3.988128], [-80.427463, -3.981306], [-80.386458, -3.988954], [-80.325506, -4.015413], [-80.304628, -4.005181], [-80.259076, -3.943686], [-80.181148, -3.907926], [-80.165257, -3.890046], [-80.16505, -3.879504], [-80.18877, -3.857696], [-80.192723, -3.821626], [-80.226313, -3.749279], [-80.216856, -3.726955], [-80.224943, -3.680653], [-80.216391, -3.63156], [-80.224995, -3.591873], [-80.249981, -3.577713], [-80.240291, -3.514048], [-80.249076, -3.497925], [-80.271633, -3.485523], [-80.265664, -3.426405], [-80.340729, -3.393498], [-80.341054, -3.368585], [-80.327626, -3.360528], [-80.306874, -3.320733], [-80.320546, -3.355564], [-80.31432, -3.376072], [-80.302317, -3.366795], [-80.286448, -3.320733], [-80.259104, -3.348077], [-80.173166, -3.327569], [-80.135569, -3.327569], [-80.108266, -3.296808], [-80.059885, -3.204034], [-80.037506, -3.208266], [-80.032867, -3.23211], [-80.039947, -3.27988], [-80.008941, -3.241876], [-80.0, -3.234749183352771], [-80.0, -4.377605066717448], [-80.029271, -4.359681]]], [[[-80.014312, -2.589776], [-80.043691, -2.589451], [-80.063588, -2.577244], [-80.068918, -2.560805], [-80.025706, -2.525079], [-80.00178, -2.480157], [-80.0, -2.4799633852693326], [-80.0, -2.6063207079824], [-80.014312, -2.589776]]], [[[-80.034332, -2.473891], [-80.039947, -2.459893], [-80.035756, -2.437921], [-80.008941, -2.358819], [-80.0, -2.3555336741598416], [-80.0, -2.4634380544177867], [-80.034332, -2.473891]]], [[[-80.012685, -2.32643], [-80.032867, -2.346368], [-80.076039, -2.457696], [-80.17512, -2.586684], [-80.20759, -2.600763], [-80.231801, -2.628676], [-80.270009, -2.605076], [-80.279612, -2.612563], [-80.279612, -2.649184], [-80.245025, -2.688165], [-80.245432, -2.721124], [-80.255483, -2.730239], [-80.320546, -2.710626], [-80.396311, -2.649184], [-80.429799, -2.642348], [-80.467885, -2.617934], [-80.574086, -2.492852], [-80.656646, -2.415785], [-80.718053, -2.391257], [-80.750515, -2.392358], [-80.803456, -2.37477], [-80.863922, -2.329278], [-80.913645, -2.31878], [-80.934804, -2.260919], [-80.964996, -2.223321], [-81.002065, -2.193617], [-81.01301, -2.166925], [-81.00121, -2.164483], [-80.992096, -2.176202], [-80.94933, -2.186212], [-80.931286, -2.217333], [-80.870573, -2.203301], [-80.819662, -2.162268], [-80.780702, -2.142843], [-80.744979, -2.102915], [-80.737447, -2.043497], [-80.762522, -1.973891], [-80.758077, -1.963458], [-80.733185, -1.95377], [-80.730214, -1.929376], [-80.760572, -1.797548], [-80.782135, -1.736993], [-80.849517, -1.615818], [-80.85558, -1.588311], [-80.851552, -1.576918], [-80.81649, -1.552255], [-80.820546, -1.499933], [-80.799624, -1.480805], [-80.770862, -1.47783], [-80.759782, -1.41386], [-80.76429, -1.390887], [-80.760016, -1.376597], [-80.742663, -1.368162], [-80.744256, -1.343773], [-80.833589, -1.231235], [-80.882151, -1.145766], [-80.91618, -1.065525], [-80.909611, -1.044915], [-80.816365, -0.946344], [-80.788204, -0.950615], [-80.761167, -0.936551], [-80.746022, -0.939774], [-80.722245, -0.931126], [-80.724375, -0.939885], [-80.690875, -0.949589], [-80.653042, -0.923065], [-80.643322, -0.937098], [-80.61632, -0.941408], [-80.569883, -0.912243], [-80.547212, -0.88849], [-80.515912, -0.74209], [-80.497562, -0.692438], [-80.462473, -0.617934], [-80.448969, -0.60606], [-80.421992, -0.5996], [-80.419839, -0.625513], [-80.405825, -0.646034], [-80.378798, -0.657885], [-80.299007, -0.662229], [-80.298996, -0.650355], [-80.377701, -0.636284], [-80.391737, -0.625487], [-80.41556, -0.573753], [-80.437125, -0.557538], [-80.452056, -0.476739], [-80.484597, -0.423591], [-80.496464, -0.381374], [-80.48565, -0.36722], [-80.465156, -0.365254], [-80.432725, -0.339187], [-80.391347, -0.274347], [-80.371232, -0.222831], [-80.349658, -0.215264], [-80.323695, -0.173173], [-80.30535, -0.189367], [-80.231848, -0.139699], [-80.1079, 0.007066], [-80.098785, 0.039211], [-80.066459, 0.05221], [-80.051349, 0.089992], [-80.036977, 0.175971], [-80.048492, 0.318305], [-80.036529, 0.357082], [-80.021108, 0.34691], [-80.012685, 0.32453], [-80.005238, 0.32453], [-80.0, 0.33954313051394075], [-80.0, -2.3267095414847163], [-80.012685, -2.32643]]], [[[-80.043568, 0.45893], [-80.043365, 0.501207], [-80.01891, 0.538031], [-80.016957, 0.558905], [-80.036366, 0.62523], [-80.059438, 0.64468], [-80.090321, 0.652167], [-80.108266, 0.695054], [-80.108632, 0.738105], [-80.097279, 0.780341], [-80.075836, 0.816148], [-80.046213, 0.839667], [-80.014475, 0.829291], [-80.0, 0.8305699261805684], [-80.0, 0.38153162852581796], [-80.043568, 0.45893]]], [[[-80.014516, -2.664239], [-80.0, -2.673194328172744], [-80.0, -2.806736670538135], [-80.064929, -2.924244], [-80.094372, -2.945862], [-80.093763, -2.969267], [-80.131033, -3.020921], [-80.166819, -3.017348], [-80.203725, -3.034112], [-80.26594, -3.018487], [-80.271854, -2.996405], [-80.262204, -2.840848], [-80.210683, -2.724867], [-80.059885, -2.662774], [-80.014516, -2.664239]]], [[[-89.634674, -1.34881], [-89.614573, -1.37005], [-89.613271, -1.391697], [-89.6433, -1.401625], [-89.676096, -1.397556], [-89.756907, -1.36061], [-89.736399, -1.340102], [-89.661285, -1.340102], [-89.634674, -1.34881]]], [[[-90.369008, -1.264907], [-90.367055, -1.278741], [-90.375885, -1.292413], [-90.393707, -1.298517], [-90.399322, -1.32586], [-90.432118, -1.345961], [-90.475209, -1.342055], [-90.524037, -1.305922], [-90.506215, -1.282403], [-90.493235, -1.23797], [-90.471913, -1.216729], [-90.462554, -1.23089], [-90.442698, -1.225681], [-90.415354, -1.231134], [-90.369008, -1.264907]]], [[[-89.282582, -0.693292], [-89.257192, -0.681573], [-89.254791, -0.719171], [-89.273183, -0.759942], [-89.331695, -0.819431], [-89.367299, -0.829767], [-89.386342, -0.874607], [-89.420033, -0.919366], [-89.450307, -0.934259], [-89.499623, -0.935479], [-89.544586, -0.956638], [-89.585561, -0.935479], [-89.629954, -0.925877], [-89.625111, -0.905938], [-89.604604, -0.883071], [-89.551422, -0.853611], [-89.540883, -0.819431], [-89.488922, -0.808201], [-89.477203, -0.796808], [-89.462026, -0.764744], [-89.413238, -0.713474], [-89.366444, -0.68963], [-89.320221, -0.680759], [-89.282582, -0.693292]]], [[[-90.180531, -0.548517], [-90.195709, -0.613946], [-90.188222, -0.651544], [-90.198801, -0.681573], [-90.215566, -0.688246], [-90.259511, -0.743341], [-90.313629, -0.743829], [-90.337066, -0.776951], [-90.373199, -0.778416], [-90.428863, -0.762465], [-90.453033, -0.743829], [-90.483062, -0.702732], [-90.516347, -0.699965], [-90.544545, -0.681573], [-90.544545, -0.620212], [-90.527577, -0.56992], [-90.497385, -0.531996], [-90.460561, -0.513849], [-90.407948, -0.517755], [-90.380686, -0.504653], [-90.285878, -0.49391], [-90.263987, -0.483005], [-90.242828, -0.497247], [-90.24059, -0.528009], [-90.191965, -0.538263], [-90.180531, -0.548517]]], [[[-91.480051, -0.486261], [-91.507558, -0.490411], [-91.586659, -0.456313], [-91.606516, -0.456313], [-91.651967, -0.381117], [-91.668568, -0.284926], [-91.580963, -0.287205], [-91.543813, -0.268243], [-91.474192, -0.249282], [-91.455678, -0.257582], [-91.399526, -0.307875], [-91.401112, -0.452895], [-91.480051, -0.486261]]], [[[-90.551503, -0.292739], [-90.558176, -0.310805], [-90.586781, -0.363702], [-90.604888, -0.369806], [-90.670277, -0.353936], [-90.740061, -0.353936], [-90.795888, -0.330662], [-90.818227, -0.339614], [-90.832102, -0.322686], [-90.848948, -0.275649], [-90.874135, -0.271254], [-90.831654, -0.21266], [-90.835072, -0.181573], [-90.826812, -0.164158], [-90.810374, -0.1513], [-90.777252, -0.147719], [-90.757558, -0.161798], [-90.632476, -0.201267], [-90.580434, -0.259698], [-90.551991, -0.27809], [-90.565012, -0.284926], [-90.551503, -0.292739]]], [[[-90.792592, -0.738946], [-90.791575, -0.754002], [-90.829091, -0.774672], [-90.860463, -0.872654], [-90.858632, -0.91546], [-90.880279, -0.908787], [-90.9287, -0.97031], [-90.945627, -0.962498], [-90.993886, -0.963474], [-91.045155, -0.992283], [-91.159779, -1.030206], [-91.287262, -1.01686], [-91.399729, -1.018487], [-91.435862, -0.997491], [-91.44579, -0.941502], [-91.477406, -0.935479], [-91.502309, -0.896254], [-91.493235, -0.850681], [-91.465891, -0.807875], [-91.435862, -0.778416], [-91.319163, -0.702732], [-91.310455, -0.683282], [-91.234771, -0.661879], [-91.211985, -0.664727], [-91.178863, -0.681899], [-91.157786, -0.678806], [-91.137563, -0.65488], [-91.128326, -0.623468], [-91.114369, -0.608005], [-91.099436, -0.613946], [-91.086781, -0.582452], [-91.106842, -0.558689], [-91.161488, -0.538263], [-91.208892, -0.484633], [-91.237213, -0.415297], [-91.238678, -0.376153], [-91.278188, -0.36004], [-91.291249, -0.339614], [-91.351959, -0.307224], [-91.374989, -0.281915], [-91.373769, -0.250177], [-91.393707, -0.238377], [-91.406484, -0.216404], [-91.40453, -0.195896], [-91.380605, -0.188735], [-91.405751, -0.148045], [-91.409535, -0.087498], [-91.423329, -0.028578], [-91.445546, -0.012058], [-91.47643, -0.011082], [-91.5631, -0.051772], [-91.582916, -0.041314], [-91.603383, -0.014215], [-91.60436, 0.001451], [-91.523549, 0.046373], [-91.504465, 0.066148], [-91.497304, 0.106106], [-91.472564, 0.098212], [-91.452748, 0.103746], [-91.401112, 0.122504], [-91.380605, 0.14704], [-91.368764, 0.150621], [-91.33967, 0.153795], [-91.323638, 0.139309], [-91.312408, 0.094916], [-91.295318, 0.075914], [-91.283518, 0.033189], [-91.247426, -0.003839], [-91.209299, -0.010675], [-91.202219, -0.028253], [-91.203033, -0.099379], [-91.18456, -0.211033], [-91.173573, -0.228448], [-91.128041, -0.270766], [-91.124135, -0.299574], [-91.005035, -0.373142], [-90.976471, -0.415297], [-90.956044, -0.422133], [-90.96227, -0.44199], [-90.949208, -0.521417], [-90.955068, -0.540297], [-90.990142, -0.579197], [-90.967844, -0.564548], [-90.956044, -0.60711], [-90.892974, -0.625746], [-90.894602, -0.648126], [-90.859731, -0.664158], [-90.853017, -0.676039], [-90.859853, -0.68963], [-90.792592, -0.738946]]], [[[-90.544545, 0.310858], [-90.542307, 0.333564], [-90.504465, 0.361029], [-90.483062, 0.365465], [-90.436431, 0.346625], [-90.416982, 0.330878], [-90.407948, 0.310858], [-90.41454, 0.296291], [-90.454579, 0.267401], [-90.475657, 0.263088], [-90.544545, 0.310858]]], [[[-90.756988, 0.630601], [-90.744496, 0.585395], [-90.760569, 0.553697], [-90.805247, 0.571601], [-90.798166, 0.59276], [-90.804921, 0.635565], [-90.79776, 0.65351], [-90.756988, 0.630601]]], [[[-91.810943, 1.377183], [-91.817738, 1.368069], [-91.825307, 1.377021], [-91.819163, 1.38642], [-91.810943, 1.377183]]], [[[-91.817535, 1.394761], [-91.820465, 1.391343], [-91.822011, 1.394477], [-91.817535, 1.394761]]], [[[-92.006093, 1.664374], [-91.999827, 1.65119], [-92.006663, 1.649604], [-92.011586, 1.658637], [-92.006093, 1.664374]]]]}}, {"type": "Feature", "properties": {"name": "Colombia"}, "geometry": {"type": "Polygon", "coordinates": [[[-81.614654, 3.969184], [-81.60143, 3.988349], [-81.582265, 3.991523], [-81.580312, 3.97602], [-81.611724, 3.95897], [-81.614654, 3.969184]]]}}, {"type": "Feature", "properties": {"name": "Panama"}, "geometry": {"type": "MultiPolygon", "coordinates": [[[[-82.465647, 9.493964], [-82.406606, 9.435248], [-82.368967, 9.414944], [-82.342763, 9.432522], [-82.349599, 9.402045], [-82.379465, 9.343817], [-82.376291, 9.330064], [-82.348134, 9.305569], [-82.348948, 9.294745], [-82.362457, 9.284125], [-82.387603, 9.286078], [-82.394928, 9.267076], [-82.364491, 9.242865], [-82.350575, 9.207261], [-82.307973, 9.185492], [-82.300445, 9.197089], [-82.28246, 9.202094], [-82.294301, 9.220282], [-82.280995, 9.21662], [-82.266428, 9.185492], [-82.255483, 9.182603], [-82.244456, 9.197577], [-82.245961, 9.213446], [-82.239084, 9.213446], [-82.231068, 9.193752], [-82.219228, 9.196357], [-82.212514, 9.220038], [-82.204945, 9.213446], [-82.19811, 9.220282], [-82.184438, 9.192939], [-82.170806, 9.199774], [-82.177642, 9.145168], [-82.22411, 9.169664], [-82.249623, 9.17182], [-82.260732, 9.164049], [-82.263783, 9.146552], [-82.253407, 9.110419], [-82.273834, 9.116604], [-82.268463, 9.102362], [-82.239084, 9.079332], [-82.245961, 9.014146], [-82.260162, 9.020982], [-82.243031, 9.004462], [-82.218821, 8.993354], [-82.194692, 8.990953], [-82.177642, 9.000556], [-82.141754, 8.988959], [-82.129018, 8.981391], [-82.097808, 8.930609], [-81.997711, 8.947455], [-81.958567, 8.931627], [-81.929433, 8.943834], [-81.920766, 8.955146], [-81.923736, 8.966376], [-81.912465, 8.971096], [-81.889638, 8.966376], [-81.86734, 8.949286], [-81.852284, 8.958319], [-81.793446, 8.931627], [-81.775543, 8.940253], [-81.774241, 8.997463], [-81.841868, 9.035305], [-81.877065, 9.087307], [-81.93342, 9.129218], [-81.937408, 9.138332], [-81.872874, 9.129543], [-81.862375, 9.14175], [-81.910308, 9.168118], [-81.90331, 9.179267], [-81.882802, 9.179511], [-81.814565, 9.116604], [-81.824208, 9.105455], [-81.841868, 9.110419], [-81.820881, 9.070647], [-81.761971, 9.06375], [-81.736887, 9.036933], [-81.721172, 9.032022], [-81.706451, 8.999172], [-81.687489, 8.984198], [-81.627553, 8.899115], [-81.539052, 8.812934], [-81.503292, 8.80096], [-81.473474, 8.806594], [-81.421506, 8.796427], [-81.381547, 8.80012], [-81.357981, 8.785102], [-81.304463, 8.781882], [-81.070709, 8.80683], [-81.053578, 8.822414], [-80.881717, 8.885698], [-80.822418, 8.890692], [-80.726826, 8.997222], [-80.579337, 9.080687], [-80.408316, 9.142262], [-80.292592, 9.151353], [-80.234934, 9.179267], [-80.129709, 9.206204], [-80.100819, 9.222317], [-80.000823, 9.320516], [-80.0, 9.322127355683525], [-80.0, 8.424612080468389], [-80.080881, 8.371772], [-80.224965, 8.301052], [-80.272735, 8.294827], [-80.300038, 8.301052], [-80.334218, 8.287991], [-80.374664, 8.303371], [-80.380727, 8.31037], [-80.375762, 8.315253], [-80.385772, 8.311347], [-80.388783, 8.294827], [-80.470245, 8.220649], [-80.478179, 8.202338], [-80.474843, 8.106472], [-80.484405, 8.082546], [-80.46817, 8.074856], [-80.447174, 8.027289], [-80.348866, 7.989285], [-80.300038, 7.883328], [-80.143788, 7.752753], [-80.052398, 7.637112], [-80.0, 7.5353569315194076], [-80.0, 7.492706580175053], [-80.017852, 7.456814], [-80.064971, 7.450995], [-80.135528, 7.424628], [-80.198516, 7.424709], [-80.210683, 7.417792], [-80.259063, 7.438259], [-80.306874, 7.424628], [-80.306874, 7.417792], [-80.265899, 7.430813], [-80.259063, 7.424628], [-80.330963, 7.40119], [-80.357574, 7.382025], [-80.36148, 7.35574], [-80.34439, 7.327419], [-80.347564, 7.318264], [-80.387115, 7.308051], [-80.398834, 7.286648], [-80.424184, 7.273749], [-80.437245, 7.246487], [-80.474477, 7.253323], [-80.713124, 7.216457], [-80.82079, 7.219143], [-80.831085, 7.211371], [-80.848134, 7.219143], [-80.861806, 7.205715], [-80.894439, 7.243435], [-80.929718, 7.256496], [-80.916005, 7.278144], [-80.916371, 7.307929], [-80.895985, 7.328396], [-80.891591, 7.360175], [-80.89566, 7.376614], [-80.921173, 7.392035], [-80.910186, 7.441677], [-80.915069, 7.454657], [-80.966908, 7.509914], [-80.954701, 7.516913], [-80.946319, 7.555691], [-80.979115, 7.589057], [-80.971669, 7.602729], [-81.02005, 7.650539], [-81.04129, 7.661689], [-81.027821, 7.686184], [-81.005767, 7.685329], [-81.043324, 7.711982], [-81.026235, 7.746731], [-81.05484, 7.750027], [-81.061025, 7.754177], [-81.053578, 7.760403], [-81.07669, 7.764797], [-81.08609, 7.77912], [-81.078114, 7.801337], [-81.02127, 7.822699], [-81.02005, 7.835517], [-81.048858, 7.822699], [-81.055898, 7.849392], [-81.053578, 7.9112], [-81.090443, 7.857856], [-81.108184, 7.877102], [-81.087677, 7.842312], [-81.133046, 7.842312], [-81.192413, 7.863349], [-81.199941, 7.893622], [-81.218048, 7.897528], [-81.204376, 7.883328], [-81.217641, 7.878974], [-81.215199, 7.870998], [-81.177113, 7.84573], [-81.183258, 7.823676], [-81.164703, 7.789008], [-81.174428, 7.763007], [-81.218048, 7.726264], [-81.223175, 7.739203], [-81.218048, 7.754177], [-81.245961, 7.754177], [-81.218048, 7.719428], [-81.231557, 7.714382], [-81.245961, 7.719428], [-81.231679, 7.69892], [-81.19754, 7.711982], [-81.193267, 7.700751], [-81.19754, 7.630072], [-81.218048, 7.608954], [-81.273305, 7.63349], [-81.278717, 7.646064], [-81.291168, 7.650662], [-81.396962, 7.673529], [-81.424102, 7.671047], [-81.450795, 7.705146], [-81.473907, 7.699408], [-81.525787, 7.711453], [-81.52713, 7.726264], [-81.488759, 7.749213], [-81.528066, 7.760565], [-81.539052, 7.757351], [-81.540191, 7.739936], [-81.574941, 7.760403], [-81.568389, 7.776028], [-81.588002, 7.80447], [-81.567494, 7.855984], [-81.581899, 7.862494], [-81.601593, 7.855984], [-81.60912, 7.870266], [-81.599884, 7.885037], [-81.622711, 7.890082], [-81.612945, 7.931423], [-81.595448, 7.924872], [-81.615875, 7.952175], [-81.60912, 7.986355], [-81.628896, 7.981838], [-81.622589, 7.947943], [-81.63329, 7.945868], [-81.691029, 8.054633], [-81.697865, 8.021064], [-81.708363, 8.031317], [-81.710357, 8.059841], [-81.725738, 8.068264], [-81.725738, 8.07571], [-81.709462, 8.06863], [-81.691029, 8.07571], [-81.677358, 8.068264], [-81.743438, 8.173163], [-81.746246, 8.191799], [-81.752471, 8.191799], [-81.76065, 8.169582], [-81.746246, 8.15766], [-81.780385, 8.123481], [-81.885365, 8.173285], [-81.951812, 8.191433], [-81.931182, 8.233344], [-81.956695, 8.221015], [-81.978383, 8.192532], [-82.013173, 8.219062], [-82.027862, 8.208279], [-82.060292, 8.210273], [-82.11559, 8.233344], [-82.142405, 8.160061], [-82.150299, 8.164496], [-82.156524, 8.15766], [-82.147206, 8.180935], [-82.147572, 8.1883], [-82.156524, 8.184963], [-82.155385, 8.193183], [-82.143463, 8.212917], [-82.187896, 8.199246], [-82.219228, 8.219062], [-82.204945, 8.233344], [-82.216542, 8.264228], [-82.211781, 8.294827], [-82.21878, 8.304348], [-82.211781, 8.315253], [-82.204945, 8.308498], [-82.208648, 8.332099], [-82.184438, 8.343207], [-82.225453, 8.339504], [-82.242462, 8.301052], [-82.277089, 8.309272], [-82.284413, 8.322211], [-82.280059, 8.343207], [-82.313954, 8.330837], [-82.348907, 8.335761], [-82.342763, 8.308498], [-82.400136, 8.287991], [-82.433258, 8.304348], [-82.435333, 8.316107], [-82.417226, 8.322781], [-82.430287, 8.338162], [-82.430898, 8.356269], [-82.441029, 8.3487], [-82.447011, 8.323554], [-82.465606, 8.315253], [-82.452016, 8.281155], [-82.470855, 8.277126], [-82.511708, 8.276435], [-82.658925, 8.322781], [-82.738026, 8.31745], [-82.808705, 8.295681], [-82.862457, 8.254055], [-82.877187, 8.219062], [-82.872833, 8.135891], [-82.849233, 8.062038], [-82.876943, 8.023871], [-82.897629, 8.034748], [-82.886409, 8.102194], [-82.939093, 8.216838], [-82.943666, 8.248567], [-82.968006, 8.267972], [-82.995524, 8.26482], [-83.053246, 8.315101], [-83.052109, 8.327632], [-82.997772, 8.360163], [-82.953511, 8.402098], [-82.870415, 8.438117], [-82.848297, 8.465169], [-82.835973, 8.529765], [-82.841864, 8.599476], [-82.862224, 8.6557], [-82.919223, 8.727065], [-82.92297, 8.756159], [-82.875789, 8.793909], [-82.875634, 8.807526], [-82.888321, 8.816931], [-82.87858, 8.829772], [-82.763781, 8.87995], [-82.73386, 8.897985], [-82.719365, 8.921524], [-82.74913, 8.974079], [-82.808171, 8.998367], [-82.88243, 9.04534], [-82.900232, 9.072057], [-82.939377, 9.059577], [-82.941703, 9.456349], [-82.933305, 9.470327], [-82.846385, 9.492548], [-82.844783, 9.500687], [-82.860209, 9.511204], [-82.879252, 9.559909], [-82.866048, 9.585075], [-82.847471, 9.600655], [-82.829022, 9.602722], [-82.771093, 9.579856], [-82.729364, 9.544897], [-82.711691, 9.545], [-82.678049, 9.497768], [-82.632135, 9.484668], [-82.618854, 9.486709], [-82.612395, 9.499499], [-82.601103, 9.548669], [-82.562837, 9.538695], [-82.573598, 9.576199], [-82.465647, 9.493964]]], [[[-81.766713, 7.287421], [-81.800893, 7.239], [-81.793446, 7.225979], [-81.800893, 7.225979], [-81.816233, 7.271308], [-81.819163, 7.288723], [-81.81078, 7.294135], [-81.807729, 7.287421], [-81.766713, 7.287421]]], [[[-81.087717, 7.58161], [-81.03307, 7.575426], [-81.052846, 7.544623], [-81.075022, 7.535346], [-81.109853, 7.547065], [-81.129262, 7.545315], [-81.190745, 7.493476], [-81.218088, 7.499701], [-81.251943, 7.490424], [-81.222727, 7.521064], [-81.174387, 7.53144], [-81.149159, 7.561184], [-81.087717, 7.58161]]], [[[-81.652496, 7.391018], [-81.62206, 7.393866], [-81.588002, 7.335191], [-81.649403, 7.321519], [-81.684234, 7.341376], [-81.746246, 7.348863], [-81.841868, 7.430813], [-81.875111, 7.490424], [-81.882802, 7.516791], [-81.848704, 7.520209], [-81.824452, 7.585354], [-81.760365, 7.620185], [-81.752512, 7.6164], [-81.759918, 7.644273], [-81.752512, 7.644273], [-81.752512, 7.636868], [-81.73884, 7.644273], [-81.705312, 7.540676], [-81.691029, 7.540676], [-81.671783, 7.526353], [-81.670522, 7.51024], [-81.708363, 7.493476], [-81.718984, 7.452541], [-81.694732, 7.423977], [-81.684438, 7.395006], [-81.652496, 7.391018]]], [[[-82.253407, 8.202338], [-82.245961, 8.171291], [-82.273834, 8.191799], [-82.307973, 8.199205], [-82.315663, 8.214911], [-82.273834, 8.233344], [-82.220123, 8.212063], [-82.211781, 8.199205], [-82.253407, 8.202338]]], [[[-82.314809, 8.24018], [-82.386464, 8.212877], [-82.412506, 8.231024], [-82.430898, 8.259996], [-82.401926, 8.257148], [-82.350006, 8.293647], [-82.316518, 8.27733], [-82.317209, 8.267564], [-82.342763, 8.267524], [-82.342763, 8.259996], [-82.314809, 8.24018]]], [[[-82.343129, 8.123358], [-82.320709, 8.130316], [-82.318227, 8.099921], [-82.36205, 8.086859], [-82.343129, 8.123358]]], [[[-82.085276, 9.30268], [-82.074615, 9.28852], [-82.093984, 9.291246], [-82.114166, 9.283271], [-82.130198, 9.268256], [-82.138824, 9.245307], [-82.154408, 9.258368], [-82.150258, 9.287258], [-82.163971, 9.308417], [-82.150299, 9.302191], [-82.159332, 9.323147], [-82.211781, 9.343166], [-82.211781, 9.349351], [-82.200999, 9.356187], [-82.174387, 9.344062], [-82.156565, 9.349351], [-82.085276, 9.30268]]], [[[-82.301666, 9.432318], [-82.266428, 9.439358], [-82.238759, 9.398749], [-82.231801, 9.373358], [-82.245961, 9.356838], [-82.240142, 9.341946], [-82.245961, 9.330064], [-82.280751, 9.374701], [-82.328481, 9.412055], [-82.301666, 9.432318]]], [[[-81.547221, 9.102741], [-81.534492, 9.085917], [-81.571671, 9.089599], [-81.577259, 9.104581], [-81.547221, 9.102741]]], [[[-82.05184, 9.182193], [-82.028867, 9.169192], [-82.010477, 9.141459], [-82.027113, 9.132941], [-82.050084, 9.145941], [-82.054691, 9.161797], [-82.047238, 9.172569], [-82.05184, 9.182193]]]]}}]}