{"type": "FeatureCollection", "features": [{"type": "Feature", "properties": {"name": "Antarctica"}, "geometry": {"type": "MultiPolygon", "coordinates": [[[[-160.0, -90.0], [-160.0, -85.02150949402451], [-158.871449, -85.076349], [-158.673166, -85.132501], [-158.465769, -85.155206], [-158.509958, -85.119724], [-158.565053, -85.099298], [-158.42394, -85.092218], [-158.351511, -85.10296], [-158.196767, -85.159112], [-158.163319, -85.164727], [-156.008412, -85.221938], [-156.055491, -85.20379], [-156.92748, -85.195245], [-155.990712, -85.186212], [-155.94225, -85.179376], [-155.901112, -85.157647], [-155.944569, -85.143487], [-156.099721, -85.142348], [-156.069447, -85.134454], [-155.503977, -85.126072], [-156.938832, -85.007013], [-157.009145, -84.968927], [-157.04662, -84.957208], [-157.637196, -84.897231], [-157.581044, -84.882989], [-155.788157, -84.904555], [-155.749623, -84.900323], [-155.790476, -84.891046], [-156.109731, -84.885349], [-155.70344, -84.879164], [-155.740305, -84.865981], [-155.867299, -84.86061], [-155.589223, -84.840509], [-155.642649, -84.827813], [-158.383616, -84.789239], [-158.277292, -84.780938], [-158.249582, -84.767185], [-160.0, -84.6994279239917], [-160.0, -83.4871184314404], [-159.484242, -83.545587], [-159.19343, -83.544366], [-159.101674, -83.53338], [-159.044667, -83.476007], [-158.999867, -83.457127], [-157.555287, -83.390232], [-157.529652, -83.38421], [-157.452707, -83.341729], [-156.917673, -83.230157], [-157.024485, -83.205824], [-158.46349, -83.167169], [-158.521921, -83.15838], [-158.557932, -83.132745], [-158.497182, -83.117934], [-155.592234, -83.046075], [-155.436391, -83.007745], [-155.496775, -82.955499], [-155.134511, -82.877537], [-155.109975, -82.86297], [-155.082143, -82.817153], [-155.058787, -82.801935], [-152.542917, -82.54811], [-152.555409, -82.526544], [-152.631663, -82.496352], [-152.721181, -82.443048], [-152.813669, -82.413181], [-152.896799, -82.374119], [-154.214833, -82.125665], [-154.255605, -82.101495], [-154.11144, -82.071547], [-154.804026, -81.965997], [-154.838938, -81.944757], [-154.774973, -81.922947], [-154.532053, -81.879083], [-154.423818, -81.838474], [-154.351918, -81.8235], [-153.829783, -81.79225], [-153.758046, -81.776625], [-153.692372, -81.747003], [-153.816396, -81.681248], [-153.983225, -81.676935], [-154.064809, -81.643243], [-154.298451, -81.608819], [-154.357859, -81.574884], [-154.410024, -81.562107], [-154.819203, -81.533624], [-154.996571, -81.48919], [-157.056711, -81.351332], [-157.145863, -81.319024], [-157.138254, -81.300063], [-157.095815, -81.266371], [-156.450144, -81.148696], [-147.628, -80.92018], [-147.548329, -80.886895], [-147.582753, -80.86061], [-147.625559, -80.847263], [-148.252024, -80.822524], [-148.298777, -80.813084], [-148.090932, -80.807061], [-148.180165, -80.791925], [-148.451527, -80.782159], [-148.364817, -80.770929], [-148.406606, -80.746026], [-149.461659, -80.719171], [-148.885203, -80.700616], [-149.445505, -80.683201], [-149.354929, -80.663263], [-149.035593, -80.661228], [-149.248362, -80.642836], [-149.190256, -80.62656], [-148.25768, -80.636326], [-148.343332, -80.624933], [-148.888783, -80.621189], [-149.018748, -80.591485], [-149.680491, -80.59002], [-149.72704, -80.582452], [-149.502675, -80.56878], [-149.574656, -80.55755], [-149.794545, -80.553806], [-149.62267, -80.537042], [-149.665151, -80.527032], [-150.235911, -80.528009], [-150.322133, -80.514825], [-150.271677, -80.495864], [-150.08491, -80.49627], [-150.448679, -80.45615], [-150.419871, -80.440118], [-150.38683, -80.437107], [-150.422231, -80.42962], [-151.011586, -80.429457], [-150.945017, -80.411228], [-150.723256, -80.412774], [-150.890818, -80.398045], [-149.968251, -80.393731], [-150.016428, -80.379083], [-150.212148, -80.355076], [-150.30134, -80.330662], [-150.395457, -80.316339], [-150.725779, -80.320408], [-150.571889, -80.305841], [-150.60912, -80.269708], [-150.674672, -80.253676], [-150.803212, -80.245538], [-150.726267, -80.216485], [-150.644724, -80.211602], [-150.477284, -80.221938], [-150.133738, -80.185724], [-150.180165, -80.144138], [-150.207631, -80.130548], [-150.311594, -80.108657], [-150.347279, -80.095961], [-150.3697, -80.07464], [-148.834096, -80.13128], [-148.802927, -80.104099], [-148.663035, -80.09352], [-148.546213, -80.071547], [-147.554758, -80.051202], [-147.609527, -80.040297], [-148.455068, -80.024184], [-148.511708, -80.007989], [-147.879018, -80.003025], [-147.934967, -79.985447], [-148.9499, -79.972589], [-148.905588, -79.963067], [-148.194285, -79.971287], [-148.249379, -79.962823], [-148.646962, -79.954034], [-148.514882, -79.93613], [-148.608998, -79.923272], [-148.499867, -79.912856], [-148.847768, -79.900567], [-148.778798, -79.89186], [-148.880605, -79.873305], [-148.971547, -79.870212], [-148.999745, -79.860772], [-148.704091, -79.863946], [-148.518625, -79.886814], [-148.043772, -79.890232], [-148.078806, -79.905857], [-148.207509, -79.906834], [-148.156931, -79.917576], [-147.994049, -79.91725], [-148.028757, -79.929132], [-147.976918, -79.937677], [-147.155263, -79.945896], [-147.181793, -79.917413], [-147.067128, -79.908624], [-147.168568, -79.896661], [-147.270904, -79.901625], [-147.341379, -79.921482], [-147.392445, -79.925388], [-147.570139, -79.899998], [-147.89745, -79.901137], [-147.863759, -79.889907], [-147.585194, -79.874607], [-148.059031, -79.835056], [-148.141184, -79.810805], [-148.014638, -79.814386], [-147.888824, -79.80047], [-147.945668, -79.786554], [-147.773101, -79.779474], [-149.001332, -79.686212], [-149.072499, -79.666111], [-149.039744, -79.649102], [-149.092397, -79.630304], [-150.446889, -79.559177], [-150.534413, -79.534112], [-152.003774, -79.342462], [-151.866567, -79.313409], [-151.757883, -79.277927], [-151.654897, -79.267673], [-151.697987, -79.251642], [-151.748158, -79.246759], [-152.214223, -79.310154], [-152.316151, -79.298761], [-152.414174, -79.26393], [-152.31196, -79.236423], [-151.989573, -79.204034], [-152.107004, -79.20143], [-151.975087, -79.170343], [-152.002065, -79.150974], [-151.720082, -79.083754], [-151.785512, -79.080987], [-152.074778, -79.107192], [-152.106191, -79.105727], [-152.222117, -79.074802], [-152.256825, -79.077081], [-152.232004, -79.098565], [-152.234242, -79.110935], [-152.337514, -79.142673], [-152.564443, -79.175063], [-152.591624, -79.172459], [-152.704661, -79.113865], [-152.935007, -79.170099], [-153.079335, -79.139418], [-154.969797, -79.034763], [-155.052724, -78.994073], [-156.528269, -78.66367], [-156.546742, -78.650811], [-156.549998, -78.62363], [-156.52953, -78.605239], [-156.499257, -78.594334], [-156.087595, -78.557306], [-156.039377, -78.542087], [-156.073679, -78.51686], [-156.116038, -78.507582], [-156.052846, -78.494073], [-155.013661, -78.469008], [-154.978261, -78.456964], [-155.050282, -78.425877], [-154.890859, -78.423923], [-154.796498, -78.448663], [-154.730336, -78.454685], [-154.522898, -78.434015], [-154.582143, -78.416925], [-154.509755, -78.406183], [-154.361399, -78.405369], [-154.290842, -78.38893], [-154.332631, -78.374119], [-154.303538, -78.352227], [-154.181101, -78.335219], [-154.2353, -78.28102], [-154.136586, -78.248305], [-153.917958, -78.249444], [-153.815053, -78.233168], [-154.209706, -78.221775], [-154.236521, -78.211358], [-154.277781, -78.177179], [-154.319569, -78.169203], [-154.369374, -78.140069], [-154.396189, -78.135919], [-154.567942, -78.134373], [-154.717722, -78.153985], [-154.650502, -78.175226], [-154.752146, -78.208917], [-154.774119, -78.23447], [-155.119985, -78.257013], [-155.21406, -78.246352], [-155.251576, -78.205011], [-155.09199, -78.193536], [-154.977651, -78.20672], [-155.026438, -78.160333], [-155.042673, -78.153985], [-155.18163, -78.16253], [-155.27363, -78.192315], [-155.322743, -78.199884], [-155.421498, -78.170831], [-155.519154, -78.194106], [-155.746897, -78.203871], [-155.933217, -78.188735], [-156.02717, -78.199151], [-156.348012, -78.199884], [-156.445261, -78.168145], [-156.452952, -78.145685], [-156.569692, -78.151137], [-156.625234, -78.142836], [-156.679758, -78.15838], [-156.652699, -78.168552], [-156.681833, -78.193943], [-156.740915, -78.213311], [-156.967397, -78.253351], [-157.199574, -78.252699], [-157.257192, -78.241143], [-157.353831, -78.195896], [-157.983632, -78.052911], [-158.088816, -78.005304], [-158.180043, -78.006117], [-158.253285, -77.981703], [-158.343861, -77.974379], [-158.401845, -77.9485], [-158.455027, -77.899347], [-158.637074, -77.864516], [-158.639963, -77.848565], [-158.624623, -77.829767], [-158.533437, -77.764907], [-158.453806, -77.746026], [-158.400828, -77.722263], [-158.3249, -77.636489], [-158.274363, -77.615818], [-158.157338, -77.590102], [-158.118113, -77.555841], [-158.286326, -77.51393], [-158.218699, -77.462823], [-158.140207, -77.427911], [-158.181508, -77.400486], [-158.291819, -77.375584], [-158.329457, -77.342869], [-158.325388, -77.296075], [-158.280832, -77.257582], [-158.17748, -77.205824], [-158.208445, -77.182794], [-158.282175, -77.153904], [-158.311716, -77.13242], [-158.300893, -77.105645], [-158.220204, -77.073663], [-157.925404, -77.056329], [-157.843088, -77.074965], [-157.693308, -77.142755], [-157.609364, -77.158298], [-157.573069, -77.187107], [-157.511667, -77.201837], [-157.394032, -77.250746], [-157.250722, -77.273045], [-157.304921, -77.281996], [-157.256337, -77.302179], [-157.083079, -77.351251], [-157.02184, -77.358657], [-156.980824, -77.342462], [-156.92988, -77.353936], [-156.90331, -77.348403], [-156.896067, -77.319268], [-156.821278, -77.319106], [-156.467112, -77.260675], [-156.511667, -77.247735], [-156.69636, -77.234959], [-156.833567, -77.187677], [-156.782338, -77.165785], [-156.655141, -77.157159], [-156.590281, -77.1124], [-156.51061, -77.105239], [-156.414662, -77.077895], [-156.323842, -77.066095], [-155.865549, -77.059747], [-155.695017, -77.08172], [-155.58259, -77.113214], [-155.499989, -77.16131], [-155.475046, -77.167901], [-155.315785, -77.17018], [-155.305857, -77.136489], [-155.290517, -77.128839], [-154.894399, -77.103692], [-154.839101, -77.1124], [-154.774973, -77.147638], [-154.750315, -77.153497], [-154.405222, -77.152927], [-154.195627, -77.175877], [-154.096791, -77.2138], [-153.534047, -77.254164], [-153.317209, -77.338149], [-153.379018, -77.380792], [-153.455393, -77.39837], [-153.9051, -77.405206], [-153.941843, -77.415948], [-153.907053, -77.434991], [-153.862416, -77.44256], [-153.248036, -77.446466], [-153.080637, -77.473077], [-152.934641, -77.480157], [-152.872426, -77.467869], [-152.828562, -77.467869], [-152.752634, -77.49033], [-152.575429, -77.502048], [-152.588979, -77.466974], [-152.614939, -77.438572], [-152.476389, -77.407892], [-152.50239, -77.387465], [-152.467885, -77.342055], [-152.485463, -77.319106], [-152.418568, -77.304376], [-152.350697, -77.302667], [-152.185658, -77.333185], [-152.133534, -77.375746], [-152.096547, -77.391046], [-152.060862, -77.395278], [-151.98762, -77.387953], [-151.514597, -77.416436], [-151.371165, -77.450616], [-151.416737, -77.474705], [-151.466135, -77.486505], [-151.420888, -77.508966], [-151.001088, -77.558526], [-150.911814, -77.590753], [-150.45405, -77.680597], [-150.24767, -77.773126], [-150.09907, -77.779229], [-149.974965, -77.816176], [-149.856801, -77.820082], [-149.61559, -77.802423], [-149.502431, -77.772556], [-149.24531, -77.757501], [-149.303538, -77.727716], [-149.383127, -77.719334], [-149.450917, -77.691013], [-149.59081, -77.649347], [-149.81428, -77.647882], [-149.765574, -77.643243], [-149.785471, -77.624607], [-149.643056, -77.608494], [-149.498525, -77.60947], [-148.956736, -77.707452], [-148.884511, -77.707208], [-148.673695, -77.6749], [-148.801503, -77.583754], [-148.781606, -77.579848], [-148.814687, -77.561456], [-148.752146, -77.552016], [-148.559397, -77.559991], [-148.018666, -77.495782], [-147.871734, -77.498956], [-147.79308, -77.49033], [-147.758209, -77.461684], [-149.020863, -77.337823], [-149.055531, -77.320245], [-149.062082, -77.293878], [-149.05012, -77.275649], [-149.027455, -77.26393], [-148.802724, -77.234308], [-148.971181, -77.227472], [-148.913523, -77.186456], [-148.851186, -77.125746], [-148.769724, -77.10475], [-148.513051, -77.107599], [-147.846832, -77.263767], [-147.769928, -77.311782], [-147.777943, -77.369724], [-147.661448, -77.423028], [-147.621327, -77.417413], [-147.714263, -77.355564], [-147.68692, -77.349054], [-147.606516, -77.384047], [-147.579579, -77.385349], [-147.490549, -77.353692], [-147.391713, -77.340997], [-147.296702, -77.316176], [-147.233022, -77.313735], [-147.275217, -77.269301], [-147.26415, -77.259535], [-146.976186, -77.235935], [-146.889801, -77.255792], [-146.468984, -77.439874], [-146.396596, -77.495212], [-146.375111, -77.503106], [-146.309885, -77.499933], [-146.025502, -77.51922], [-145.932607, -77.500095], [-145.968739, -77.496515], [-145.999664, -77.480076], [-145.786977, -77.478123], [-145.498402, -77.52516], [-145.462799, -77.523207], [-145.42984, -77.506606], [-145.459381, -77.494806], [-145.406646, -77.479262], [-145.558176, -77.451267], [-145.568959, -77.445896], [-145.569, -77.427016], [-145.665354, -77.385675], [-145.734731, -77.368748], [-145.955068, -77.363377], [-145.88565, -77.345961], [-145.809804, -77.347914], [-145.853505, -77.332615], [-145.90038, -77.32879], [-145.879303, -77.314386], [-145.938954, -77.27988], [-145.964467, -77.25449], [-145.95344, -77.233087], [-145.920033, -77.227309], [-145.817209, -77.25156], [-145.709096, -77.243422], [-145.564076, -77.25156], [-145.52538, -77.234552], [-145.427235, -77.247003], [-145.245961, -77.232354], [-145.936879, -77.066339], [-146.162913, -77.058526], [-146.309071, -77.030206], [-146.381418, -77.003106], [-146.319244, -76.990492], [-145.536, -77.055108], [-145.524078, -77.077244], [-145.506947, -77.079522], [-145.345367, -77.057061], [-145.309967, -77.058689], [-145.328277, -77.040134], [-145.361684, -77.028416], [-145.569325, -76.982599], [-145.545237, -76.969985], [-145.546702, -76.947849], [-145.565175, -76.926528], [-145.592519, -76.916762], [-145.810374, -76.919854], [-145.914866, -76.897556], [-145.947743, -76.880141], [-145.963612, -76.857517], [-145.945058, -76.830255], [-145.913564, -76.817966], [-145.739491, -76.82822], [-145.524403, -76.798923], [-145.475738, -76.778497], [-145.398346, -76.779474], [-145.462636, -76.751642], [-145.53425, -76.73797], [-146.109975, -76.709161], [-146.137522, -76.699314], [-146.185129, -76.66253], [-146.310902, -76.63006], [-146.416615, -76.627374], [-146.450307, -76.617852], [-146.470123, -76.592706], [-146.432688, -76.570245], [-146.391225, -76.558689], [-146.618072, -76.532403], [-147.081695, -76.432794], [-148.03954, -76.4485], [-148.45283, -76.506036], [-149.63976, -76.429946], [-149.687693, -76.416436], [-149.71406, -76.397719], [-149.708974, -76.376723], [-149.659779, -76.338149], [-149.606313, -76.313897], [-149.545766, -76.300388], [-149.483347, -76.293227], [-149.033274, -76.301935], [-148.874094, -76.26572], [-148.539662, -76.228285], [-148.645823, -76.20908], [-148.690297, -76.191502], [-148.68928, -76.161065], [-148.648671, -76.134698], [-148.59142, -76.116876], [-148.425404, -76.089451], [-148.197092, -76.087091], [-147.164459, -76.232192], [-147.216298, -76.240899], [-147.167307, -76.257582], [-146.956654, -76.298923], [-146.760976, -76.31227], [-146.597564, -76.359633], [-146.571604, -76.355239], [-146.521108, -76.329197], [-146.494456, -76.326755], [-146.466461, -76.338067], [-146.393056, -76.390232], [-146.250722, -76.423761], [-146.169179, -76.408624], [-146.005442, -76.416762], [-145.934071, -76.442804], [-145.718373, -76.464939], [-145.354644, -76.434503], [-145.504628, -76.330255], [-145.538645, -76.315525], [-145.909088, -76.25921], [-146.499623, -76.087009], [-146.469553, -76.063084], [-146.437652, -76.050063], [-146.363393, -76.037856], [-146.377594, -76.014337], [-146.290517, -75.994806], [-146.303456, -75.965509], [-146.209218, -75.91546], [-145.950836, -75.882582], [-145.180328, -75.907159], [-145.213612, -75.893487], [-145.185211, -75.883233], [-145.057281, -75.875177], [-144.891225, -75.840916], [-144.590403, -75.843357], [-144.387929, -75.812677], [-144.271108, -75.823907], [-144.221303, -75.821222], [-144.16039, -75.803969], [-144.204701, -75.749444], [-144.21052, -75.734633], [-144.202504, -75.71852], [-143.971832, -75.696059], [-143.995595, -75.6749], [-144.199045, -75.661228], [-144.307607, -75.642348], [-144.357249, -75.623956], [-144.30606, -75.614516], [-144.088979, -75.61419], [-143.391835, -75.538263], [-142.679433, -75.561782], [-142.616078, -75.540216], [-142.53718, -75.536798], [-142.514027, -75.518813], [-142.578236, -75.451267], [-142.46703, -75.431736], [-142.130198, -75.46087], [-142.031239, -75.495538], [-141.911855, -75.503595], [-141.861399, -75.521173], [-141.736318, -75.626397], [-141.690541, -75.653741], [-141.64745, -75.706801], [-141.591664, -75.730727], [-141.554026, -75.761651], [-141.52717, -75.767511], [-141.416249, -75.764093], [-141.379506, -75.739516], [-141.301747, -75.750746], [-140.912953, -75.762384], [-140.858754, -75.792413], [-140.82608, -75.801039], [-140.646474, -75.807224], [-140.776479, -75.74391], [-140.684885, -75.746026], [-140.837229, -75.682875], [-141.238433, -75.598728], [-141.298166, -75.566176], [-141.326527, -75.526788], [-141.298818, -75.501642], [-141.230458, -75.492364], [-140.92748, -75.511489], [-140.819651, -75.530938], [-140.277008, -75.43255], [-140.217356, -75.410252], [-140.198557, -75.392511], [-140.218821, -75.375177], [-140.157053, -75.34059], [-140.0, -75.28952115082387], [-140.0, -90.0], [-160.0, -90.0]]], [[[-158.304148, -81.929946], [-158.246531, -81.954522], [-157.914906, -82.018243], [-157.827463, -82.024672], [-157.808583, -82.039158], [-157.920766, -82.084731], [-157.990915, -82.097833], [-158.067209, -82.102227], [-158.0985, -82.095798], [-158.036977, -82.075616], [-158.067006, -82.048598], [-158.10969, -82.035333], [-158.393666, -81.993748], [-159.000559, -81.818455], [-159.019154, -81.787693], [-158.978586, -81.778009], [-158.892201, -81.781834], [-158.385732, -81.880629], [-158.304148, -81.929946]]], [[[-154.361887, -80.030532], [-154.309804, -80.016697], [-154.367665, -80.007013], [-154.409739, -80.00921], [-154.452626, -79.981215], [-154.513905, -79.964288], [-154.987864, -79.929376], [-155.028635, -79.915704], [-155.0183, -79.896173], [-155.478749, -79.857599], [-155.665273, -79.816827], [-155.576975, -79.800388], [-153.918202, -80.006036], [-153.894602, -80.020929], [-153.942576, -80.038751], [-154.361887, -80.030532]]], [[[-155.581654, -79.782892], [-155.654124, -79.803888], [-155.79308, -79.820082], [-155.82787, -79.815525], [-155.855417, -79.797459], [-155.823598, -79.778253], [-155.790476, -79.770115], [-155.71935, -79.769138], [-155.581654, -79.782892]]], [[[-159.566396, -79.43255], [-159.502065, -79.486505], [-159.33495, -79.528253], [-159.321645, -79.536798], [-159.323801, -79.547133], [-159.377187, -79.550551], [-159.235178, -79.589044], [-159.204783, -79.617852], [-159.216501, -79.634454], [-159.189158, -79.652765], [-158.974843, -79.722345], [-158.958445, -79.739923], [-158.978464, -79.761977], [-158.953074, -79.769708], [-159.069814, -79.81878], [-160.0, -79.83905135252144], [-160.0, -79.32543082030531], [-159.993357, -79.327325], [-159.842152, -79.348565], [-159.566396, -79.43255]]], [[[-149.207712, -77.45672], [-149.174672, -77.448337], [-149.208852, -77.439874], [-149.055857, -77.421563], [-148.832021, -77.448337], [-148.96996, -77.478936], [-149.018666, -77.480076], [-149.207712, -77.45672]]], [[[-148.958933, -77.397393], [-149.391672, -77.382257], [-149.579945, -77.339939], [-149.669789, -77.304376], [-149.640085, -77.294854], [-149.528025, -77.307061], [-149.597157, -77.282892], [-149.492624, -77.27337], [-149.336415, -77.283461], [-149.236195, -77.305108], [-149.225209, -77.315525], [-149.227976, -77.330743], [-149.214833, -77.339532], [-148.92988, -77.375095], [-148.918894, -77.384861], [-148.958933, -77.397393]]], [[[-150.349965, -77.345473], [-150.38976, -77.369399], [-150.498484, -77.375584], [-151.495229, -77.293715], [-151.512278, -77.285252], [-151.511464, -77.270766], [-151.479929, -77.258071], [-151.130849, -77.21738], [-150.985178, -77.222345], [-150.545115, -77.314874], [-150.483795, -77.343194], [-150.349965, -77.345473]]], [[[-153.05842, -77.253351], [-153.108754, -77.264907], [-153.416331, -77.231622], [-153.4676, -77.211114], [-153.436594, -77.202813], [-153.116282, -77.20615], [-153.075063, -77.216567], [-153.054921, -77.226821], [-153.047231, -77.240004], [-153.05842, -77.253351]]], [[[-147.187734, -77.210219], [-147.32726, -77.232354], [-147.307688, -77.244724], [-147.383372, -77.259047], [-147.460764, -77.24977], [-147.44636, -77.241388], [-147.484771, -77.231866], [-147.493479, -77.213637], [-147.591135, -77.193129], [-147.601633, -77.18434], [-147.566518, -77.165623], [-147.515248, -77.16131], [-147.249582, -77.188572], [-147.187734, -77.210219]]], [[[-154.552968, -77.100518], [-154.524648, -77.089614], [-154.433542, -77.072524], [-154.284006, -77.064142], [-154.128245, -77.07822], [-154.055124, -77.097263], [-154.040232, -77.112074], [-154.035756, -77.13006], [-154.048166, -77.137465], [-154.187123, -77.154392], [-154.512441, -77.135512], [-154.561879, -77.113539], [-154.552968, -77.100518]]], [[[-148.43517, -76.973728], [-148.453806, -76.991632], [-148.481191, -77.001153], [-148.939931, -77.028009], [-149.239003, -76.996352], [-149.262644, -76.987237], [-149.274973, -76.970147], [-149.267649, -76.950779], [-149.295766, -76.930922], [-149.304799, -76.912042], [-149.215891, -76.897638], [-148.533559, -76.94964], [-148.43517, -76.973728]]], [[[-149.837351, -77.123142], [-149.7954, -77.104425], [-149.872019, -77.098403], [-150.42158, -77.089776], [-150.582631, -77.037367], [-150.782664, -77.006931], [-150.801137, -76.990004], [-150.782541, -76.970798], [-150.64623, -76.942478], [-150.419016, -76.922052], [-150.443959, -76.900079], [-150.474843, -76.890802], [-150.394765, -76.877537], [-150.392934, -76.907159], [-149.962595, -76.870701], [-149.840037, -76.878025], [-149.773264, -76.894301], [-149.758656, -76.925388], [-149.694651, -76.936212], [-149.44286, -77.024998], [-149.456858, -77.042413], [-149.424875, -77.06227], [-149.444814, -77.07822], [-149.331492, -77.085138], [-149.274037, -77.097263], [-149.224355, -77.118097], [-149.249989, -77.132013], [-149.308054, -77.139581], [-149.837351, -77.123142]]], [[[-146.119049, -76.94964], [-146.158193, -76.958673], [-146.27245, -76.940606], [-146.332875, -76.913263], [-146.316721, -76.904962], [-146.38622, -76.890883], [-146.413319, -76.899998], [-146.403676, -76.914809], [-146.417348, -76.924493], [-146.411122, -76.931736], [-146.479237, -76.949884], [-146.964833, -77.007094], [-147.031484, -77.005304], [-147.094797, -76.989923], [-147.051422, -76.979262], [-147.009348, -76.956638], [-147.043813, -76.921482], [-147.130198, -76.881768], [-147.090077, -76.855239], [-147.126088, -76.839451], [-147.072133, -76.823907], [-146.249745, -76.880955], [-146.236684, -76.893243], [-146.202504, -76.901544], [-146.164784, -76.931329], [-146.119049, -76.94964]]], [[[-148.716257, -76.805352], [-148.77717, -76.839044], [-148.927113, -76.849786], [-149.15449, -76.836196], [-149.490712, -76.76686], [-149.403798, -76.731866], [-149.309804, -76.714044], [-148.800649, -76.736749], [-148.74706, -76.715997], [-148.409373, -76.738702], [-148.308909, -76.765558], [-148.35676, -76.794122], [-148.413767, -76.801853], [-148.52953, -76.796563], [-148.716257, -76.805352]]], [[[-150.601796, -76.796645], [-150.815541, -76.769789], [-150.875478, -76.740492], [-150.851186, -76.718927], [-150.827626, -76.710382], [-150.206003, -76.686782], [-150.091786, -76.708754], [-150.105092, -76.729262], [-150.078074, -76.738458], [-150.152537, -76.767022], [-150.232615, -76.77752], [-150.601796, -76.796645]]], [[[-148.943796, -76.685235], [-149.148508, -76.636977], [-148.996938, -76.607517], [-148.811472, -76.611912], [-148.467885, -76.677179], [-148.518137, -76.695977], [-148.577707, -76.705499], [-148.717478, -76.707208], [-148.943796, -76.685235]]], [[[-147.99234, -76.599054], [-147.986073, -76.591892], [-148.006174, -76.573663], [-147.946848, -76.559828], [-147.884023, -76.558689], [-147.731597, -76.584405], [-147.621693, -76.621026], [-147.559804, -76.662856], [-147.636342, -76.666599], [-147.729766, -76.654474], [-147.99234, -76.599054]]], [[[-146.819814, -76.602227], [-146.740346, -76.639907], [-146.801096, -76.650079], [-147.063832, -76.628106], [-146.934926, -76.65545], [-147.005198, -76.659926], [-146.839711, -76.701104], [-146.8933, -76.714532], [-146.951283, -76.716974], [-147.064687, -76.705173], [-147.273671, -76.660903], [-147.312611, -76.632094], [-147.365468, -76.617446], [-147.319814, -76.600274], [-147.352122, -76.583185], [-147.260081, -76.572442], [-147.279408, -76.555841], [-147.261342, -76.541192], [-147.319569, -76.531915], [-147.298004, -76.517185], [-147.240631, -76.505466], [-147.160024, -76.504653], [-147.093251, -76.514093], [-147.079905, -76.51865], [-147.098053, -76.530369], [-147.119211, -76.532159], [-147.066029, -76.552179], [-146.939605, -76.541681], [-146.919789, -76.545831], [-146.970448, -76.567071], [-146.815826, -76.580743], [-146.798411, -76.588311], [-146.819814, -76.602227]]], [[[-147.438791, -76.078709], [-147.407582, -76.068536], [-147.345082, -76.06227], [-147.071401, -76.075942], [-146.908315, -76.107029], [-146.857737, -76.151137], [-146.703033, -76.204685], [-146.70108, -76.219496], [-146.661285, -76.275567], [-146.709299, -76.292739], [-146.811838, -76.294854], [-147.062001, -76.246759], [-147.086049, -76.23561], [-147.032094, -76.226821], [-147.073557, -76.209649], [-147.381947, -76.160577], [-147.404124, -76.150079], [-147.326975, -76.14129], [-147.4381, -76.097752], [-147.460479, -76.097752], [-147.438791, -76.078709]]], [[[-145.348622, -75.616306], [-145.263783, -75.668145], [-145.200795, -75.685805], [-145.218984, -75.704522], [-145.244537, -75.714776], [-145.383046, -75.718032], [-146.015736, -75.620864], [-146.124013, -75.588962], [-146.159779, -75.569757], [-146.111155, -75.542739], [-145.969716, -75.509454], [-145.870758, -75.504571], [-145.724233, -75.518324], [-145.440378, -75.580011], [-145.348622, -75.616306]]]]}}]}