{"type": "FeatureCollection", "features": [{"type": "Feature", "properties": {"name": "Australia"}, "geometry": {"type": "MultiPolygon", "coordinates": [[[[131.345551, -31.530938], [131.177501, -31.477634], [131.135427, -31.474786], [131.092296, -31.491957], [130.9935, -31.554295], [130.833751, -31.601739], [130.79005, -31.608087], [130.696788, -31.605564], [130.547699, -31.585626], [130.31186, -31.585545], [130.267426, -31.574477], [130.156912, -31.573907], [130.078787, -31.594334], [129.943614, -31.589288], [129.753184, -31.615492], [129.536876, -31.622247], [129.451182, -31.643324], [129.20045, -31.656427], [129.138357, -31.677504], [128.990001, -31.690525], [128.931651, -31.708103], [128.770681, -31.778253], [128.755382, -31.793634], [128.723888, -31.803643], [128.655284, -31.845798], [128.218923, -32.017673], [128.017345, -32.084242], [127.766287, -32.123142], [127.566091, -32.184666], [127.531993, -32.211358], [127.288748, -32.27337], [127.090099, -32.300714], [127.083263, -32.293878], [127.052989, -32.303806], [126.935802, -32.300714], [126.820649, -32.310805], [126.78891, -32.300714], [126.760265, -32.310968], [126.677745, -32.316583], [126.372325, -32.28281], [126.24879, -32.241632], [126.18572, -32.232517], [126.137869, -32.245375], [126.10377, -32.27337], [126.078787, -32.280532], [126.007579, -32.27337], [125.87, -32.332983], [125.537275, -32.548379], [125.337827, -32.601515], [125.096446, -32.712172], [125.000255, -32.737237], [124.901914, -32.833659], [124.833991, -32.867698], [124.708832, -32.903904], [124.356944, -32.952813], [124.314952, -32.966078], [124.254893, -33.01336], [124.201182, -33.038018], [124.164806, -33.067966], [124.094737, -33.155694], [124.069672, -33.253595], [124.008311, -33.354181], [123.952485, -33.567315], [123.891612, -33.588149], [123.863048, -33.616469], [123.863048, -33.629571], [123.815196, -33.65838], [123.756847, -33.714125], [123.734874, -33.757989], [123.73878, -33.794041], [123.729015, -33.804946], [123.649587, -33.842462], [123.622813, -33.876642], [123.581065, -33.876235], [123.566661, -33.884373], [123.526622, -33.938653], [123.493337, -33.931248], [123.459727, -33.90016], [123.383311, -33.890883], [123.343598, -33.903497], [123.266612, -33.986505], [123.231944, -34.000746], [123.211274, -33.993341], [123.194102, -34.005304], [123.154633, -34.009454], [123.146983, -34.00213], [123.132823, -33.93906], [123.113617, -33.904474], [123.084972, -33.878351], [123.023123, -33.86061], [122.840831, -33.903741], [122.817882, -33.904555], [122.776622, -33.876642], [122.735606, -33.890883], [122.607432, -33.894789], [122.574555, -33.910821], [122.584239, -33.923923], [122.583018, -33.936944], [122.560313, -33.959161], [122.521821, -33.931085], [122.501964, -33.945489], [122.390147, -33.915785], [122.349864, -33.915297], [122.312266, -33.9249], [122.267751, -33.959242], [122.266124, -34.003839], [122.257823, -34.022068], [122.240245, -34.016209], [122.217621, -33.993341], [122.187266, -34.020685], [122.094737, -34.019138], [122.073578, -34.014418], [122.102794, -33.980157], [122.105805, -33.964044], [122.082367, -33.927179], [122.074229, -33.891534], [122.067393, -33.876642], [122.005707, -33.820733], [121.981456, -33.82879], [121.937022, -33.82879], [121.913748, -33.838556], [121.879242, -33.869887], [121.793712, -33.897149], [121.743826, -33.867934], [121.697276, -33.857192], [121.675141, -33.858982], [121.649669, -33.876642], [121.628429, -33.876397], [121.602224, -33.849542], [121.532888, -33.819513], [121.333751, -33.815199], [121.278494, -33.832778], [121.228526, -33.83766], [121.166352, -33.867934], [121.097667, -33.842462], [120.970551, -33.870375], [120.920177, -33.85711], [120.867686, -33.856134], [120.790375, -33.886], [120.562185, -33.892999], [120.545177, -33.905938], [120.542735, -33.928155], [120.527354, -33.936782], [120.394298, -33.97381], [120.381602, -33.962579], [120.278575, -33.938653], [120.178966, -33.931248], [120.100434, -33.952325], [120.039073, -33.925063], [120.002208, -33.926039], [120.0, -33.9271405593441], [120.0, -30.0], [140.0, -30.0], [140.0, -37.49225044847072], [139.988048, -37.487074], [139.794932, -37.268731], [139.741547, -37.180841], [139.781261, -37.152602], [139.788341, -37.126235], [139.739757, -37.05641], [139.729177, -37.003839], [139.675629, -36.968194], [139.672048, -36.953383], [139.784841, -36.902032], [139.842133, -36.84588], [139.863536, -36.767267], [139.857107, -36.634942], [139.729015, -36.372328], [139.567393, -36.075291], [139.514985, -36.035333], [139.456716, -35.95794], [139.198904, -35.746759], [139.062348, -35.658136], [139.031505, -35.64544], [138.999034, -35.617283], [138.917817, -35.576755], [138.959239, -35.566664], [139.000987, -35.585382], [139.44752, -35.927341], [139.565196, -36.049737], [139.665212, -36.227797], [139.672048, -36.227797], [139.665701, -36.183852], [139.610525, -36.076349], [139.593761, -36.022556], [139.475434, -35.896417], [139.457774, -35.882989], [139.418142, -35.871677], [139.375987, -35.830011], [139.186778, -35.690688], [139.167735, -35.685968], [139.094574, -35.632094], [139.041352, -35.604099], [139.036143, -35.586847], [139.041352, -35.573989], [139.055186, -35.569431], [139.075531, -35.576755], [139.085948, -35.535333], [139.135427, -35.498305], [139.155284, -35.503351], [139.184825, -35.528253], [139.234141, -35.54754], [139.240001, -35.565525], [139.224864, -35.615411], [139.232595, -35.63128], [139.256521, -35.636407], [139.253673, -35.651788], [139.224864, -35.675877], [139.229503, -35.689386], [139.297618, -35.700616], [139.315196, -35.700291], [139.338064, -35.687433], [139.337657, -35.647638], [139.360362, -35.607843], [139.355724, -35.593357], [139.284434, -35.538507], [139.236176, -35.524591], [139.218923, -35.507257], [139.284434, -35.480564], [139.361013, -35.489516], [139.375499, -35.463962], [139.349864, -35.428969], [139.362966, -35.376886], [139.351329, -35.370212], [139.315196, -35.397882], [139.301443, -35.356622], [139.267589, -35.331313], [139.177989, -35.315362], [139.198497, -35.329034], [139.184255, -35.344008], [139.102061, -35.389255], [139.046641, -35.39072], [139.02768, -35.384373], [138.961192, -35.413832], [138.952647, -35.435805], [138.956879, -35.4638], [138.969086, -35.475356], [139.031423, -35.497003], [139.037934, -35.508396], [139.030935, -35.517511], [139.007172, -35.521417], [138.917817, -35.501072], [138.881114, -35.471124], [138.803722, -35.475763], [138.793793, -35.483982], [138.808604, -35.501072], [138.826345, -35.507013], [138.910004, -35.509942], [138.946625, -35.536391], [138.97934, -35.528253], [138.999766, -35.538751], [138.993419, -35.54754], [138.948985, -35.556248], [138.907563, -35.548761], [138.869477, -35.561782], [138.814464, -35.538995], [138.74586, -35.538751], [138.639008, -35.567071], [138.605805, -35.61004], [138.531261, -35.645929], [138.437022, -35.65781], [138.280528, -35.651788], [138.280528, -35.644301], [138.244151, -35.66253], [138.201671, -35.671645], [138.158376, -35.659845], [138.107432, -35.620701], [138.122732, -35.555352], [138.139008, -35.54046], [138.257579, -35.490655], [138.287283, -35.469903], [138.356456, -35.384535], [138.408946, -35.363865], [138.438162, -35.342706], [138.445567, -35.260837], [138.472179, -35.227227], [138.459239, -35.185642], [138.466563, -35.110528], [138.513927, -35.038263], [138.486501, -34.873468], [138.493907, -34.791599], [138.500987, -34.770929], [138.516938, -34.769138], [138.535004, -34.780857], [138.548025, -34.801446], [138.550629, -34.781915], [138.536306, -34.740899], [138.496349, -34.723728], [138.480968, -34.698419], [138.445567, -34.685968], [138.433604, -34.636489], [138.368826, -34.590509], [138.3296, -34.520603], [138.2942, -34.504571], [138.259939, -34.438409], [138.226573, -34.320489], [138.205333, -34.288181], [138.15561, -34.260431], [138.164073, -34.230157], [138.158865, -34.211847], [138.078136, -34.128351], [138.053396, -34.180922], [138.009288, -34.244317], [138.010102, -34.263279], [138.037771, -34.308038], [137.999278, -34.356541], [137.930919, -34.414809], [137.892263, -34.526056], [137.883149, -34.589776], [137.910411, -34.623956], [137.87908, -34.690606], [137.870128, -34.774102], [137.814789, -34.860121], [137.800548, -34.918145], [137.774425, -34.976251], [137.766124, -35.008071], [137.773936, -35.034845], [137.746918, -35.058852], [137.749522, -35.131036], [137.718761, -35.144708], [137.684581, -35.178888], [137.671397, -35.180841], [137.619884, -35.166599], [137.561046, -35.131036], [137.520193, -35.131036], [137.481944, -35.117364], [137.425548, -35.118259], [137.403494, -35.1242], [137.350759, -35.166111], [137.332042, -35.172052], [137.260997, -35.165785], [137.238943, -35.172052], [137.1692, -35.242283], [137.039724, -35.227227], [136.980968, -35.255304], [136.95338, -35.283949], [136.913585, -35.296563], [136.873871, -35.294692], [136.839366, -35.256117], [136.837087, -35.241306], [136.855479, -35.204685], [136.889822, -35.188653], [136.903087, -35.178888], [136.895681, -35.172052], [136.929861, -35.151544], [136.960948, -35.096449], [136.957774, -35.062758], [136.941254, -35.02988], [136.975759, -34.996759], [136.980724, -34.984959], [136.971446, -34.965916], [137.014171, -34.917901], [137.019786, -34.901462], [137.094981, -34.924981], [137.139496, -34.926039], [137.223643, -34.906996], [137.266856, -34.905043], [137.307872, -34.928318], [137.357188, -34.937595], [137.391287, -34.954034], [137.417735, -34.945489], [137.446137, -34.917413], [137.458018, -34.801446], [137.478526, -34.761163], [137.478526, -34.71266], [137.512706, -34.617771], [137.480235, -34.526544], [137.478526, -34.466241], [137.459483, -34.447524], [137.414317, -34.472426], [137.435802, -34.419203], [137.444998, -34.404229], [137.464854, -34.404229], [137.483897, -34.355401], [137.492198, -34.282485], [137.489106, -34.237726], [137.452403, -34.155694], [137.470551, -34.137872], [137.506521, -34.150323], [137.548595, -34.087172], [137.551606, -34.049574], [137.531912, -34.015395], [137.552745, -33.984552], [137.590505, -33.951755], [137.615082, -33.941502], [137.62794, -33.920099], [137.625255, -33.899102], [137.602061, -33.876642], [137.715343, -33.787286], [137.776622, -33.693536], [137.800548, -33.6985], [137.878842, -33.59787], [137.903678, -33.587694], [137.910067, -33.596237], [137.898079, -33.613657], [137.906059, -33.627566], [137.930919, -33.616469], [137.937492, -33.52784], [137.903672, -33.455998], [137.86234, -33.39601], [137.869625, -33.358437], [137.818188, -33.293635], [137.810444, -33.259985], [137.854991, -33.190606], [137.894298, -33.179295], [137.952159, -33.14365], [137.972667, -33.149835], [137.992442, -33.135512], [138.025157, -33.148533], [138.03712, -33.139581], [138.043956, -33.125095], [138.040212, -33.081638], [138.010102, -33.024102], [137.978363, -33.021173], [137.957774, -33.004653], [137.902354, -32.78753], [137.902354, -32.774021], [137.938487, -32.752618], [137.887462, -32.709893], [137.849132, -32.697931], [137.849132, -32.65016], [137.803966, -32.594659], [137.805919, -32.580662], [137.821788, -32.568292], [137.786957, -32.553888], [137.773936, -32.519789], [137.764415, -32.524184], [137.752778, -32.574395], [137.762218, -32.617608], [137.753917, -32.693455], [137.78004, -32.702407], [137.79656, -32.726495], [137.809255, -32.846938], [137.780121, -32.910821], [137.76002, -32.905938], [137.752778, -32.917657], [137.754161, -32.938084], [137.778331, -32.982843], [137.769786, -32.990818], [137.733084, -32.991795], [137.674001, -32.955255], [137.656261, -32.951349], [137.632091, -32.961521], [137.595063, -32.992771], [137.590343, -33.034845], [137.512706, -33.108819], [137.452159, -33.140069], [137.434337, -33.221856], [137.388031, -33.293878], [137.36964, -33.413263], [137.305675, -33.4992], [137.224864, -33.653253], [137.15504, -33.705743], [137.020193, -33.730157], [136.993907, -33.719415], [136.985118, -33.6985], [136.965343, -33.684503], [136.945567, -33.682306], [136.930431, -33.69256], [136.920177, -33.724542], [136.883149, -33.744317], [136.883149, -33.754815], [136.889415, -33.77044], [136.946544, -33.751235], [136.96461, -33.753106], [136.878917, -33.802504], [136.807465, -33.808364], [136.761241, -33.838556], [136.724783, -33.846856], [136.711111, -33.866143], [136.607432, -33.902927], [136.585216, -33.921808], [136.581554, -33.948907], [136.4935, -34.009698], [136.431651, -34.027032], [136.369395, -34.073419], [136.358084, -34.093357], [136.35434, -34.124282], [136.232188, -34.308689], [136.199229, -34.330987], [136.138031, -34.35475], [136.114757, -34.383722], [136.126638, -34.39837], [136.11085, -34.417576], [136.124848, -34.452895], [136.122325, -34.483331], [136.115733, -34.516778], [136.10141, -34.534845], [136.087169, -34.532403], [136.069347, -34.481866], [136.042817, -34.486505], [135.991384, -34.513442], [135.951427, -34.520685], [135.936778, -34.534601], [135.91627, -34.589776], [135.939708, -34.62005], [135.943614, -34.637465], [135.930512, -34.65252], [135.910981, -34.633396], [135.890798, -34.631117], [135.874766, -34.643731], [135.868419, -34.668634], [135.861013, -34.709649], [135.888927, -34.74684], [135.882986, -34.768487], [135.837901, -34.766697], [135.79949, -34.805271], [135.805186, -34.81699], [135.81837, -34.82171], [135.867361, -34.819431], [135.904959, -34.803888], [135.947032, -34.767348], [135.973399, -34.786065], [135.985118, -34.780938], [135.991384, -34.740004], [135.999766, -34.735121], [136.016368, -34.744073], [136.012218, -34.818455], [135.972016, -34.8624], [135.969493, -34.876642], [135.99879, -34.945489], [135.998383, -34.962172], [136.012462, -34.979669], [135.96461, -35.007501], [135.94516, -34.997735], [135.927501, -34.955173], [135.864024, -34.929457], [135.854747, -34.905043], [135.822276, -34.874282], [135.782725, -34.857599], [135.741466, -34.861017], [135.703949, -34.890802], [135.697765, -34.91131], [135.684093, -34.918145], [135.690196, -34.9485], [135.632579, -34.952895], [135.623546, -34.947931], [135.622081, -34.91131], [135.604015, -34.880141], [135.512218, -34.79518], [135.45753, -34.731541], [135.429535, -34.71266], [135.359874, -34.685235], [135.319672, -34.685968], [135.342296, -34.6513], [135.340099, -34.638116], [135.287852, -34.592462], [135.230479, -34.565037], [135.17335, -34.576104], [135.121349, -34.604425], [135.108084, -34.595961], [135.109874, -34.578302], [135.149099, -34.524672], [135.153168, -34.502211], [135.189952, -34.466241], [135.20045, -34.435642], [135.209809, -34.431573], [135.218516, -34.43613], [135.209809, -34.469415], [135.213715, -34.492364], [135.242198, -34.509861], [135.327159, -34.527765], [135.309337, -34.53867], [135.302745, -34.550714], [135.306326, -34.563409], [135.319672, -34.576104], [135.349132, -34.585707], [135.355479, -34.59238], [135.340831, -34.603448], [135.37086, -34.628188], [135.405772, -34.644464], [135.497895, -34.623956], [135.503591, -34.611912], [135.437022, -34.599786], [135.443207, -34.55877], [135.438487, -34.545668], [135.418712, -34.557794], [135.404959, -34.580336], [135.389171, -34.569268], [135.376964, -34.512628], [135.391612, -34.504164], [135.395518, -34.472426], [135.361339, -34.407892], [135.346446, -34.275567], [135.328624, -34.221287], [135.30128, -34.179783], [135.265147, -34.178318], [135.230968, -34.136814], [135.265473, -34.127048], [135.273123, -34.115899], [135.265147, -34.103204], [135.271169, -34.091567], [135.265147, -34.017511], [135.259532, -33.997979], [135.217947, -33.952325], [135.189789, -33.892999], [135.13852, -33.869073], [135.005056, -33.74627], [134.912852, -33.687107], [134.882091, -33.650649], [134.840831, -33.63128], [134.854259, -33.622735], [134.847341, -33.602716], [134.867931, -33.54461], [134.861013, -33.479425], [134.813975, -33.352797], [134.730724, -33.27337], [134.686046, -33.250095], [134.676606, -33.233331], [134.730724, -33.225518], [134.706228, -33.172947], [134.607758, -33.14365], [134.581554, -33.145929], [134.570649, -33.160414], [134.574392, -33.176853], [134.590831, -33.184666], [134.630382, -33.185479], [134.638438, -33.205824], [134.662364, -33.225518], [134.628266, -33.246677], [134.589366, -33.202081], [134.541759, -33.192966], [134.47755, -33.157322], [134.446056, -33.153985], [134.37794, -33.17783], [134.359141, -33.153985], [134.352224, -33.188165], [134.333507, -33.205011], [134.278819, -33.162693], [134.265147, -33.10711], [134.233735, -33.047296], [134.199718, -33.039972], [134.170665, -33.043145], [134.148611, -33.02752], [134.198497, -33.011489], [134.209972, -33.000177], [134.211925, -32.981541], [134.190684, -32.946466], [134.164073, -32.938653], [134.148611, -32.951837], [134.120616, -32.938165], [134.068696, -32.929295], [134.059825, -32.910821], [134.124034, -32.859308], [134.132823, -32.835626], [134.108246, -32.779392], [134.069591, -32.733087], [134.074067, -32.713962], [134.216807, -32.725844], [134.195323, -32.769301], [134.196951, -32.795587], [134.214041, -32.806248], [134.220714, -32.803969], [134.23227, -32.768487], [134.271495, -32.73211], [134.297618, -32.678481], [134.273285, -32.588067], [134.25408, -32.554295], [134.229828, -32.523696], [134.148285, -32.456964], [134.118012, -32.452081], [134.082856, -32.470473], [134.052989, -32.45908], [134.031993, -32.466404], [133.994477, -32.506117], [133.936697, -32.500909], [133.901215, -32.543064], [133.864431, -32.546808], [133.853689, -32.529718], [133.865082, -32.505792], [133.859141, -32.45908], [133.869151, -32.43255], [133.896251, -32.399184], [133.910899, -32.422459], [133.929861, -32.420017], [133.946625, -32.40838], [133.949962, -32.389418], [133.908702, -32.34295], [133.89503, -32.313653], [133.847423, -32.27337], [133.826427, -32.245375], [133.812266, -32.247166], [133.788829, -32.266534], [133.776703, -32.264255], [133.765391, -32.247979], [133.760753, -32.216485], [133.693614, -32.191095], [133.692638, -32.163507], [133.664887, -32.153253], [133.66212, -32.143731], [133.682384, -32.122654], [133.649181, -32.101658], [133.603282, -32.09531], [133.586192, -32.103123], [133.579845, -32.144301], [133.561371, -32.172133], [133.496349, -32.144708], [133.486664, -32.114841], [133.476817, -32.111912], [133.450369, -32.12949], [133.418712, -32.133477], [133.418224, -32.156915], [133.472667, -32.173028], [133.490733, -32.186944], [133.494314, -32.19964], [133.473481, -32.205173], [133.435883, -32.190851], [133.411794, -32.211358], [133.356781, -32.205987], [133.305512, -32.190851], [133.270844, -32.218845], [133.244884, -32.201104], [133.192638, -32.184666], [133.147797, -32.19671], [133.055675, -32.108168], [133.033946, -32.097101], [133.010753, -32.09531], [132.987804, -32.111423], [132.976573, -32.108982], [132.966075, -32.073175], [132.934255, -32.0617], [132.798025, -31.956313], [132.776215, -31.95086], [132.658946, -31.949314], [132.58725, -31.934747], [132.516124, -31.941339], [132.475841, -31.955011], [132.452891, -31.983982], [132.483165, -32.026462], [132.471853, -32.03045], [132.397797, -32.012791], [132.326182, -32.033136], [132.233735, -32.032973], [132.194591, -32.017836], [132.161632, -31.991632], [132.077891, -31.90781], [131.923106, -31.823989], [131.78297, -31.727797], [131.535899, -31.605564], [131.345551, -31.530938]]], [[[138.125824, -35.863946], [138.086762, -35.877374], [138.047699, -35.918634], [138.003754, -35.913507], [137.932465, -35.875258], [137.874278, -35.876886], [137.821788, -35.864028], [137.756684, -35.871515], [137.67335, -35.902032], [137.628754, -35.910333], [137.613292, -35.924249], [137.606944, -35.943943], [137.608897, -35.966485], [137.622569, -35.990818], [137.602306, -36.025811], [137.55421, -36.035333], [137.459239, -36.082696], [137.415863, -36.055434], [137.371104, -36.010837], [137.290294, -35.998793], [137.227875, -35.97975], [137.187999, -35.993097], [137.171235, -36.033624], [137.139903, -36.04225], [137.074474, -36.028497], [137.030284, -36.03338], [137.019786, -36.021742], [136.951915, -36.046075], [136.920421, -36.049493], [136.862153, -36.028497], [136.824718, -36.04225], [136.791352, -36.041925], [136.771821, -36.056085], [136.715587, -36.062758], [136.707286, -36.056899], [136.698741, -36.026544], [136.656749, -35.973891], [136.591319, -35.956638], [136.532563, -35.911879], [136.54005, -35.870294], [136.557628, -35.854262], [136.562022, -35.829522], [136.582367, -35.79697], [136.581554, -35.768487], [136.59783, -35.757501], [136.691254, -35.746026], [136.805186, -35.70794], [137.074474, -35.671645], [137.143891, -35.644301], [137.279959, -35.616957], [137.318207, -35.587335], [137.335134, -35.58294], [137.444998, -35.610935], [137.472341, -35.596612], [137.533051, -35.596612], [137.586762, -35.583591], [137.602061, -35.590427], [137.622895, -35.582127], [137.634288, -35.590509], [137.633637, -35.603774], [137.597992, -35.617283], [137.583344, -35.63128], [137.581554, -35.64544], [137.647146, -35.654067], [137.647716, -35.659438], [137.580821, -35.726821], [137.601817, -35.74391], [137.646007, -35.742364], [137.686046, -35.757501], [137.778494, -35.739516], [137.791759, -35.757257], [137.786957, -35.785252], [137.794444, -35.804783], [137.812755, -35.811456], [137.871349, -35.793064], [137.908539, -35.729099], [137.935557, -35.726495], [138.064708, -35.761], [138.080333, -35.809259], [138.129649, -35.816339], [138.125824, -35.863946]]], [[[136.462901, -35.139744], [136.476329, -35.144708], [136.498546, -35.172052], [136.492198, -35.178888], [136.484874, -35.172052], [136.44752, -35.169366], [136.439952, -35.161716], [136.462901, -35.139744]]], [[[136.199718, -35.03281], [136.206554, -35.061212], [136.201345, -35.075372], [136.16212, -35.065525], [136.142833, -35.000665], [136.099294, -34.968194], [136.086111, -34.948175], [136.111664, -34.939223], [136.126964, -34.948419], [136.173595, -35.011326], [136.199718, -35.03281]]], [[[137.37379, -34.498224], [137.367198, -34.524102], [137.354828, -34.538018], [137.336192, -34.515313], [137.369151, -34.472426], [137.37379, -34.498224]]], [[[134.550629, -33.733657], [134.511567, -33.74627], [134.479015, -33.783624], [134.471365, -33.766778], [134.486339, -33.711684], [134.539561, -33.696466], [134.550629, -33.733657]]], [[[133.541515, -32.312595], [133.543793, -32.29461], [133.579356, -32.259698], [133.623302, -32.24391], [133.675548, -32.239353], [133.675548, -32.245375], [133.620372, -32.259698], [133.633962, -32.280206], [133.622569, -32.285089], [133.610118, -32.30755], [133.565684, -32.321222], [133.541515, -32.312595]]]]}}]}