{"type": "FeatureCollection", "features": [{"type": "Feature", "properties": {"name": "Australia"}, "geometry": {"type": "MultiPolygon", "coordinates": [[[[119.928477, -33.962823], [119.858897, -33.96795], [119.806163, -33.984959], [119.730479, -34.048517], [119.640636, -34.085219], [119.613129, -34.103204], [119.623383, -34.111098], [119.618175, -34.12005], [119.572032, -34.142022], [119.538829, -34.20908], [119.497081, -34.239028], [119.469493, -34.313409], [119.4699, -34.336033], [119.483897, -34.358575], [119.559255, -34.383722], [119.479503, -34.404555], [119.442393, -34.374444], [119.408458, -34.37005], [119.38502, -34.384861], [119.376475, -34.411716], [119.382091, -34.440118], [119.401541, -34.458754], [119.367442, -34.479913], [119.364024, -34.49505], [119.349376, -34.489679], [119.333669, -34.451918], [119.301443, -34.445896], [119.269542, -34.466485], [119.26059, -34.522149], [119.229991, -34.532159], [119.220714, -34.531834], [119.214854, -34.511651], [119.200938, -34.497979], [119.147716, -34.493585], [119.116954, -34.472426], [118.931977, -34.445896], [118.89796, -34.458754], [118.839854, -34.452569], [118.887706, -34.500421], [118.789887, -34.518813], [118.727306, -34.558038], [118.723806, -34.578871], [118.732432, -34.598321], [118.757335, -34.603448], [118.724946, -34.635837], [118.613292, -34.685968], [118.479828, -34.717055], [118.442638, -34.740004], [118.38738, -34.825942], [118.401134, -34.877211], [118.398448, -34.900974], [118.385102, -34.90838], [118.264415, -34.91131], [118.202403, -34.939223], [118.160818, -34.945489], [118.158865, -34.956638], [118.181407, -34.965916], [118.192882, -34.983575], [118.199392, -35.016778], [118.181407, -35.021173], [118.119884, -34.987074], [118.113048, -34.993829], [118.106212, -34.987074], [118.026703, -35.01393], [117.979015, -35.007501], [117.944835, -35.014907], [117.920584, -35.007501], [117.907563, -35.021173], [117.83546, -35.031427], [117.832042, -35.045831], [117.843761, -35.060235], [117.888927, -35.08172], [117.901378, -35.072686], [117.89324, -35.046563], [117.901378, -35.041681], [117.917654, -35.047052], [117.934825, -35.081313], [117.951996, -35.089532], [118.001475, -35.088149], [117.996349, -35.103692], [117.982758, -35.099542], [117.948578, -35.117364], [117.890473, -35.117364], [117.860362, -35.108819], [117.809825, -35.071384], [117.747244, -35.051365], [117.684337, -35.046319], [117.641287, -35.061293], [117.626801, -35.080255], [117.61964, -35.137872], [117.538585, -35.092218], [117.459972, -35.076104], [117.340587, -35.017836], [117.332205, -35.018162], [117.323985, -35.032973], [117.266938, -35.014907], [117.223399, -35.020766], [117.191661, -35.007501], [117.171641, -35.013279], [117.140391, -35.062758], [117.106781, -35.038344], [117.052582, -35.02337], [117.002452, -35.028985], [116.949962, -35.013442], [116.899587, -35.050388], [116.877696, -35.054864], [116.736339, -35.007501], [116.728852, -35.028009], [116.658376, -35.028009], [116.637869, -35.050226], [116.584809, -35.021173], [116.531586, -35.014744], [116.503184, -34.999933], [116.465099, -35.000665], [116.39503, -34.949477], [116.375255, -34.932712], [116.382986, -34.924981], [116.488292, -34.945733], [116.503673, -34.939223], [116.489431, -34.920017], [116.442231, -34.905532], [116.387543, -34.857517], [116.372569, -34.863539], [116.398936, -34.903904], [116.37615, -34.917413], [116.330821, -34.912693], [116.248383, -34.877537], [116.096202, -34.838637], [116.019786, -34.82936], [115.978526, -34.835626], [115.973888, -34.830255], [115.981619, -34.801446], [115.946544, -34.757501], [115.933604, -34.722589], [115.915782, -34.701918], [115.745453, -34.540216], [115.612315, -34.445896], [115.570649, -34.424737], [115.526378, -34.414809], [115.508149, -34.386977], [115.290782, -34.301853], [115.183767, -34.301853], [115.164887, -34.310235], [115.137543, -34.349867], [115.118826, -34.363377], [115.108409, -34.344334], [115.017833, -34.26214], [115.010427, -34.24505], [115.009939, -34.163181], [114.971039, -34.082696], [114.972667, -33.922784], [114.961192, -33.859552], [114.988536, -33.78102], [114.958995, -33.719903], [114.956798, -33.682306], [114.971039, -33.653904], [115.003917, -33.616957], [114.988536, -33.521091], [115.045665, -33.537205], [115.118826, -33.616469], [115.194672, -33.644627], [115.282725, -33.650649], [115.367198, -33.63128], [115.434093, -33.595473], [115.5171, -33.512384], [115.575531, -33.42669], [115.625987, -33.308038], [115.636974, -33.299249], [115.677094, -33.308038], [115.701671, -33.297133], [115.710134, -33.270685], [115.707856, -33.208429], [115.704845, -33.192478], [115.697927, -33.193129], [115.673676, -33.287693], [115.66684, -33.287693], [115.674571, -33.024998], [115.660004, -32.938165], [115.624685, -32.811782], [115.600922, -32.661716], [115.629649, -32.59238], [115.700938, -32.512953], [115.69337, -32.552667], [115.639903, -32.608575], [115.639659, -32.656915], [115.691091, -32.770603], [115.714122, -32.78045], [115.722992, -32.763767], [115.717133, -32.741632], [115.683767, -32.690199], [115.673676, -32.642755], [115.658865, -32.628513], [115.676768, -32.622817], [115.704438, -32.636489], [115.748709, -32.637302], [115.762869, -32.627699], [115.769298, -32.602309], [115.76295, -32.579034], [115.729259, -32.566095], [115.714529, -32.537042], [115.745453, -32.455662], [115.745616, -32.418715], [115.733653, -32.387953], [115.707856, -32.369561], [115.73585, -32.333185], [115.727794, -32.315037], [115.686778, -32.290216], [115.673676, -32.27337], [115.719737, -32.273207], [115.73585, -32.264418], [115.756847, -32.185642], [115.755626, -32.163507], [115.735118, -32.12949], [115.742686, -32.102309], [115.72934, -32.07464], [115.743663, -31.92783], [115.721528, -31.772638], [115.700938, -31.691176], [115.680349, -31.648614], [115.604828, -31.546563], [115.550629, -31.434747], [115.4546, -31.303481], [115.312999, -30.990818], [115.238536, -30.878676], [115.180919, -30.827244], [115.161957, -30.74212], [115.101085, -30.633396], [115.060802, -30.522393], [115.054942, -30.448012], [115.03419, -30.370375], [115.008962, -30.320082], [115.022634, -30.296157], [115.022797, -30.262872], [114.9817, -30.232029], [114.974864, -30.214044], [114.988536, -30.145685], [114.971202, -30.09238], [114.94752, -30.066827], [114.942638, -30.03102], [114.94862603415746, -30.0], [120.0, -30.0], [120.0, -33.9271405593441], [119.928477, -33.962823]]], [[[115.678477, -32.216485], [115.680512, -32.239353], [115.660004, -32.232517], [115.647227, -32.162693], [115.660004, -32.149835], [115.678477, -32.216485]]], [[[115.524607, -31.993807], [115.552192, -32.006203], [115.514759, -32.025362], [115.490731, -32.019098], [115.440142, -32.021834], [115.458296, -32.009713], [115.482366, -32.010885], [115.492107, -31.995649], [115.524607, -31.993807]]]]}}]}