{"type": "FeatureCollection", "features": [{"type": "Feature", "properties": {"name": "Indonesia"}, "geometry": {"type": "Polygon", "coordinates": [[[140.976904, -6.335116], [140.952822, -6.37377], [140.967085, -6.393924], [140.950187, -6.418935], [140.952822, -6.431751], [140.912515, -6.438572], [140.929981, -6.44498], [140.932824, -6.465961], [140.948585, -6.465547], [140.950187, -6.498724], [140.92099, -6.516397], [140.915099, -6.558462], [140.892981, -6.565386], [140.90497, -6.589467], [140.859288, -6.608381], [140.8504, -6.623574], [140.864921, -6.630602], [140.865799, -6.649205], [140.849211, -6.702846], [140.884506, -6.753902], [140.870863, -6.778397], [140.901611, -6.812193], [140.916029, -6.862732], [140.939696, -6.856325], [140.943314, -6.888054], [140.977162, -6.896632], [140.97698, -9.106134], [140.856944, -9.049086], [140.621593, -8.806736], [140.507498, -8.638116], [140.378103, -8.522231], [140.363455, -8.490818], [140.301443, -8.467462], [140.251638, -8.408949], [140.031912, -8.246352], [140.0, -8.207084999383332], [140.0, -8.105999245975852], [140.021495, -8.089532], [140.05836, -8.081964], [140.065684, -8.029474], [140.054047, -7.971612], [140.060557, -7.948337], [140.083018, -7.93255], [140.111583, -7.946547], [140.128673, -7.93613], [140.151703, -7.884698], [140.135102, -7.892673], [140.118988, -7.914809], [140.061046, -7.924412], [140.045665, -7.980157], [140.04184, -8.045505], [140.015391, -8.073663], [140.0, -8.08224366314554], [140.0, -2.3596721023589264], [140.059337, -2.354262], [140.086192, -2.343683], [140.104747, -2.320082], [140.14503, -2.341241], [140.15797, -2.320896], [140.210216, -2.402114], [140.332286, -2.455743], [140.350434, -2.443048], [140.361013, -2.449802], [140.379649, -2.441095], [140.384532, -2.429457], [140.363943, -2.40488], [140.377126, -2.395278], [140.500662, -2.435724], [140.607595, -2.439386], [140.74464, -2.499119], [140.736095, -2.563653], [140.698578, -2.608168], [140.723806, -2.633966], [140.73463, -2.634942], [140.742686, -2.605564], [140.75172, -2.600763], [140.785492, -2.62127], [140.8296, -2.608168], [140.974457, -2.600518], [140.976904, -6.335116]]]}}, {"type": "Feature", "properties": {"name": "Papua New Guinea"}, "geometry": {"type": "MultiPolygon", "coordinates": [[[[141.007823, -2.608168], [141.042979, -2.589776], [141.081309, -2.594334], [141.12143, -2.607517], [141.19337, -2.615004], [141.22755, -2.634942], [141.27589, -2.642348], [141.296235, -2.676446], [141.309418, -2.671319], [141.338227, -2.701837], [141.382335, -2.713556], [141.576182, -2.794041], [141.80128, -2.900079], [141.832774, -2.905938], [141.840668, -2.933201], [141.885427, -2.9638], [142.010427, -2.960382], [142.070323, -3.018487], [142.062836, -3.060154], [142.104503, -3.06699], [142.137462, -3.055597], [142.181895, -3.080173], [142.394705, -3.144464], [142.501964, -3.196059], [142.845958, -3.296157], [142.879161, -3.313897], [142.919932, -3.318048], [142.948985, -3.335056], [143.029307, -3.355564], [143.118663, -3.355564], [143.125499, -3.348077], [143.211192, -3.361749], [143.252208, -3.382257], [143.477875, -3.420587], [143.52296, -3.435968], [143.597911, -3.50506], [143.618663, -3.544854], [143.684337, -3.574314], [143.707774, -3.559747], [143.720225, -3.56227], [143.71461, -3.580824], [143.734223, -3.602146], [143.818044, -3.621677], [143.855154, -3.680108], [143.947113, -3.722345], [143.99586, -3.793145], [144.021495, -3.802992], [144.167003, -3.800551], [144.149099, -3.813653], [144.12615, -3.814142], [144.1338, -3.825942], [144.178884, -3.851251], [144.203624, -3.837823], [144.218272, -3.844659], [144.23878, -3.868829], [144.249685, -3.867852], [144.274181, -3.83115], [144.276215, -3.807306], [144.309906, -3.798435], [144.513438, -3.81756], [144.546886, -3.863214], [144.55128, -3.968438], [144.557791, -3.979425], [144.605805, -4.006606], [144.730317, -4.026056], [144.769705, -4.040704], [144.81365, -4.07586], [144.867849, -4.099216], [144.879568, -4.118748], [144.859711, -4.136326], [144.865001, -4.161554], [144.877452, -4.172133], [144.93922, -4.189223], [144.991222, -4.232354], [144.999685, -4.280369], [145.014171, -4.28867], [145.050955, -4.341892], [145.07781, -4.356622], [145.181326, -4.390232], [145.306895, -4.374688], [145.345714, -4.390232], [145.386729, -4.441502], [145.44809, -4.492608], [145.513682, -4.578302], [145.544281, -4.581964], [145.581065, -4.646254], [145.690196, -4.768243], [145.743663, -4.804295], [145.77768, -4.814142], [145.801443, -4.842462], [145.81186, -4.861017], [145.790294, -4.899835], [145.785411, -4.968683], [145.810802, -5.066502], [145.798188, -5.089044], [145.791026, -5.22088], [145.74879, -5.289727], [145.743663, -5.311293], [145.750336, -5.345798], [145.729991, -5.390232], [145.727387, -5.422459], [145.738455, -5.453709], [145.759613, -5.476983], [145.787852, -5.486423], [145.848481, -5.475763], [145.872406, -5.48211], [145.886974, -5.513604], [145.893809, -5.513604], [145.900645, -5.486423], [145.914317, -5.493097], [145.926443, -5.478936], [145.956309, -5.474705], [145.969493, -5.465265], [145.987153, -5.483087], [146.044688, -5.506931], [146.05714, -5.499607], [146.127208, -5.527276], [146.163259, -5.529067], [146.172862, -5.549493], [146.239024, -5.56699], [146.257009, -5.561944], [146.284923, -5.582615], [146.341319, -5.575372], [146.393809, -5.604099], [146.460948, -5.599298], [146.479747, -5.61297], [146.494884, -5.640232], [146.530772, -5.650649], [146.656586, -5.749119], [146.722992, -5.76686], [146.788422, -5.797784], [146.798025, -5.833591], [146.812755, -5.838556], [146.869477, -5.825128], [146.918224, -5.835707], [146.932872, -5.841974], [146.955821, -5.890395], [147.042247, -5.938653], [147.065115, -5.924493], [147.082286, -5.926039], [147.116466, -5.969008], [147.132823, -5.957696], [147.234386, -5.968845], [147.274913, -5.935642], [147.289073, -5.931329], [147.322927, -5.945001], [147.343598, -5.930759], [147.403087, -5.955824], [147.449067, -5.961602], [147.511404, -6.000258], [147.524425, -6.027602], [147.551606, -6.040623], [147.621755, -6.106622], [147.648448, -6.153985], [147.674653, -6.174249], [147.692149, -6.22381], [147.726248, -6.272231], [147.800792, -6.309747], [147.826671, -6.335382], [147.826671, -6.377618], [147.850434, -6.411879], [147.867524, -6.476332], [147.855235, -6.500746], [147.860688, -6.513604], [147.849946, -6.526788], [147.860688, -6.57936], [147.840343, -6.596124], [147.846934, -6.615167], [147.860688, -6.609796], [147.854015, -6.691013], [147.775645, -6.717869], [147.600108, -6.727146], [147.565278, -6.753839], [147.5324, -6.745782], [147.503103, -6.754978], [147.436209, -6.733331], [147.350597, -6.747003], [147.182384, -6.740167], [147.159679, -6.716729], [147.132091, -6.711033], [147.082774, -6.712823], [147.044444, -6.735935], [146.962657, -6.747003], [146.942149, -6.835707], [146.956228, -6.954685], [147.027192, -7.032322], [147.046235, -7.033298], [147.07252, -7.014418], [147.058279, -7.054864], [147.07252, -7.096368], [147.065115, -7.144789], [147.120779, -7.185968], [147.141368, -7.213067], [147.14088, -7.281427], [147.152599, -7.305922], [147.141368, -7.322931], [147.161876, -7.390558], [147.196056, -7.438409], [147.182384, -7.452081], [147.188487, -7.462579], [147.209646, -7.466404], [147.216075, -7.484633], [147.230154, -7.486912], [147.257579, -7.466404], [147.268077, -7.476332], [147.264334, -7.486912], [147.354503, -7.515313], [147.371267, -7.548598], [147.413829, -7.558201], [147.443044, -7.582452], [147.434825, -7.591567], [147.462901, -7.596775], [147.487315, -7.616306], [147.503917, -7.640802], [147.503266, -7.678318], [147.51295, -7.687595], [147.581309, -7.703709], [147.593435, -7.764825], [147.614919, -7.796645], [147.606944, -7.816502], [147.655284, -7.809666], [147.638927, -7.791111], [147.634776, -7.767999], [147.68336, -7.810724], [147.697765, -7.839532], [147.705821, -7.903904], [147.726817, -7.932061], [147.760916, -7.940688], [147.812999, -7.93255], [147.832286, -7.943536], [147.853201, -7.931817], [147.876475, -7.937188], [147.923513, -7.971449], [147.967296, -7.987074], [147.998546, -8.055352], [148.056407, -8.050958], [148.066173, -8.062758], [148.146332, -8.045668], [148.137543, -8.075372], [148.158214, -8.166274], [148.2046, -8.277602], [148.211436, -8.334568], [148.20281, -8.357599], [148.236095, -8.441502], [148.223888, -8.494806], [148.229503, -8.55462], [148.237559, -8.569268], [148.289236, -8.597833], [148.299001, -8.610935], [148.322113, -8.603448], [148.341807, -8.609145], [148.386567, -8.631931], [148.400727, -8.655206], [148.445323, -8.674737], [148.486827, -8.747247], [148.484548, -8.816339], [148.496349, -8.882989], [148.524669, -8.902765], [148.518728, -8.92962], [148.541759, -8.994317], [148.559255, -9.032485], [148.585623, -9.06406], [148.621104, -9.083754], [148.758311, -9.103692], [148.850434, -9.082208], [148.882498, -9.061619], [148.895356, -9.039483], [148.921397, -9.044203], [148.95753, -9.036065], [148.978038, -9.051446], [149.069102, -9.035089], [149.083263, -9.016371], [149.141856, -8.974542], [149.153575, -9.003595], [149.243663, -8.997166], [149.265391, -9.015558], [149.284353, -9.008477], [149.292735, -9.023045], [149.309337, -9.017022], [149.326834, -9.046075], [149.306407, -9.09002], [149.326834, -9.097589], [149.292735, -9.103692], [149.306651, -9.117446], [149.33725, -9.124933], [149.334239, -9.145278], [149.30714, -9.172621], [149.288829, -9.177911], [149.272227, -9.172621], [149.264659, -9.182224], [149.247895, -9.212172], [149.231212, -9.299493], [149.223643, -9.316013], [149.19044, -9.343927], [149.182872, -9.368097], [149.226573, -9.486749], [149.263194, -9.503513], [149.334239, -9.515802], [149.382091, -9.549981], [149.402599, -9.549981], [149.41627, -9.563653], [149.450938, -9.577325], [149.441417, -9.590509], [149.541026, -9.593194], [149.619884, -9.620864], [149.662852, -9.603611], [149.687348, -9.610772], [149.730968, -9.597833], [149.840017, -9.620212], [149.88852, -9.638767], [150.000987, -9.634047], [150.026378, -9.672947], [150.048839, -9.684503], [150.054698, -9.71795], [150.032481, -9.720636], [149.978363, -9.748305], [149.849864, -9.78102], [149.826427, -9.783136], [149.806651, -9.775323], [149.79363, -9.787286], [149.730968, -9.80934], [149.720958, -9.830662], [149.725352, -9.847833], [149.751964, -9.879002], [149.825206, -9.937677], [149.8567, -9.975193], [149.85532766331772, -10.0], [147.66334655562935, -10.0], [147.656505, -9.991632], [147.621267, -9.988865], [147.608409, -9.979913], [147.572765, -9.945245], [147.559744, -9.914483], [147.517589, -9.879002], [147.490977, -9.767673], [147.344981, -9.580255], [147.326345, -9.570489], [147.319591, -9.577325], [147.310069, -9.538832], [147.261974, -9.508722], [147.249685, -9.508071], [147.246267, -9.516534], [147.257579, -9.53631], [147.234386, -9.537774], [147.172618, -9.513279], [147.151052, -9.498468], [147.140147, -9.453302], [147.122244, -9.431248], [147.079356, -9.433282], [147.106619, -9.45379], [147.104177, -9.480727], [147.069998, -9.473403], [147.052745, -9.460219], [147.013845, -9.390395], [146.982758, -9.301039], [146.966075, -9.279067], [146.946462, -9.273126], [146.905528, -9.281996], [146.894867, -9.268243], [146.915863, -9.260349], [146.9192, -9.25213], [146.896332, -9.21087], [146.894867, -9.181248], [146.908539, -9.158949], [146.888194, -9.131606], [146.942149, -9.107517], [146.976817, -9.076104], [146.983653, -9.063409], [146.975352, -9.033461], [146.956554, -9.031996], [146.951508, -9.063572], [146.908539, -9.103692], [146.872813, -9.106541], [146.778331, -9.056573], [146.736664, -9.056573], [146.715017, -9.04461], [146.626801, -9.023045], [146.601817, -9.006036], [146.558442, -8.940525], [146.560069, -8.911228], [146.54835, -8.892022], [146.56186, -8.85117], [146.579112, -8.858005], [146.604503, -8.834161], [146.606456, -8.802016], [146.592459, -8.815851], [146.565929, -8.818129], [146.572113, -8.802016], [146.553233, -8.765802], [146.520763, -8.765232], [146.512462, -8.714939], [146.459483, -8.652114], [146.435313, -8.61061], [146.363048, -8.560968], [146.277192, -8.435235], [146.264985, -8.404718], [146.263845, -8.364516], [146.250743, -8.340265], [146.250743, -8.309259], [146.235118, -8.274347], [146.221934, -8.260431], [146.188975, -8.248224], [146.151134, -8.213637], [146.127452, -8.210138], [146.116547, -8.200128], [146.099864, -8.165216], [146.112804, -8.154392], [146.109874, -8.138116], [146.085623, -8.11061], [146.102794, -8.100274], [146.099864, -8.083266], [146.079356, -8.087498], [145.996837, -8.049086], [145.939464, -8.035089], [145.906749, -8.033461], [145.880707, -8.041681], [145.861339, -8.027927], [145.798106, -8.007013], [145.770844, -7.969985], [145.79127, -7.959731], [145.77768, -7.942478], [145.79127, -7.911879], [145.772472, -7.927423], [145.740977, -7.924086], [145.722504, -7.93255], [145.73699, -7.952732], [145.719086, -7.960382], [145.65797, -7.959731], [145.613292, -7.93255], [145.567882, -7.938897], [145.551768, -7.93255], [145.551768, -7.939223], [145.533214, -7.932794], [145.441905, -7.944106], [145.40797, -7.931736], [145.350108, -7.876723], [145.321625, -7.861993], [145.283702, -7.857354], [145.243419, -7.86419], [145.184093, -7.805597], [145.168224, -7.836196], [145.149669, -7.837579], [145.102061, -7.817478], [145.089203, -7.788018], [145.074718, -7.776137], [145.071137, -7.80641], [145.05836, -7.816502], [144.996267, -7.816502], [144.955333, -7.775486], [144.942638, -7.79225], [144.903819, -7.775486], [144.879568, -7.781671], [144.842052, -7.744073], [144.866222, -7.705743], [144.867442, -7.608494], [144.864268, -7.586033], [144.852306, -7.569431], [144.831228, -7.658136], [144.837169, -7.674249], [144.824962, -7.68255], [144.771007, -7.681085], [144.699474, -7.616795], [144.689952, -7.594415], [144.653575, -7.561293], [144.647716, -7.580011], [144.661143, -7.63421], [144.651622, -7.649102], [144.604015, -7.656915], [144.584727, -7.651951], [144.564464, -7.625258], [144.536632, -7.549086], [144.537608, -7.514093], [144.522309, -7.496189], [144.509613, -7.623956], [144.537608, -7.651951], [144.513927, -7.67197], [144.468761, -7.623956], [144.459158, -7.58766], [144.441417, -7.576267], [144.42156, -7.526544], [144.407237, -7.514093], [144.441417, -7.68613], [144.468761, -7.737237], [144.500011, -7.774102], [144.507823, -7.798028], [144.482432, -7.802179], [144.449962, -7.754327], [144.413422, -7.720147], [144.402843, -7.743341], [144.384532, -7.751886], [144.367198, -7.743585], [144.344412, -7.659438], [144.311046, -7.610284], [144.333832, -7.688653], [144.323985, -7.700372], [144.307465, -7.692641], [144.285167, -7.646661], [144.269542, -7.630792], [144.253429, -7.650486], [144.228526, -7.658136], [144.228526, -7.665623], [144.254405, -7.66725], [144.260916, -7.683689], [144.242198, -7.726332], [144.26531, -7.741876], [144.276215, -7.767999], [144.214854, -7.795994], [144.186534, -7.771661], [144.173839, -7.767999], [144.139171, -7.776788], [144.11199, -7.758396], [143.924327, -7.694268], [143.85141, -7.651788], [143.827891, -7.632094], [143.765798, -7.506036], [143.696056, -7.488051], [143.661876, -7.461521], [143.646251, -7.438409], [143.638845, -7.452081], [143.681163, -7.50156], [143.745616, -7.523696], [143.742442, -7.542087], [143.759532, -7.583185], [143.840831, -7.720147], [143.856212, -7.808282], [143.940684, -7.930271], [143.956798, -7.972263], [143.941173, -7.99391], [143.922699, -7.988539], [143.87908, -7.939223], [143.803966, -7.93255], [143.824474, -7.952895], [143.87615, -7.969659], [143.913829, -8.007582], [143.881196, -8.037856], [143.767345, -8.040216], [143.748709, -8.034926], [143.71461, -8.007582], [143.65089, -7.981378], [143.563162, -7.997979], [143.488943, -7.989028], [143.448416, -7.918878], [143.434093, -7.908949], [143.364024, -7.896417], [143.358897, -7.902032], [143.366954, -7.917657], [143.42628, -7.929783], [143.437185, -7.938409], [143.448416, -7.981541], [143.466563, -7.995782], [143.548025, -8.031671], [143.559825, -8.044854], [143.569835, -8.084568], [143.63502, -8.211358], [143.629161, -8.230401], [143.612478, -8.23919], [143.337901, -8.247735], [143.300141, -8.268813], [143.215017, -8.275079], [142.957856, -8.337172], [142.841482, -8.288344], [142.700369, -8.261407], [142.59254, -8.286879], [142.535899, -8.3235], [142.494477, -8.333266], [142.428722, -8.324151], [142.413829, -8.310479], [142.381358, -8.193455], [142.360037, -8.167087], [142.316742, -8.158949], [142.224783, -8.173272], [142.192882, -8.197931], [142.146169, -8.21738], [142.144379, -8.23447], [142.159679, -8.240899], [142.195649, -8.210707], [142.231212, -8.193943], [142.247325, -8.200128], [142.3296, -8.183852], [142.354015, -8.188735], [142.397309, -8.328058], [142.419688, -8.355401], [142.452159, -8.373305], [142.494314, -8.377537], [142.529796, -8.365411], [142.596365, -8.320733], [142.632091, -8.309259], [142.711681, -8.322686], [142.728282, -8.316664], [142.769298, -8.329767], [142.803559, -8.359796], [142.835297, -8.370375], [142.899669, -8.412856], [143.102061, -8.467218], [143.261567, -8.59238], [143.395274, -8.768731], [143.405528, -8.962172], [143.372569, -8.99977], [143.314789, -9.023533], [143.258067, -9.023696], [143.228526, -9.029229], [143.235362, -9.036065], [143.225271, -9.039321], [143.17335, -9.042901], [143.156261, -9.063409], [143.052745, -9.093357], [142.967052, -9.143731], [142.940603, -9.179376], [142.873546, -9.209405], [142.838145, -9.236505], [142.730968, -9.277765], [142.707774, -9.299493], [142.652599, -9.330255], [142.612478, -9.334649], [142.577322, -9.323826], [142.465099, -9.240492], [142.428966, -9.22503], [142.399262, -9.227797], [142.357677, -9.209405], [142.319102, -9.203709], [142.275727, -9.179376], [142.210704, -9.158949], [142.169281, -9.179376], [141.993988, -9.188653], [141.892914, -9.218927], [141.847423, -9.217218], [141.78297, -9.199884], [141.673106, -9.213556], [141.621267, -9.234063], [141.579356, -9.212986], [141.563243, -9.220392], [141.51002, -9.21502], [141.494884, -9.194513], [141.421723, -9.150323], [141.345876, -9.141534], [141.310069, -9.152114], [141.231944, -9.21266], [141.200206, -9.227797], [141.152599, -9.232192], [141.115001, -9.218438], [141.007823, -9.1242], [140.97698, -9.106134], [140.977162, -6.896632], [140.943314, -6.888054], [140.939696, -6.856325], [140.916029, -6.862732], [140.901611, -6.812193], [140.870863, -6.778397], [140.884506, -6.753902], [140.849211, -6.702846], [140.865799, -6.649205], [140.864921, -6.630602], [140.8504, -6.623574], [140.859288, -6.608381], [140.90497, -6.589467], [140.892981, -6.565386], [140.915099, -6.558462], [140.92099, -6.516397], [140.950187, -6.498724], [140.948585, -6.465547], [140.932824, -6.465961], [140.929981, -6.44498], [140.912515, -6.438572], [140.952822, -6.431751], [140.950187, -6.418935], [140.967085, -6.393924], [140.952822, -6.37377], [140.976904, -6.335116], [140.974457, -2.600518], [141.007823, -2.608168]]], [[[151.204926, -9.935968], [151.246349, -9.922296], [151.283946, -9.927911], [151.300629, -9.967706], [151.29116705792356, -10.0], [151.14167659972586, -10.0], [151.138845, -9.994887], [151.204926, -9.935968]]], [[[150.992524, -9.993829], [150.944347, -9.954685], [150.946544, -9.98089], [150.928966, -9.996759], [150.907237, -9.997328], [150.882335, -9.96087], [150.882335, -9.903009], [150.852224, -9.84881], [150.835216, -9.832778], [150.814708, -9.827813], [150.80714, -9.80934], [150.779796, -9.803318], [150.760509, -9.783298], [150.753184, -9.752048], [150.763927, -9.702813], [150.812755, -9.732354], [150.828298, -9.750665], [150.844086, -9.794529], [150.917003, -9.830499], [150.982188, -9.902927], [151.048106, -9.935154], [151.061697, -9.954685], [151.038259, -9.9485], [151.031505, -9.9638], [151.035411, -9.984552], [151.05474317032855, -10.0], [150.98767833424145, -10.0], [150.992524, -9.993829]]], [[[150.804698, -9.669529], [150.742361, -9.652439], [150.656993, -9.659275], [150.549327, -9.623224], [150.433604, -9.63128], [150.429861, -9.624282], [150.444509, -9.608819], [150.502208, -9.572035], [150.513682, -9.54697], [150.505626, -9.51572], [150.457774, -9.48797], [150.426931, -9.418715], [150.423595, -9.38893], [150.43214, -9.36533], [150.453136, -9.348565], [150.505544, -9.33766], [150.597423, -9.377048], [150.62908, -9.412774], [150.673839, -9.438653], [150.744884, -9.41839], [150.759451, -9.399184], [150.79835, -9.425714], [150.834483, -9.461196], [150.834483, -9.48797], [150.885753, -9.515802], [150.882335, -9.560235], [150.863536, -9.574314], [150.879893, -9.591567], [150.899425, -9.594171], [150.906505, -9.619724], [150.930675, -9.638767], [150.930919, -9.652439], [150.90268, -9.679783], [150.892345, -9.669041], [150.875173, -9.680597], [150.841319, -9.713962], [150.854991, -9.662367], [150.848155, -9.653985], [150.800955, -9.652439], [150.804698, -9.669529]]], [[[150.380626, -9.386895], [150.335216, -9.471287], [150.361501, -9.474298], [150.360606, -9.49033], [150.337657, -9.519708], [150.312266, -9.519464], [150.259613, -9.495375], [150.251638, -9.501642], [150.246267, -9.458754], [150.171641, -9.435642], [150.153168, -9.40252], [150.108246, -9.361017], [150.112804, -9.299412], [150.142345, -9.247735], [150.189952, -9.211847], [150.214529, -9.205824], [150.31544, -9.259454], [150.334239, -9.282485], [150.380626, -9.386895]]], [[[153.012055, -9.149102], [152.989106, -9.172296], [152.994247, -9.178647], [152.985923, -9.192577], [152.975654, -9.195742], [152.945443, -9.174848], [152.929447, -9.191946], [152.969947, -9.229315], [152.975745, -9.245778], [152.967416, -9.256546], [152.960999, -9.25718], [152.942356, -9.228055], [152.921829, -9.228693], [152.894272, -9.250229], [152.834639, -9.259734], [152.811554, -9.254673], [152.744234, -9.181268], [152.726935, -9.204043], [152.729545, -9.219139], [152.753209, -9.22367], [152.751926, -9.242034], [152.735896, -9.2604], [152.720522, -9.231891], [152.655756, -9.204073], [152.644216, -9.182558], [152.650634, -9.168001], [152.672431, -9.185086], [152.695546, -9.186317], [152.689952, -9.171563], [152.695323, -9.162367], [152.714366, -9.154474], [152.704511, -9.144571], [152.664758, -9.123701], [152.598097, -9.068639], [152.573057, -9.07812], [152.5063, -9.038825], [152.47162, -9.04513], [152.464544, -9.036887], [152.499766, -9.023045], [152.499766, -9.015558], [152.472885, -8.976077], [152.451666, -8.96527], [152.425949, -8.982342], [152.427871, -9.057751], [152.421424, -9.083721], [152.411792, -9.033655], [152.388623, -8.991155], [152.404715, -8.970897], [152.452304, -8.94499], [152.47159, -8.949459], [152.51787, -8.996409], [152.599356, -8.988879], [152.704484, -9.006014], [152.794171, -9.003497], [152.830049, -9.028148], [152.847999, -9.059131], [152.865941, -9.069884], [152.898624, -9.079355], [152.91783, -9.069857], [152.941542, -9.083758], [152.951189, -9.094506], [152.948609, -9.119812], [153.012055, -9.149102]]], [[[151.138357, -8.795343], [151.142914, -8.830662], [151.102061, -8.76865], [151.04363, -8.726983], [151.09669, -8.653578], [151.122406, -8.58294], [151.080903, -8.550226], [151.00587, -8.53753], [150.999034, -8.518162], [151.027517, -8.461847], [151.061046, -8.42962], [151.129242, -8.419122], [151.122406, -8.425958], [151.121104, -8.474298], [151.108897, -8.514744], [151.139008, -8.547621], [151.138357, -8.59059], [151.105724, -8.730645], [151.103363, -8.757094], [151.138357, -8.795343]]], [[[143.629161, -8.644708], [143.65268, -8.683364], [143.652517, -8.706476], [143.642345, -8.72617], [143.628917, -8.730401], [143.617035, -8.721856], [143.605805, -8.689223], [143.451182, -8.607517], [143.412283, -8.595636], [143.400727, -8.573419], [143.338145, -8.521742], [143.255219, -8.494806], [143.221202, -8.45322], [143.178884, -8.419122], [143.219086, -8.415134], [143.271007, -8.468927], [143.474864, -8.525323], [143.492035, -8.552504], [143.587901, -8.631443], [143.629161, -8.644708]]], [[[143.330333, -8.394138], [143.316661, -8.372247], [143.351329, -8.357192], [143.37322, -8.37127], [143.484386, -8.363539], [143.573741, -8.373712], [143.584809, -8.38128], [143.588634, -8.420831], [143.611501, -8.462172], [143.610606, -8.47503], [143.581798, -8.486749], [143.530121, -8.485528], [143.461925, -8.458185], [143.44516, -8.43906], [143.379405, -8.425958], [143.330333, -8.394138]]], [[[148.071544, -5.631606], [148.077485, -5.65781], [148.067638, -5.74684], [148.03891, -5.822035], [148.024587, -5.81463], [148.024587, -5.841974], [148.006196, -5.841974], [147.991059, -5.856215], [147.977387, -5.794203], [147.957042, -5.78045], [147.881114, -5.763767], [147.854747, -5.709731], [147.817068, -5.677504], [147.769054, -5.611749], [147.771332, -5.506931], [147.819835, -5.478936], [147.833507, -5.493097], [147.847179, -5.486423], [147.894867, -5.534112], [147.975108, -5.558201], [148.049164, -5.606134], [148.071544, -5.631606]]], [[[155.963878, -6.701918], [155.96754, -6.727146], [155.960948, -6.750177], [155.930186, -6.793634], [155.912364, -6.809015], [155.92449, -6.738214], [155.915782, -6.727146], [155.878184, -6.801528], [155.853526, -6.773533], [155.816417, -6.782159], [155.755219, -6.829522], [155.717784, -6.872817], [155.697032, -6.876642], [155.65561, -6.863051], [155.568044, -6.854099], [155.523611, -6.839125], [155.446788, -6.801528], [155.330089, -6.719659], [155.30836, -6.686456], [155.187266, -6.554457], [155.173106, -6.527927], [155.207205, -6.534763], [155.224864, -6.500746], [155.234874, -6.45436], [155.23463, -6.363377], [155.214854, -6.317071], [155.181651, -6.291681], [155.082042, -6.26214], [154.990896, -6.208754], [154.978689, -6.192966], [154.959646, -6.130629], [154.932384, -6.097263], [154.88502, -6.075942], [154.8567, -6.043227], [154.817638, -6.015313], [154.793305, -5.975356], [154.75587, -5.947849], [154.741059, -5.886977], [154.753429, -5.856215], [154.74879, -5.834731], [154.700206, -5.76686], [154.720225, -5.716485], [154.740001, -5.610935], [154.741547, -5.59238], [154.727387, -5.568943], [154.734223, -5.561456], [154.760509, -5.581638], [154.770356, -5.55877], [154.741954, -5.494236], [154.698416, -5.451918], [154.700206, -5.431085], [154.733165, -5.42669], [154.774425, -5.449395], [154.810802, -5.483575], [154.829845, -5.513604], [154.846934, -5.510512], [154.865571, -5.520115], [154.891938, -5.55462], [154.897716, -5.545099], [154.925466, -5.534112], [154.951182, -5.541111], [155.018321, -5.541274], [155.028575, -5.545099], [155.021739, -5.561456], [155.0324, -5.56756], [155.049571, -5.547784], [155.064952, -5.547784], [155.069509, -5.568943], [155.062022, -5.585707], [155.089854, -5.595636], [155.100108, -5.631036], [155.125662, -5.660577], [155.146821, -5.706964], [155.19044, -5.75628], [155.186778, -5.801039], [155.21339, -5.869887], [155.22877, -5.865167], [155.278982, -5.883559], [155.335297, -5.946222], [155.370372, -5.957289], [155.403819, -6.006036], [155.418305, -6.069024], [155.452159, -6.13714], [155.502778, -6.189223], [155.521251, -6.189223], [155.539317, -6.171563], [155.551036, -6.178806], [155.568858, -6.211114], [155.590831, -6.219985], [155.615571, -6.216974], [155.623057, -6.190851], [155.63852, -6.178399], [155.641612, -6.216974], [155.665782, -6.241143], [155.675955, -6.26393], [155.713878, -6.279229], [155.758556, -6.343683], [155.813324, -6.364841], [155.850271, -6.431736], [155.916759, -6.517511], [155.926036, -6.555108], [155.9192, -6.596124], [155.963878, -6.701918]]], [[[148.126964, -5.391778], [148.146495, -5.41961], [148.148123, -5.448012], [148.12086, -5.465265], [148.091319, -5.456638], [148.076345, -5.428643], [148.07838, -5.396661], [148.100352, -5.37656], [148.126964, -5.391778]]], [[[147.625011, -5.289483], [147.647797, -5.321222], [147.628673, -5.347263], [147.600108, -5.362888], [147.5796, -5.334893], [147.565278, -5.334893], [147.562022, -5.307794], [147.606944, -5.287205], [147.625011, -5.289483]]], [[[147.218272, -5.317315], [147.243826, -5.355401], [147.229015, -5.370782], [147.223318, -5.424249], [147.21518, -5.430352], [147.196056, -5.424249], [147.161876, -5.444757], [147.127208, -5.443292], [147.099132, -5.423761], [147.058279, -5.37656], [147.021169, -5.349298], [147.005138, -5.319431], [147.018077, -5.24391], [147.065115, -5.22503], [147.112559, -5.191827], [147.133962, -5.190851], [147.168468, -5.228611], [147.205821, -5.250177], [147.218272, -5.317315]]], [[[154.688731, -5.427341], [154.666026, -5.438572], [154.672211, -5.417413], [154.656993, -5.42254], [154.631847, -5.45908], [154.562185, -5.239679], [154.562185, -5.225274], [154.580089, -5.211358], [154.583181, -5.194513], [154.577647, -5.119561], [154.563243, -5.115167], [154.535655, -5.137465], [154.541515, -5.103285], [154.564789, -5.066339], [154.62436, -5.01336], [154.657074, -5.019708], [154.679047, -5.046563], [154.69337, -5.108982], [154.687022, -5.15488], [154.69337, -5.170505], [154.721853, -5.194106], [154.727387, -5.211358], [154.688731, -5.427341]]], [[[149.1692, -4.862481], [149.180431, -4.879164], [149.156098, -4.924005], [149.129568, -4.908787], [149.120616, -4.897231], [149.121918, -4.883071], [149.1692, -4.862481]]], [[[146.212657, -4.795587], [146.243337, -4.787367], [146.263438, -4.820977], [146.263845, -4.835219], [146.250743, -4.827813], [146.243337, -4.835219], [146.247325, -4.852309], [146.23227, -4.853285], [146.212657, -4.842543], [146.202891, -4.82464], [146.212657, -4.795587]]], [[[149.561778, -4.672784], [149.567068, -4.687595], [149.560232, -4.71795], [149.551524, -4.719903], [149.524913, -4.668878], [149.512462, -4.663344], [149.497569, -4.666274], [149.492442, -4.676446], [149.497325, -4.686944], [149.512462, -4.691176], [149.49822, -4.704197], [149.478282, -4.711684], [149.4546, -4.692478], [149.465668, -4.670505], [149.519298, -4.643487], [149.561778, -4.672784]]], [[[146.048106, -4.585138], [146.055186, -4.659926], [146.039724, -4.712335], [145.99171, -4.744317], [145.93922, -4.760919], [145.886974, -4.71795], [145.875743, -4.686782], [145.880707, -4.649591], [145.906505, -4.590509], [145.955903, -4.538995], [145.975352, -4.528985], [145.996837, -4.534275], [146.048106, -4.585138]]], [[[152.365245, -4.472101], [152.36085, -4.506524], [152.398936, -4.602472], [152.411632, -4.68377], [152.386404, -4.791192], [152.29184, -4.935479], [152.232432, -4.983087], [152.157725, -4.999282], [152.038829, -4.978611], [152.027599, -4.987726], [151.992686, -4.971775], [151.974376, -4.984145], [151.968923, -5.004978], [151.97755, -5.148614], [152.044688, -5.211684], [152.052013, -5.228936], [152.081554, -5.239353], [152.123057, -5.290785], [152.147472, -5.345798], [152.150401, -5.369724], [152.098888, -5.455743], [152.067719, -5.45908], [152.013194, -5.489679], [151.97169, -5.534112], [151.886892, -5.55462], [151.834239, -5.59295], [151.807791, -5.595636], [151.785981, -5.584893], [151.757172, -5.548761], [151.72047, -5.528904], [151.671153, -5.529555], [151.653819, -5.53753], [151.619314, -5.575128], [151.606619, -5.571954], [151.598888, -5.544366], [151.580821, -5.535333], [151.464122, -5.534275], [151.445323, -5.569431], [151.450938, -5.586521], [151.470063, -5.616469], [151.502615, -5.620212], [151.530284, -5.647149], [151.532563, -5.664727], [151.515391, -5.681573], [151.489106, -5.690606], [151.465099, -5.684991], [151.431407, -5.707452], [151.409923, -5.735935], [151.403331, -5.77516], [151.386485, -5.804457], [151.342133, -5.841974], [151.286876, -5.856215], [151.218761, -5.917739], [151.208507, -5.942804], [151.182791, -5.964288], [151.17156, -5.951837], [151.086925, -5.985772], [151.061046, -6.029392], [151.029959, -6.032322], [150.972341, -6.020766], [150.900564, -6.036879], [150.880382, -6.053888], [150.821462, -6.01393], [150.806977, -6.048272], [150.816417, -6.071222], [150.796072, -6.120294], [150.695974, -6.15016], [150.676443, -6.163263], [150.660411, -6.147393], [150.645763, -6.147068], [150.5949, -6.185805], [150.588064, -6.178399], [150.53061, -6.227797], [150.500743, -6.23919], [150.465099, -6.274021], [150.395356, -6.288751], [150.367198, -6.279067], [150.337657, -6.294529], [150.323985, -6.280857], [150.246755, -6.29697], [150.228689, -6.291111], [150.213227, -6.269952], [150.177908, -6.257989], [150.163422, -6.259698], [150.103363, -6.302667], [150.084727, -6.297947], [150.079438, -6.271742], [150.054047, -6.257745], [150.039887, -6.280857], [150.026378, -6.287693], [150.038259, -6.297947], [150.03712, -6.307712], [150.012055, -6.321222], [150.011078, -6.291192], [149.98878, -6.274021], [149.95753, -6.28338], [149.92335, -6.308201], [149.901134, -6.291925], [149.727794, -6.287693], [149.690603, -6.308201], [149.65089, -6.302423], [149.635427, -6.308201], [149.580577, -6.259861], [149.545665, -6.195977], [149.488129, -6.12005], [149.464041, -6.102634], [149.320567, -6.054864], [149.236339, -6.093683], [149.18922, -6.094822], [149.162934, -6.082208], [149.160492, -6.115411], [149.141856, -6.14422], [149.052908, -6.161716], [149.053071, -6.14422], [149.080577, -6.139337], [149.073253, -6.090916], [149.056488, -6.074477], [149.033214, -6.068536], [149.060395, -6.024347], [149.053071, -6.006524], [149.045177, -6.026056], [149.012055, -6.027602], [148.894054, -5.98561], [148.868175, -5.992852], [148.853852, -5.97975], [148.881847, -5.951837], [148.875255, -5.942641], [148.853852, -5.938165], [148.847179, -5.919854], [148.837169, -5.917739], [148.804454, -5.915134], [148.779307, -5.931329], [148.771983, -5.924493], [148.778168, -5.896905], [148.764415, -5.862726], [148.7317, -5.863214], [148.718028, -5.847589], [148.675629, -5.84881], [148.621104, -5.807875], [148.57016, -5.841974], [148.551524, -5.837009], [148.505138, -5.801039], [148.437185, -5.793715], [148.386241, -5.775079], [148.34669, -5.726007], [148.328949, -5.68377], [148.324718, -5.646417], [148.342052, -5.533298], [148.359711, -5.497817], [148.386729, -5.46852], [148.429942, -5.444757], [148.51531, -5.489679], [148.529552, -5.523858], [148.556407, -5.539972], [148.585948, -5.534275], [148.651866, -5.48089], [148.696137, -5.493097], [148.743988, -5.493097], [148.775238, -5.520278], [148.847667, -5.540948], [148.855479, -5.522149], [148.890636, -5.501153], [148.926036, -5.495538], [148.978038, -5.465265], [149.067393, -5.510349], [149.187755, -5.555922], [149.224376, -5.599298], [149.350352, -5.585219], [149.375255, -5.575128], [149.390473, -5.587335], [149.430431, -5.561456], [149.448009, -5.58115], [149.458995, -5.582452], [149.46461, -5.568943], [149.49879, -5.5888], [149.517833, -5.553481], [149.529552, -5.547784], [149.614919, -5.513604], [149.629161, -5.527276], [149.643077, -5.514825], [149.663259, -5.52044], [149.676443, -5.500909], [149.670095, -5.478936], [149.685802, -5.488214], [149.691661, -5.503025], [149.683116, -5.552179], [149.718435, -5.568943], [149.778005, -5.544122], [149.792817, -5.521417], [149.792979, -5.506931], [149.833507, -5.526544], [149.872813, -5.527602], [149.911469, -5.515069], [149.954112, -5.480645], [149.985362, -5.420831], [149.981944, -5.408787], [149.950694, -5.397068], [149.916515, -5.349216], [149.93686, -5.30755], [150.014415, -5.247491], [150.026378, -5.22503], [150.019542, -5.184747], [150.00587, -5.177341], [150.026378, -5.1124], [150.013194, -5.085545], [150.034923, -5.034356], [150.069021, -5.01214], [150.112559, -5.007745], [150.178884, -5.031183], [150.202403, -5.062107], [150.181977, -5.102472], [150.115733, -5.123224], [150.075369, -5.159112], [150.06186, -5.181085], [150.078868, -5.20143], [150.081554, -5.266697], [150.046723, -5.280369], [150.032074, -5.29518], [150.050141, -5.311293], [150.058116, -5.342869], [150.112478, -5.442153], [150.129405, -5.516697], [150.161306, -5.546645], [150.289806, -5.566583], [150.306895, -5.561456], [150.33253, -5.520196], [150.399425, -5.478936], [150.416759, -5.45908], [150.474132, -5.447931], [150.511892, -5.450942], [150.59254, -5.486993], [150.617442, -5.54339], [150.633962, -5.556736], [150.719005, -5.534112], [150.758556, -5.497247], [150.766856, -5.478936], [150.763927, -5.456476], [150.779796, -5.45908], [150.809581, -5.443292], [150.837169, -5.452895], [150.875499, -5.493097], [150.917003, -5.486423], [150.940603, -5.45908], [150.981619, -5.440851], [151.012543, -5.410577], [151.022227, -5.390313], [151.02003, -5.324884], [151.033376, -5.258884], [151.082856, -5.163832], [151.136078, -5.108982], [151.164073, -5.09588], [151.239106, -5.006524], [151.252778, -5.006524], [151.252778, -4.992852], [151.357921, -4.946547], [151.368907, -4.903497], [151.492442, -4.94256], [151.534028, -4.916599], [151.612478, -4.96559], [151.647716, -4.948989], [151.678966, -4.90016], [151.697927, -4.82464], [151.663748, -4.76629], [151.667003, -4.646254], [151.657481, -4.608087], [151.626964, -4.561293], [151.622895, -4.49391], [151.609141, -4.451755], [151.553884, -4.396417], [151.544119, -4.346612], [151.519786, -4.320733], [151.526622, -4.290216], [151.507335, -4.229181], [151.509451, -4.213067], [151.540294, -4.17669], [151.610606, -4.19256], [151.650157, -4.191013], [151.691661, -4.204685], [151.717133, -4.198907], [151.725841, -4.201349], [151.725759, -4.218357], [151.762706, -4.20615], [151.817149, -4.213962], [151.863048, -4.238702], [151.882091, -4.305108], [151.964692, -4.331231], [151.998546, -4.31878], [152.030284, -4.276625], [152.036143, -4.256931], [151.999522, -4.21087], [152.008637, -4.191664], [152.064301, -4.21087], [152.100759, -4.198419], [152.136729, -4.204685], [152.149425, -4.18963], [152.16212, -4.148533], [152.185069, -4.142511], [152.233409, -4.190362], [152.245779, -4.235121], [152.2435, -4.243097], [152.229259, -4.246189], [152.205577, -4.241957], [152.188487, -4.210138], [152.177582, -4.21087], [152.172618, -4.234796], [152.177908, -4.296808], [152.18572, -4.308526], [152.205577, -4.314548], [152.226736, -4.304457], [152.239757, -4.307061], [152.263194, -4.331313], [152.338552, -4.341892], [152.412364, -4.32936], [152.417979, -4.34531], [152.365245, -4.472101]]], [[[145.10613, -4.066583], [145.100108, -4.116306], [145.075938, -4.128188], [145.038341, -4.122817], [145.024587, -4.0888], [145.02711, -4.058201], [145.044688, -4.060642], [145.069347, -4.043227], [145.10613, -4.066583]]], [[[153.233409, -3.444268], [153.258962, -3.482354], [153.260102, -3.498956], [153.191742, -3.470961], [153.233409, -3.444268]]], [[[153.327891, -3.368585], [153.342784, -3.378676], [153.343272, -3.416274], [153.330903, -3.398858], [153.267589, -3.403253], [153.280772, -3.382501], [153.301606, -3.368585], [153.327891, -3.368585]]], [[[154.716567, -3.393438], [154.737858, -3.44185], [154.731779, -3.460814], [154.683068, -3.349738], [154.613479, -3.24101], [154.55318, -3.206315], [154.595762, -3.211502], [154.627763, -3.226888], [154.716567, -3.393438]]], [[[152.667247, -3.122735], [152.671723, -3.13836], [152.65066, -3.195351], [152.653494, -3.215102], [152.643809, -3.224542], [152.602712, -3.194757], [152.544243, -3.130871], [152.52718, -3.097701], [152.531557, -3.075272], [152.574661, -3.040101], [152.612396, -3.035903], [152.650645, -3.046482], [152.650645, -3.114679], [152.667247, -3.122735]]], [[[151.020356, -2.960138], [151.026215, -2.970636], [150.992198, -2.984308], [150.986013, -2.969171], [150.975841, -2.965916], [150.906505, -2.970636], [150.834972, -2.960138], [150.821462, -2.977634], [150.806163, -2.971856], [150.776703, -2.984308], [150.769786, -2.979587], [150.800955, -2.950291], [150.816417, -2.953546], [150.882335, -2.903009], [150.942393, -2.923272], [150.992198, -2.957696], [151.020356, -2.960138]]], [[[152.078871, -2.956761], [152.05128, -2.995212], [152.025356, -2.996072], [151.992414, -2.944789], [151.989757, -2.896661], [151.967459, -2.887628], [151.958507, -2.875177], [151.965343, -2.875177], [151.971934, -2.847833], [151.982921, -2.842869], [152.023774, -2.896742], [152.071544, -2.916681], [152.078871, -2.956761]]], [[[151.987071, -2.831231], [151.927562, -2.851772], [151.91584, -2.84429], [151.908626, -2.753468], [151.913038, -2.705389], [151.978201, -2.72088], [152.009776, -2.744806], [152.009288, -2.792576], [151.992686, -2.799981], [151.999522, -2.814223], [152.013194, -2.806817], [151.987071, -2.831231]]], [[[151.960216, -2.651544], [151.960297, -2.626723], [151.975597, -2.603123], [151.999522, -2.594496], [152.028575, -2.619073], [152.037364, -2.642348], [152.026541, -2.659601], [151.982432, -2.662774], [151.960216, -2.651544]]], [[[153.126801, -4.350193], [153.137218, -4.375909], [153.054047, -4.452325], [153.041026, -4.485772], [153.0442, -4.50506], [153.075206, -4.540297], [153.080577, -4.570001], [153.075206, -4.601821], [153.034841, -4.636], [153.034841, -4.670099], [153.007579, -4.698012], [152.980235, -4.759454], [152.946056, -4.80047], [152.924083, -4.793878], [152.897716, -4.848321], [152.87379, -4.788832], [152.849457, -4.763849], [152.815115, -4.745864], [152.818126, -4.721368], [152.732595, -4.649591], [152.726329, -4.578302], [152.689789, -4.547784], [152.671153, -4.451755], [152.691417, -4.397149], [152.703868, -4.289972], [152.692149, -4.266046], [152.697602, -4.240981], [152.684825, -4.218357], [152.694021, -4.199314], [152.687836, -4.163832], [152.661876, -4.129978], [152.612315, -4.031508], [152.598806, -3.986017], [152.552419, -3.924005], [152.548839, -3.906427], [152.52711, -3.886163], [152.518891, -3.854669], [152.478689, -3.840916], [152.462087, -3.811782], [152.444347, -3.799086], [152.359874, -3.694106], [152.35963, -3.653009], [152.310557, -3.610935], [152.288585, -3.569757], [152.239757, -3.553481], [152.225434, -3.525567], [152.171072, -3.490167], [151.98406, -3.458917], [151.945486, -3.444268], [151.809093, -3.361098], [151.612478, -3.166192], [151.473888, -3.117608], [151.430431, -3.053318], [151.338552, -2.997735], [151.292979, -2.980076], [151.260265, -2.950291], [151.210704, -2.935317], [151.180675, -2.896173], [151.152517, -2.894708], [151.150401, -2.882501], [151.090587, -2.832696], [151.045258, -2.825128], [150.999034, -2.78631], [150.935802, -2.766534], [150.837087, -2.779392], [150.795421, -2.779229], [150.759776, -2.768813], [150.738943, -2.744806], [150.747325, -2.71795], [150.76002, -2.711033], [150.794932, -2.729099], [150.854991, -2.696954], [150.87615, -2.71266], [150.892426, -2.697524], [150.893321, -2.675226], [150.868012, -2.669041], [150.883637, -2.654067], [150.881114, -2.643487], [150.793468, -2.615004], [150.813975, -2.573989], [150.812673, -2.555841], [150.833995, -2.566827], [150.858735, -2.597752], [150.896495, -2.618097], [150.901703, -2.630141], [150.93686, -2.649184], [150.972341, -2.690118], [151.022309, -2.699151], [151.04363, -2.710626], [151.061697, -2.744806], [151.170421, -2.785089], [151.191091, -2.807061], [151.198904, -2.844659], [151.216319, -2.869236], [151.256684, -2.877537], [151.331716, -2.875177], [151.342947, -2.877537], [151.368907, -2.904067], [151.396169, -2.896173], [151.437348, -2.908868], [151.502615, -2.974216], [151.540294, -2.977634], [151.597667, -3.019708], [151.609141, -3.018487], [151.686778, -3.06699], [151.732188, -3.12713], [151.753917, -3.141046], [151.780447, -3.135837], [151.786388, -3.160821], [151.813813, -3.187433], [151.87672, -3.190362], [151.909353, -3.204197], [151.924327, -3.197361], [151.969737, -3.231703], [152.004649, -3.23211], [152.02768, -3.244887], [152.052501, -3.246677], [152.054698, -3.27988], [152.111013, -3.330173], [152.186778, -3.431573], [152.217459, -3.456964], [152.324229, -3.511], [152.358897, -3.537693], [152.369395, -3.580824], [152.391449, -3.596124], [152.424653, -3.656508], [152.444672, -3.669122], [152.464854, -3.66839], [152.492931, -3.642836], [152.506196, -3.657322], [152.538259, -3.724379], [152.556977, -3.744317], [152.56129, -3.755548], [152.552501, -3.787693], [152.574962, -3.821059], [152.644542, -3.832696], [152.698416, -3.875665], [152.755219, -3.896173], [152.777599, -3.897393], [152.823497, -3.871352], [152.836192, -3.897393], [152.842459, -3.937758], [152.871104, -3.990899], [152.931814, -3.9992], [152.946056, -3.985528], [152.956309, -3.99863], [152.958995, -4.040704], [153.014415, -4.094822], [153.065196, -4.197849], [153.107758, -4.224542], [153.137218, -4.269464], [153.126801, -4.350193]]], [[[150.470714, -2.54697], [150.450938, -2.590916], [150.453949, -2.621026], [150.465099, -2.642348], [150.451345, -2.65838], [150.371755, -2.682224], [150.364431, -2.681817], [150.354828, -2.661554], [150.313731, -2.683282], [150.293224, -2.669041], [150.186778, -2.679457], [150.105724, -2.615899], [150.089366, -2.566583], [150.04713, -2.51629], [150.032481, -2.505141], [150.009776, -2.512872], [149.979747, -2.498956], [149.957774, -2.477634], [149.958751, -2.462986], [149.965505, -2.459242], [149.985362, -2.470392], [150.067393, -2.416436], [150.108409, -2.412367], [150.207856, -2.37477], [150.284679, -2.416599], [150.306895, -2.416436], [150.368907, -2.450453], [150.423595, -2.467218], [150.447276, -2.48447], [150.458832, -2.508477], [150.450938, -2.539321], [150.465099, -2.532485], [150.470714, -2.54697]]], [[[147.848399, -2.264744], [147.881196, -2.286065], [147.858165, -2.324477], [147.840017, -2.340916], [147.816417, -2.347426], [147.760102, -2.345798], [147.730479, -2.32643], [147.737315, -2.313409], [147.763194, -2.321059], [147.78712, -2.3117], [147.799978, -2.291192], [147.792491, -2.265558], [147.809255, -2.252618], [147.812999, -2.237563], [147.826671, -2.237563], [147.848399, -2.264744]]], [[[147.444591, -2.004815], [147.443044, -2.035577], [147.431163, -2.060805], [147.333181, -2.06699], [147.347423, -2.045831], [147.327159, -2.045505], [147.316661, -2.050958], [147.305919, -2.080011], [147.299083, -2.080011], [147.291759, -2.064223], [147.274913, -2.121515], [147.2317, -2.170831], [147.20574, -2.18613], [147.176117, -2.183038], [147.130707, -2.16253], [147.070079, -2.187595], [147.045177, -2.189874], [147.052013, -2.176202], [146.954926, -2.194757], [146.840343, -2.176202], [146.822765, -2.16253], [146.802501, -2.169366], [146.750011, -2.123224], [146.702403, -2.114353], [146.69158, -2.132501], [146.720958, -2.148533], [146.727712, -2.17669], [146.675466, -2.189386], [146.657888, -2.186212], [146.64796, -2.169366], [146.597992, -2.189386], [146.586599, -2.224379], [146.571544, -2.228123], [146.538097, -2.203546], [146.520193, -2.149591], [146.520763, -2.138767], [146.545258, -2.11419], [146.572765, -2.120212], [146.617198, -2.106866], [146.6185, -2.083266], [146.583263, -2.030857], [146.580577, -1.995212], [146.600108, -1.998142], [146.615489, -2.013767], [146.626801, -2.011651], [146.63795, -1.976251], [146.657888, -1.963311], [146.678559, -1.977634], [146.716319, -1.970147], [146.767751, -1.983819], [146.819347, -1.957127], [146.869802, -1.947035], [146.914887, -1.963311], [146.940115, -1.954848], [147.110037, -1.963311], [147.147634, -2.004978], [147.171072, -1.980401], [147.18336, -1.979669], [147.19516, -1.99863], [147.237559, -1.998142], [147.333181, -2.032322], [147.375987, -2.028985], [147.401703, -2.034356], [147.415782, -2.045831], [147.422618, -2.045831], [147.419607, -2.009861], [147.408376, -1.987481], [147.38087, -1.961521], [147.395844, -1.957127], [147.432791, -1.983819], [147.444591, -2.004815]]], [[[149.792979, -1.580336], [149.739024, -1.594008], [149.684337, -1.552423], [149.68336, -1.581313], [149.667003, -1.57586], [149.612804, -1.53574], [149.584158, -1.501153], [149.560232, -1.497735], [149.546886, -1.482192], [149.539806, -1.42547], [149.58074, -1.346368], [149.618663, -1.353774], [149.724783, -1.428888], [149.726573, -1.462823], [149.792979, -1.580336]]], [[[154.220388, -4.476495], [154.241954, -4.498793], [154.25408, -4.526544], [154.253673, -4.554783], [154.23227, -4.580662], [154.205251, -4.571954], [154.185313, -4.546075], [154.185313, -4.519952], [154.205821, -4.560968], [154.223806, -4.567071], [154.236827, -4.551365], [154.241954, -4.527927], [154.203298, -4.483575], [154.185313, -4.472101], [154.178477, -4.478936], [154.192149, -4.464614], [154.220388, -4.476495]]], [[[154.134532, -4.377211], [154.144705, -4.369073], [154.155528, -4.397556], [154.158214, -4.438084], [154.151378, -4.438084], [154.134532, -4.377211]]], [[[152.503103, -4.153497], [152.506196, -4.17197], [152.492686, -4.21087], [152.452403, -4.201267], [152.449392, -4.177341], [152.431326, -4.163018], [152.457042, -4.145766], [152.472911, -4.122166], [152.503103, -4.153497]]], [[[153.657481, -4.047052], [153.670584, -4.090265], [153.656912, -4.122166], [153.629649, -4.129978], [153.602794, -4.101007], [153.592052, -4.100193], [153.589854, -4.088067], [153.625662, -4.032973], [153.660655, -4.022068], [153.664806, -4.040704], [153.657481, -4.047052]]], [[[153.738048, -4.001886], [153.747081, -4.014907], [153.745616, -4.030532], [153.732921, -4.040704], [153.696544, -4.023207], [153.678884, -4.026462], [153.719249, -3.9992], [153.738048, -4.001886]]], [[[144.618663, -3.508722], [144.619802, -3.51629], [144.595876, -3.517348], [144.593028, -3.505792], [144.600271, -3.49977], [144.618663, -3.508722]]], [[[144.073472, -3.197472], [144.095799, -3.188539], [144.134499, -3.230088], [144.115155, -3.247935], [144.080923, -3.239056], [144.061569, -3.215308], [144.073472, -3.197472]]], [[[142.818533, -1.712009], [142.833507, -1.697035], [142.852387, -1.692641], [142.865489, -1.703302], [142.818126, -1.733331], [142.818533, -1.712009]]], [[[151.03419, -9.65016], [151.017914, -9.668878], [150.996837, -9.634942], [150.955333, -9.607354], [150.959809, -9.59238], [150.996349, -9.580336], [151.022227, -9.591404], [151.028087, -9.607517], [151.016775, -9.627048], [151.03419, -9.65016]]], [[[143.822927, -8.509535], [143.813487, -8.530857], [143.796072, -8.538263], [143.782563, -8.527602], [143.780284, -8.513279], [143.815929, -8.495375], [143.822927, -8.509535]]], [[[143.678966, -8.421482], [143.648285, -8.425877], [143.625743, -8.412367], [143.589854, -8.371759], [143.540863, -8.35003], [143.550629, -8.336196], [143.59962, -8.332615], [143.63795, -8.34059], [143.656912, -8.35475], [143.674327, -8.390558], [143.678966, -8.421482]]], [[[143.690115, -8.136651], [143.688243, -8.153578], [143.666677, -8.167413], [143.6338, -8.164727], [143.599376, -8.110772], [143.613292, -8.094903], [143.662934, -8.109308], [143.690115, -8.136651]]], [[[143.697602, -8.090916], [143.69044, -8.100193], [143.648448, -8.084731], [143.607107, -8.08172], [143.581798, -8.068617], [143.56422, -8.029962], [143.57781, -8.018243], [143.612559, -8.020115], [143.675629, -8.053806], [143.697602, -8.090916]]], [[[151.223318, -4.91839], [151.223318, -4.933282], [151.206798, -4.947524], [151.153168, -4.953383], [151.119477, -4.925714], [151.121593, -4.914158], [151.143809, -4.896091], [151.160167, -4.888116], [151.188487, -4.891534], [151.223318, -4.91839]]], [[[143.523123, -3.361017], [143.507172, -3.347589], [143.51588, -3.320408], [143.52296, -3.314223], [143.542817, -3.316827], [143.593923, -3.348728], [143.600271, -3.367608], [143.585216, -3.378676], [143.523123, -3.361017]]], [[[150.023448, -1.674737], [150.000499, -1.685805], [149.948253, -1.67311], [149.927257, -1.684991], [149.917328, -1.676935], [149.91212, -1.653741], [149.94337, -1.658461], [149.964122, -1.630304], [149.989268, -1.66839], [150.023448, -1.674737]]]]}}, {"type": "Feature", "properties": {"name": "Australia"}, "geometry": {"type": "MultiPolygon", "coordinates": [[[[142.782563, -9.386326], [142.741954, -9.419203], [142.713878, -9.428643], [142.641612, -9.428399], [142.612153, -9.416274], [142.601248, -9.399509], [142.612315, -9.383233], [142.637462, -9.373956], [142.693614, -9.379571], [142.754568, -9.369806], [142.782563, -9.386326]]], [[[142.280121, -9.261651], [142.279145, -9.287042], [142.222179, -9.291111], [142.15089, -9.271417], [142.164236, -9.250746], [142.206879, -9.240167], [142.280121, -9.261651]]]]}}, {"type": "Feature", "properties": {"name": "Solomon Is."}, "geometry": {"type": "MultiPolygon", "coordinates": [[[[159.937266, -9.805597], [159.887218, -9.78281], [159.835623, -9.793878], [159.768728, -9.732192], [159.723399, -9.706964], [159.723399, -9.686619], [159.705903, -9.676365], [159.699067, -9.649102], [159.675304, -9.643243], [159.674978, -9.617608], [159.653982, -9.574802], [159.601817, -9.521905], [159.599132, -9.512384], [159.627208, -9.48797], [159.6067, -9.447524], [159.613536, -9.409356], [159.6067, -9.374933], [159.592133, -9.361505], [159.6067, -9.343927], [159.609548, -9.309828], [159.615977, -9.295343], [159.708995, -9.247735], [159.743663, -9.259535], [159.873302, -9.35947], [159.908214, -9.415623], [159.939708, -9.432875], [160.0, -9.43197092335275], [160.0, -9.817763371466569], [159.937266, -9.805597]]], [[[159.814708, -9.166192], [159.804454, -9.130141], [159.811534, -9.111098], [159.832693, -9.103692], [159.844737, -9.14544], [159.84254, -9.164646], [159.828868, -9.172621], [159.814708, -9.166192]]], [[[159.205333, -9.055108], [159.236095, -9.023045], [159.229259, -9.056573], [159.217133, -9.075128], [159.236095, -9.076349], [159.233246, -9.101007], [159.218761, -9.117364], [159.174083, -9.138442], [159.178396, -9.092706], [159.19516, -9.056573], [159.205333, -9.055108]]], [[[159.19516, -9.023045], [159.161632, -9.09002], [159.147309, -9.103692], [159.09962, -9.117934], [159.076182, -9.095961], [159.064789, -9.103692], [159.039317, -9.068536], [159.041026, -9.057306], [159.072276, -9.056573], [159.069347, -9.033787], [159.092133, -9.036065], [159.092133, -9.023045], [159.112559, -9.029229], [159.10727, -9.009535], [159.092133, -8.994399], [159.124034, -8.999933], [159.133637, -8.988377], [159.144379, -9.020929], [159.159353, -9.029067], [159.167166, -9.017999], [159.19516, -9.023045]]], [[[157.635509, -8.744073], [157.649913, -8.765232], [157.648936, -8.786228], [157.622325, -8.795831], [157.476736, -8.739516], [157.452403, -8.721856], [157.455333, -8.706476], [157.5088, -8.712579], [157.523692, -8.706476], [157.529796, -8.713962], [157.549653, -8.692153], [157.590587, -8.71087], [157.635509, -8.744073]]], [[[158.256684, -8.785577], [158.252208, -8.802667], [158.187185, -8.836847], [158.153656, -8.796563], [158.160492, -8.758396], [158.194591, -8.726983], [158.208263, -8.679132], [158.215099, -8.679132], [158.215099, -8.700291], [158.230235, -8.73797], [158.22877, -8.774672], [158.256684, -8.785577]]], [[[158.102794, -8.523614], [158.12379, -8.530369], [158.132498, -8.545505], [158.13502, -8.566827], [158.125743, -8.58294], [158.095551, -8.585545], [158.064952, -8.610935], [158.098399, -8.624607], [158.118907, -8.617771], [158.091563, -8.645115], [158.114268, -8.667739], [158.105724, -8.691095], [158.038585, -8.756768], [157.999034, -8.767267], [157.957042, -8.755955], [157.879242, -8.68255], [157.879242, -8.631443], [157.89975, -8.562433], [157.937673, -8.57936], [157.941417, -8.562433], [157.948253, -8.563409], [157.955089, -8.576755], [157.963145, -8.563735], [157.955089, -8.528253], [158.009613, -8.501072], [158.0171, -8.507908], [158.005219, -8.528497], [158.013357, -8.545505], [158.026378, -8.550958], [158.056895, -8.528253], [158.102794, -8.523614]]], [[[157.338064, -8.576755], [157.329356, -8.649102], [157.37086, -8.70086], [157.413829, -8.720798], [157.413829, -8.726983], [157.361664, -8.725274], [157.312266, -8.696222], [157.310802, -8.666192], [157.277843, -8.618585], [157.228363, -8.593438], [157.200938, -8.565851], [157.218923, -8.529229], [157.27003, -8.496515], [157.289073, -8.459161], [157.347504, -8.41253], [157.365977, -8.412856], [157.399262, -8.444024], [157.413829, -8.497979], [157.395844, -8.521173], [157.375987, -8.573012], [157.338064, -8.576755]]], [[[159.699474, -8.524998], [159.679535, -8.540134], [159.659923, -8.539646], [159.62794, -8.522638], [159.60141, -8.488865], [159.593028, -8.485284], [159.579356, -8.494806], [159.549815, -8.470798], [159.538829, -8.458917], [159.537852, -8.432794], [159.558279, -8.389418], [159.6067, -8.377537], [159.635916, -8.38421], [159.644054, -8.400323], [159.64088, -8.447035], [159.646983, -8.468438], [159.699474, -8.524998]]], [[[157.130626, -8.308282], [157.152517, -8.337172], [157.123546, -8.320408], [157.090587, -8.249119], [157.050059, -8.240899], [157.063731, -8.227309], [157.029959, -8.206313], [157.022634, -8.192804], [157.036388, -8.185724], [157.049978, -8.19671], [157.100841, -8.203546], [157.130626, -8.308282]]], [[[157.200938, -8.288751], [157.198985, -8.274591], [157.173025, -8.268813], [157.150401, -8.215916], [157.104666, -8.178888], [157.112071, -8.172621], [157.097179, -8.169122], [157.09783, -8.158949], [157.122325, -8.167413], [157.167328, -8.167413], [157.187266, -8.185724], [157.204112, -8.232843], [157.207693, -8.288751], [157.200938, -8.288751]]], [[[156.81422, -8.072035], [156.824718, -8.069594], [156.841319, -8.11297], [156.81544, -8.111993], [156.785655, -8.086196], [156.789887, -8.055352], [156.810557, -8.055352], [156.81422, -8.072035]]], [[[157.820486, -8.583185], [157.817882, -8.617771], [157.811046, -8.617771], [157.808849, -8.601332], [157.755707, -8.528253], [157.72934, -8.51393], [157.674815, -8.50921], [157.649669, -8.497979], [157.605642, -8.467462], [157.577647, -8.436212], [157.564626, -8.384942], [157.564626, -8.3235], [157.583018, -8.386489], [157.606456, -8.392999], [157.615001, -8.412367], [157.632335, -8.38836], [157.603363, -8.355727], [157.582693, -8.299412], [157.549653, -8.261407], [157.502615, -8.268813], [157.481781, -8.255955], [157.475841, -8.268813], [157.456554, -8.262302], [157.427501, -8.275079], [157.3449, -8.275079], [157.318858, -8.32586], [157.29713, -8.337172], [157.245372, -8.313653], [157.228201, -8.316664], [157.224864, -8.217706], [157.245372, -8.193129], [157.271251, -8.191664], [157.290294, -8.178888], [157.302013, -8.195733], [157.316905, -8.185724], [157.326508, -8.119399], [157.382823, -8.031508], [157.441091, -7.979669], [157.502615, -7.959731], [157.578868, -8.005548], [157.605642, -8.007582], [157.598643, -8.025567], [157.611827, -8.066176], [157.610525, -8.104181], [157.619314, -8.137953], [157.609874, -8.156345], [157.644705, -8.205173], [157.639659, -8.240899], [157.646495, -8.233657], [157.667003, -8.240899], [157.713878, -8.223565], [157.74586, -8.228692], [157.778494, -8.253351], [157.789887, -8.288751], [157.83839, -8.337172], [157.83839, -8.37127], [157.865571, -8.398614], [157.886078, -8.467462], [157.903331, -8.473565], [157.906912, -8.490899], [157.881114, -8.537774], [157.886078, -8.58294], [157.824474, -8.558852], [157.797374, -8.556329], [157.820486, -8.583185]]], [[[156.615977, -8.170668], [156.604666, -8.191013], [156.587413, -8.199395], [156.538422, -8.091485], [156.542979, -8.021173], [156.5324, -7.948907], [156.549815, -7.939223], [156.577159, -7.966567], [156.601085, -8.02337], [156.611176, -8.072686], [156.615977, -8.170668]]], [[[157.05421, -8.129083], [157.002289, -8.086847], [156.962169, -8.027439], [156.947032, -7.979669], [156.961274, -7.93255], [157.001964, -7.875177], [157.091075, -7.850518], [157.137543, -7.87477], [157.170421, -7.909926], [157.191254, -7.952895], [157.200938, -8.000746], [157.199474, -8.065199], [157.167247, -8.135512], [157.146251, -8.148614], [157.125173, -8.124933], [157.05421, -8.129083]]], [[[156.814708, -7.734552], [156.79949, -7.766534], [156.762706, -7.816502], [156.719737, -7.857029], [156.704112, -7.885024], [156.720714, -7.931817], [156.700694, -7.945489], [156.678071, -7.932306], [156.659679, -7.939223], [156.658946, -7.883966], [156.611827, -7.871189], [156.614757, -7.805108], [156.590831, -7.788507], [156.570974, -7.754327], [156.545177, -7.746515], [156.534841, -7.716567], [156.515636, -7.720147], [156.497081, -7.674981], [156.504161, -7.63006], [156.530772, -7.592462], [156.570974, -7.569431], [156.601573, -7.577569], [156.611176, -7.569431], [156.633962, -7.609308], [156.649587, -7.611261], [156.652843, -7.627374], [156.676443, -7.642267], [156.684825, -7.665704], [156.714854, -7.678643], [156.70753, -7.68613], [156.721039, -7.700372], [156.743663, -7.691827], [156.80714, -7.720147], [156.814708, -7.734552]]], [[[155.618175, -7.363946], [155.597423, -7.382908], [155.525238, -7.383884], [155.507986, -7.375746], [155.542328, -7.322931], [155.570323, -7.322931], [155.618175, -7.363946]]], [[[155.854259, -7.031508], [155.868012, -7.048517], [155.850922, -7.099298], [155.803071, -7.103204], [155.786632, -7.117852], [155.75294, -7.115492], [155.734874, -7.124282], [155.672862, -7.089532], [155.700694, -7.020685], [155.708832, -7.025486], [155.717947, -6.992446], [155.734874, -6.986505], [155.734874, -6.966078], [155.816742, -7.020685], [155.854259, -7.031508]]], [[[156.152599, -6.931329], [156.132091, -6.938735], [156.111583, -6.931329], [156.10434, -6.962091], [156.083669, -6.986505], [156.076834, -6.966078], [156.062266, -6.979099], [156.042735, -6.980401], [156.073416, -6.955743], [156.076671, -6.947524], [156.063731, -6.925063], [156.067149, -6.910903], [156.087169, -6.901625], [156.069998, -6.890883], [156.046886, -6.851658], [156.049653, -6.83172], [156.076834, -6.815199], [156.097911, -6.815199], [156.097911, -6.822035], [156.073416, -6.833185], [156.063731, -6.859633], [156.10255, -6.878188], [156.097911, -6.890883], [156.118419, -6.918227], [156.152599, -6.931329]]], [[[158.516612, -7.630955], [158.526541, -7.647068], [158.523611, -7.658136], [158.507823, -7.659845], [158.492931, -7.651056], [158.475108, -7.623956], [158.46461, -7.637384], [158.406912, -7.610284], [158.421153, -7.643813], [158.362153, -7.637628], [158.359386, -7.61712], [158.347911, -7.603123], [158.327973, -7.596775], [158.316905, -7.57936], [158.362478, -7.586196], [158.368175, -7.583673], [158.362153, -7.567071], [158.378754, -7.562677], [158.422618, -7.579685], [158.45102, -7.603123], [158.486095, -7.610284], [158.516612, -7.630955]]], [[[159.900401, -8.550714], [159.887218, -8.562433], [159.846365, -8.542087], [159.825043, -8.542087], [159.814708, -8.524021], [159.797374, -8.517267], [159.785492, -8.498956], [159.764822, -8.492283], [159.712413, -8.443129], [159.702891, -8.432794], [159.700369, -8.407892], [159.673839, -8.398696], [159.627208, -8.357599], [159.543956, -8.34002], [159.444835, -8.281183], [159.414317, -8.281915], [159.362315, -8.25628], [159.345388, -8.261407], [159.326182, -8.225844], [159.287608, -8.214939], [159.27711, -8.193129], [159.255382, -8.200372], [159.233897, -8.196222], [159.119965, -8.117446], [159.092133, -8.117446], [159.085948, -8.089532], [159.064789, -8.096938], [159.037446, -8.083266], [159.010102, -8.083266], [159.003266, -8.062758], [158.978038, -8.049574], [158.976085, -8.034926], [158.94809, -8.049086], [158.937348, -8.01393], [158.845714, -7.973403], [158.832042, -7.917901], [158.814952, -7.92254], [158.769867, -7.905857], [158.777354, -7.891534], [158.756358, -7.871026], [158.739024, -7.884535], [158.703624, -7.822931], [158.671153, -7.805108], [158.653982, -7.809666], [158.644298, -7.791762], [158.584972, -7.754327], [158.584972, -7.668634], [158.506847, -7.603611], [158.455333, -7.576267], [158.445079, -7.543552], [158.451996, -7.531996], [158.595958, -7.58587], [158.605724, -7.586196], [158.625255, -7.564142], [158.639659, -7.569431], [158.653982, -7.561293], [158.675792, -7.593845], [158.714854, -7.610284], [158.733084, -7.591567], [158.75172, -7.593438], [158.766612, -7.627374], [158.808116, -7.658136], [158.830251, -7.69378], [158.872325, -7.733819], [158.920746, -7.754327], [158.989757, -7.802179], [158.979503, -7.821954], [158.987071, -7.839614], [159.056895, -7.859959], [159.068614, -7.867608], [159.085704, -7.903578], [159.09962, -7.89837], [159.126801, -7.919529], [159.167979, -7.90488], [159.208263, -7.911879], [159.195567, -7.917657], [159.209239, -7.935479], [159.245128, -7.945571], [159.25587, -7.966567], [159.27296, -7.954034], [159.30128, -7.987074], [159.333832, -7.989841], [159.347179, -7.986098], [159.352794, -7.973403], [159.386974, -7.99391], [159.402599, -7.982354], [159.431651, -8.031508], [159.503673, -8.07586], [159.509939, -8.089532], [159.556407, -8.126397], [159.648936, -8.181248], [159.842052, -8.325616], [159.846446, -8.335382], [159.80421, -8.386163], [159.796641, -8.391778], [159.765391, -8.385349], [159.756847, -8.391778], [159.781586, -8.425388], [159.808604, -8.411798], [159.817882, -8.420099], [159.855968, -8.476658], [159.859386, -8.511326], [159.900401, -8.550714]]], [[[158.337657, -7.518324], [158.265798, -7.488214], [158.268565, -7.466974], [158.296641, -7.476821], [158.31129, -7.493748], [158.336111, -7.494561], [158.35906, -7.514093], [158.371349, -7.504164], [158.393077, -7.505792], [158.434825, -7.527765], [158.418468, -7.539727], [158.421153, -7.561293], [158.365245, -7.548272], [158.337657, -7.518324]]], [[[157.618988, -7.411798], [157.610606, -7.429783], [157.618988, -7.452081], [157.591645, -7.432224], [157.590587, -7.447198], [157.580414, -7.452813], [157.54949, -7.452081], [157.569998, -7.432224], [157.519379, -7.414809], [157.475597, -7.411798], [157.509125, -7.390558], [157.588878, -7.393324], [157.605235, -7.411798], [157.611583, -7.404229], [157.618988, -7.411798]]], [[[158.276215, -7.452081], [158.256358, -7.438409], [158.249034, -7.47324], [158.215343, -7.439142], [158.194347, -7.438409], [158.208018, -7.417901], [158.224294, -7.41961], [158.250255, -7.394952], [158.269379, -7.390558], [158.269379, -7.417901], [158.283214, -7.411798], [158.276215, -7.452081]]], [[[157.797374, -7.47324], [157.756033, -7.473891], [157.739268, -7.466892], [157.718272, -7.47324], [157.678559, -7.448175], [157.688975, -7.423028], [157.72169, -7.383884], [157.776215, -7.407973], [157.797374, -7.47324]]], [[[157.526378, -7.370864], [157.473481, -7.384698], [157.447927, -7.432224], [157.441742, -7.414239], [157.427501, -7.417901], [157.414399, -7.407485], [157.32545, -7.391778], [157.312022, -7.378839], [157.307953, -7.360284], [157.316905, -7.336602], [157.290294, -7.35711], [157.278005, -7.356541], [157.276622, -7.370782], [157.200938, -7.336602], [157.14796, -7.332289], [157.132498, -7.34295], [157.118337, -7.342462], [157.104259, -7.332208], [157.082693, -7.28753], [157.056895, -7.268324], [157.014659, -7.282647], [157.022797, -7.268324], [157.01352, -7.251886], [156.998546, -7.238702], [156.943858, -7.221612], [156.927745, -7.208754], [156.834321, -7.099786], [156.823253, -7.067071], [156.793224, -7.050226], [156.743907, -6.973891], [156.722016, -6.956476], [156.687022, -6.897149], [156.596202, -6.850763], [156.461111, -6.733331], [156.446625, -6.664972], [156.454438, -6.630792], [156.487804, -6.60296], [156.504893, -6.599867], [156.548025, -6.610528], [156.573985, -6.631931], [156.581554, -6.649672], [156.605154, -6.643976], [156.643077, -6.655043], [156.721039, -6.733331], [156.780284, -6.775811], [156.82309, -6.787286], [156.927257, -6.849379], [156.992849, -6.868829], [157.01238, -6.894627], [157.042654, -6.897149], [157.120453, -6.980727], [157.136241, -7.086114], [157.187266, -7.178888], [157.207693, -7.164727], [157.22877, -7.195245], [157.279633, -7.212498], [157.302745, -7.266371], [157.356212, -7.288507], [157.386485, -7.322931], [157.392751, -7.322931], [157.395193, -7.306329], [157.445567, -7.316176], [157.511404, -7.300226], [157.524913, -7.309991], [157.526378, -7.370864]]], [[[156.559418, -7.802423], [156.555431, -7.817315], [156.534841, -7.827407], [156.516856, -7.818129], [156.52589, -7.799412], [156.545421, -7.791681], [156.559418, -7.802423]]]]}}, {"type": "Feature", "properties": {"name": "Micronesia"}, "geometry": {"type": "MultiPolygon", "coordinates": [[[[158.304698, 6.924384], [158.324962, 6.931138], [158.338227, 6.879096], [158.338634, 6.869086], [158.304454, 6.865953], [158.317556, 6.824693], [158.313813, 6.808661], [158.292491, 6.795071], [158.244477, 6.788275], [158.225352, 6.789496], [158.215099, 6.800767], [158.193533, 6.793443], [158.180186, 6.802476], [158.160492, 6.828111], [158.166026, 6.85399], [158.153087, 6.875922], [158.160492, 6.890204], [158.132986, 6.891913], [158.125824, 6.907416], [158.132498, 6.941352], [158.141856, 6.950995], [158.178233, 6.956041], [158.180919, 6.978949], [158.208263, 6.965277], [158.218028, 6.970852], [158.276622, 6.965277], [158.303477, 6.942857], [158.290782, 6.937974], [158.304698, 6.924384]]], [[[151.622406, 7.39175], [151.636404, 7.387112], [151.650157, 7.369371], [151.644542, 7.336086], [151.634288, 7.327867], [151.622732, 7.342678], [151.607432, 7.336127], [151.568126, 7.342678], [151.622732, 7.365912], [151.618419, 7.375881], [151.596934, 7.372748], [151.588634, 7.383612], [151.622406, 7.39175]]], [[[151.8838, 7.463568], [151.917654, 7.458726], [151.890636, 7.435248], [151.856212, 7.424628], [151.863048, 7.465562], [151.87672, 7.458726], [151.8838, 7.463568]]], [[[154.817638, 0.922187], [154.801768, 0.918199], [154.798595, 0.924465], [154.817638, 0.922187]]], [[[154.721934, 0.969184], [154.732921, 0.967027], [154.726817, 0.960639], [154.714854, 0.965562], [154.721934, 0.969184]]], [[[154.792328, 0.962877], [154.778168, 0.968817], [154.784353, 0.975491], [154.793142, 0.972113], [154.792328, 0.962877]]], [[[154.87672, 3.767971], [154.891856, 3.778795], [154.894298, 3.762844], [154.879242, 3.751939], [154.87672, 3.767971]]], [[[154.791759, 3.776557], [154.773692, 3.766262], [154.771251, 3.78148], [154.789317, 3.791815], [154.791759, 3.776557]]], [[[153.685313, 5.309719], [153.710704, 5.314602], [153.707693, 5.305365], [153.667735, 5.286038], [153.685313, 5.309719]]], [[[157.158946, 5.777899], [157.158458, 5.779202], [157.16391, 5.778713], [157.158946, 5.777899]]], [[[149.316905, 6.709906], [149.323497, 6.719468], [149.324718, 6.707099], [149.315766, 6.696926], [149.316905, 6.709906]]], [[[157.93922, 6.727362], [157.948904, 6.731676], [157.945811, 6.722602], [157.936371, 6.71719], [157.93922, 6.727362]]], [[[151.853201, 7.353827], [151.854503, 7.370063], [151.865571, 7.350653], [151.856781, 7.316596], [151.853201, 7.353827]]], [[[149.180837, 7.381171], [149.188243, 7.379788], [149.18572, 7.371649], [149.180837, 7.381171]]], [[[150.404633, 8.586005], [150.409353, 8.584662], [150.407481, 8.575507], [150.404633, 8.586005]]], [[[149.667817, 8.604234], [149.675548, 8.616441], [149.687266, 8.616034], [149.668712, 8.574693], [149.667817, 8.604234]]], [[[150.124278, 8.9855], [150.132986, 8.98607], [150.130544, 8.980943], [150.118175, 8.976304], [150.124278, 8.9855]]], [[[140.521739, 9.774726], [140.532888, 9.771918], [140.515391, 9.761176], [140.521739, 9.774726]]]]}}]}