{"type": "FeatureCollection", "features": [{"type": "Feature", "properties": {"name": "Antarctica"}, "geometry": {"type": "Polygon", "coordinates": [[[159.63502, -79.525649], [159.662283, -79.545099], [159.718272, -79.561782], [159.719737, -79.602634], [159.737071, -79.617283], [159.875499, -79.662042], [160.0, -79.65641433175752], [160.0, -79.77433048678292], [159.788585, -79.77988], [159.668142, -79.80641], [159.496104, -79.819513], [159.624197, -79.825291], [159.664887, -79.834405], [159.635997, -79.853204], [159.523692, -79.874933], [159.670258, -79.909438], [159.821951, -79.925714], [159.974294, -79.922133], [160.0, -79.91771988558101], [160.0, -80.1129374793778], [158.7824, -80.258966], [158.786957, -80.299493], [158.733084, -80.32464], [158.207286, -80.405938], [158.173025, -80.419529], [158.191254, -80.444431], [158.256358, -80.453383], [158.531586, -80.457615], [158.587901, -80.476983], [160.0, -80.41645096759689], [160.0, -80.56952702123064], [159.961436, -80.552911], [159.933767, -80.549737], [159.817231, -80.568455], [159.754161, -80.570733], [159.823904, -80.606622], [159.855154, -80.642185], [159.877615, -80.65016], [160.0, -80.65932590814852], [160.0, -80.79586681328855], [159.74643, -80.792087], [159.578298, -80.767999], [159.529796, -80.780369], [159.602794, -80.79811], [159.497569, -80.843032], [159.531749, -80.853936], [159.749848, -80.829197], [160.0, -80.84090859840559], [160.0, -90.0], [140.0, -90.0], [140.0, -70.0], [160.0, -70.0], [160.0, -79.57020583742745], [159.63502, -79.525649]]]}}]}