{"type": "FeatureCollection", "features": [{"type": "Feature", "properties": {"name": "Namibia"}, "geometry": {"type": "Polygon", "coordinates": [[[16.445811, -28.610528], [16.419444, -28.607029], [16.346853, -28.556085], [16.301036, -28.50449], [16.19337, -28.408787], [16.167979, -28.395766], [16.04363, -28.257094], [15.911143, -28.171319], [15.833181, -28.089288], [15.747813, -28.024591], [15.678884, -27.942804], [15.685802, -27.9013], [15.673025, -27.869887], [15.533539, -27.730157], [15.529063, -27.654229], [15.520681, -27.633722], [15.408946, -27.464532], [15.371755, -27.433038], [15.342459, -27.380548], [15.295258, -27.322442], [15.281749, -27.243341], [15.261241, -27.205743], [15.268077, -27.164809], [15.254161, -27.100193], [15.261241, -27.085626], [15.235362, -27.029474], [15.228526, -26.945571], [15.212738, -26.927992], [15.178559, -26.921157], [15.158865, -26.897068], [15.148936, -26.856378], [15.111664, -26.779229], [15.116222, -26.752048], [15.083018, -26.695245], [15.083507, -26.652114], [15.091807, -26.637953], [15.106619, -26.632582], [15.134613, -26.62713], [15.137706, -26.6749], [15.144542, -26.6749], [15.168712, -26.592218], [15.128754, -26.457615], [15.105642, -26.420587], [15.034679, -26.366306], [14.966319, -26.335219], [14.958832, -26.257013], [14.962657, -26.181329], [14.939138, -26.147149], [14.943126, -26.135349], [14.966319, -26.133559], [14.979828, -26.101658], [14.979015, -26.05877], [14.952647, -25.98268], [14.907725, -25.915297], [14.90211, -25.882501], [14.91863, -25.845473], [14.911143, -25.845473], [14.859874, -25.790297], [14.840343, -25.751723], [14.842784, -25.650323], [14.846934, -25.629815], [14.876964, -25.578058], [14.879568, -25.53867], [14.875336, -25.518487], [14.853282, -25.498712], [14.842784, -25.42783], [14.818044, -25.366957], [14.80128, -25.262791], [14.832286, -25.188165], [14.853282, -25.064223], [14.796153, -24.92197], [14.792979, -24.841892], [14.780772, -24.803399], [14.723481, -24.703546], [14.650157, -24.628839], [14.636078, -24.598891], [14.601899, -24.562433], [14.595876, -24.537205], [14.616954, -24.505792], [14.612315, -24.445733], [14.513927, -24.261489], [14.493175, -24.192315], [14.473643, -24.159112], [14.459239, -24.098321], [14.464122, -24.044692], [14.451915, -23.988458], [14.472911, -23.933852], [14.496593, -23.925958], [14.513927, -23.892267], [14.506033, -23.88006], [14.507091, -23.823907], [14.486583, -23.758477], [14.500255, -23.614435], [14.495291, -23.578546], [14.434337, -23.415216], [14.479747, -23.344822], [14.479503, -23.365818], [14.484386, -23.374933], [14.490408, -23.369724], [14.491954, -23.309177], [14.473481, -23.192804], [14.420665, -23.070977], [14.410167, -22.970798], [14.431895, -22.923028], [14.435069, -22.879815], [14.443858, -22.883477], [14.438162, -22.892267], [14.451915, -22.912205], [14.444347, -22.952813], [14.451671, -22.963311], [14.472911, -22.95379], [14.459239, -22.995294], [14.496837, -22.941827], [14.521983, -22.923435], [14.529307, -22.90016], [14.534353, -22.854181], [14.527517, -22.679457], [14.508556, -22.548028], [14.485118, -22.512384], [14.474294, -22.467869], [14.386485, -22.276462], [14.315196, -22.200291], [14.294281, -22.167413], [14.291352, -22.134454], [14.137218, -21.946384], [14.062022, -21.880955], [14.05421, -21.864679], [13.97169, -21.792739], [13.952322, -21.783949], [13.96518, -21.733168], [13.962657, -21.714044], [13.87794, -21.592218], [13.862804, -21.528009], [13.831716, -21.456476], [13.729259, -21.330255], [13.66684, -21.232354], [13.602712, -21.158136], [13.513357, -21.007908], [13.471934, -20.955011], [13.459158, -20.918064], [13.417735, -20.883884], [13.397634, -20.849298], [13.37672, -20.733575], [13.349457, -20.644464], [13.262706, -20.485121], [13.213064, -20.27337], [13.177745, -20.189223], [13.154633, -20.154229], [13.114425, -20.142573], [13.07088, -20.114229], [13.037345, -20.059465], [13.005382, -19.935479], [12.927745, -19.794692], [12.918468, -19.765558], [12.875987, -19.712009], [12.7046, -19.410821], [12.686046, -19.359796], [12.679698, -19.31406], [12.615733, -19.217543], [12.567393, -19.102309], [12.516449, -19.03753], [12.470388, -18.997654], [12.450043, -18.904555], [12.286876, -18.697686], [12.174731, -18.627939], [12.102061, -18.545994], [12.031889, -18.50535], [11.999522, -18.403497], [11.999522, -18.361912], [11.976085, -18.329767], [11.937348, -18.23211], [11.849082, -18.143183], [11.83364, -18.098045], [11.826524, -18.03922], [11.796911, -17.956089], [11.784037, -17.859645], [11.760941, -17.786424], [11.717621, -17.546319], [11.72169, -17.467869], [11.755138, -17.266697], [11.766124, -17.252699], [11.82241, -17.264423], [11.835536, -17.245406], [11.942092, -17.180501], [11.98302, -17.161897], [12.08813, -17.139159], [12.13991, -17.156006], [12.170709, -17.149185], [12.185075, -17.17709], [12.23179, -17.201895], [12.242642, -17.224839], [12.379482, -17.220395], [12.417929, -17.203445], [12.46051, -17.223082], [12.56717, -17.234554], [12.63621, -17.185151], [12.685923, -17.173576], [12.739873, -17.135542], [12.818318, -17.104846], [12.842296, -17.074047], [12.876402, -17.059784], [12.887151, -17.029812], [12.961668, -17.007385], [13.014275, -16.977929], [13.166307, -16.951057], [13.184911, -16.964183], [13.19814, -16.957362], [13.222841, -16.977929], [13.267489, -16.977929], [13.267489, -16.98537], [13.308417, -16.970178], [13.321543, -16.974932], [13.363711, -16.964183], [13.417248, -16.993742], [13.479776, -17.010278], [13.494659, -17.024024], [13.507785, -17.063505], [13.530936, -17.093271], [13.521324, -17.1219], [13.606487, -17.167375], [13.69413, -17.236621], [13.884351, -17.338527], [13.942745, -17.408187], [13.980573, -17.423587], [14.017883, -17.40922], [14.085372, -17.423587], [14.130744, -17.40922], [14.197097, -17.412941], [14.207432, -17.388033], [18.453581, -17.389893], [18.458645, -17.405293], [18.471668, -17.414285], [18.489858, -17.462447], [18.516626, -17.471336], [18.554144, -17.54637], [18.619669, -17.594842], [18.64282, -17.638044], [18.670932, -17.653133], [18.761986, -17.747701], [18.800847, -17.756589], [18.89004, -17.799274], [19.020575, -17.822322], [19.105118, -17.818188], [19.160825, -17.800928], [19.246608, -17.804028], [19.421274, -17.859426], [19.59284, -17.857255], [19.672628, -17.842682], [19.693195, -17.847747], [19.711282, -17.872965], [19.77102, -17.890328], [19.793964, -17.862319], [19.951991, -17.862319], [20.0, -17.88192082219305], [20.0, -22.000671], [19.978346, -22.000671], [19.981653, -28.422347], [19.940209, -28.430202], [19.896697, -28.427721], [19.82559, -28.47671], [19.748076, -28.487149], [19.688338, -28.515984], [19.587982, -28.522702], [19.568759, -28.531177], [19.533722, -28.58244], [19.511708, -28.598047], [19.482872, -28.678248], [19.45507, -28.705223], [19.339005, -28.73747], [19.304485, -28.718659], [19.290016, -28.719693], [19.265935, -28.742637], [19.244954, -28.792453], [19.288879, -28.871001], [19.288362, -28.883094], [19.243714, -28.891879], [19.218496, -28.918854], [19.120207, -28.957508], [19.081657, -28.959368], [19.060056, -28.9357], [19.006932, -28.926295], [18.954533, -28.866661], [18.745656, -28.839892], [18.553937, -28.864697], [18.496163, -28.888261], [18.469394, -28.874929], [18.397564, -28.898907], [18.30868, -28.879993], [18.166467, -28.901904], [18.044097, -28.858392], [17.983326, -28.813744], [17.913252, -28.781291], [17.746338, -28.748632], [17.714091, -28.751112], [17.673784, -28.771576], [17.628722, -28.764135], [17.607121, -28.75566], [17.598026, -28.689617], [17.582937, -28.680212], [17.44093, -28.709564], [17.403619, -28.704293], [17.401759, -28.674218], [17.420569, -28.593396], [17.409614, -28.571382], [17.373027, -28.559393], [17.359488, -28.519808], [17.324244, -28.470509], [17.341194, -28.442811], [17.39132, -28.418833], [17.399692, -28.395268], [17.400002, -28.346382], [17.371993, -28.306075], [17.345742, -28.22763], [17.308638, -28.224116], [17.245179, -28.237448], [17.21314, -28.232074], [17.191953, -28.20882], [17.189989, -28.116836], [17.180894, -28.099472], [17.136349, -28.084693], [17.097798, -28.031156], [17.076404, -28.026815], [17.045398, -28.036324], [17.012015, -28.058338], [16.98535, -28.05224], [16.947523, -28.072704], [16.919618, -28.058338], [16.892953, -28.082626], [16.885512, -28.162001], [16.878173, -28.172026], [16.837659, -28.168202], [16.856366, -28.206649], [16.819779, -28.20975], [16.810271, -28.222876], [16.8266, -28.251918], [16.824637, -28.264527], [16.815232, -28.270831], [16.786499, -28.257602], [16.768723, -28.265354], [16.768413, -28.303698], [16.803863, -28.366123], [16.778541, -28.382969], [16.769343, -28.442604], [16.740404, -28.480948], [16.720457, -28.496037], [16.703817, -28.494487], [16.692345, -28.461104], [16.673121, -28.45976], [16.597364, -28.526216], [16.487071, -28.572931], [16.445811, -28.610528]]]}}, {"type": "Feature", "properties": {"name": "South Africa"}, "geometry": {"type": "Polygon", "coordinates": [[[19.986408, -24.768823], [20.0, -24.78352857366347], [20.0, -30.0], [17.16055637334048, -30.0], [17.085704, -29.833754], [17.056326, -29.730401], [17.062511, -29.730401], [17.056326, -29.676446], [17.032074, -29.608168], [17.018809, -29.598728], [17.007823, -29.539239], [16.93393, -29.35768], [16.884939, -29.299005], [16.86378, -29.238702], [16.843272, -29.211358], [16.844249, -29.188409], [16.822927, -29.14072], [16.824067, -29.101007], [16.808767, -29.078302], [16.744965, -29.028741], [16.712738, -28.963962], [16.667735, -28.908624], [16.600352, -28.857517], [16.579438, -28.800388], [16.576996, -28.744236], [16.562755, -28.712823], [16.534841, -28.70322], [16.51352, -28.660903], [16.469981, -28.62005], [16.486664, -28.59881], [16.487071, -28.572931], [16.597364, -28.526216], [16.673121, -28.45976], [16.692345, -28.461104], [16.703817, -28.494487], [16.720457, -28.496037], [16.740404, -28.480948], [16.769343, -28.442604], [16.778541, -28.382969], [16.803863, -28.366123], [16.768413, -28.303698], [16.768723, -28.265354], [16.786499, -28.257602], [16.815232, -28.270831], [16.824637, -28.264527], [16.8266, -28.251918], [16.810271, -28.222876], [16.819779, -28.20975], [16.856366, -28.206649], [16.837659, -28.168202], [16.878173, -28.172026], [16.885512, -28.162001], [16.892953, -28.082626], [16.919618, -28.058338], [16.947523, -28.072704], [16.98535, -28.05224], [17.012015, -28.058338], [17.045398, -28.036324], [17.076404, -28.026815], [17.097798, -28.031156], [17.136349, -28.084693], [17.180894, -28.099472], [17.189989, -28.116836], [17.191953, -28.20882], [17.21314, -28.232074], [17.245179, -28.237448], [17.308638, -28.224116], [17.345742, -28.22763], [17.371993, -28.306075], [17.400002, -28.346382], [17.399692, -28.395268], [17.39132, -28.418833], [17.341194, -28.442811], [17.324244, -28.470509], [17.359488, -28.519808], [17.373027, -28.559393], [17.409614, -28.571382], [17.420569, -28.593396], [17.401759, -28.674218], [17.403619, -28.704293], [17.44093, -28.709564], [17.582937, -28.680212], [17.598026, -28.689617], [17.607121, -28.75566], [17.628722, -28.764135], [17.673784, -28.771576], [17.714091, -28.751112], [17.746338, -28.748632], [17.913252, -28.781291], [17.983326, -28.813744], [18.044097, -28.858392], [18.166467, -28.901904], [18.30868, -28.879993], [18.397564, -28.898907], [18.469394, -28.874929], [18.496163, -28.888261], [18.553937, -28.864697], [18.745656, -28.839892], [18.954533, -28.866661], [19.006932, -28.926295], [19.060056, -28.9357], [19.081657, -28.959368], [19.120207, -28.957508], [19.218496, -28.918854], [19.243714, -28.891879], [19.288362, -28.883094], [19.288879, -28.871001], [19.244954, -28.792453], [19.265935, -28.742637], [19.290016, -28.719693], [19.304485, -28.718659], [19.339005, -28.73747], [19.45507, -28.705223], [19.482872, -28.678248], [19.511708, -28.598047], [19.533722, -28.58244], [19.568759, -28.531177], [19.587982, -28.522702], [19.688338, -28.515984], [19.748076, -28.487149], [19.82559, -28.47671], [19.896697, -28.427721], [19.940209, -28.430202], [19.981653, -28.422347], [19.981447, -24.752493], [19.986408, -24.768823]]]}}, {"type": "Feature", "properties": {"name": "Angola"}, "geometry": {"type": "MultiPolygon", "coordinates": [[[[19.951991, -17.862319], [19.793964, -17.862319], [19.77102, -17.890328], [19.711282, -17.872965], [19.693195, -17.847747], [19.672628, -17.842682], [19.59284, -17.857255], [19.421274, -17.859426], [19.246608, -17.804028], [19.160825, -17.800928], [19.105118, -17.818188], [19.020575, -17.822322], [18.89004, -17.799274], [18.800847, -17.756589], [18.761986, -17.747701], [18.670932, -17.653133], [18.64282, -17.638044], [18.619669, -17.594842], [18.554144, -17.54637], [18.516626, -17.471336], [18.489858, -17.462447], [18.471668, -17.414285], [18.458645, -17.405293], [18.453581, -17.389893], [14.207432, -17.388033], [14.197097, -17.412941], [14.130744, -17.40922], [14.085372, -17.423587], [14.017883, -17.40922], [13.980573, -17.423587], [13.942745, -17.408187], [13.884351, -17.338527], [13.69413, -17.236621], [13.606487, -17.167375], [13.521324, -17.1219], [13.530936, -17.093271], [13.507785, -17.063505], [13.494659, -17.024024], [13.479776, -17.010278], [13.417248, -16.993742], [13.363711, -16.964183], [13.321543, -16.974932], [13.308417, -16.970178], [13.267489, -16.98537], [13.267489, -16.977929], [13.222841, -16.977929], [13.19814, -16.957362], [13.184911, -16.964183], [13.166307, -16.951057], [13.014275, -16.977929], [12.961668, -17.007385], [12.887151, -17.029812], [12.876402, -17.059784], [12.842296, -17.074047], [12.818318, -17.104846], [12.739873, -17.135542], [12.685923, -17.173576], [12.63621, -17.185151], [12.56717, -17.234554], [12.46051, -17.223082], [12.417929, -17.203445], [12.379482, -17.220395], [12.242642, -17.224839], [12.23179, -17.201895], [12.185075, -17.17709], [12.170709, -17.149185], [12.13991, -17.156006], [12.08813, -17.139159], [11.98302, -17.161897], [11.942092, -17.180501], [11.835536, -17.245406], [11.82241, -17.264423], [11.766184, -17.252751], [11.757986, -17.23919], [11.750743, -17.216892], [11.758637, -17.165216], [11.759288, -17.032973], [11.780013, -16.869467], [11.768141, -16.768251], [11.785921, -16.76352], [11.79087, -16.806082], [11.80371, -16.824033], [11.820474, -16.781472], [11.82309, -16.678969], [11.813813, -16.583917], [11.821951, -16.479099], [11.779145, -16.099867], [11.784516, -16.06406], [11.806977, -16.018813], [11.736618, -15.900203], [11.735525, -15.85711], [11.751801, -15.799086], [11.804942, -15.76922], [11.81837, -15.792413], [11.844249, -15.793552], [11.903331, -15.731378], [11.910167, -15.676202], [11.930512, -15.652439], [11.992035, -15.617283], [12.005138, -15.594334], [12.040375, -15.463311], [12.03004, -15.436944], [12.046641, -15.350681], [12.056407, -15.233087], [12.070567, -15.204685], [12.104991, -15.172784], [12.135997, -15.178969], [12.145274, -15.168634], [12.148936, -15.13421], [12.142833, -15.120701], [12.112478, -15.115167], [12.115001, -15.093927], [12.151134, -15.002048], [12.160492, -14.953546], [12.196137, -14.908461], [12.207774, -14.833266], [12.21518, -14.824151], [12.235606, -14.823012], [12.272716, -14.750584], [12.266368, -14.696059], [12.292735, -14.587498], [12.299001, -14.507582], [12.331309, -14.433526], [12.345388, -14.302992], [12.31422, -14.182224], [12.315603, -14.174981], [12.348888, -14.168552], [12.355805, -14.142348], [12.328787, -14.092218], [12.399913, -13.951593], [12.407237, -13.890558], [12.415538, -13.878595], [12.450531, -13.862481], [12.485688, -13.87713], [12.502452, -13.855239], [12.516287, -13.715102], [12.512706, -13.616795], [12.533865, -13.565199], [12.522146, -13.544203], [12.527029, -13.50449], [12.514903, -13.457615], [12.51531, -13.425958], [12.53297, -13.399021], [12.568044, -13.392348], [12.594737, -13.360447], [12.634451, -13.343357], [12.64324, -13.316339], [12.636241, -13.29461], [12.656505, -13.255629], [12.685069, -13.240818], [12.694102, -13.218357], [12.712087, -13.222589], [12.761485, -13.192966], [12.827159, -13.109796], [12.865977, -13.078709], [12.944835, -12.982354], [12.958669, -12.955499], [12.958832, -12.929132], [12.927501, -12.842055], [12.939464, -12.816664], [13.075043, -12.695001], [13.109223, -12.674493], [13.132823, -12.636651], [13.178559, -12.601739], [13.198009, -12.599379], [13.232758, -12.613051], [13.276866, -12.578302], [13.32838, -12.599379], [13.364024, -12.592706], [13.392914, -12.570408], [13.469249, -12.494806], [13.479015, -12.419122], [13.505626, -12.371352], [13.57545, -12.311456], [13.558279, -12.328302], [13.561778, -12.346124], [13.639822, -12.248712], [13.663585, -12.16961], [13.705089, -12.078058], [13.71518, -12.008396], [13.74879, -11.961196], [13.766449, -11.920505], [13.792247, -11.790948], [13.77768, -11.589125], [13.781912, -11.481052], [13.794607, -11.440606], [13.786632, -11.431573], [13.795258, -11.332208], [13.819021, -11.295587], [13.846528, -11.113702], [13.843435, -10.945733], [13.731456, -10.764255], [13.73113, -10.747166], [13.769786, -10.694268], [13.771739, -10.677911], [13.75294, -10.646173], [13.711436, -10.612074], [13.60613, -10.478204], [13.527599, -10.406508], [13.520763, -10.320245], [13.508962, -10.277032], [13.442638, -10.179376], [13.431163, -10.130548], [13.37672, -10.070733], [13.332267327983814, -10.0], [20.0, -10.0], [20.0, -17.88192082219305], [19.951991, -17.862319]]], [[[11.738507, -16.705822], [11.715794, -16.685006], [11.701973, -16.655674], [11.669394, -16.55721], [11.67137, -16.529744], [11.701977, -16.500393], [11.719746, -16.506083], [11.738507, -16.705822]]]]}}, {"type": "Feature", "properties": {"name": "Botswana"}, "geometry": {"type": "Polygon", "coordinates": [[[19.986408, -24.768823], [19.981447, -24.752493], [19.978346, -22.000671], [20.0, -22.000671], [20.0, -24.78352857366347], [19.986408, -24.768823]]]}}]}