{"type": "FeatureCollection", "features": [{"type": "Feature", "properties": {"name": "Fiji"}, "geometry": {"type": "MultiPolygon", "coordinates": [[[[-180.0, -16.149111], [-179.987538, -16.138116], [-179.938588, -16.12127], [-179.961781, -16.154718], [-180.0, -16.169614], [-180.0, -16.149111]]], [[[-180.0, -16.489939], [-179.991404, -16.475763], [-179.959055, -16.446873], [-179.897654, -16.429783], [-179.897654, -16.436456], [-179.911204, -16.441176], [-179.903798, -16.457696], [-179.928334, -16.4638], [-179.937449, -16.477472], [-179.937001, -16.486912], [-179.921986, -16.497491], [-179.952016, -16.523045], [-180.0, -16.541115], [-180.0, -16.489939]]], [[[-180.0, -16.786733], [-179.915883, -16.694513], [-179.877146, -16.67783], [-179.864084, -16.681329], [-179.842397, -16.748712], [-179.815663, -16.772231], [-179.856638, -16.813897], [-179.871571, -16.863865], [-179.890126, -16.867852], [-179.951161, -16.905938], [-179.9829, -16.932387], [-180.0, -16.964144], [-180.0, -16.786733]]], [[[-178.566355, -19.151056], [-178.533315, -19.156996], [-178.536977, -19.177179], [-178.555857, -19.174981], [-178.600331, -19.147719], [-178.597117, -19.128513], [-178.581654, -19.111505], [-178.553822, -19.109145], [-178.559682, -19.118829], [-178.588572, -19.122817], [-178.566355, -19.151056]]], [[[-178.969065, -18.942641], [-178.957875, -18.927911], [-178.943593, -18.926365], [-178.931223, -18.944106], [-178.930979, -18.971368], [-178.944447, -18.987237], [-178.961537, -18.986749], [-178.972157, -18.965102], [-178.969065, -18.942641]]], [[[-179.84968, -18.923435], [-179.812693, -18.927341], [-179.78718, -18.955336], [-179.808217, -18.986423], [-179.816762, -18.952244], [-179.837758, -18.948826], [-179.855214, -18.963149], [-179.84435, -19.00213], [-179.858266, -19.005955], [-179.871938, -18.993748], [-179.84968, -18.923435]]], [[[-178.749135, -18.20322], [-178.745676, -18.221612], [-178.763295, -18.245864], [-178.806589, -18.243748], [-178.845408, -18.21738], [-178.8249, -18.189142], [-178.789784, -18.172133], [-178.749135, -18.20322]]], [[[-179.031831, -17.966329], [-179.027865, -18.003014], [-179.046215, -18.007515], [-179.069336, -17.989319], [-179.078704, -17.966642], [-179.059511, -17.952518], [-179.031831, -17.966329]]], [[[-178.246409, -17.917576], [-178.239125, -17.934259], [-178.248647, -17.952569], [-178.298289, -17.963311], [-178.352284, -17.945733], [-178.357777, -17.914321], [-178.33788, -17.886], [-178.293162, -17.882745], [-178.246409, -17.917576]]], [[[-178.917348, -17.201267], [-178.910715, -17.214532], [-178.92748, -17.252699], [-178.965932, -17.275079], [-178.985829, -17.313572], [-179.000681, -17.302504], [-178.99767, -17.283136], [-178.972157, -17.252699], [-178.975779, -17.239841], [-178.958485, -17.224786], [-178.958323, -17.211358], [-178.972157, -17.197442], [-179.013132, -17.183852], [-179.019968, -17.149102], [-178.985422, -17.175877], [-178.964711, -17.176935], [-178.917348, -17.201267]]], [[[-178.731028, -20.657647], [-178.724965, -20.642348], [-178.708119, -20.671319], [-178.719065, -20.670994], [-178.731028, -20.657647]]], [[[-178.228953, -19.829034], [-178.216135, -19.815199], [-178.220041, -19.827895], [-178.226796, -19.84002], [-178.228953, -19.829034]]], [[[-178.401112, -19.133477], [-178.392934, -19.127537], [-178.391957, -19.165785], [-178.418813, -19.178643], [-178.419789, -19.167413], [-178.401112, -19.133477]]], [[[-178.914866, -18.884047], [-178.930613, -18.882094], [-178.879872, -18.854262], [-178.914866, -18.884047]]], [[[-178.516306, -18.649998], [-178.511098, -18.637953], [-178.499216, -18.633722], [-178.486073, -18.651788], [-178.498118, -18.665948], [-178.507151, -18.665216], [-178.516306, -18.649998]]], [[[-179.33613, -17.758477], [-179.334218, -17.740004], [-179.320302, -17.724867], [-179.298085, -17.72324], [-179.279734, -17.739435], [-179.280751, -17.760186], [-179.296457, -17.774184], [-179.322581, -17.770196], [-179.33613, -17.758477]]], [[[-179.1728, -17.45794], [-179.175486, -17.439711], [-179.166005, -17.425551], [-179.145579, -17.424249], [-179.130808, -17.453709], [-179.137074, -17.468927], [-179.156606, -17.471368], [-179.1728, -17.45794]]], [[[-179.156687, -17.254083], [-179.146474, -17.247979], [-179.134389, -17.25213], [-179.130808, -17.277032], [-179.149485, -17.282159], [-179.157297, -17.272719], [-179.156687, -17.254083]]]]}}, {"type": "Feature", "properties": {"name": "New Zealand"}, "geometry": {"type": "Polygon", "coordinates": [[[-177.924875, -29.284356], [-177.927561, -29.254653], [-177.957997, -29.222752], [-177.889394, -29.233819], [-177.865427, -29.251153], [-177.848134, -29.278578], [-177.878, -29.272393], [-177.895863, -29.292169], [-177.909535, -29.278578], [-177.924875, -29.284356]]]}}, {"type": "Feature", "properties": {"name": "Cook Is."}, "geometry": {"type": "MultiPolygon", "coordinates": [[[[-165.811757, -10.880141], [-165.807688, -10.88128], [-165.818715, -10.891534], [-165.824534, -10.881768], [-165.811757, -10.880141]]], [[[-160.996409, -10.371515], [-160.9381, -10.422784], [-160.986236, -10.382094], [-160.996409, -10.371515]]], [[[-161.070058, -10.027439], [-161.08727, -10.04461], [-161.088002, -10.035089], [-161.070058, -10.027439]]]]}}, {"type": "Feature", "properties": {"name": "Tonga"}, "geometry": {"type": "MultiPolygon", "coordinates": [[[[-173.915395, -18.59531], [-173.915151, -18.626886], [-173.922963, -18.636977], [-173.942087, -18.615818], [-173.952952, -18.620701], [-173.957631, -18.63421], [-173.948964, -18.643162], [-173.962595, -18.663507], [-173.976633, -18.660577], [-173.985951, -18.670994], [-173.990549, -18.705173], [-174.003041, -18.6985], [-174.017201, -18.663507], [-174.001169, -18.657403], [-174.010976, -18.62949], [-174.022328, -18.638849], [-174.030141, -18.663344], [-174.045155, -18.656834], [-174.059438, -18.663507], [-174.072499, -18.633966], [-174.025461, -18.604913], [-174.00414, -18.570977], [-173.95637, -18.567315], [-173.915395, -18.59531]]], [[[-174.908518, -21.32936], [-174.91393, -21.444106], [-174.920277, -21.454197], [-174.983632, -21.390883], [-174.96996, -21.383966], [-174.976877, -21.359552], [-174.97175, -21.347914], [-174.951853, -21.339776], [-174.918406, -21.284438], [-174.908518, -21.32936]]], [[[-175.050893, -21.139337], [-175.051869, -21.154962], [-175.11738, -21.203058], [-175.117624, -21.255955], [-175.148752, -21.267999], [-175.180491, -21.25506], [-175.209665, -21.214451], [-175.257314, -21.192153], [-175.264841, -21.19964], [-175.325754, -21.173598], [-175.364817, -21.113946], [-175.355295, -21.089614], [-175.332143, -21.071222], [-175.305776, -21.062595], [-175.34081, -21.102634], [-175.315419, -21.121352], [-175.24059, -21.113702], [-175.218861, -21.13006], [-175.216379, -21.141046], [-175.23823, -21.15838], [-175.223582, -21.17254], [-175.193105, -21.158136], [-175.154978, -21.171808], [-175.140126, -21.16839], [-175.113962, -21.130792], [-175.065541, -21.123956], [-175.050893, -21.139337]]], [[[-174.336985, -19.787774], [-174.325673, -19.759698], [-174.305857, -19.767185], [-174.32018, -19.819268], [-174.339345, -19.821873], [-174.361073, -19.801365], [-174.336985, -19.787774]]], [[[-175.053334, -19.72381], [-175.04601, -19.751153], [-175.047841, -19.781183], [-175.059316, -19.801365], [-175.059316, -19.793878], [-175.065541, -19.801365], [-175.08727, -19.787693], [-175.099477, -19.74977], [-175.090647, -19.71266], [-175.069285, -19.712009], [-175.053334, -19.72381]]], [[[-174.288197, -19.723728], [-174.257436, -19.684666], [-174.252187, -19.699314], [-174.271677, -19.749119], [-174.302195, -19.744073], [-174.305816, -19.733005], [-174.288197, -19.723728]]], [[[-174.247996, -19.635919], [-174.249257, -19.653741], [-174.264272, -19.650486], [-174.275217, -19.635675], [-174.29304, -19.592706], [-174.277903, -19.59588], [-174.260854, -19.630548], [-174.247996, -19.635919]]], [[[-175.61262, -15.573337], [-175.617787, -15.601495], [-175.63915, -15.624282], [-175.668894, -15.621515], [-175.686269, -15.602309], [-175.683339, -15.582127], [-175.663767, -15.566013], [-175.631337, -15.559503], [-175.61262, -15.573337]]], [[[-176.204213, -22.326918], [-176.19811, -22.331964], [-176.210194, -22.3388], [-176.219309, -22.329848], [-176.204213, -22.326918]]], [[[-174.664133, -18.801365], [-174.661244, -18.786879], [-174.649607, -18.779555], [-174.63386, -18.785333], [-174.62682, -18.79754], [-174.640452, -18.816583], [-174.653798, -18.817478], [-174.664133, -18.801365]]]]}}, {"type": "Feature", "properties": {"name": "Wallis and Futuna Is."}, "geometry": {"type": "MultiPolygon", "coordinates": [[[[-178.105092, -14.285252], [-178.046742, -14.312595], [-178.046742, -14.319431], [-178.108835, -14.319431], [-178.156606, -14.305108], [-178.18574, -14.248224], [-178.178049, -14.232599], [-178.142323, -14.243585], [-178.105092, -14.285252]]], [[[-176.1256, -13.264093], [-176.13561, -13.284763], [-176.128163, -13.298272], [-176.14448, -13.300877], [-176.147654, -13.310479], [-176.141835, -13.33587], [-176.147165, -13.347752], [-176.159495, -13.350274], [-176.18281, -13.339288], [-176.199574, -13.290623], [-176.18281, -13.277927], [-176.190175, -13.257013], [-176.184031, -13.237888], [-176.155466, -13.208917], [-176.1256, -13.264093]]]]}}, {"type": "Feature", "properties": {"name": "Samoa"}, "geometry": {"type": "MultiPolygon", "coordinates": [[[[-172.190256, -13.65602], [-172.175649, -13.680271], [-172.180613, -13.702407], [-172.211497, -13.744561], [-172.212961, -13.800958], [-172.219065, -13.805352], [-172.253245, -13.802911], [-172.297556, -13.769789], [-172.368642, -13.788995], [-172.523183, -13.805352], [-172.575144, -13.762791], [-172.597117, -13.700616], [-172.633046, -13.681899], [-172.66747, -13.633884], [-172.693349, -13.624119], [-172.718739, -13.602797], [-172.725575, -13.581964], [-172.749745, -13.578302], [-172.776479, -13.542087], [-172.782582, -13.520278], [-172.76655, -13.510512], [-172.732371, -13.510512], [-172.695139, -13.524184], [-172.661204, -13.52516], [-172.569203, -13.501397], [-172.530629, -13.483982], [-172.451853, -13.483982], [-172.344431, -13.462986], [-172.300771, -13.476495], [-172.280507, -13.493585], [-172.222768, -13.558364], [-172.222768, -13.578302], [-172.201039, -13.592543], [-172.190256, -13.65602]]], [[[-171.51948, -13.944757], [-171.46935, -13.969415], [-171.437693, -14.006117], [-171.448191, -14.03753], [-171.440745, -14.051853], [-171.579213, -14.049493], [-171.619496, -14.03753], [-171.635813, -14.046157], [-171.700144, -14.038995], [-171.753285, -14.051528], [-171.768056, -14.043227], [-171.774526, -14.0263], [-171.837961, -14.003188], [-171.893503, -14.007013], [-171.926625, -14.001153], [-171.972401, -13.946222], [-171.98884, -13.949395], [-172.018015, -13.917901], [-172.061025, -13.906183], [-172.063669, -13.885024], [-172.044057, -13.846368], [-171.965199, -13.818536], [-171.880198, -13.805352], [-171.834543, -13.807387], [-171.792307, -13.816502], [-171.650217, -13.87127], [-171.585154, -13.883884], [-171.557444, -13.915216], [-171.570017, -13.938165], [-171.56428, -13.949395], [-171.51948, -13.944757]]]]}}, {"type": "Feature", "properties": {"name": "Niue"}, "geometry": {"type": "Polygon", "coordinates": [[[-169.825307, -18.96795], [-169.782908, -19.068943], [-169.865427, -19.129653], [-169.872996, -19.125909], [-169.898915, -19.142755], [-169.909983, -19.128595], [-169.933705, -19.129653], [-169.919423, -19.115981], [-169.924062, -19.099379], [-169.950429, -19.087335], [-169.947703, -19.069431], [-169.926259, -19.03753], [-169.933705, -19.013604], [-169.916005, -19.003106], [-169.895823, -18.965102], [-169.825307, -18.96795]]]}}, {"type": "Feature", "properties": {"name": "American Samoa"}, "geometry": {"type": "MultiPolygon", "coordinates": [[[[-170.576243, -14.252537], [-170.56725, -14.258559], [-170.568471, -14.270929], [-170.584177, -14.277765], [-170.659291, -14.285252], [-170.748647, -14.374688], [-170.831248, -14.319431], [-170.788645, -14.294529], [-170.721506, -14.289239], [-170.698476, -14.260512], [-170.661448, -14.252374], [-170.620066, -14.254571], [-170.591013, -14.264825], [-170.576243, -14.252537]]], [[[-169.44404, -14.230645], [-169.440134, -14.245294], [-169.447133, -14.255629], [-169.460154, -14.250421], [-169.476186, -14.262384], [-169.494862, -14.257257], [-169.504262, -14.270603], [-169.522817, -14.270929], [-169.529286, -14.248793], [-169.542673, -14.236749], [-169.506459, -14.222263], [-169.44404, -14.230645]]], [[[-168.173085, -14.523696], [-168.160471, -14.520929], [-168.16157, -14.532892], [-168.173085, -14.523696]]], [[[-169.658193, -14.168878], [-169.63561, -14.177016], [-169.660146, -14.189142], [-169.669749, -14.187921], [-169.676218, -14.1749], [-169.658193, -14.168878]]], [[[-171.073476, -11.062107], [-171.081532, -11.066095], [-171.085642, -11.051365], [-171.072825, -11.052504], [-171.073476, -11.062107]]]]}}]}