{"type": "FeatureCollection", "features": [{"type": "Feature", "properties": {"name": "Fiji"}, "geometry": {"type": "MultiPolygon", "coordinates": [[[[-179.961781, -16.154718], [-179.987538, -16.138116], [-179.938588, -16.12127], [-179.961781, -16.154718]]], [[[-180.0, -16.541115], [-179.991404, -16.475763], [-179.897654, -16.429783], [-179.921986, -16.497491], [-180.0, -16.541115]]], [[[-180.0, -16.964144], [-180.0, -16.786733], [-179.864084, -16.681329], [-179.815663, -16.772231], [-180.0, -16.964144]]], [[[179.987153, -16.518324], [180.0, -16.541275], [179.987478, -16.542413], [179.987153, -16.518324]]], [[[180.0, -16.785349], [180.0, -16.962782], [179.917491, -16.998793], [179.895274, -16.939142], [180.0, -16.785349]]], [[[180.0, -16.149112], [179.478689, -16.697198], [179.478689, -16.758722], [179.548106, -16.766046], [179.939464, -16.463311], [179.848643, -16.662367], [179.949718, -16.730076], [179.910655, -16.766046], [179.726329, -16.717706], [179.582286, -16.807061], [179.296886, -16.806817], [179.35141, -16.731378], [179.266368, -16.689874], [179.06544, -16.798923], [179.026866, -16.92311], [178.910004, -16.848077], [178.733897, -17.007013], [178.636404, -16.807061], [178.485606, -16.79339], [178.585623, -16.665134], [178.533946, -16.629002], [178.800955, -16.635837], [178.917003, -16.470636], [179.403575, -16.407973], [179.37615, -16.360772], [179.520274, -16.244806], [179.630138, -16.258966], [179.764415, -16.18141], [179.855968, -16.231134], [180.0, -16.149112]]], [[[-178.553822, -19.109145], [-178.533315, -19.156996], [-178.536977, -19.177179], [-178.600331, -19.147719], [-178.597117, -19.128513], [-178.581654, -19.111505], [-178.553822, -19.109145]]], [[[-178.930979, -18.971368], [-178.969065, -18.942641], [-178.943593, -18.926365], [-178.930979, -18.971368]]], [[[-179.858266, -19.005955], [-179.84968, -18.923435], [-179.78718, -18.955336], [-179.837758, -18.948826], [-179.858266, -19.005955]]], [[[-178.789784, -18.172133], [-178.745676, -18.221612], [-178.763295, -18.245864], [-178.845408, -18.21738], [-178.789784, -18.172133]]], [[[-179.069336, -17.989319], [-179.031831, -17.966329], [-179.027865, -18.003014], [-179.069336, -17.989319]]], [[[-178.33788, -17.886], [-178.248647, -17.952569], [-178.352284, -17.945733], [-178.33788, -17.886]]], [[[-179.019968, -17.149102], [-178.910715, -17.214532], [-178.985829, -17.313572], [-178.958323, -17.211358], [-179.019968, -17.149102]]], [[[179.777517, -19.122817], [179.802013, -19.184259], [179.745942, -19.190118], [179.774099, -19.170668], [179.777517, -19.122817]]], [[[178.344981, -18.9249], [178.496593, -19.013279], [178.281505, -19.00742], [178.174327, -19.07586], [178.178966, -19.157485], [177.951182, -19.129653], [178.344981, -18.9249]]], [[[178.49586, -18.86297], [178.533946, -18.910577], [178.471934, -18.907159], [178.49586, -18.86297]]], [[[179.943427, -18.556346], [179.891831, -18.609644], [179.882754, -18.662524], [179.830666, -18.589302], [179.943427, -18.556346]]], [[[177.618988, -18.511895], [177.654063, -18.504083], [177.663097, -18.588474], [177.618988, -18.511895]]], [[[178.108735, -18.403497], [178.150076, -18.357843], [178.142345, -18.411879], [178.108735, -18.403497]]], [[[179.297374, -17.937921], [179.350271, -18.118829], [179.232758, -17.944757], [179.297374, -17.937921]]], [[[179.391775, -17.793064], [179.432302, -17.832778], [179.422618, -17.850518], [179.391775, -17.793064]]], [[[178.713189, -17.710978], [178.779552, -17.766046], [178.772716, -17.780369], [178.734685, -17.767566], [178.713189, -17.710978]]], [[[178.776378, -17.628839], [178.835544, -17.693159], [178.768077, -17.747166], [178.739355, -17.67333], [178.776378, -17.628839]]], [[[179.033376, -17.656183], [179.006847, -17.593194], [179.040782, -17.656183], [179.033376, -17.656183]]], [[[178.711436, -17.991957], [178.588634, -18.136], [178.389903, -18.101821], [178.168305, -18.248468], [177.894054, -18.273126], [177.335948, -18.105564], [177.251638, -17.952244], [177.265636, -17.859552], [177.434337, -17.750177], [177.388927, -17.640558], [177.515147, -17.50506], [177.638927, -17.437107], [177.663097, -17.498468], [177.663097, -17.443943], [177.829926, -17.364028], [177.82016, -17.417169], [177.956228, -17.40252], [178.190115, -17.300551], [178.286469, -17.383722], [178.245372, -17.471287], [178.348318, -17.440118], [178.590831, -17.630955], [178.567719, -17.754978], [178.635997, -17.863702], [178.5949, -17.926039], [178.711436, -17.991957]]], [[[177.093923, -17.245294], [177.149181, -17.245294], [177.162852, -17.265802], [177.111827, -17.310317], [177.093923, -17.245294]]], [[[179.437836, -17.241795], [179.432872, -17.358331], [179.39088, -17.396254], [179.371349, -17.259861], [179.437836, -17.241795]]], [[[177.218272, -17.073826], [177.285818, -17.046645], [177.287852, -17.085219], [177.238048, -17.149102], [177.175955, -17.163344], [177.218272, -17.073826]]], [[[177.443696, -16.867852], [177.403656, -16.902602], [177.395356, -16.936782], [177.395763, -16.866143], [177.443696, -16.867852]]], [[[178.28004, -16.786716], [178.333669, -16.828871], [178.290212, -16.834405], [178.28004, -16.786716]]], [[[177.56072, -16.676853], [177.580333, -16.728448], [177.429698, -16.834405], [177.558604, -16.721449], [177.56072, -16.676853]]], [[[179.947439, -16.644464], [179.883311, -16.655532], [179.951671, -16.607843], [179.947439, -16.644464]]], [[[178.592459, -16.595636], [178.605154, -16.580011], [178.622569, -16.573012], [178.592459, -16.595636]]], [[[179.328136, -16.326593], [179.389659, -16.333591], [179.328136, -16.333591], [179.328136, -16.326593]]], [[[177.124766, -12.486098], [177.091075, -12.516371], [177.00587, -12.489516], [177.124766, -12.486098]]], [[[174.626638, -21.676528], [174.596853, -21.698419], [174.594005, -21.668715], [174.626638, -21.676528]]], [[[-178.708119, -20.671319], [-178.731028, -20.657647], [-178.724965, -20.642348], [-178.708119, -20.671319]]], [[[-178.220041, -19.827895], [-178.228953, -19.829034], [-178.216135, -19.815199], [-178.220041, -19.827895]]], [[[-178.391957, -19.165785], [-178.401112, -19.133477], [-178.392934, -19.127537], [-178.391957, -19.165785]]], [[[-178.879872, -18.854262], [-178.914866, -18.884047], [-178.930613, -18.882094], [-178.879872, -18.854262]]], [[[-178.486073, -18.651788], [-178.516306, -18.649998], [-178.499216, -18.633722], [-178.486073, -18.651788]]], [[[-179.280751, -17.760186], [-179.334218, -17.740004], [-179.298085, -17.72324], [-179.280751, -17.760186]]], [[[-179.130808, -17.453709], [-179.175486, -17.439711], [-179.145579, -17.424249], [-179.130808, -17.453709]]], [[[-179.130808, -17.277032], [-179.156687, -17.254083], [-179.134389, -17.25213], [-179.130808, -17.277032]]]]}}, {"type": "Feature", "properties": {"name": "New Zealand"}, "geometry": {"type": "MultiPolygon", "coordinates": [[[[165.924083, -50.851251], [166.226329, -50.885431], [165.985525, -50.904392], [165.924083, -50.851251]]], [[[169.293524, -52.520198], [169.195296, -52.600313], [169.015391, -52.542657], [169.113593, -52.546453], [169.186255, -52.469199], [169.293524, -52.520198]]], [[[166.287771, -50.542739], [166.164317, -50.686782], [166.226329, -50.693536], [166.122732, -50.700372], [166.232595, -50.75506], [166.240082, -50.851007], [166.061209, -50.830743], [166.083507, -50.786798], [166.040212, -50.752048], [165.992931, -50.776137], [166.021495, -50.836033], [165.896739, -50.851251], [165.925304, -50.754002], [166.078787, -50.675551], [166.095876, -50.535903], [166.287771, -50.542739]]], [[[178.839041, -49.629164], [178.822113, -49.719822], [178.719005, -49.700128], [178.770763, -49.627211], [178.839041, -49.629164]]], [[[-176.236073, -44.241957], [-176.113881, -44.265069], [-176.218984, -44.341241], [-176.236073, -44.241957]]], [[[-176.285105, -43.769708], [-176.398793, -43.907647], [-176.372263, -43.765883], [-176.53539, -43.755629], [-176.423044, -43.805841], [-176.501536, -43.864435], [-176.456532, -43.949802], [-176.395212, -43.938572], [-176.300038, -44.042576], [-176.51179, -44.121759], [-176.581492, -44.123142], [-176.664377, -44.01922], [-176.51594, -43.922296], [-176.566151, -43.837823], [-176.85497, -43.820082], [-176.580637, -43.703383], [-176.169138, -43.731378], [-176.285105, -43.769708]]], [[[-177.848134, -29.278578], [-177.924875, -29.284356], [-177.957997, -29.222752], [-177.889394, -29.233819], [-177.848134, -29.278578]]], [[[-171.185658, -9.361261], [-171.199696, -9.344334], [-171.2058, -9.330987], [-171.185658, -9.361261]]], [[[-172.483632, -8.586521], [-172.494944, -8.554783], [-172.502553, -8.543227], [-172.483632, -8.586521]]], [[[166.637218, -47.993585], [166.637218, -48.062433], [166.56837, -48.041925], [166.637218, -47.993585]]], [[[167.426768, -47.244561], [167.454275, -47.207452], [167.48699, -47.218927], [167.426768, -47.244561]]], [[[167.69337, -46.757257], [167.682628, -46.795099], [167.662852, -46.778497], [167.69337, -46.757257]]], [[[168.542166, -46.759698], [168.605724, -46.754571], [168.563243, -46.801202], [168.542166, -46.759698]]], [[[168.199474, -47.047621], [168.259288, -47.084731], [167.901866, -47.188409], [167.764903, -47.137465], [167.61671, -47.212172], [167.726573, -47.205255], [167.671886, -47.260512], [167.521007, -47.273045], [167.545584, -47.188246], [167.630382, -47.156915], [167.627452, -47.064711], [167.743826, -47.027276], [167.737071, -46.955173], [167.81422, -46.911228], [167.758311, -46.807387], [167.787446, -46.697198], [167.96754, -46.699802], [168.17921, -46.864435], [168.167328, -46.909845], [168.008149, -46.895115], [167.966645, -46.972589], [168.048676, -46.931573], [168.131114, -46.992446], [168.230235, -46.971612], [168.247325, -47.040785], [168.199474, -47.047621]]], [[[166.711436, -45.616306], [166.739268, -45.72796], [166.650076, -45.73919], [166.623057, -45.658298], [166.506196, -45.724867], [166.566661, -45.63714], [166.711436, -45.616306]]], [[[166.966156, -45.149591], [166.997081, -45.233168], [167.034434, -45.30047], [166.893321, -45.243422], [166.966156, -45.149591]]], [[[174.38087, -41.106378], [174.38087, -41.195082], [174.197276, -41.230076], [174.351248, -41.17547], [174.325694, -41.126886], [174.38087, -41.106378]]], [[[173.777599, -40.921482], [173.784434, -40.838962], [173.845876, -40.873142], [173.832286, -40.757582], [173.887462, -40.805352], [173.964854, -40.708754], [173.921641, -40.866795], [173.777599, -40.921482]]], [[[172.748694, -43.279694], [172.747732, -43.567153], [172.832286, -43.601658], [172.681407, -43.639337], [172.875743, -43.668878], [172.893809, -43.614516], [172.928396, -43.685724], [173.064952, -43.648126], [173.092947, -43.854181], [172.996837, -43.88893], [172.948578, -43.751153], [172.965587, -43.90545], [172.817231, -43.881443], [172.763438, -43.792739], [172.422618, -43.854587], [172.647716, -43.782647], [172.417328, -43.737481], [172.376313, -43.864435], [171.346002, -44.278631], [171.173839, -44.54697], [171.203136, -44.905532], [170.926117, -45.238377], [170.865977, -45.482029], [170.62672, -45.706313], [170.759288, -45.776788], [170.556814, -45.896254], [170.776622, -45.780206], [170.778575, -45.876153], [170.333751, -45.981541], [170.21697, -46.172947], [169.899425, -46.344903], [169.848969, -46.467543], [169.659353, -46.49212], [169.755544, -46.499607], [169.704112, -46.549005], [169.035981, -46.681899], [168.889171, -46.65602], [168.8449, -46.560154], [168.617849, -46.547459], [168.645193, -46.601983], [168.591482, -46.614353], [168.4192, -46.601983], [168.565115, -46.585056], [168.365733, -46.540216], [168.378103, -46.619806], [168.267833, -46.5263], [168.385102, -46.499607], [168.368907, -46.416925], [168.301931, -46.478448], [168.171153, -46.336684], [167.838634, -46.393243], [167.740245, -46.322035], [167.789236, -46.294122], [167.712901, -46.197931], [167.590017, -46.159601], [167.45281, -46.15016], [167.405772, -46.251153], [167.295177, -46.273614], [166.761974, -46.219985], [166.671235, -46.153578], [166.952485, -45.944024], [166.616059, -46.088067], [166.658539, -46.000177], [166.808604, -45.930434], [166.691254, -45.940199], [166.743907, -45.860935], [166.629242, -45.965265], [166.474783, -45.996026], [166.489757, -45.80755], [166.889659, -45.776462], [167.020844, -45.697686], [166.774262, -45.718845], [166.890961, -45.649835], [166.77768, -45.656671], [166.781993, -45.594171], [166.991954, -45.575453], [166.952485, -45.546808], [167.054942, -45.491632], [166.71461, -45.575616], [166.767589, -45.409601], [166.952485, -45.436944], [166.809255, -45.357192], [166.825531, -45.317153], [166.890961, -45.282973], [166.93214, -45.355076], [167.047537, -45.361912], [167.011078, -45.426446], [167.097179, -45.382094], [167.20574, -45.478611], [167.047537, -45.327081], [167.308849, -45.313409], [167.247244, -45.253106], [167.047537, -45.269708], [167.012055, -45.132908], [167.170746, -45.184747], [167.054942, -45.101739], [167.1185, -45.039239], [167.192149, -45.135919], [167.274669, -45.094415], [167.151541, -45.007582], [167.335704, -45.037205], [167.198985, -44.964044], [167.385753, -44.84238], [167.459646, -44.991876], [167.514171, -44.992608], [167.457693, -44.789321], [167.555186, -44.785821], [167.568126, -44.882013], [167.548839, -44.73447], [167.679373, -44.765395], [167.594737, -44.697686], [167.751964, -44.603204], [167.932628, -44.697035], [167.836436, -44.505304], [168.028168, -44.320408], [168.127452, -44.316583], [168.103282, -44.258233], [168.30714, -44.148858], [168.37086, -44.039158], [168.645844, -43.964532], [168.803722, -43.997247], [169.419607, -43.650567], [169.717784, -43.573663], [170.104991, -43.258071], [170.23878, -43.237888], [170.303559, -43.162205], [170.200531, -43.216729], [170.289317, -43.106866], [170.858409, -42.843357], [171.225413, -42.450689], [171.48878, -41.830336], [171.46811, -41.76629], [171.855235, -41.66546], [172.070811, -41.414239], [172.139659, -41.291436], [172.106781, -40.886895], [172.507091, -40.589451], [172.592621, -40.604099], [172.595876, -40.527765], [172.83961, -40.50213], [172.996837, -40.524184], [172.742198, -40.520929], [172.660411, -40.647719], [172.694509, -40.750177], [172.856456, -40.843683], [173.017345, -40.797296], [173.058279, -40.963067], [172.996837, -41.017022], [173.103852, -41.307794], [173.212738, -41.301853], [173.588634, -41.056329], [173.674571, -41.106378], [173.747569, -41.037205], [173.681407, -41.034438], [173.707286, -40.994236], [173.992035, -40.899998], [174.034841, -40.933526], [173.917979, -41.001886], [173.780528, -41.011407], [173.778656, -41.10768], [173.828868, -41.058689], [173.95574, -41.058689], [173.829112, -41.140069], [173.859548, -41.229913], [173.774262, -41.283949], [174.133962, -41.175388], [173.896332, -41.191664], [173.948904, -41.079034], [173.976329, -41.147393], [174.045665, -41.092869], [174.033702, -41.017185], [173.948904, -41.010837], [173.998546, -40.968845], [174.094249, -41.019138], [174.183116, -40.973077], [174.207205, -41.070571], [174.326427, -41.009373], [174.257335, -41.126886], [174.167328, -41.115899], [174.216482, -41.188897], [173.935232, -41.279555], [174.325694, -41.216241], [174.050629, -41.436944], [174.225922, -41.723403], [174.292166, -41.730157], [174.21518, -41.856703], [173.703624, -42.378595], [173.723155, -42.4367], [173.558604, -42.491143], [173.287283, -42.953871], [172.91505, -43.102797], [172.748694, -43.279694]]], [[[175.011729, -36.802667], [175.190603, -36.731215], [175.21518, -36.758477], [175.182628, -36.824965], [175.011729, -36.802667]]], [[[175.847667, -36.625095], [175.797537, -36.621759], [175.771983, -36.576593], [175.799164, -36.569757], [175.847667, -36.625095]]], [[[174.84547, -36.4485], [174.895518, -36.401544], [174.906016, -36.449151], [174.84547, -36.4485]]], [[[175.080821, -36.205662], [175.154959, -36.213556], [175.100352, -36.227797], [175.080821, -36.205662]]], [[[175.501801, -36.241306], [175.565929, -36.309747], [175.522797, -36.352146], [175.333751, -36.223728], [175.375499, -36.065851], [175.53061, -36.176365], [175.501801, -36.241306]]], [[[172.138882, -34.149129], [172.144776, -34.169046], [172.114697, -34.146487], [172.138882, -34.149129]]], [[[176.953712, -39.607513], [177.118907, -39.66725], [176.861827, -40.14072], [176.681814, -40.274591], [176.628429, -40.462091], [176.424815, -40.603936], [175.966807, -41.247003], [175.237478, -41.620294], [175.181814, -41.417901], [174.865571, -41.419529], [174.889659, -41.224542], [174.785411, -41.249444], [174.810069, -41.333754], [174.609386, -41.291925], [174.611501, -41.2374], [174.865977, -41.104181], [174.84197, -41.043715], [175.141287, -40.674412], [175.23878, -40.296319], [175.183767, -40.134454], [174.967296, -39.916436], [174.567638, -39.826755], [174.319021, -39.613865], [173.851248, -39.463962], [173.759288, -39.301365], [173.852712, -39.134454], [174.211599, -38.973321], [174.41505, -38.963067], [174.594005, -38.818617], [174.709809, -38.10475], [174.84669, -38.153741], [174.942638, -38.097345], [174.792003, -38.084731], [174.888031, -37.966892], [174.788097, -37.985284], [174.79184, -37.872003], [174.976817, -37.803806], [174.977061, -37.749933], [174.850352, -37.764907], [174.717784, -37.411879], [174.837901, -37.299005], [174.706391, -37.347833], [174.558279, -37.062758], [174.667328, -37.069513], [174.740001, -37.244399], [174.73585, -37.179457], [174.804861, -37.166274], [174.716645, -37.152602], [174.855968, -37.078302], [174.948416, -37.101739], [174.785818, -37.008477], [174.832774, -36.942804], [174.667328, -36.944106], [174.500336, -37.032159], [174.407563, -36.761489], [174.182302, -36.45322], [174.257172, -36.446954], [174.431407, -36.665623], [174.490733, -36.576593], [174.465994, -36.373224], [174.331228, -36.392511], [174.271007, -36.33766], [174.524913, -36.241469], [174.353038, -36.296075], [174.305186, -36.282403], [174.45045, -36.163263], [174.393891, -36.1242], [174.385509, -36.188735], [174.33253, -36.227797], [174.284679, -36.117934], [174.182302, -36.145196], [174.318858, -36.241469], [174.26059, -36.268243], [174.075206, -36.168064], [173.900564, -35.959649], [173.946788, -35.916436], [173.90797, -35.870294], [173.880138, -35.959649], [174.20281, -36.347589], [174.079845, -36.399509], [173.407237, -35.571222], [173.457856, -35.437921], [173.541515, -35.452569], [173.660899, -35.312921], [173.592621, -35.336521], [173.565278, -35.274509], [173.566417, -35.360528], [173.406993, -35.391209], [173.369965, -35.516534], [173.272146, -35.391371], [173.31837, -35.302341], [173.24936, -35.370701], [173.201671, -35.322849], [173.256847, -35.281345], [173.177501, -35.29046], [173.092947, -35.206801], [173.198416, -35.109063], [173.156749, -34.945001], [172.674083, -34.479913], [172.70281, -34.411798], [173.079275, -34.411716], [173.038097, -34.522068], [172.970063, -34.466567], [172.907481, -34.541436], [172.996837, -34.561782], [173.007498, -34.651137], [173.035818, -34.552341], [173.18865, -34.835626], [173.123057, -34.809666], [173.298188, -34.909438], [173.266612, -35.007745], [173.3685, -34.967218], [173.357921, -34.868748], [173.444102, -34.796319], [173.503184, -34.869806], [173.404063, -34.903416], [173.458751, -34.981215], [173.586436, -35.014907], [173.588227, -34.927504], [173.784434, -35.007501], [173.724457, -35.064223], [173.760265, -35.096938], [173.89088, -35.000665], [173.990001, -35.118748], [174.12794, -35.136489], [174.15504, -35.182306], [174.058116, -35.151544], [174.014985, -35.216974], [174.093516, -35.219822], [174.151134, -35.369724], [174.251638, -35.322524], [174.15504, -35.274509], [174.353038, -35.199395], [174.34018, -35.311782], [174.422374, -35.373712], [174.33253, -35.329034], [174.569509, -35.594334], [174.565278, -35.651788], [174.476573, -35.643243], [174.606781, -35.84352], [174.496918, -35.768487], [174.385509, -35.789483], [174.359874, -35.713311], [174.352712, -35.841974], [174.503754, -35.830011], [174.496918, -35.987563], [174.621104, -36.04225], [174.824474, -36.277032], [174.806407, -36.334893], [174.880544, -36.351332], [174.750743, -36.354425], [174.778819, -36.487237], [174.716645, -36.411554], [174.722911, -36.593683], [174.856944, -36.610935], [174.723481, -36.63128], [174.819102, -36.823663], [174.703624, -36.758477], [174.621104, -36.796319], [174.682628, -36.803155], [174.680186, -36.907403], [174.750743, -36.844822], [174.875662, -36.851007], [174.891449, -36.957778], [174.935232, -36.837335], [174.963145, -36.933526], [175.02711, -36.874607], [175.093435, -36.970473], [175.240977, -36.942315], [175.32602, -37.009454], [175.367198, -37.207208], [175.562755, -37.179946], [175.609548, -37.25156], [175.527843, -36.962498], [175.436209, -36.864679], [175.53712, -36.786065], [175.497569, -36.63128], [175.354259, -36.490981], [175.532237, -36.507745], [175.628103, -36.763849], [175.851736, -36.718357], [175.713552, -36.875177], [175.850759, -36.840997], [175.868012, -37.053399], [175.919688, -37.05462], [175.88795, -37.241957], [175.975434, -37.469903], [176.169119, -37.624933], [175.943126, -37.521905], [175.997244, -37.631768], [176.214122, -37.719496], [176.216807, -37.618259], [177.131033, -38.021661], [177.556814, -37.913832], [177.73878, -37.676202], [177.992035, -37.590916], [177.992035, -37.543064], [178.27768, -37.559259], [178.550548, -37.680597], [178.348318, -38.012628], [178.381114, -38.078709], [178.318533, -38.26572], [178.362071, -38.316502], [178.300141, -38.531671], [178.079845, -38.70908], [177.932384, -38.702407], [177.882823, -39.085545], [177.998871, -39.129815], [177.911957, -39.255955], [177.8685, -39.290216], [177.841156, -39.228936], [177.852061, -39.089288], [177.413259, -39.059015], [177.064952, -39.199395], [176.937511, -39.348728], [176.953712, -39.607513]]]]}}, {"type": "Feature", "properties": {"name": "Fr. S. Antarctic Lands"}, "geometry": {"type": "MultiPolygon", "coordinates": [[[[42.751801, -17.076104], [42.724376, -17.063572], [42.7588, -17.060642], [42.751801, -17.076104]]], [[[69.993012, -49.57464], [69.84783, -49.514337], [69.835785, -49.501153], [69.920584, -49.497003], [69.993012, -49.57464]]], [[[68.791352, -49.323663], [68.773204, -49.363702], [68.643403, -49.34352], [68.691254, -49.315606], [68.791352, -49.323663]]], [[[69.624034, -49.208266], [69.53419, -49.192804], [69.678071, -49.151788], [69.624034, -49.208266]]], [[[69.192149, -48.986586], [69.342947, -48.88421], [69.315115, -48.938897], [69.411306, -48.928643], [69.222504, -49.094334], [69.192149, -48.986586]]], [[[69.162771, -48.906508], [69.243907, -48.890069], [69.143809, -48.980564], [69.162771, -48.906508]]], [[[69.519867, -48.857029], [69.428396, -48.864435], [69.40447, -48.829034], [69.519867, -48.857029]]], [[[70.521983, -49.09588], [70.568533, -49.219415], [70.523692, -49.30755], [70.311534, -49.378513], [70.466482, -49.439142], [70.288341, -49.439142], [70.243419, -49.359959], [70.139903, -49.3388], [69.822276, -49.349786], [69.925304, -49.39129], [69.898448, -49.443129], [69.691905, -49.404474], [69.813813, -49.532485], [70.136974, -49.617852], [70.049083, -49.52044], [70.295909, -49.530369], [70.323985, -49.574477], [70.164806, -49.617852], [70.276052, -49.654067], [70.244314, -49.685479], [69.855642, -49.679132], [69.738536, -49.498793], [69.637218, -49.504571], [69.715017, -49.58172], [69.66391, -49.664972], [69.469737, -49.631443], [69.227387, -49.488458], [69.231944, -49.573012], [69.143809, -49.514337], [69.150645, -49.624119], [69.08546, -49.540297], [69.104015, -49.644301], [69.025645, -49.709893], [68.764496, -49.674981], [68.822439, -49.48447], [68.901703, -49.431085], [68.806488, -49.365818], [68.924083, -49.288263], [68.836111, -49.303399], [68.764334, -49.188897], [68.930919, -49.144952], [68.74879, -49.076755], [68.827403, -49.054132], [68.813243, -48.965102], [68.903087, -48.974705], [68.791759, -48.846287], [68.896821, -48.822849], [68.956798, -48.671482], [69.07545, -48.65838], [69.116466, -48.726658], [68.908214, -48.893976], [69.188813, -48.773045], [69.10906, -48.808526], [69.163748, -48.846124], [68.999766, -49.090427], [69.068126, -49.110772], [69.105724, -48.993422], [69.214529, -49.12127], [69.437999, -49.014581], [69.452485, -49.088962], [69.589529, -48.952569], [69.568207, -49.048761], [69.657725, -49.062433], [69.582042, -49.090427], [69.644054, -49.124444], [69.399913, -49.113702], [69.282481, -49.184259], [69.472179, -49.151788], [69.381033, -49.18255], [69.53419, -49.247328], [69.411306, -49.274672], [69.725922, -49.247328], [69.582042, -49.302016], [69.71225, -49.306817], [69.95574, -49.159438], [70.194021, -49.156915], [70.335948, -49.053969], [70.521983, -49.09588]]], [[[68.625987, -48.629815], [68.667979, -48.645278], [68.610118, -48.637628], [68.625987, -48.629815]]], [[[68.818614, -48.566664], [68.79005, -48.615899], [68.781016, -48.584568], [68.818614, -48.566664]]], [[[51.736013, -46.327407], [51.868175, -46.410252], [51.705577, -46.437595], [51.656505, -46.378351], [51.736013, -46.327407]]], [[[50.175548, -46.064711], [50.268077, -46.043715], [50.292247, -46.115981], [50.201182, -46.113458], [50.175548, -46.064711]]], [[[77.504649, -37.88242], [77.543956, -37.820245], [77.585216, -37.8742], [77.504649, -37.88242]]], [[[77.510916, -38.705743], [77.549327, -38.731134], [77.516368, -38.735447], [77.510916, -38.705743]]], [[[40.336436, -22.320489], [40.368663, -22.362563], [40.339122, -22.359633], [40.336436, -22.320489]]], [[[39.728282, -21.444594], [39.729096, -21.441908], [39.73113, -21.444187], [39.728282, -21.444594]]], [[[54.514496, -15.889581], [54.520925, -15.885186], [54.521332, -15.894057], [54.514496, -15.889581]]], [[[47.287934, -11.565525], [47.299571, -11.550632], [47.306407, -11.56992], [47.287934, -11.565525]]]]}}, {"type": "Feature", "properties": {"name": "Kiribati"}, "geometry": {"type": "MultiPolygon", "coordinates": [[[[173.162934, 1.356513], [173.011241, 1.337348], [173.153168, 1.386542], [173.162934, 1.356513]]], [[[-151.819529, -11.420994], [-151.780955, -11.454685], [-151.800893, -11.461114], [-151.819529, -11.420994]]], [[[-155.906443, -5.635349], [-155.879628, -5.60947], [-155.859812, -5.625095], [-155.906443, -5.635349]]], [[[-155.010813, -4.060642], [-154.940297, -4.031996], [-154.953359, -4.094822], [-155.010813, -4.060642]]], [[[-171.625722, -2.86891], [-171.712717, -2.822198], [-171.626943, -2.855727], [-171.715077, -2.759047], [-171.649851, -2.797296], [-171.629628, -2.827244], [-171.62446, -2.856134], [-171.625722, -2.86891]]], [[[176.827322, -2.656183], [176.813162, -2.614435], [176.850922, -2.654067], [176.827322, -2.656183]]], [[[175.993175, -2.510349], [175.976817, -2.497817], [175.973155, -2.489679], [175.993175, -2.510349]]], [[[175.591482, -1.8742], [175.586274, -1.922459], [175.552257, -1.819268], [175.591482, -1.8742]]], [[[175.058767, -1.436293], [175.060557, -1.531671], [175.012543, -1.549249], [175.058279, -1.506768], [175.058767, -1.436293]]], [[[176.395681, -1.319594], [176.444835, -1.373793], [176.464041, -1.436293], [176.395681, -1.319594]]], [[[175.942149, -1.284845], [176.023448, -1.362888], [176.018321, -1.387872], [175.942149, -1.284845]]], [[[174.716645, -1.134698], [174.778819, -1.264418], [174.75587, -1.257501], [174.716645, -1.134698]]], [[[174.462901, -0.648126], [174.498383, -0.789158], [174.497325, -0.805108], [174.483409, -0.819431], [174.462901, -0.648126]]], [[[174.393891, -0.592869], [174.463634, -0.644789], [174.38087, -0.592869], [174.393891, -0.592869]]], [[[173.620616, 0.133368], [173.606212, 0.215969], [173.628673, 0.219143], [173.640798, 0.192125], [173.620616, 0.133368]]], [[[173.804942, 0.434394], [173.917247, 0.399482], [173.921641, 0.379788], [173.804942, 0.434394]]], [[[172.983409, 0.831285], [172.990245, 0.83397], [172.990001, 0.825426], [172.983409, 0.831285]]], [[[172.975759, 0.839667], [172.982432, 0.831163], [172.969412, 0.839667], [172.975759, 0.839667]]], [[[173.075938, 0.965888], [173.061209, 0.914211], [172.990977, 0.834418], [173.071788, 0.962592], [172.990001, 1.024075], [173.075938, 0.965888]]], [[[172.962901, 1.620592], [172.969412, 1.537991], [172.948985, 1.627346], [172.962901, 1.620592]]], [[[173.027354, 1.810452], [173.038341, 1.742377], [173.029307, 1.716295], [172.993175, 1.712063], [173.027354, 1.810452]]], [[[172.934744, 1.942694], [173.023448, 1.821438], [172.938487, 1.923163], [172.934744, 1.942694]]], [[[-157.347727, 1.860785], [-157.178782, 1.718492], [-157.246409, 1.713324], [-157.566029, 1.863756], [-157.578236, 1.907945], [-157.52123, 1.92768], [-157.537302, 1.86636], [-157.428538, 1.838568], [-157.475209, 1.880601], [-157.411977, 1.858466], [-157.419993, 1.929023], [-157.355051, 1.947659], [-157.509389, 2.024604], [-157.423818, 2.020453], [-157.310129, 1.97309], [-157.347727, 1.860785]]], [[[172.770274, 3.011461], [172.771495, 3.023871], [172.886974, 3.072943], [172.770274, 3.011461]]], [[[172.944184, 3.127387], [172.969412, 3.12816], [172.886974, 3.100246], [172.944184, 3.127387]]], [[[-159.37682, 3.933295], [-159.249989, 3.81977], [-159.308705, 3.784654], [-159.352854, 3.909003], [-159.367136, 3.840155], [-159.410024, 3.862047], [-159.37682, 3.933295]]], [[[-172.20344, -4.532159], [-172.202016, -4.520685], [-172.174387, -4.513116], [-172.20344, -4.532159]]], [[[-174.516713, -4.684259], [-174.501536, -4.697361], [-174.521555, -4.683852], [-174.516713, -4.684259]]], [[[-174.541737, -4.672784], [-174.527659, -4.683852], [-174.533884, -4.680759], [-174.541737, -4.672784]]], [[[-174.524403, -4.664483], [-174.513987, -4.676202], [-174.543406, -4.660252], [-174.524403, -4.664483]]], [[[-171.259633, -4.465265], [-171.244985, -4.441339], [-171.230051, -4.460545], [-171.259633, -4.465265]]], [[[-171.092478, -3.14544], [-171.090037, -3.120864], [-171.085439, -3.111261], [-171.092478, -3.14544]]], [[[169.555349, -0.866143], [169.522634, -0.860528], [169.545177, -0.847914], [169.555349, -0.866143]]], [[[173.289724, 2.03384], [173.257823, 1.997016], [173.278005, 2.058661], [173.31837, 1.976996], [173.304454, 1.961575], [173.257498, 1.974595], [173.307872, 1.973293], [173.289724, 2.03384]]], [[[-160.395375, 4.704779], [-160.401194, 4.72309], [-160.378896, 4.713284], [-160.395375, 4.704779]]]]}}, {"type": "Feature", "properties": {"name": "Mauritius"}, "geometry": {"type": "MultiPolygon", "coordinates": [[[[57.795746, -20.222752], [57.672211, -20.479669], [57.378103, -20.507013], [57.307872, -20.444268], [57.36378, -20.414483], [57.400157, -20.200616], [57.596528, -19.982599], [57.679698, -19.999933], [57.795746, -20.222752]]], [[[56.529796, -10.35296], [56.535655, -10.323907], [56.569347, -10.406508], [56.529796, -10.35296]]], [[[63.332286, -19.736423], [63.493907, -19.681899], [63.366384, -19.767185], [63.332286, -19.736423]]]]}}]}