{"type": "FeatureCollection", "features": [{"type": "Feature", "properties": {"name": "United States of America"}, "geometry": {"type": "MultiPolygon", "coordinates": [[[[-120.0, 48.99253047428968], [-120.0, 34.456278255293405], [-120.009968, 34.461012], [-120.09142, 34.458808], [-120.133412, 34.472724], [-120.293207, 34.468486], [-120.444342, 34.451182], [-120.454107, 34.442812], [-120.472681, 34.450273], [-120.509986, 34.521375], [-120.577931, 34.553543], [-120.621616, 34.552614], [-120.636627, 34.562893], [-120.647834, 34.585676], [-120.606055, 34.67935], [-120.603054, 34.704782], [-120.640248, 34.758531], [-120.619212, 34.819206], [-120.615573, 34.858003], [-120.640248, 34.879218], [-120.64461, 34.895113], [-120.667647, 34.898848], [-120.672839, 34.907521], [-120.633697, 35.035102], [-120.630727, 35.073879], [-120.644887, 35.13939], [-120.70637, 35.174221], [-120.749669, 35.177397], [-120.755346, 35.163124], [-120.765534, 35.160242], [-120.876682, 35.22379], [-120.897654, 35.249766], [-120.895591, 35.273514], [-120.867831, 35.330392], [-120.862244, 35.361905], [-120.853815, 35.347529], [-120.85558, 35.321519], [-120.831405, 35.336088], [-120.852074, 35.367051], [-120.86675, 35.370993], [-120.871097, 35.405308], [-120.887318, 35.432929], [-120.908184, 35.448244], [-120.946192, 35.446285], [-120.963466, 35.456651], [-121.005362, 35.460657], [-121.101812, 35.549667], [-121.13087, 35.600701], [-121.143275, 35.605043], [-121.169402, 35.636919], [-121.187367, 35.641921], [-121.195031, 35.632336], [-121.216496, 35.647748], [-121.288313, 35.66483], [-121.288474, 35.681458], [-121.31459, 35.713724], [-121.323069, 35.764553], [-121.337232, 35.786529], [-121.387117, 35.821432], [-121.41335, 35.854746], [-121.463201, 35.886731], [-121.462717, 35.903713], [-121.472248, 35.913569], [-121.48998, 35.982245], [-121.506678, 36.00326], [-121.566739, 36.020117], [-121.592661, 36.05057], [-121.594522, 36.064233], [-121.618221, 36.084429], [-121.630155, 36.113057], [-121.677921, 36.162675], [-121.781441, 36.226326], [-121.824859, 36.239203], [-121.852203, 36.279446], [-121.899661, 36.3044], [-121.893586, 36.338568], [-121.904168, 36.384537], [-121.944699, 36.486152], [-121.94227, 36.511901], [-121.95693, 36.517618], [-121.927533, 36.523852], [-121.932528, 36.555129], [-121.934617, 36.561225], [-121.953891, 36.559565], [-121.970075, 36.568854], [-121.981115, 36.583717], [-121.96722, 36.585213], [-121.959863, 36.611473], [-121.950334, 36.609938], [-121.937695, 36.639249], [-121.902154, 36.620752], [-121.887421, 36.601994], [-121.870004, 36.607212], [-121.837929, 36.635612], [-121.827061, 36.6562], [-121.814258, 36.683238], [-121.805359, 36.737739], [-121.763743, 36.722073], [-121.761274, 36.730286], [-121.770215, 36.739083], [-121.783707, 36.737984], [-121.803205, 36.750459], [-121.789812, 36.806199], [-121.804246, 36.836018], [-121.859934, 36.927476], [-121.905601, 36.969126], [-121.937243, 36.978307], [-121.974235, 36.955199], [-122.02121, 36.962668], [-122.025189, 36.950974], [-122.046794, 36.948157], [-122.134991, 36.965726], [-122.222118, 37.024295], [-122.227946, 37.04006], [-122.253802, 37.059123], [-122.297658, 37.111227], [-122.33929, 37.118582], [-122.337853, 37.134902], [-122.359528, 37.150485], [-122.369353, 37.17402], [-122.396109, 37.18186], [-122.404457, 37.194526], [-122.418363, 37.25231], [-122.41015, 37.268845], [-122.400338, 37.359741], [-122.408736, 37.364172], [-122.444446, 37.437519], [-122.44916, 37.476655], [-122.463246, 37.496649], [-122.479268, 37.502783], [-122.499263, 37.493066], [-122.520472, 37.531421], [-122.514759, 37.560893], [-122.522424, 37.593217], [-122.503233, 37.601463], [-122.49474, 37.665229], [-122.515172, 37.781126], [-122.48593, 37.790811], [-122.476449, 37.810675], [-122.463359, 37.805304], [-122.408637, 37.810392], [-122.387929, 37.790961], [-122.379245, 37.755986], [-122.354544, 37.730008], [-122.36246, 37.714916], [-122.392455, 37.71033], [-122.387974, 37.677188], [-122.380158, 37.67671], [-122.374911, 37.655163], [-122.38373, 37.63146], [-122.363722, 37.627251], [-122.354142, 37.613507], [-122.371166, 37.612945], [-122.374109, 37.604187], [-122.35852, 37.592805], [-122.31677, 37.589845], [-122.299069, 37.576898], [-122.250966, 37.568061], [-122.239576, 37.546887], [-122.199298, 37.534962], [-122.207346, 37.517483], [-122.134145, 37.497789], [-122.100168, 37.455064], [-122.058909, 37.447414], [-122.038645, 37.451402], [-122.03214, 37.463364], [-122.052235, 37.471381], [-122.051747, 37.489203], [-122.062367, 37.501695], [-122.093332, 37.503567], [-122.109039, 37.517971], [-122.11655, 37.542562], [-122.14631, 37.578968], [-122.162779, 37.664434], [-122.191863, 37.700313], [-122.206726, 37.710669], [-122.21436, 37.699068], [-122.251766, 37.722777], [-122.26235, 37.743003], [-122.248933, 37.748301], [-122.212452, 37.743484], [-122.217293, 37.758486], [-122.283512, 37.763329], [-122.299881, 37.772246], [-122.297371, 37.779759], [-122.331509, 37.782388], [-122.325009, 37.803751], [-122.340657, 37.807116], [-122.316571, 37.81709], [-122.32836, 37.821026], [-122.295502, 37.831292], [-122.303863, 37.862902], [-122.316024, 37.860891], [-122.317747, 37.867865], [-122.308307, 37.870329], [-122.313902, 37.885829], [-122.32876, 37.908058], [-122.391088, 37.907675], [-122.387628, 37.920218], [-122.410173, 37.931922], [-122.429698, 37.964262], [-122.397725, 37.956117], [-122.395032, 37.970267], [-122.359566, 37.987649], [-122.369976, 38.003556], [-122.366306, 38.012336], [-122.336008, 38.003811], [-122.299041, 38.011198], [-122.276973, 38.024951], [-122.27557, 38.039101], [-122.249745, 38.055365], [-122.22704, 38.058417], [-122.18617, 38.047976], [-122.168553, 38.028043], [-122.147939, 38.023627], [-122.081837, 38.047896], [-122.00399, 38.056136], [-121.888004, 38.041089], [-121.837123, 38.023064], [-121.690044, 38.009119], [-121.681443, 38.017453], [-121.723081, 38.025563], [-121.720606, 38.032117], [-121.681508, 38.048326], [-121.671132, 38.083889], [-121.624518, 38.089286], [-121.606679, 38.099351], [-121.582054, 38.092], [-121.576519, 38.074307], [-121.584967, 38.062743], [-121.620623, 38.061825], [-121.632239, 38.044229], [-121.61276, 38.021491], [-121.605064, 38.017906], [-121.584243, 38.02871], [-121.578087, 38.062378], [-121.569305, 38.065844], [-121.480338, 38.022651], [-121.445302, 37.996324], [-121.445383, 38.003892], [-121.486562, 38.044745], [-121.548642, 38.064206], [-121.571278, 38.097139], [-121.604075, 38.10578], [-121.627187, 38.105618], [-121.644521, 38.092515], [-121.664947, 38.099189], [-121.680282, 38.092691], [-121.69933, 38.050849], [-121.742063, 38.029449], [-121.778709, 38.036019], [-121.785222, 38.043399], [-121.77985, 38.061375], [-121.716668, 38.092807], [-121.687787, 38.123831], [-121.682602, 38.147193], [-121.746978, 38.087714], [-121.80308, 38.062883], [-121.846118, 38.072511], [-121.89817, 38.053221], [-121.928822, 38.058417], [-121.908315, 38.078843], [-121.971269, 38.074918], [-122.014955, 38.098511], [-121.985992, 38.110704], [-122.000296, 38.137312], [-122.055165, 38.133734], [-122.068955, 38.12178], [-122.065797, 38.113227], [-122.07549, 38.100508], [-122.121083, 38.059882], [-122.13029, 38.042142], [-122.158478, 38.043445], [-122.184302, 38.064789], [-122.260888, 38.069433], [-122.300677, 38.108196], [-122.39652, 38.153231], [-122.41063, 38.133846], [-122.434131, 38.123345], [-122.502317, 38.113521], [-122.487422, 38.104827], [-122.482488, 38.076881], [-122.50605, 38.017172], [-122.454242, 37.997805], [-122.445336, 37.985123], [-122.469221, 37.982746], [-122.492543, 37.969794], [-122.49356, 37.958564], [-122.480346, 37.94182], [-122.491668, 37.935488], [-122.503593, 37.940495], [-122.50344, 37.924812], [-122.476232, 37.915991], [-122.47429, 37.905238], [-122.438801, 37.882083], [-122.459463, 37.871123], [-122.459009, 37.862485], [-122.46952, 37.867003], [-122.476052, 37.886792], [-122.499029, 37.89359], [-122.49928, 37.872485], [-122.478052, 37.859681], [-122.470391, 37.831832], [-122.528426, 37.816372], [-122.573699, 37.855908], [-122.620731, 37.877496], [-122.645199, 37.898816], [-122.672392, 37.906574], [-122.700383, 37.892101], [-122.727738, 37.90304], [-122.734205, 37.920124], [-122.780244, 37.948131], [-122.795999, 37.97552], [-122.821432, 37.99767], [-122.921112, 38.034871], [-122.932696, 38.049519], [-122.932123, 38.058806], [-122.920142, 38.065312], [-122.935414, 38.070746], [-122.948476, 38.060736], [-122.936086, 38.03077], [-122.97907, 38.014516], [-122.98033, 37.998039], [-122.962504, 37.992048], [-123.027453, 37.994489], [-123.015998, 38.000695], [-122.990726, 38.048716], [-122.949648, 38.143991], [-122.964788, 38.198598], [-122.99323, 38.229519], [-122.996297, 38.24273], [-122.964816, 38.2177], [-122.89151, 38.130805], [-122.825673, 38.072089], [-122.832265, 38.095893], [-122.935536, 38.215481], [-122.950655, 38.217295], [-122.954336, 38.231402], [-122.968815, 38.237094], [-122.974535, 38.266194], [-123.00228, 38.294859], [-123.029522, 38.312692], [-123.04646, 38.312048], [-123.052887, 38.298], [-123.06244, 38.295903], [-123.075967, 38.322473], [-123.070932, 38.359954], [-123.128729, 38.44931], [-123.170924, 38.479188], [-123.252658, 38.510666], [-123.336979, 38.567259], [-123.341668, 38.586631], [-123.365887, 38.600738], [-123.433607, 38.686795], [-123.492457, 38.736469], [-123.523293, 38.746724], [-123.537643, 38.772329], [-123.566233, 38.795152], [-123.594171, 38.805821], [-123.711672, 38.914321], [-123.726242, 38.918576], [-123.742607, 38.955624], [-123.725242, 38.960372], [-123.689076, 39.027899], [-123.721649, 39.133019], [-123.737796, 39.143005], [-123.735551, 39.159034], [-123.76785, 39.194007], [-123.790543, 39.269746], [-123.803263, 39.278954], [-123.797475, 39.297675], [-123.806386, 39.304755], [-123.805998, 39.32414], [-123.824924, 39.347296], [-123.816509, 39.443998], [-123.769768, 39.544646], [-123.769444, 39.563728], [-123.786828, 39.596777], [-123.790582, 39.677374], [-123.808574, 39.711798], [-123.83002, 39.726514], [-123.837275, 39.782944], [-123.854019, 39.833514], [-123.907721, 39.865867], [-123.930696, 39.908018], [-123.955554, 39.924506], [-123.978947, 39.962896], [-124.033458, 40.012126], [-124.076052, 40.027217], [-124.087442, 40.077515], [-124.115793, 40.107123], [-124.185317, 40.129551], [-124.219996, 40.165152], [-124.319378, 40.224613], [-124.36351, 40.261481], [-124.348283, 40.318907], [-124.364778, 40.344683], [-124.366205, 40.377451], [-124.39811, 40.415836], [-124.409202, 40.443818], [-124.357981, 40.563056], [-124.31725, 40.632066], [-124.305776, 40.637397], [-124.311635, 40.646226], [-124.239738, 40.758709], [-124.230885, 40.750081], [-124.259498, 40.69841], [-124.22576, 40.686123], [-124.213845, 40.701402], [-124.220455, 40.737238], [-124.202899, 40.745186], [-124.182743, 40.799903], [-124.145868, 40.809649], [-124.121865, 40.807383], [-124.087398, 40.825156], [-124.082483, 40.843502], [-124.093821, 40.85399], [-124.101802, 40.858444], [-124.118975, 40.851947], [-124.137554, 40.863947], [-124.151324, 40.863321], [-124.199745, 40.784853], [-124.223288, 40.757096], [-124.232841, 40.766643], [-124.176575, 40.847754], [-124.133758, 40.936399], [-124.110413, 41.015253], [-124.111412, 41.04166], [-124.134573, 41.047949], [-124.146878, 41.060165], [-124.164053, 41.13222], [-124.16289, 41.13908], [-124.143474, 41.144992], [-124.124262, 41.181809], [-124.090932, 41.289455], [-124.062155, 41.435876], [-124.082021, 41.52147], [-124.068349, 41.539252], [-124.103098, 41.566555], [-124.102773, 41.602607], [-124.139882, 41.664293], [-124.138499, 41.679755], [-124.159459, 41.736675], [-124.187921, 41.746991], [-124.201107, 41.739305], [-124.262895, 41.776428], [-124.260464, 41.788783], [-124.233963, 41.813206], [-124.218837, 41.850006], [-124.203684, 41.971177], [-124.216968, 42.006177], [-124.274826, 42.045387], [-124.293119, 42.046474], [-124.359556, 42.113002], [-124.354164, 42.131903], [-124.366169, 42.15006], [-124.363838, 42.175163], [-124.379059, 42.220278], [-124.412465, 42.248928], [-124.409449, 42.296244], [-124.432814, 42.329311], [-124.42498, 42.419889], [-124.439788, 42.439192], [-124.423542, 42.454091], [-124.420675, 42.491005], [-124.394439, 42.566555], [-124.403366, 42.594945], [-124.399891, 42.61573], [-124.41454, 42.662421], [-124.454416, 42.686916], [-124.466786, 42.702541], [-124.472927, 42.730309], [-124.505483, 42.736518], [-124.538889, 42.81623], [-124.566762, 42.83397], [-124.547719, 42.845445], [-124.492447, 42.929836], [-124.444883, 43.029999], [-124.386612, 43.263099], [-124.401324, 43.310096], [-124.376504, 43.340229], [-124.342123, 43.352104], [-124.329455, 43.348814], [-124.326408, 43.312252], [-124.316514, 43.299832], [-124.308708, 43.354911], [-124.287343, 43.370592], [-124.252756, 43.417467], [-124.232874, 43.424081], [-124.222315, 43.425198], [-124.217994, 43.416377], [-124.212873, 43.374681], [-124.177777, 43.36916], [-124.140035, 43.375349], [-124.169742, 43.379833], [-124.186672, 43.391328], [-124.194328, 43.420009], [-124.208611, 43.43096], [-124.197621, 43.45246], [-124.208698, 43.45219], [-124.233132, 43.447236], [-124.240192, 43.436625], [-124.277027, 43.421455], [-124.283458, 43.403116], [-124.325283, 43.362537], [-124.335229, 43.365316], [-124.298029, 43.417926], [-124.237903, 43.547116], [-124.209788, 43.65663], [-124.174686, 43.672995], [-124.139812, 43.733106], [-124.132854, 43.734687], [-124.109018, 43.706117], [-124.072499, 43.704739], [-124.070218, 43.711661], [-124.101271, 43.718667], [-124.128533, 43.749085], [-124.148814, 43.747588], [-124.160475, 43.736747], [-124.171515, 43.697603], [-124.202945, 43.680773], [-124.176018, 43.762477], [-124.151031, 43.881741], [-124.139882, 43.982001], [-124.119456, 44.006496], [-124.133541, 44.044256], [-124.113946, 44.190583], [-124.107249, 44.286322], [-124.114084, 44.307359], [-124.100413, 44.327297], [-124.084427, 44.411664], [-124.053552, 44.432975], [-124.017893, 44.409817], [-124.027616, 44.439216], [-124.049612, 44.448696], [-124.083434, 44.427752], [-124.084352, 44.498066], [-124.063194, 44.60952], [-124.045663, 44.6215], [-124.01202, 44.599835], [-124.004755, 44.616291], [-124.006707, 44.623814], [-124.027156, 44.622424], [-124.048294, 44.632555], [-124.068138, 44.617753], [-124.057844, 44.66358], [-124.077992, 44.674917], [-124.067063, 44.689452], [-124.05842, 44.726142], [-124.073374, 44.777653], [-124.065185, 44.823311], [-124.034535, 44.878404], [-124.03185, 44.904853], [-124.01769, 44.916571], [-124.025647, 44.935662], [-124.004791, 45.043524], [-124.015736, 45.054429], [-124.01415, 45.064276], [-123.984364, 45.104926], [-123.971099, 45.153713], [-123.969122, 45.2053], [-123.976389, 45.21662], [-123.960357, 45.299994], [-123.971913, 45.331448], [-124.00178, 45.337633], [-124.00178, 45.344468], [-123.981028, 45.349595], [-123.972768, 45.362006], [-123.957875, 45.414984], [-123.960805, 45.378607], [-123.918446, 45.41767], [-123.954701, 45.432807], [-123.971099, 45.451972], [-123.97053, 45.494452], [-123.948801, 45.557196], [-123.939198, 45.499823], [-123.890533, 45.475491], [-123.89422, 45.482311], [-123.883287, 45.50009], [-123.900502, 45.538479], [-123.896067, 45.560289], [-123.925201, 45.554267], [-123.957875, 45.576158], [-123.941876, 45.648505], [-123.920732, 45.662663], [-123.918229, 45.689566], [-123.887428, 45.682923], [-123.871083, 45.697903], [-123.885894, 45.694037], [-123.90801, 45.708268], [-123.917433, 45.704483], [-123.930344, 45.693443], [-123.93788, 45.660604], [-123.941677, 45.726954], [-123.963929, 45.743869], [-123.967767, 45.760932], [-123.981139, 45.760294], [-123.959137, 45.81566], [-123.956614, 45.873236], [-123.969716, 45.918606], [-123.990549, 45.937934], [-123.964293, 45.966935], [-123.93399, 45.979682], [-123.923329, 46.013983], [-123.950633, 46.119999], [-123.990468, 46.200507], [-124.022664, 46.230842], [-124.002718, 46.237718], [-123.988131, 46.226666], [-123.99479, 46.220241], [-123.984856, 46.210117], [-123.951004, 46.205015], [-123.915911, 46.180596], [-123.903963, 46.180114], [-123.900695, 46.168618], [-123.825116, 46.156948], [-123.812489, 46.114163], [-123.798736, 46.102444], [-123.800647, 46.143553], [-123.77831, 46.137152], [-123.77831, 46.143378], [-123.806996, 46.167548], [-123.843584, 46.173085], [-123.865419, 46.186468], [-123.766771, 46.204106], [-123.727189, 46.170422], [-123.705953, 46.170805], [-123.614084, 46.186469], [-123.599477, 46.19184], [-123.620114, 46.196644], [-123.620595, 46.20482], [-123.581514, 46.206573], [-123.536591, 46.233973], [-123.519273, 46.235269], [-123.484934, 46.230048], [-123.437154, 46.198322], [-123.430142, 46.176724], [-123.385521, 46.146183], [-123.256439, 46.133321], [-123.233306, 46.137152], [-123.180095, 46.179102], [-123.207518, 46.178363], [-123.269446, 46.150415], [-123.297939, 46.151545], [-123.393362, 46.204137], [-123.455676, 46.267044], [-123.478912, 46.275865], [-123.603179, 46.260077], [-123.662668, 46.27025], [-123.675201, 46.294257], [-123.692967, 46.305202], [-123.723862, 46.300325], [-123.726189, 46.290235], [-123.747533, 46.29108], [-123.764513, 46.273267], [-123.806583, 46.283396], [-123.818444, 46.268762], [-123.834164, 46.268759], [-123.873033, 46.240172], [-123.925174, 46.251541], [-123.985091, 46.309097], [-124.009304, 46.313456], [-124.022801, 46.314253], [-124.048695, 46.296418], [-124.051511, 46.28593], [-124.040302, 46.280975], [-124.041439, 46.272828], [-124.080175, 46.271688], [-124.062068, 46.387705], [-124.062611, 46.595933], [-124.0725, 46.64251], [-124.062876, 46.654941], [-124.03576, 46.630818], [-124.044097, 46.623603], [-124.017893, 46.568549], [-124.026235, 46.492336], [-124.014251, 46.385119], [-123.958119, 46.378241], [-123.94788, 46.403005], [-123.932024, 46.415283], [-123.926864, 46.4401], [-123.87589, 46.41912], [-123.846547, 46.396633], [-123.840647, 46.415758], [-123.898061, 46.441636], [-123.901682, 46.457343], [-123.935825, 46.472311], [-123.93517, 46.494696], [-123.896352, 46.521226], [-123.896352, 46.54442], [-123.95641, 46.623114], [-123.894928, 46.602729], [-123.915883, 46.628404], [-123.922515, 46.657864], [-123.911, 46.682034], [-123.877268, 46.692084], [-123.826487, 46.692369], [-123.811879, 46.662584], [-123.795074, 46.660875], [-123.763987, 46.678412], [-123.795725, 46.681952], [-123.839752, 46.717434], [-123.899996, 46.747406], [-123.912232, 46.741023], [-123.913002, 46.727769], [-123.951786, 46.724834], [-123.976129, 46.741055], [-123.981956, 46.720438], [-123.963346, 46.707162], [-123.972698, 46.701262], [-124.02509, 46.712628], [-124.093379, 46.743228], [-124.101308, 46.808661], [-124.130483, 46.885972], [-124.12682, 46.898505], [-124.111782, 46.912326], [-124.090879, 46.900013], [-124.097564, 46.877875], [-124.077382, 46.858791], [-124.072499, 46.842922], [-124.021311, 46.832343], [-124.014719, 46.851142], [-124.031565, 46.870266], [-124.057045, 46.862086], [-124.046928, 46.891136], [-123.813059, 46.95897], [-123.867909, 46.969631], [-123.955865, 46.97235], [-123.922271, 46.980129], [-124.012884, 46.983726], [-124.019364, 46.994077], [-124.012836, 47.009348], [-124.027699, 47.028144], [-124.11687, 47.042917], [-124.139277, 47.035527], [-124.148183, 47.0244], [-124.136708, 47.001899], [-124.136599, 46.967943], [-124.123582, 46.946574], [-124.104797, 46.944707], [-124.10576, 46.933421], [-124.138029, 46.944596], [-124.153437, 46.938016], [-124.153428, 46.930124], [-124.178461, 46.925507], [-124.171892, 47.041949], [-124.199835, 47.18748], [-124.242932, 47.290079], [-124.253693, 47.30154], [-124.275984, 47.302628], [-124.299257, 47.348205], [-124.271718, 47.342597], [-124.317808, 47.357351], [-124.348696, 47.499753], [-124.350819, 47.54682], [-124.410782, 47.688184], [-124.42276, 47.741889], [-124.446767, 47.750393], [-124.476566, 47.778255], [-124.483469, 47.812934], [-124.541612, 47.834331], [-124.567983, 47.869696], [-124.609507, 47.874855], [-124.63813, 47.907864], [-124.671986, 47.990709], [-124.693847, 48.07453], [-124.689443, 48.100165], [-124.734607, 48.170404], [-124.700066, 48.191859], [-124.689443, 48.213446], [-124.705517, 48.245979], [-124.682478, 48.2635], [-124.683217, 48.284735], [-124.661488, 48.319525], [-124.670537, 48.324169], [-124.669678, 48.333188], [-124.718251, 48.357367], [-124.730256, 48.371578], [-124.727528, 48.387728], [-124.63816, 48.383001], [-124.607974, 48.366326], [-124.593367, 48.374856], [-124.574894, 48.370408], [-124.399214, 48.29358], [-124.296342, 48.261545], [-124.227651, 48.258531], [-124.111414, 48.215931], [-124.099841, 48.200473], [-124.050182, 48.177263], [-123.970991, 48.165598], [-123.861884, 48.156394], [-123.818339, 48.160775], [-123.788889, 48.153144], [-123.700344, 48.164911], [-123.641695, 48.151192], [-123.633873, 48.141447], [-123.5846, 48.135417], [-123.552393, 48.151362], [-123.505483, 48.132636], [-123.435896, 48.142407], [-123.405022, 48.138998], [-123.453429, 48.131549], [-123.421734, 48.117828], [-123.246927, 48.115334], [-123.223622, 48.122016], [-123.150033, 48.177102], [-123.108251, 48.183838], [-123.161285, 48.151923], [-123.111809, 48.149028], [-123.089182, 48.128485], [-123.063029, 48.117603], [-123.040454, 48.085113], [-123.045277, 48.059719], [-123.007883, 48.03856], [-122.996816, 48.038642], [-123.005727, 48.078681], [-122.999135, 48.091742], [-122.92748, 48.09512], [-122.918772, 48.070217], [-122.886952, 48.062567], [-122.857289, 48.029527], [-122.853383, 48.010443], [-122.87328, 48.001125], [-122.87328, 47.99372], [-122.85436, 47.995266], [-122.841379, 48.005561], [-122.824859, 48.035224], [-122.877065, 48.079657], [-122.877756, 48.106635], [-122.856272, 48.124579], [-122.770172, 48.141099], [-122.750396, 48.117174], [-122.784535, 48.102932], [-122.791982, 48.082913], [-122.722483, 47.99372], [-122.688344, 47.973212], [-122.67809, 47.935696], [-122.620107, 47.877631], [-122.667836, 47.870795], [-122.676422, 47.862128], [-122.692047, 47.832587], [-122.750396, 47.774563], [-122.781077, 47.692043], [-122.800364, 47.679877], [-122.828481, 47.683173], [-122.829213, 47.694078], [-122.799794, 47.777289], [-122.805653, 47.843451], [-122.817291, 47.830268], [-122.821604, 47.792426], [-122.839182, 47.78205], [-122.846791, 47.820299], [-122.856435, 47.826077], [-122.867096, 47.809272], [-122.866363, 47.793524], [-122.839182, 47.746649], [-122.861928, 47.733344], [-122.886627, 47.688137], [-122.903961, 47.673163], [-122.910024, 47.650092], [-122.941762, 47.634914], [-123.021067, 47.56566], [-123.065094, 47.493394], [-123.119374, 47.44953], [-123.161285, 47.356838], [-123.130238, 47.340644], [-123.074127, 47.344631], [-122.905141, 47.394965], [-122.839182, 47.431952], [-122.867747, 47.436265], [-123.052235, 47.367011], [-123.091868, 47.367377], [-123.113515, 47.391018], [-123.110504, 47.405097], [-123.063303, 47.456732], [-123.022613, 47.522895], [-122.949045, 47.597073], [-122.763539, 47.669135], [-122.733754, 47.74258], [-122.623647, 47.847154], [-122.595693, 47.847235], [-122.592152, 47.822984], [-122.570953, 47.81977], [-122.571441, 47.857082], [-122.613189, 47.94595], [-122.528066, 47.905504], [-122.510243, 47.832587], [-122.490061, 47.80386], [-122.504018, 47.788235], [-122.475168, 47.776068], [-122.468373, 47.756537], [-122.4829, 47.737006], [-122.557973, 47.740424], [-122.564687, 47.712551], [-122.595855, 47.691962], [-122.651601, 47.732571], [-122.661041, 47.730455], [-122.658111, 47.717963], [-122.628407, 47.692939], [-122.592152, 47.58275], [-122.616933, 47.574123], [-122.643788, 47.595852], [-122.681508, 47.651679], [-122.696929, 47.623114], [-122.690012, 47.596625], [-122.63915, 47.577053], [-122.681508, 47.527533], [-122.630198, 47.544379], [-122.553131, 47.583401], [-122.534088, 47.527533], [-122.507924, 47.520331], [-122.556223, 47.391995], [-122.537506, 47.370551], [-122.555247, 47.346625], [-122.585927, 47.336371], [-122.560658, 47.301337], [-122.556996, 47.284613], [-122.568512, 47.264065], [-122.661041, 47.287909], [-122.686269, 47.301215], [-122.627919, 47.37995], [-122.633127, 47.404608], [-122.653635, 47.376532], [-122.688344, 47.364325], [-122.725942, 47.339057], [-122.753082, 47.281195], [-122.724477, 47.232611], [-122.750396, 47.212836], [-122.742991, 47.191718], [-122.772776, 47.173082], [-122.798695, 47.204983], [-122.814849, 47.250881], [-122.814931, 47.274319], [-122.795562, 47.280666], [-122.784006, 47.315253], [-122.791371, 47.364325], [-122.811106, 47.383775], [-122.805653, 47.397773], [-122.820139, 47.383287], [-122.846018, 47.315863], [-122.920481, 47.278022], [-122.949778, 47.202297], [-122.965077, 47.181138], [-122.990631, 47.165025], [-123.068349, 47.145941], [-123.078765, 47.130276], [-123.021637, 47.144436], [-123.017934, 47.130276], [-123.068105, 47.112494], [-123.078765, 47.096137], [-122.968902, 47.147691], [-122.942209, 47.178046], [-122.930247, 47.174465], [-122.979075, 47.101508], [-123.010487, 47.082506], [-122.987457, 47.081], [-122.964589, 47.089993], [-122.945872, 47.107164], [-122.935414, 47.130276], [-122.927317, 47.109809], [-122.935414, 47.089301], [-122.918202, 47.056138], [-122.8933, 47.047268], [-122.90807, 47.082506], [-122.895823, 47.092597], [-122.901235, 47.130276], [-122.852854, 47.165025], [-122.847971, 47.146064], [-122.85969, 47.130276], [-122.8308, 47.136786], [-122.820953, 47.142076], [-122.817128, 47.165717], [-122.798207, 47.15762], [-122.772776, 47.127753], [-122.735748, 47.111477], [-122.722483, 47.089301], [-122.652333, 47.128079], [-122.571604, 47.209296], [-122.537099, 47.278551], [-122.537506, 47.315863], [-122.433095, 47.264879], [-122.40038, 47.281073], [-122.427602, 47.296536], [-122.422027, 47.315863], [-122.391265, 47.333686], [-122.339467, 47.346584], [-122.328481, 47.357123], [-122.325266, 47.391018], [-122.366811, 47.442206], [-122.370229, 47.497138], [-122.388417, 47.520819], [-122.409047, 47.574937], [-122.390452, 47.593695], [-122.377919, 47.596177], [-122.345774, 47.562323], [-122.339996, 47.598944], [-122.359364, 47.623725], [-122.413482, 47.641669], [-122.428782, 47.660386], [-122.413686, 47.667467], [-122.381093, 47.72016], [-122.387563, 47.752346], [-122.406117, 47.777899], [-122.404368, 47.797593], [-122.382192, 47.839057], [-122.339711, 47.872789], [-122.320424, 47.942084], [-122.27717, 47.967434], [-122.241607, 47.972805], [-122.212799, 47.986802], [-122.207346, 48.01439], [-122.191721, 48.026313], [-122.221588, 48.038153], [-122.238108, 48.026313], [-122.340159, 48.090033], [-122.362294, 48.122504], [-122.365712, 48.190579], [-122.3756, 48.213202], [-122.444203, 48.232367], [-122.446116, 48.202216], [-122.466624, 48.192043], [-122.469472, 48.177069], [-122.457875, 48.143622], [-122.432118, 48.122463], [-122.384104, 48.101467], [-122.348012, 48.054267], [-122.377431, 48.060248], [-122.405629, 48.087795], [-122.510365, 48.147447], [-122.533274, 48.196112], [-122.53395, 48.249677], [-122.445912, 48.261054], [-122.429921, 48.259101], [-122.400787, 48.235256], [-122.388987, 48.239814], [-122.390614, 48.260199], [-122.375315, 48.280748], [-122.385854, 48.303778], [-122.478627, 48.359809], [-122.533762, 48.374661], [-122.567047, 48.409898], [-122.552073, 48.427883], [-122.558949, 48.434027], [-122.584462, 48.437812], [-122.615549, 48.409898], [-122.646596, 48.403754], [-122.673573, 48.413642], [-122.683461, 48.430162], [-122.663319, 48.454901], [-122.669342, 48.472805], [-122.704905, 48.486274], [-122.702382, 48.497992], [-122.672475, 48.498969], [-122.633046, 48.516262], [-122.580719, 48.458319], [-122.580881, 48.484524], [-122.568349, 48.489488], [-122.514272, 48.453192], [-122.488881, 48.454901], [-122.480133, 48.470282], [-122.494252, 48.529364], [-122.515859, 48.557603], [-122.567006, 48.585354], [-122.525136, 48.583197], [-122.468088, 48.554511], [-122.447621, 48.562161], [-122.440297, 48.580715], [-122.457875, 48.62344], [-122.492584, 48.643256], [-122.502553, 48.684882], [-122.525136, 48.692288], [-122.49885, 48.739488], [-122.508616, 48.755683], [-122.574534, 48.780463], [-122.593617, 48.774115], [-122.639719, 48.722398], [-122.65038, 48.718166], [-122.667348, 48.731879], [-122.670155, 48.742906], [-122.649648, 48.763658], [-122.658193, 48.77733], [-122.695953, 48.800767], [-122.704905, 48.787909], [-122.703847, 48.827379], [-122.768219, 48.87401], [-122.768381, 48.897406], [-122.745839, 48.91767], [-122.75886, 48.93594], [-122.808095, 48.934516], [-122.813547, 48.951809], [-122.801015, 48.962307], [-122.731557, 48.959215], [-122.753017, 48.992515], [-120.0, 48.99253047428968]]], [[[-123.035308, 48.992499], [-123.08849, 48.972235], [-123.090506, 48.992515], [-123.035308, 48.992499]]], [[[-120.047004, 34.003813], [-120.008337, 33.979027], [-120.0, 33.980352323308274], [-120.0, 33.94128060495406], [-120.049688, 33.914781], [-120.101298, 33.906889], [-120.109891, 33.89314], [-120.17561, 33.922232], [-120.210244, 33.972488], [-120.248517, 34.001127], [-120.217616, 34.010541], [-120.170963, 34.007414], [-120.145481, 34.024497], [-120.096665, 34.017861], [-120.057875, 34.037785], [-120.044139, 34.037273], [-120.047004, 34.003813]]], [[[-120.318326, 34.040055], [-120.306557, 34.026397], [-120.308301, 34.0182], [-120.360439, 34.014757], [-120.406226, 34.031415], [-120.42377, 34.024946], [-120.449203, 34.035866], [-120.415274, 34.054496], [-120.394043, 34.053285], [-120.369068, 34.076225], [-120.356018, 34.047081], [-120.318326, 34.040055]]], [[[-123.94818, 46.46419], [-123.945531, 46.417647], [-123.964121, 46.406791], [-123.974716, 46.440181], [-123.997763, 46.453397], [-123.990346, 46.488293], [-123.981109, 46.497463], [-123.94818, 46.46419]]], [[[-122.422434, 47.40884], [-122.366811, 47.383531], [-122.417795, 47.370795], [-122.469228, 47.336371], [-122.473785, 47.36286], [-122.44225, 47.382514], [-122.439849, 47.392808], [-122.446401, 47.40058], [-122.463043, 47.397773], [-122.455637, 47.391018], [-122.489735, 47.373928], [-122.496571, 47.336371], [-122.510487, 47.332099], [-122.527252, 47.346259], [-122.531484, 47.35692], [-122.51769, 47.380439], [-122.510243, 47.455797], [-122.471018, 47.495795], [-122.455637, 47.500881], [-122.462066, 47.486762], [-122.441314, 47.466742], [-122.435129, 47.425727], [-122.422434, 47.40884]]], [[[-122.493276, 47.594224], [-122.480377, 47.586859], [-122.498769, 47.571234], [-122.520863, 47.573961], [-122.542348, 47.595526], [-122.57787, 47.601549], [-122.567698, 47.629584], [-122.580474, 47.662991], [-122.561879, 47.685614], [-122.557769, 47.713813], [-122.537709, 47.714789], [-122.510976, 47.695868], [-122.505849, 47.663275], [-122.489858, 47.641262], [-122.510976, 47.62759], [-122.493276, 47.594224]]], [[[-122.709218, 48.10224], [-122.686879, 48.073228], [-122.673207, 48.023749], [-122.681508, 48.00727], [-122.700185, 48.007758], [-122.730784, 48.042426], [-122.738922, 48.082506], [-122.723012, 48.076239], [-122.716298, 48.048285], [-122.701975, 48.049221], [-122.711985, 48.083645], [-122.729319, 48.096747], [-122.709218, 48.10224]]], [[[-122.346791, 47.950588], [-122.386708, 47.904934], [-122.40038, 47.919176], [-122.435414, 47.910468], [-122.441314, 47.915473], [-122.449696, 47.959459], [-122.476064, 47.986884], [-122.51769, 47.966295], [-122.539215, 47.972154], [-122.58019, 48.004869], [-122.593332, 48.025377], [-122.592152, 48.04206], [-122.609771, 48.060492], [-122.614858, 48.074897], [-122.600168, 48.130113], [-122.607249, 48.153754], [-122.622955, 48.163316], [-122.668446, 48.15058], [-122.693227, 48.180243], [-122.74413, 48.205878], [-122.755727, 48.229641], [-122.75121, 48.249945], [-122.656565, 48.385077], [-122.630849, 48.38467], [-122.595774, 48.401923], [-122.57901, 48.377143], [-122.577707, 48.356676], [-122.515981, 48.321967], [-122.517568, 48.294013], [-122.546376, 48.281399], [-122.593984, 48.307929], [-122.608998, 48.29914], [-122.627431, 48.267279], [-122.641265, 48.287991], [-122.651357, 48.249945], [-122.723704, 48.233791], [-122.710072, 48.221422], [-122.651926, 48.224066], [-122.59553, 48.20539], [-122.580637, 48.188463], [-122.558665, 48.121324], [-122.54662, 48.017035], [-122.535512, 48.005927], [-122.522043, 48.011949], [-122.510243, 48.035224], [-122.522857, 48.057074], [-122.524037, 48.079413], [-122.514027, 48.090766], [-122.460032, 48.053453], [-122.381093, 48.015815], [-122.365549, 47.999661], [-122.346791, 47.950588]]], [[[-122.849355, 48.461615], [-122.836293, 48.459947], [-122.820953, 48.472602], [-122.808339, 48.458197], [-122.8131, 48.427314], [-122.827748, 48.417385], [-122.889882, 48.42414], [-122.883453, 48.441474], [-122.937611, 48.458319], [-122.942535, 48.475775], [-122.937001, 48.493232], [-122.910308, 48.513577], [-122.916982, 48.533637], [-122.887074, 48.563666], [-122.877024, 48.565863], [-122.860748, 48.539618], [-122.861928, 48.489325], [-122.849355, 48.461615]]], [[[-122.67455, 48.568793], [-122.688059, 48.547024], [-122.714345, 48.541938], [-122.73705, 48.577135], [-122.735422, 48.590399], [-122.715484, 48.606024], [-122.67455, 48.568793]]], [[[-122.999135, 48.472602], [-122.964955, 48.458319], [-122.964955, 48.451483], [-123.030019, 48.453803], [-123.065419, 48.478502], [-123.102651, 48.480292], [-123.139312, 48.495836], [-123.166575, 48.543524], [-123.177561, 48.598822], [-123.158437, 48.614569], [-123.12914, 48.620063], [-123.102122, 48.609117], [-123.057769, 48.572903], [-123.024648, 48.562812], [-123.004303, 48.539455], [-122.977651, 48.531317], [-122.992258, 48.513577], [-123.016591, 48.51142], [-123.020172, 48.499335], [-122.999135, 48.472602]]], [[[-122.757232, 48.650051], [-122.800445, 48.629625], [-122.808949, 48.611274], [-122.820953, 48.609117], [-122.865875, 48.649604], [-122.88679, 48.696275], [-122.896352, 48.699774], [-122.910308, 48.687974], [-122.910308, 48.657538], [-122.861928, 48.601711], [-122.874379, 48.593736], [-122.933339, 48.59276], [-122.951283, 48.62344], [-122.980092, 48.638617], [-122.99706, 48.597154], [-123.026519, 48.626532], [-123.020904, 48.642483], [-122.917958, 48.711412], [-122.857818, 48.708686], [-122.745839, 48.664374], [-122.757232, 48.650051]]], [[[-122.613149, 48.648424], [-122.620473, 48.645941], [-122.655141, 48.66474], [-122.716542, 48.715237], [-122.715159, 48.739081], [-122.698476, 48.734687], [-122.671376, 48.70482], [-122.621409, 48.668524], [-122.613149, 48.648424]]], [[[-122.675608, 47.176337], [-122.671376, 47.164984], [-122.677073, 47.139553], [-122.70108, 47.123969], [-122.742177, 47.143744], [-122.746409, 47.153713], [-122.7294, 47.162177], [-122.718088, 47.180609], [-122.675608, 47.176337]]], [[[-122.869537, 47.242865], [-122.848297, 47.220201], [-122.848297, 47.193305], [-122.87385, 47.167873], [-122.921946, 47.237209], [-122.904937, 47.278266], [-122.846913, 47.298041], [-122.868153, 47.268297], [-122.869537, 47.242865]]], [[[-123.405043, 46.200934], [-123.315661, 46.148536], [-123.357861, 46.150489], [-123.411046, 46.17508], [-123.422956, 46.187806], [-123.417085, 46.204842], [-123.405043, 46.200934]]], [[[-123.444335, 46.235899], [-123.436684, 46.220399], [-123.44084, 46.213248], [-123.468439, 46.225003], [-123.480747, 46.255944], [-123.444335, 46.235899]]]]}}, {"type": "Feature", "properties": {"name": "Canada"}, "geometry": {"type": "MultiPolygon", "coordinates": [[[[-122.753017, 48.992515], [-122.781809, 49.01732], [-122.823232, 49.006985], [-122.853017, 49.017035], [-122.876047, 49.036526], [-122.867747, 49.080471], [-122.906606, 49.088324], [-122.951283, 49.082953], [-123.032826, 49.050605], [-123.048573, 49.035224], [-123.035308, 48.992499], [-123.090506, 48.992515], [-123.108306, 49.033677], [-123.142974, 49.06094], [-123.05427, 49.123236], [-123.040679, 49.151028], [-123.081125, 49.128363], [-123.123402, 49.115871], [-123.167144, 49.115627], [-123.211985, 49.12995], [-123.200103, 49.148505], [-123.204701, 49.189846], [-123.198313, 49.205634], [-123.179799, 49.209866], [-123.137603, 49.195705], [-123.143381, 49.207465], [-123.235911, 49.249986], [-123.246897, 49.274644], [-123.143056, 49.280097], [-123.161936, 49.299994], [-123.154897, 49.308539], [-123.138539, 49.309027], [-123.108632, 49.288764], [-123.074208, 49.294379], [-123.067372, 49.287543], [-123.039418, 49.295885], [-122.960846, 49.281887], [-122.921946, 49.299547], [-122.892486, 49.333686], [-122.855702, 49.441799], [-122.878285, 49.457343], [-122.882395, 49.404242], [-122.93814, 49.325832], [-123.02066, 49.30683], [-123.211985, 49.34276], [-123.270009, 49.335354], [-123.293935, 49.370103], [-123.245473, 49.411078], [-123.240102, 49.441555], [-123.251129, 49.522854], [-123.21817, 49.596015], [-123.225657, 49.603461], [-123.206899, 49.621568], [-123.211985, 49.650051], [-123.153961, 49.692939], [-123.17101, 49.705268], [-123.247426, 49.658271], [-123.252919, 49.650051], [-123.245473, 49.613105], [-123.256418, 49.593004], [-123.287262, 49.580878], [-123.328033, 49.581773], [-123.355336, 49.55508], [-123.396596, 49.558295], [-123.502675, 49.505439], [-123.485707, 49.493598], [-123.491322, 49.47309], [-123.473215, 49.434516], [-123.482289, 49.414211], [-123.499867, 49.399888], [-123.533559, 49.388495], [-123.781117, 49.465481], [-123.885569, 49.477281], [-123.903432, 49.486151], [-123.919545, 49.507473], [-123.975453, 49.530911], [-124.026967, 49.603461], [-124.061106, 49.630805], [-124.067983, 49.66234], [-124.063832, 49.678453], [-124.044301, 49.69123], [-124.020131, 49.732611], [-123.990061, 49.745063], [-123.93928, 49.743598], [-123.920806, 49.715806], [-123.835113, 49.633938], [-123.828359, 49.581773], [-123.805084, 49.528632], [-123.777089, 49.505316], [-123.752594, 49.540758], [-123.771637, 49.575426], [-123.772288, 49.59394], [-123.760081, 49.609687], [-123.718495, 49.616523], [-123.693674, 49.634833], [-123.589752, 49.653632], [-123.550201, 49.674872], [-123.533518, 49.705268], [-123.664459, 49.656155], [-123.794545, 49.644029], [-123.807851, 49.646918], [-123.823232, 49.683173], [-123.883616, 49.739407], [-123.927602, 49.763617], [-123.933705, 49.783271], [-123.88976, 49.828803], [-123.881825, 49.847357], [-123.883616, 49.901109], [-123.890614, 49.921454], [-123.944976, 49.944892], [-123.957875, 49.967108], [-123.953603, 49.989691], [-123.94307985084284, 50.0], [-120.0, 50.0], [-120.0, 48.99253047428968], [-122.753017, 48.992515]]], [[[-124.000071, 49.973619], [-123.989003, 49.933783], [-123.961903, 49.903998], [-123.926096, 49.886176], [-123.910878, 49.869778], [-123.938222, 49.828803], [-123.978179, 49.809027], [-124.001129, 49.811835], [-124.008534, 49.820624], [-124.013295, 49.863593], [-124.034413, 49.88345], [-124.020416, 49.907782], [-124.02302, 49.919867], [-124.037465, 49.924994], [-124.074778, 49.869778], [-124.048166, 49.841132], [-124.08495, 49.830512], [-124.089223, 49.821926], [-124.081614, 49.808295], [-124.147817, 49.784369], [-124.273997, 49.774156], [-124.267486, 49.751654], [-124.28303, 49.746568], [-124.30427, 49.752672], [-124.327219, 49.774359], [-124.403717, 49.76732], [-124.513254, 49.797512], [-124.532216, 49.844387], [-124.583119, 49.882473], [-124.634918, 49.902004], [-124.649729, 49.920722], [-124.732167, 49.954291], [-124.764394, 49.977362], [-124.7832706515318, 50.0], [-124.70644142754288, 50.0], [-124.684885, 49.986477], [-124.6897427959768, 50.0], [-123.99516379777366, 50.0], [-124.000071, 49.973619]]], [[[-123.280344, 48.601304], [-123.287953, 48.591254], [-123.302887, 48.596991], [-123.336659, 48.63109], [-123.337473, 48.648424], [-123.305287, 48.618801], [-123.286936, 48.612698], [-123.280344, 48.601304]]], [[[-123.382314, 48.756171], [-123.407582, 48.754055], [-123.458404, 48.767401], [-123.427642, 48.72956], [-123.461008, 48.715399], [-123.496246, 48.715562], [-123.531117, 48.734361], [-123.549713, 48.770738], [-123.533518, 48.800971], [-123.569814, 48.832424], [-123.571523, 48.849758], [-123.54719, 48.862372], [-123.586659, 48.898017], [-123.59557, 48.951809], [-123.581899, 48.931301], [-123.503082, 48.891669], [-123.43106, 48.841946], [-123.458811, 48.844916], [-123.488637, 48.862291], [-123.498769, 48.856269], [-123.496002, 48.845526], [-123.369008, 48.774237], [-123.382314, 48.756171]]], [[[-123.697987, 49.082099], [-123.702748, 49.099921], [-123.697255, 49.10932], [-123.687001, 49.108547], [-123.658559, 49.072699], [-123.546742, 48.976223], [-123.471913, 48.938137], [-123.334462, 48.902981], [-123.321848, 48.896552], [-123.317128, 48.869818], [-123.369293, 48.861884], [-123.394521, 48.872382], [-123.437327, 48.903998], [-123.530751, 48.941962], [-123.632924, 49.024359], [-123.65392, 49.033677], [-123.697987, 49.082099]]], [[[-123.704416, 49.155992], [-123.697092, 49.137112], [-123.749501, 49.128852], [-123.776682, 49.133287], [-123.842844, 49.151028], [-123.861969, 49.16356], [-123.869781, 49.190497], [-123.833852, 49.201158], [-123.768625, 49.169013], [-123.704416, 49.155992]]], [[[-125.93814, 49.184882], [-125.954091, 49.181301], [-125.968902, 49.148749], [-126.011708, 49.159125], [-126.035024, 49.201809], [-126.024322, 49.211982], [-126.006459, 49.214057], [-125.949941, 49.200751], [-125.93814, 49.184882]]], [[[-126.06371, 49.277574], [-126.048492, 49.267035], [-126.069407, 49.25552], [-126.089589, 49.25434], [-126.158315, 49.273586], [-126.223541, 49.277086], [-126.240346, 49.301825], [-126.227406, 49.307807], [-126.240346, 49.34276], [-126.231313, 49.357327], [-126.231435, 49.378607], [-126.131703, 49.396796], [-126.086252, 49.363105], [-126.075103, 49.338528], [-126.083323, 49.314887], [-126.06371, 49.277574]]], [[[-123.359364, 49.342922], [-123.375885, 49.337104], [-123.416005, 49.337226], [-123.429433, 49.346747], [-123.418121, 49.380927], [-123.349965, 49.417548], [-123.326324, 49.420478], [-123.315175, 49.413398], [-123.330678, 49.37287], [-123.359364, 49.342922]]], [[[-124.171742, 49.46426], [-124.171702, 49.454739], [-124.186187, 49.447008], [-124.232411, 49.458564], [-124.317942, 49.462958], [-124.361073, 49.480048], [-124.355702, 49.490383], [-124.379058, 49.50727], [-124.354604, 49.522406], [-124.232167, 49.499335], [-124.171742, 49.46426]]], [[[-123.456654, 49.478217], [-123.444732, 49.493598], [-123.452626, 49.508124], [-123.418121, 49.530911], [-123.362172, 49.540758], [-123.322499, 49.48607], [-123.323801, 49.461859], [-123.342681, 49.442939], [-123.375844, 49.438381], [-123.367421, 49.453843], [-123.389394, 49.467434], [-123.43342, 49.44599], [-123.451568, 49.445217], [-123.456654, 49.478217]]], [[[-124.594146, 49.521633], [-124.624501, 49.523424], [-124.662913, 49.49433], [-124.703765, 49.521186], [-124.702504, 49.537665], [-124.683746, 49.549262], [-124.594146, 49.521633]]], [[[-124.690826, 49.482856], [-124.746409, 49.488471], [-124.825429, 49.540107], [-124.838531, 49.556586], [-124.836049, 49.597724], [-124.827219, 49.602973], [-124.79247, 49.579739], [-124.690826, 49.482856]]], [[[-124.136383, 49.656562], [-124.163686, 49.659817], [-124.205068, 49.705268], [-124.133168, 49.753852], [-124.102651, 49.746894], [-124.098134, 49.766995], [-124.09024, 49.770331], [-124.020131, 49.780992], [-124.074534, 49.74136], [-124.109486, 49.677965], [-124.136383, 49.656562]]], [[[-124.651723, 49.761542], [-124.657582, 49.8015], [-124.632639, 49.801663], [-124.609202, 49.794623], [-124.562001, 49.75373], [-124.391265, 49.720038], [-124.34789, 49.704169], [-124.269765, 49.615871], [-124.173207, 49.554145], [-124.123158, 49.499823], [-124.143422, 49.489325], [-124.162262, 49.495998], [-124.197621, 49.520941], [-124.378407, 49.602851], [-124.438832, 49.611884], [-124.439076, 49.630805], [-124.472564, 49.67178], [-124.493072, 49.67178], [-124.572133, 49.708441], [-124.61441, 49.716498], [-124.664418, 49.746894], [-124.651723, 49.761542]]], [[[-126.642568, 49.758734], [-126.617665, 49.630805], [-126.638824, 49.595038], [-126.679433, 49.591783], [-126.806752, 49.627387], [-126.856109, 49.665676], [-126.912506, 49.691636], [-126.973988, 49.735989], [-126.97057, 49.754706], [-126.961537, 49.758531], [-126.933013, 49.739407], [-126.908762, 49.765082], [-126.855702, 49.779853], [-126.87385, 49.788886], [-126.898264, 49.780992], [-126.943959, 49.80622], [-126.98705, 49.815131], [-126.969594, 49.833482], [-126.864166, 49.855455], [-126.800933, 49.880764], [-126.768544, 49.88345], [-126.742177, 49.856391], [-126.72289, 49.849799], [-126.702748, 49.860175], [-126.6905, 49.857123], [-126.642568, 49.758734]]], [[[-127.251047, 49.999579], [-127.272328, 49.977973], [-127.318593, 49.999579], [-127.31847841193492, 50.0], [-127.24981962980269, 50.0], [-127.251047, 49.999579]]], [[[-125.163075, 49.99315], [-125.17284886561171, 50.0], [-125.16424209822576, 50.0], [-125.163075, 49.99315]]], [[[-123.28718, 48.468329], [-123.280629, 48.448391], [-123.287099, 48.42414], [-123.30248, 48.414293], [-123.357045, 48.40058], [-123.437327, 48.444648], [-123.453359, 48.43358], [-123.480214, 48.39232], [-123.511098, 48.38052], [-123.519846, 48.355292], [-123.554596, 48.327948], [-123.550608, 48.313056], [-123.572174, 48.306098], [-123.595286, 48.310045], [-123.59557, 48.327948], [-123.65392, 48.314276], [-123.733754, 48.350775], [-123.780629, 48.36286], [-123.890777, 48.366889], [-124.1315, 48.433498], [-124.38915, 48.517971], [-124.437896, 48.525539], [-124.429677, 48.53852], [-124.390696, 48.560736], [-124.401438, 48.565253], [-124.445302, 48.568183], [-124.485666, 48.540229], [-124.665395, 48.573228], [-124.769358, 48.615058], [-124.816233, 48.647121], [-125.093984, 48.730048], [-125.18517, 48.800971], [-125.171132, 48.815904], [-125.110015, 48.841946], [-125.07844, 48.876166], [-125.011464, 48.891995], [-125.013661, 48.928127], [-124.98412, 48.956], [-124.918284, 48.972235], [-124.846995, 49.020453], [-124.819447, 49.05801], [-124.80842, 49.099189], [-124.779408, 49.152045], [-124.798818, 49.188788], [-124.80842, 49.246568], [-124.828928, 49.225491], [-124.822011, 49.181383], [-124.828033, 49.119859], [-124.869862, 49.074652], [-124.88801, 49.013983], [-124.907704, 49.006415], [-124.967641, 48.987942], [-125.04483, 48.992743], [-125.085846, 48.979071], [-125.146881, 48.998521], [-125.171498, 48.992743], [-125.221262, 48.954779], [-125.240387, 48.955471], [-125.336008, 48.972235], [-125.30248, 49.003119], [-125.260854, 49.020697], [-125.260854, 49.027533], [-125.308705, 49.027533], [-125.333404, 49.041815], [-125.353871, 49.027248], [-125.366282, 48.987372], [-125.400502, 48.972602], [-125.469472, 48.91767], [-125.498362, 48.920478], [-125.573069, 48.955797], [-125.606557, 48.961859], [-125.672353, 49.017808], [-125.735829, 49.053046], [-125.836252, 49.069037], [-125.871693, 49.090155], [-125.871002, 49.102607], [-125.861562, 49.110012], [-125.815785, 49.123033], [-125.784779, 49.104926], [-125.767568, 49.103461], [-125.69225, 49.133368], [-125.683583, 49.148424], [-125.64566, 49.164008], [-125.612945, 49.206366], [-125.610341, 49.225491], [-125.746693, 49.148139], [-125.755116, 49.168891], [-125.753733, 49.222357], [-125.740549, 49.267401], [-125.777333, 49.247707], [-125.802113, 49.253404], [-125.801991, 49.300198], [-125.781606, 49.338446], [-125.77477, 49.370103], [-125.806304, 49.343451], [-125.843739, 49.267035], [-125.877268, 49.280097], [-125.901194, 49.274482], [-125.956044, 49.232896], [-125.994374, 49.242336], [-126.028066, 49.273871], [-126.008901, 49.292304], [-125.950917, 49.320258], [-125.898997, 49.422187], [-125.911977, 49.438381], [-125.921783, 49.419827], [-125.958485, 49.393297], [-125.979237, 49.341783], [-126.014394, 49.322333], [-126.059071, 49.345893], [-126.076487, 49.383734], [-126.058176, 49.411933], [-126.055084, 49.445299], [-126.17398, 49.415351], [-126.185699, 49.404242], [-126.227122, 49.412787], [-126.24352, 49.446275], [-126.254791, 49.450507], [-126.268219, 49.445217], [-126.258778, 49.431464], [-126.261301, 49.400336], [-126.288075, 49.362698], [-126.405019, 49.421373], [-126.391184, 49.430894], [-126.432118, 49.472561], [-126.465321, 49.46015], [-126.487375, 49.438381], [-126.463938, 49.405585], [-126.464345, 49.395657], [-126.487375, 49.383734], [-126.527821, 49.378852], [-126.572662, 49.414293], [-126.557851, 49.503241], [-126.562408, 49.520941], [-126.556264, 49.527167], [-126.576772, 49.548245], [-126.565094, 49.583564], [-126.548818, 49.596015], [-126.499094, 49.610582], [-126.452545, 49.636298], [-126.336537, 49.630805], [-126.21817, 49.645697], [-126.185699, 49.657457], [-126.137929, 49.650051], [-126.089508, 49.660875], [-126.107493, 49.683295], [-126.194976, 49.681383], [-126.296783, 49.660834], [-126.324371, 49.648261], [-126.453236, 49.674302], [-126.487375, 49.695054], [-126.4794, 49.711819], [-126.411204, 49.778225], [-126.467356, 49.792304], [-126.473704, 49.784369], [-126.472279, 49.749701], [-126.49356, 49.71894], [-126.516713, 49.708401], [-126.57311, 49.706936], [-126.593495, 49.715806], [-126.605214, 49.732123], [-126.637278, 49.817125], [-126.649729, 49.898017], [-126.705881, 49.877183], [-126.726389, 49.882392], [-126.767201, 49.912421], [-126.782948, 49.94245], [-126.843617, 49.973456], [-126.8426, 49.960639], [-126.810862, 49.943345], [-126.802642, 49.928127], [-126.808502, 49.914374], [-126.839467, 49.88817], [-126.871653, 49.882473], [-126.891591, 49.891018], [-126.919342, 49.973456], [-126.936147, 49.866645], [-127.121938, 49.857733], [-127.141916, 49.866645], [-127.237538, 49.961819], [-127.20605486401138, 50.0], [-125.21936666513008, 50.0], [-125.215891, 49.983059], [-125.178334, 49.924994], [-124.882069, 49.724921], [-124.869862, 49.695054], [-124.875844, 49.677436], [-124.890981, 49.672065], [-124.973256, 49.684963], [-124.979726, 49.681708], [-124.976226, 49.668036], [-124.918284, 49.630805], [-124.838043, 49.517279], [-124.80842, 49.506659], [-124.794749, 49.472561], [-124.772572, 49.461493], [-124.723622, 49.465074], [-124.668121, 49.443061], [-124.637074, 49.411078], [-124.596018, 49.391181], [-124.545074, 49.377183], [-124.359975, 49.356635], [-124.319569, 49.334906], [-124.208485, 49.308051], [-124.174672, 49.314887], [-124.109486, 49.280097], [-124.163075, 49.271674], [-124.178375, 49.26024], [-124.164866, 49.254869], [-124.122874, 49.26024], [-124.07136, 49.246568], [-123.977691, 49.240953], [-123.954945, 49.229193], [-123.946278, 49.208441], [-123.964182, 49.20307], [-123.930776, 49.143541], [-123.917104, 49.134914], [-123.828359, 49.12995], [-123.813385, 49.118598], [-123.787343, 49.069037], [-123.756907, 49.042141], [-123.751373, 49.027981], [-123.773752, 49.020697], [-123.760894, 48.995836], [-123.764882, 48.987535], [-123.779897, 48.985907], [-123.816029, 49.012681], [-123.835113, 49.006415], [-123.835113, 49.00019], [-123.787343, 48.965399], [-123.739735, 48.942857], [-123.579945, 48.821601], [-123.596099, 48.811428], [-123.602284, 48.797309], [-123.568267, 48.794135], [-123.572987, 48.746243], [-123.617584, 48.763251], [-123.650787, 48.759955], [-123.650787, 48.753119], [-123.560862, 48.712144], [-123.526682, 48.678046], [-123.542348, 48.650295], [-123.540924, 48.636461], [-123.516957, 48.610826], [-123.513661, 48.595445], [-123.517568, 48.58039], [-123.540924, 48.554511], [-123.535471, 48.540107], [-123.472035, 48.575019], [-123.478871, 48.636461], [-123.437327, 48.650092], [-123.471791, 48.672431], [-123.472035, 48.684882], [-123.416819, 48.691107], [-123.399241, 48.681545], [-123.390045, 48.620429], [-123.355336, 48.560736], [-123.345774, 48.523383], [-123.28718, 48.468329]]], [[[-123.25182, 48.790188], [-123.250396, 48.766099], [-123.1881, 48.756171], [-123.186676, 48.736396], [-123.257476, 48.739203], [-123.306996, 48.764635], [-123.311269, 48.797268], [-123.322621, 48.812812], [-123.287221, 48.812812], [-123.25182, 48.790188]]], [[[-123.158355, 48.763251], [-123.185292, 48.774604], [-123.203684, 48.784491], [-123.203684, 48.808539], [-123.222076, 48.822699], [-123.2235, 48.832668], [-123.141428, 48.801459], [-123.053619, 48.795844], [-123.043772, 48.788764], [-123.089019, 48.767524], [-123.158355, 48.763251]]], [[[-125.797002, 49.227035], [-125.786019, 49.209254], [-125.801352, 49.143888], [-125.841727, 49.13378], [-125.879898, 49.146046], [-125.887558, 49.173101], [-125.914986, 49.176295], [-125.923406, 49.196981], [-125.914895, 49.21329], [-125.90107, 49.22552], [-125.861625, 49.237385], [-125.797002, 49.227035]]]]}}]}