{"type": "FeatureCollection", "features": [{"type": "Feature", "properties": {"name": "Antarctica"}, "geometry": {"type": "Polygon", "coordinates": [[[140.021739, -66.774509], [140.081554, -66.733168], [140.110199, -66.729181], [140.284516, -66.729099], [140.335704, -66.747166], [140.384776, -66.787042], [140.410818, -66.767511], [140.414724, -66.737237], [140.517426, -66.72503], [140.695486, -66.7492], [140.901622, -66.753025], [141.003673, -66.767348], [141.281016, -66.861505], [141.29656, -66.853774], [141.305675, -66.827407], [141.362071, -66.839451], [141.578136, -66.779962], [141.9817, -66.799981], [142.092784, -66.827407], [142.198741, -66.875909], [142.267751, -66.948419], [142.296397, -66.950128], [142.319021, -66.969496], [142.356456, -66.977797], [142.415375, -67.014255], [142.477061, -67.025974], [142.822032, -67.019708], [142.881033, -67.008722], [142.99879, -66.962091], [143.470714, -66.845636], [143.508311, -66.844659], [143.750824, -66.880304], [143.861013, -66.919692], [143.87615, -66.940362], [143.863455, -66.995864], [143.865245, -67.01393], [143.887218, -67.051365], [143.878591, -67.073663], [143.855317, -67.094171], [143.781098, -67.120701], [143.751475, -67.139418], [144.069102, -67.086196], [144.088552, -67.153741], [144.114757, -67.177423], [144.127126, -67.161065], [144.154633, -67.073337], [144.184906, -67.044692], [144.226817, -67.023696], [144.315603, -67.002699], [144.414317, -67.001235], [144.512462, -67.01572], [144.645518, -67.095392], [144.662364, -67.116632], [144.630138, -67.160577], [144.596934, -67.185642], [144.556, -67.195977], [144.500987, -67.19671], [144.362641, -67.162774], [144.321462, -67.171645], [144.358572, -67.207289], [144.437266, -67.207615], [144.514171, -67.234552], [144.475597, -67.280694], [144.446462, -67.333754], [144.376475, -67.36533], [144.301036, -67.417413], [144.275157, -67.421319], [144.248057, -67.413832], [144.177094, -67.347101], [144.149669, -67.361098], [144.146332, -67.392836], [144.137055, -67.406996], [144.085704, -67.424737], [144.084483, -67.445489], [144.091563, -67.450779], [144.137543, -67.457452], [144.164561, -67.478448], [144.164561, -67.526056], [144.191905, -67.581231], [144.189708, -67.595636], [144.119395, -67.664239], [144.049083, -67.698175], [143.983735, -67.716567], [143.90919, -67.756117], [143.880138, -67.78102], [143.840587, -67.847263], [143.954763, -67.833266], [143.911632, -67.861017], [143.911794, -67.892511], [143.880707, -67.933852], [143.952647, -67.945896], [144.020274, -67.935724], [144.155935, -67.885512], [144.140636, -67.91839], [144.13852, -67.953383], [144.185802, -67.939874], [144.248709, -67.95436], [144.351736, -67.899998], [144.425792, -67.824884], [144.469086, -67.794366], [144.601817, -67.751153], [144.809418, -67.754978], [144.90504, -67.737726], [144.942068, -67.718927], [145.054373, -67.635186], [145.238129, -67.528253], [145.279796, -67.51572], [145.421397, -67.50921], [145.444347, -67.514825], [145.484223, -67.57643], [145.488943, -67.596612], [145.481456, -67.623468], [145.529633, -67.641046], [145.536632, -67.6513], [145.526622, -67.690525], [145.545909, -67.712091], [145.615896, -67.737074], [145.644298, -67.736993], [145.688324, -67.700942], [145.733409, -67.59295], [145.797048, -67.573989], [145.917247, -67.589044], [146.048106, -67.586602], [146.130138, -67.614028], [146.190684, -67.622817], [146.208018, -67.669203], [146.228852, -67.687107], [146.109711, -67.749607], [146.126475, -67.764825], [146.175304, -67.769138], [146.263438, -67.835056], [146.300955, -67.851332], [146.344412, -67.831313], [146.3838, -67.792657], [146.408702, -67.753513], [146.44158, -67.731134], [146.489106, -67.741795], [146.528982, -67.770278], [146.537934, -67.802423], [146.510916, -67.841485], [146.473643, -67.873793], [146.385427, -67.915216], [146.410167, -67.951755], [146.454763, -67.949395], [146.504242, -67.935642], [146.544444, -67.937595], [146.527843, -67.96087], [146.543224, -67.9874], [146.552989, -67.988946], [146.615733, -67.951349], [146.666759, -67.939386], [146.689708, -67.938897], [146.66212, -67.954767], [146.711111, -67.959731], [146.819835, -67.920587], [146.872813, -67.937595], [146.804454, -68.000665], [146.634288, -68.087091], [146.558279, -68.143243], [146.580903, -68.150649], [146.602306, -68.178481], [146.619395, -68.183201], [146.704275, -68.169692], [146.795177, -68.139093], [146.971365, -68.052179], [147.024587, -68.033949], [147.064708, -68.038751], [147.073985, -68.054295], [147.076508, -68.10117], [147.054942, -68.134698], [146.991222, -68.171075], [146.859548, -68.209161], [146.745128, -68.270685], [146.721202, -68.287693], [146.718028, -68.303399], [146.732188, -68.316013], [146.76002, -68.323175], [146.805675, -68.319431], [146.893728, -68.293227], [146.93572, -68.296157], [146.947113, -68.315606], [146.962413, -68.316583], [147.107921, -68.294041], [147.09783, -68.311293], [147.097179, -68.340997], [147.038422, -68.392755], [147.030447, -68.415623], [147.060395, -68.422784], [147.17449, -68.394708], [147.230479, -68.412042], [147.38738, -68.376397], [147.468516, -68.389255], [147.628673, -68.356052], [147.662364, -68.356622], [147.725108, -68.370538], [147.849376, -68.370375], [147.885753, -68.406427], [147.917328, -68.417169], [147.984223, -68.42311], [147.979747, -68.444757], [148.000987, -68.464044], [148.033458, -68.442478], [148.061046, -68.438246], [148.141124, -68.446059], [148.241466, -68.414158], [148.292735, -68.427423], [148.304698, -68.444431], [148.288259, -68.466485], [148.435395, -68.473321], [148.518565, -68.451918], [148.611339, -68.468194], [148.624278, -68.430352], [148.655772, -68.411065], [148.691905, -68.403009], [148.747244, -68.414483], [148.830414, -68.452895], [148.85727, -68.453709], [148.980479, -68.445733], [149.061534, -68.412205], [149.154063, -68.40252], [149.120616, -68.420994], [149.15919, -68.450128], [149.20753, -68.460382], [149.255382, -68.450779], [149.310069, -68.406834], [149.39031, -68.384373], [149.414399, -68.38714], [149.481781, -68.418145], [149.784923, -68.486912], [149.835785, -68.484308], [149.883637, -68.463637], [149.812999, -68.417901], [149.730642, -68.401544], [149.683604, -68.369317], [149.735688, -68.352472], [149.778331, -68.364516], [149.864757, -68.412774], [149.913341, -68.423435], [150.273936, -68.427667], [150.37794, -68.439874], [150.651378, -68.410821], [150.852875, -68.350763], [150.956554, -68.34295], [151.012869, -68.350681], [151.062836, -68.370375], [151.094249, -68.406996], [151.114106, -68.45615], [151.109548, -68.473565], [151.050629, -68.537774], [151.051931, -68.559015], [151.080089, -68.573989], [151.001638, -68.689548], [150.970714, -68.717218], [150.991954, -68.727634], [151.024913, -68.776951], [151.105154, -68.826837], [151.163585, -68.877618], [151.239757, -68.831638], [151.284679, -68.828709], [151.419607, -68.893976], [151.566905, -68.916762], [151.576834, -68.843357], [151.573985, -68.808038], [151.552745, -68.783461], [151.575531, -68.775323], [151.552094, -68.727634], [151.553233, -68.707208], [151.573253, -68.69256], [151.614513, -68.698419], [151.923839, -68.666762], [151.952647, -68.68141], [152.091075, -68.710545], [152.156505, -68.736423], [152.214854, -68.73504], [152.403087, -68.698663], [152.430675, -68.70086], [152.467052, -68.724054], [152.526378, -68.714939], [152.554698, -68.722426], [152.621349, -68.76572], [152.648774, -68.770196], [152.735199, -68.756606], [152.761241, -68.759454], [152.863536, -68.789972], [152.983409, -68.861586], [153.037283, -68.875909], [153.093028, -68.879164], [153.177501, -68.873305], [153.250662, -68.878188], [153.270274, -68.8624], [153.320323, -68.859308], [153.340099, -68.786554], [153.381847, -68.768813], [153.54835, -68.795994], [153.596446, -68.793634], [153.692719, -68.766209], [153.844981, -68.760431], [153.795584, -68.640802], [153.778168, -68.615981], [153.70045, -68.545668], [153.833507, -68.520685], [153.865245, -68.493748], [153.729259, -68.448663], [153.697765, -68.42018], [153.681977, -68.376072], [153.685802, -68.33408], [153.708263, -68.300063], [153.749034, -68.280369], [153.793142, -68.274021], [153.878429, -68.278985], [153.992931, -68.315606], [154.058604, -68.322035], [154.134776, -68.355564], [154.171641, -68.358087], [154.183116, -68.37656], [154.361013, -68.422459], [154.476817, -68.469985], [154.522472, -68.478611], [154.613129, -68.474298], [154.658214, -68.511814], [154.718516, -68.528253], [154.710134, -68.573175], [154.715099, -68.582615], [154.769216, -68.62184], [154.697113, -68.646254], [154.635509, -68.630141], [154.450369, -68.625746], [154.464041, -68.652602], [154.496755, -68.676365], [154.568044, -68.706476], [154.587576, -68.726332], [154.572032, -68.754327], [154.518321, -68.803969], [154.569347, -68.805597], [154.61199, -68.788995], [154.692638, -68.730157], [154.742524, -68.709731], [154.794688, -68.71087], [154.844737, -68.727716], [154.951182, -68.802911], [154.969737, -68.86712], [154.985525, -68.885919], [155.011078, -68.898858], [155.03712, -68.901788], [155.132823, -68.870212], [155.308604, -68.893324], [155.33725, -68.904718], [155.368988, -68.931817], [155.380544, -68.960545], [155.378266, -68.993585], [155.386567, -69.010349], [155.288829, -69.035903], [155.410818, -69.043634], [155.455903, -69.08115], [155.510509, -69.106541], [155.637543, -69.13421], [155.757091, -69.10117], [155.745616, -69.084568], [155.694509, -69.085219], [155.642345, -69.048435], [155.571462, -69.029555], [155.541515, -69.013442], [155.536794, -68.983575], [155.55893, -68.956801], [155.593435, -68.946954], [155.775401, -68.946873], [155.812836, -68.956231], [155.834727, -68.974867], [155.873383, -68.975763], [155.956309, -69.02809], [155.970876, -69.054132], [155.971853, -69.088149], [156.000987, -69.111423], [156.031586, -69.116795], [156.102061, -69.09881], [156.226899, -69.135431], [156.262462, -69.152927], [156.264903, -69.176853], [156.350108, -69.201918], [156.484141, -69.206638], [156.564301, -69.197035], [156.675059, -69.170017], [156.788748, -69.172784], [156.826671, -69.193536], [156.859874, -69.194268], [156.892833, -69.190525], [157.023204, -69.144789], [157.139822, -69.16131], [157.343598, -69.323175], [157.373546, -69.354669], [157.406016, -69.430597], [157.422537, -69.437188], [157.461762, -69.40838], [157.51824, -69.430271], [157.531016, -69.412205], [157.56837, -69.398207], [157.646169, -69.38242], [157.540375, -69.367608], [157.519054, -69.362481], [157.504731, -69.349542], [157.494477, -69.279474], [157.498709, -69.261326], [157.533458, -69.232029], [157.625499, -69.195408], [157.708995, -69.194024], [157.727061, -69.1985], [157.761892, -69.224298], [157.810802, -69.22324], [157.830577, -69.214044], [157.873057, -69.172052], [157.905284, -69.169529], [157.992198, -69.172133], [158.080821, -69.209893], [158.268321, -69.22503], [158.398204, -69.283298], [158.411388, -69.30877], [158.446544, -69.326755], [158.548676, -69.350681], [158.587169, -69.34881], [158.565929, -69.337498], [158.583751, -69.327081], [158.666677, -69.317641], [158.731456, -69.325453], [158.817149, -69.316339], [158.859141, -69.332615], [158.941173, -69.381768], [158.982921, -69.434991], [159.040701, -69.490655], [159.100108, -69.512872], [159.11964, -69.51629], [159.149425, -69.461358], [159.187999, -69.435317], [159.235362, -69.427911], [159.284679, -69.433038], [159.512218, -69.499119], [159.639334, -69.496759], [159.773285, -69.506524], [159.823009, -69.52752], [159.880707, -69.574477], [159.975108, -69.622654], [160.0, -69.62890117522322], [160.0, -69.8744180360239], [159.984711, -69.872247], [159.881114, -69.881524], [159.805512, -69.872735], [159.78004, -69.874607], [159.761241, -69.885186], [159.760997, -69.908949], [159.770356, -69.917657], [159.811046, -69.923598], [159.878266, -69.990411], [160.0, -69.99541653919272], [160.0, -70.0], [140.0, -70.0], [140.0, -66.76576337640928], [140.021739, -66.774509]]]}}, {"type": "Feature", "properties": {"name": "Australia"}, "geometry": {"type": "Polygon", "coordinates": [[[158.907725, -54.496189], [158.948497, -54.486017], [158.962413, -54.469334], [158.955577, -54.551202], [158.915538, -54.650974], [158.892589, -54.686944], [158.880544, -54.745701], [158.838227, -54.750421], [158.832367, -54.711684], [158.845714, -54.65488], [158.859386, -54.633722], [158.85255, -54.613214], [158.881358, -54.566339], [158.893403, -54.510837], [158.907725, -54.496189]]]}}]}