{"type": "FeatureCollection", "features": [{"type": "Feature", "properties": {"name": "Chile"}, "geometry": {"type": "MultiPolygon", "coordinates": [[[[-109.220041, -27.105239], [-109.24356, -27.129164], [-109.341461, -27.153985], [-109.367787, -27.172621], [-109.410308, -27.181899], [-109.42927, -27.199395], [-109.451324, -27.195489], [-109.423411, -27.099298], [-109.379628, -27.059503], [-109.269439, -27.099298], [-109.231597, -27.092462], [-109.220041, -27.105239]]], [[[-105.470937, -26.457696], [-105.46349, -26.456964], [-105.459543, -26.464776], [-105.470937, -26.457696]]]]}}]}