{"type": "FeatureCollection", "features": [{"type": "Feature", "properties": {"name": "United States of America"}, "geometry": {"type": "MultiPolygon", "coordinates": [[[[-154.846623, 19.544938], [-154.814064, 19.506579], [-154.817209, 19.479722], [-154.874736, 19.412884], [-154.918932, 19.397312], [-154.982301, 19.339244], [-155.025095, 19.327582], [-155.026663, 19.316171], [-155.062613, 19.30782], [-155.093031, 19.28621], [-155.202958, 19.25558], [-155.245059, 19.265539], [-155.291127, 19.259524], [-155.345687, 19.224805], [-155.364136, 19.203575], [-155.400149, 19.193686], [-155.502797, 19.137681], [-155.546132, 19.098212], [-155.553737, 19.081961], [-155.55226, 19.045619], [-155.60206, 18.99738], [-155.618523, 18.955544], [-155.674756, 18.906117], [-155.683544, 18.911157], [-155.682932, 18.932886], [-155.704167, 18.949085], [-155.817253, 19.013231], [-155.87813, 19.029072], [-155.891049, 19.065654], [-155.903906, 19.069459], [-155.91993, 19.138601], [-155.88553, 19.334157], [-155.887374, 19.359568], [-155.956388, 19.514236], [-155.953969, 19.536078], [-155.982197, 19.607675], [-156.036255, 19.667935], [-156.060164, 19.731221], [-156.038808, 19.783149], [-155.996775, 19.814439], [-155.982045, 19.843329], [-155.967966, 19.854234], [-155.926015, 19.868801], [-155.873402, 19.951321], [-155.850901, 19.975287], [-155.835458, 19.975703], [-155.824083, 20.020092], [-155.831069, 20.039372], [-155.882556, 20.104943], [-155.89698, 20.148846], [-155.89927, 20.21669], [-155.880483, 20.252021], [-155.867242, 20.263132], [-155.831129, 20.263429], [-155.737986, 20.243801], [-155.711669, 20.196149], [-155.648131, 20.168006], [-155.630654, 20.148212], [-155.586363, 20.122936], [-155.527194, 20.126269], [-155.420715, 20.090185], [-155.332313, 20.046721], [-155.168043, 19.946827], [-155.087141, 19.86038], [-155.085371, 19.727409], [-155.057493, 19.72853], [-155.018544, 19.745836], [-154.989923, 19.726707], [-154.976672, 19.705757], [-154.980044, 19.662806], [-154.96697, 19.636252], [-154.949906, 19.611446], [-154.899622, 19.567016], [-154.846623, 19.544938]]], [[[-156.53657, 20.570942], [-156.549768, 20.541473], [-156.534128, 20.531787], [-156.544555, 20.513217], [-156.599511, 20.517403], [-156.679261, 20.504713], [-156.700562, 20.525427], [-156.667159, 20.557717], [-156.608815, 20.591046], [-156.561774, 20.598008], [-156.53657, 20.570942]]], [[[-156.816338, 20.841704], [-156.803539, 20.812564], [-156.831257, 20.763807], [-156.913738, 20.734724], [-156.96228, 20.732388], [-156.982386, 20.759414], [-156.992136, 20.84634], [-157.05081, 20.871406], [-157.063136, 20.890387], [-157.055214, 20.911371], [-157.031551, 20.922718], [-156.990414, 20.927509], [-156.89272, 20.914141], [-156.816338, 20.841704]]], [[[-155.979553, 20.757374], [-155.984696, 20.717591], [-156.003134, 20.685898], [-156.02774, 20.679366], [-156.048423, 20.650888], [-156.075404, 20.650672], [-156.129504, 20.624473], [-156.20383, 20.626043], [-156.302594, 20.581179], [-156.352513, 20.592429], [-156.407653, 20.587207], [-156.451664, 20.635738], [-156.443143, 20.642602], [-156.44275, 20.660569], [-156.464319, 20.781383], [-156.485727, 20.796661], [-156.501631, 20.796191], [-156.51588, 20.790087], [-156.521301, 20.776241], [-156.533899, 20.774139], [-156.605976, 20.808377], [-156.620234, 20.807088], [-156.684907, 20.881888], [-156.686133, 20.903822], [-156.696009, 20.915802], [-156.685879, 20.964236], [-156.666469, 21.003438], [-156.65385, 21.004755], [-156.63579, 21.027124], [-156.597929, 21.032653], [-156.525889, 20.987322], [-156.523047, 20.962198], [-156.481672, 20.904397], [-156.464071, 20.905623], [-156.452921, 20.917918], [-156.378489, 20.923977], [-156.330678, 20.951239], [-156.281931, 20.950263], [-156.226877, 20.931952], [-156.16476, 20.862786], [-156.144423, 20.867118], [-156.119281, 20.836071], [-156.084989, 20.831451], [-156.001698, 20.800442], [-155.979553, 20.757374]]], [[[-156.705725, 21.156543], [-156.724843, 21.123725], [-156.755605, 21.095526], [-156.793406, 21.075873], [-156.869578, 21.053371], [-156.947405, 21.064542], [-157.072374, 21.099381], [-157.273061, 21.087348], [-157.292592, 21.094713], [-157.303944, 21.109565], [-157.296457, 21.143948], [-157.251163, 21.180284], [-157.246634, 21.199757], [-157.259759, 21.22188], [-157.209413, 21.220323], [-157.188684, 21.205142], [-156.989735, 21.182847], [-156.975615, 21.211148], [-156.965769, 21.213324], [-156.947758, 21.17785], [-156.897045, 21.165191], [-156.800312, 21.177676], [-156.705725, 21.156543]]], [[[-157.696146, 21.336397], [-157.647167, 21.306431], [-157.704076, 21.25953], [-157.715346, 21.281839], [-157.763814, 21.273104], [-157.794965, 21.254663], [-157.810818, 21.25419], [-157.830714, 21.277258], [-157.880136, 21.297962], [-157.894876, 21.331685], [-157.91518, 21.316466], [-157.905239, 21.305631], [-157.947003, 21.302743], [-157.940435, 21.310717], [-157.964107, 21.316335], [-157.968062, 21.347887], [-157.931845, 21.371662], [-157.960927, 21.388821], [-157.96921, 21.372022], [-157.991332, 21.391073], [-157.984431, 21.362129], [-157.989506, 21.358831], [-158.020174, 21.383313], [-158.013149, 21.367118], [-157.975413, 21.333887], [-157.980627, 21.318521], [-158.094309, 21.293606], [-158.115268, 21.305121], [-158.134719, 21.365655], [-158.157436, 21.394654], [-158.176052, 21.40353], [-158.18712, 21.444498], [-158.2276, 21.483047], [-158.229322, 21.532605], [-158.278933, 21.575265], [-158.236338, 21.584941], [-158.121072, 21.585895], [-158.112946, 21.603906], [-158.065786, 21.635574], [-158.050608, 21.671291], [-158.014445, 21.701499], [-157.969655, 21.709061], [-157.933912, 21.677898], [-157.915534, 21.64554], [-157.920181, 21.627451], [-157.876728, 21.575408], [-157.871181, 21.557916], [-157.8535, 21.55634], [-157.836449, 21.534049], [-157.836392, 21.51127], [-157.849525, 21.505384], [-157.842127, 21.461049], [-157.820519, 21.453416], [-157.803513, 21.429072], [-157.776227, 21.413306], [-157.76005, 21.433234], [-157.775117, 21.442812], [-157.773524, 21.454199], [-157.725708, 21.458985], [-157.722921, 21.451569], [-157.73762, 21.43769], [-157.738704, 21.405451], [-157.709304, 21.383588], [-157.706824, 21.351995], [-157.696146, 21.336397]]], [[[-159.292795, 22.14643], [-159.294704, 22.107627], [-159.318694, 22.05756], [-159.333176, 22.049569], [-159.334128, 21.958057], [-159.359122, 21.9529], [-159.347862, 21.93671], [-159.353643, 21.930044], [-159.36541, 21.930833], [-159.437315, 21.868769], [-159.481922, 21.883547], [-159.581949, 21.894352], [-159.590575, 21.901715], [-159.604979, 21.891703], [-159.666125, 21.950497], [-159.759794, 21.978533], [-159.771333, 22.005248], [-159.787211, 22.01927], [-159.786515, 22.066034], [-159.73568, 22.115246], [-159.732615, 22.140774], [-159.716534, 22.157514], [-159.668188, 22.169478], [-159.589582, 22.220954], [-159.558543, 22.232995], [-159.508063, 22.208204], [-159.499408, 22.208847], [-159.499376, 22.223574], [-159.481321, 22.230235], [-159.428653, 22.220801], [-159.39972, 22.235495], [-159.373755, 22.222087], [-159.357866, 22.222729], [-159.311812, 22.184503], [-159.301259, 22.151028], [-159.292795, 22.14643]]]]}}]}