{"type": "FeatureCollection", "features": [{"type": "Feature", "properties": {"name": "United States of America"}, "geometry": {"type": "MultiPolygon", "coordinates": [[[[-160.078892, 22.007177], [-160.059964, 22.000563], [-160.051436, 21.98305], [-160.07223, 21.959453], [-160.079539, 21.937893], [-160.072214, 21.910834], [-160.085246, 21.893536], [-160.136341, 21.872918], [-160.171677, 21.848648], [-160.19824, 21.783884], [-160.211285, 21.780209], [-160.235466, 21.792821], [-160.248036, 21.82803], [-160.245463, 21.850839], [-160.234424, 21.874456], [-160.195383, 21.912045], [-160.12362, 21.956296], [-160.112739, 21.981738], [-160.113759, 22.000271], [-160.078892, 22.007177]]], [[[-161.944773, 23.04621], [-161.940419, 23.0456], [-161.940907, 23.041978], [-161.947865, 23.038031], [-161.944773, 23.04621]]], [[[-164.699086, 23.570543], [-164.708485, 23.57453], [-164.704335, 23.579332], [-164.699086, 23.570543]]], [[[-168.002797, 25.014797], [-167.999867, 25.016425], [-167.995554, 25.011664], [-167.996775, 25.001125], [-168.002797, 25.014797]]], [[[-171.72936, 25.751939], [-171.739084, 25.756293], [-171.740671, 25.769029], [-171.722849, 25.773017], [-171.72936, 25.751939]]], [[[-173.959177, 26.059638], [-173.95995, 26.055325], [-173.965647, 26.05858], [-173.964996, 26.071357], [-173.959177, 26.059638]]], [[[-178.287905, 28.392989], [-178.304366, 28.387912], [-178.297988, 28.390993], [-178.290381, 28.401679], [-178.287905, 28.392989]]]]}}, {"type": "Feature", "properties": {"name": "U.S. Minor Outlying Is."}, "geometry": {"type": "MultiPolygon", "coordinates": [[[[-169.520823, 16.7626], [-169.517405, 16.762437], [-169.539174, 16.754462], [-169.520823, 16.7626]]], [[[-177.322865, 28.207668], [-177.321156, 28.205878], [-177.335276, 28.204291], [-177.322865, 28.207668]]], [[[-177.372182, 28.202338], [-177.389597, 28.197659], [-177.378, 28.212836], [-177.357655, 28.214423], [-177.372182, 28.202338]]], [[[-169.52241, 16.732164], [-169.549509, 16.723456], [-169.547678, 16.727362], [-169.52241, 16.732164]]], [[[-169.513661, 16.745592], [-169.512766, 16.74433], [-169.513661, 16.743964], [-169.513661, 16.745592]]]]}}]}