{"type": "FeatureCollection", "features": [{"type": "Feature", "properties": {"name": "Russia"}, "geometry": {"type": "MultiPolygon", "coordinates": [[[[51.401378, 71.87051], [51.439626, 71.942206], [51.500255, 72.005683], [51.560313, 72.045111], [51.552908, 72.052558], [51.610037, 72.091702], [51.747813, 72.122504], [51.84311, 72.157945], [51.865733, 72.158677], [51.97283, 72.109442], [52.053071, 72.107815], [52.048676, 72.084662], [52.066742, 72.074286], [52.090017, 72.076077], [52.11671, 72.107652], [52.187755, 72.129218], [52.210785, 72.127631], [52.191254, 72.101711], [52.200369, 72.08275], [52.238943, 72.091498], [52.297048, 72.07453], [52.368419, 72.075344], [52.409434, 72.086086], [52.389415, 72.092841], [52.382579, 72.105211], [52.389171, 72.118476], [52.409434, 72.127631], [52.372406, 72.151597], [52.368419, 72.162421], [52.383149, 72.171698], [52.46461, 72.154975], [52.490082, 72.164211], [52.402029, 72.223212], [52.425059, 72.231431], [52.444835, 72.228583], [52.484548, 72.209621], [52.46461, 72.230658], [52.491384, 72.24433], [52.463715, 72.26081], [52.413585, 72.269517], [52.410004, 72.280422], [52.416515, 72.289293], [52.465831, 72.27558], [52.587576, 72.264228], [52.567068, 72.277899], [52.593761, 72.290961], [52.668793, 72.306383], [52.684337, 72.322577], [52.669281, 72.345364], [52.600108, 72.355414], [52.58074, 72.374091], [52.722911, 72.34516], [52.868175, 72.346747], [52.84783, 72.354315], [52.779307, 72.354193], [52.689952, 72.367174], [52.703624, 72.386176], [52.663341, 72.428697], [52.684093, 72.446926], [52.820323, 72.450385], [52.761078, 72.474351], [52.729666, 72.479804], [52.679373, 72.471503], [52.680024, 72.478746], [52.697439, 72.497626], [52.730154, 72.510932], [52.758311, 72.504381], [52.868907, 72.518744], [52.868175, 72.53856], [52.881847, 72.548245], [52.930186, 72.559027], [52.909679, 72.57331], [53.102061, 72.600653], [52.914236, 72.596991], [52.764903, 72.56037], [52.723969, 72.559027], [52.752126, 72.592597], [52.811778, 72.613918], [52.798188, 72.626044], [52.738455, 72.62051], [52.754893, 72.638373], [52.779796, 72.647691], [52.980235, 72.675849], [53.110118, 72.649807], [53.21811, 72.648424], [53.00587, 72.683173], [52.793712, 72.682115], [52.746918, 72.672431], [52.575043, 72.67064], [52.546641, 72.675727], [52.500011, 72.703437], [52.397634, 72.717922], [52.375255, 72.730373], [52.394054, 72.752021], [52.445486, 72.752183], [52.467784, 72.761705], [52.484548, 72.79857], [52.553477, 72.823188], [52.61671, 72.863227], [53.026866, 72.924994], [53.308442, 72.877631], [53.348155, 72.878119], [53.382009, 72.888617], [53.293305, 72.908433], [53.317231, 72.914862], [53.389415, 72.908433], [53.383556, 72.920233], [53.395681, 72.929633], [53.360118, 72.939927], [53.231781, 72.936428], [53.141938, 72.96247], [53.136892, 73.003485], [53.152843, 73.014228], [53.382009, 73.011542], [53.300141, 73.03266], [53.269298, 73.062323], [53.183604, 73.069892], [53.151541, 73.080064], [53.121918, 73.100898], [53.161306, 73.112006], [53.154796, 73.146796], [53.170258, 73.16234], [53.32252, 73.220852], [53.433849, 73.244289], [53.532725, 73.22956], [53.65504, 73.274888], [53.753184, 73.298896], [53.861827, 73.302151], [54.0796, 73.272935], [54.190766, 73.272203], [54.326182, 73.307685], [54.396983, 73.315619], [54.531993, 73.37641], [54.694509, 73.391425], [54.770193, 73.412014], [54.86964, 73.42414], [54.934825, 73.42536], [55.125499, 73.393785], [55.30421, 73.339342], [55.489757, 73.320624], [55.758067, 73.327948], [55.80836, 73.313178], [55.80836, 73.29267], [55.818044, 73.290351], [56.435232, 73.230129], [56.487315, 73.197089], [56.559906, 73.166205], [56.579438, 73.151801], [56.582042, 73.129584], [56.54835, 73.121568], [55.80836, 73.066107], [55.843923, 73.056789], [56.387055, 73.068549], [56.466156, 73.052476], [56.429535, 73.026313], [56.377208, 73.006659], [56.321951, 72.996731], [56.225434, 73.008979], [55.92449, 72.988918], [55.876638, 72.97956], [55.642263, 72.97191], [55.616466, 72.96369], [55.682384, 72.951565], [55.815115, 72.956855], [55.972667, 72.941107], [56.115977, 72.96955], [56.212413, 72.977362], [56.251801, 72.972357], [56.255056, 72.958319], [56.2199, 72.908433], [56.238129, 72.898017], [56.237966, 72.883734], [56.2199, 72.853217], [56.2199, 72.826565], [56.177745, 72.817125], [56.13795, 72.782294], [56.062673, 72.777777], [55.867361, 72.802069], [55.738536, 72.784247], [55.480724, 72.805813], [55.431651, 72.78559], [55.602794, 72.78559], [55.716807, 72.753648], [55.81072, 72.758368], [55.859548, 72.735785], [55.946056, 72.668891], [55.763927, 72.675727], [55.648774, 72.704088], [55.616466, 72.696845], [55.719249, 72.651842], [55.723481, 72.638332], [55.622732, 72.62051], [55.631602, 72.607082], [55.684825, 72.57331], [55.618175, 72.542182], [55.551606, 72.54267], [55.487966, 72.575141], [55.456879, 72.582221], [55.2671, 72.586982], [55.448985, 72.5633], [55.465668, 72.53856], [55.542735, 72.526842], [55.552257, 72.512844], [55.540782, 72.497626], [55.536143, 72.47248], [55.434906, 72.470282], [55.377696, 72.458319], [55.339122, 72.464179], [55.15211, 72.462795], [55.115571, 72.450385], [55.378917, 72.436265], [55.442149, 72.444159], [55.465668, 72.436184], [55.469493, 72.400865], [55.486827, 72.395168], [55.475597, 72.370551], [55.459239, 72.350491], [55.376964, 72.30268], [55.404145, 72.285875], [55.512462, 72.259345], [55.520274, 72.236884], [55.574962, 72.199652], [55.564952, 72.181708], [55.493337, 72.158677], [55.42628, 72.119086], [55.389659, 72.107733], [55.363129, 72.076972], [55.342784, 72.065579], [55.452647, 72.058783], [55.383637, 72.017768], [55.34962, 71.976264], [55.375255, 71.965033], [55.390473, 71.942694], [55.246593, 71.955715], [55.260265, 71.942694], [55.225434, 71.929023], [55.397634, 71.922268], [55.506358, 71.898017], [55.528005, 71.863715], [55.520274, 71.832831], [55.528656, 71.785142], [55.551606, 71.747626], [55.622732, 71.682034], [55.67213, 71.611029], [55.753673, 71.557196], [55.80836, 71.531195], [55.916026, 71.431708], [56.014415, 71.387152], [56.070567, 71.280219], [56.105724, 71.258979], [56.580414, 71.056545], [56.648204, 71.012885], [56.79005, 70.967963], [56.86378, 70.952704], [56.918712, 70.914252], [57.038748, 70.869818], [57.227712, 70.837795], [57.311534, 70.80976], [57.466807, 70.81802], [57.479747, 70.789252], [57.638682, 70.729885], [57.554535, 70.72724], [57.457042, 70.748481], [57.432628, 70.743557], [57.458344, 70.725328], [57.539317, 70.704779], [57.527599, 70.681464], [57.487966, 70.667792], [57.458344, 70.637437], [57.397797, 70.626207], [57.397797, 70.620022], [57.426524, 70.61872], [57.452485, 70.60635], [57.258962, 70.628119], [57.069672, 70.672838], [57.021169, 70.674628], [56.969574, 70.659166], [56.90504, 70.667792], [56.776378, 70.710639], [56.740489, 70.702582], [56.853526, 70.647935], [57.038829, 70.626207], [57.139822, 70.640041], [57.164561, 70.633694], [57.171886, 70.613186], [57.343272, 70.571601], [57.295746, 70.564683], [56.720876, 70.64057], [56.639985, 70.669867], [56.596528, 70.674628], [56.611827, 70.658881], [56.698985, 70.633694], [56.651622, 70.629828], [56.585297, 70.64232], [56.524587, 70.66592], [56.4935, 70.695136], [56.520763, 70.729885], [56.581309, 70.737738], [56.57602, 70.746975], [56.552094, 70.753974], [56.459239, 70.745795], [56.431977, 70.715562], [56.411632, 70.713609], [56.268565, 70.740668], [56.224132, 70.741604], [56.215831, 70.736518], [56.23878, 70.721137], [56.306977, 70.71369], [56.322276, 70.702582], [56.199229, 70.709377], [56.213634, 70.695868], [56.301768, 70.681464], [56.26295, 70.666978], [56.2199, 70.667792], [56.237966, 70.653144], [56.361827, 70.647203], [56.378266, 70.650824], [56.383637, 70.660956], [56.329112, 70.681464], [56.433604, 70.676215], [56.482595, 70.664008], [56.527599, 70.64053], [56.464854, 70.638495], [56.453298, 70.626207], [56.582856, 70.613186], [56.654552, 70.589993], [56.644786, 70.574449], [56.514008, 70.544867], [56.400645, 70.56387], [56.500987, 70.558539], [56.466156, 70.571601], [56.466156, 70.579047], [56.514822, 70.569729], [56.562511, 70.579047], [56.534923, 70.596869], [56.354259, 70.597968], [56.281261, 70.613186], [56.157563, 70.657457], [56.090017, 70.668524], [56.041026, 70.647935], [56.159353, 70.629136], [56.178233, 70.609768], [56.164236, 70.594631], [56.131521, 70.595893], [56.041352, 70.62344], [55.965994, 70.660956], [55.80836, 70.695136], [55.85141, 70.650946], [55.993826, 70.617865], [56.047862, 70.585273], [56.020518, 70.573798], [55.946056, 70.599514], [55.884044, 70.585273], [55.849864, 70.60635], [55.817556, 70.613349], [55.719249, 70.611396], [55.625255, 70.633734], [55.602794, 70.647935], [55.698741, 70.62051], [55.726329, 70.626207], [55.698741, 70.647162], [55.791515, 70.633694], [55.800059, 70.644517], [55.783458, 70.668769], [55.738048, 70.707587], [55.670909, 70.716376], [55.630138, 70.73725], [55.608084, 70.732164], [55.599376, 70.721422], [55.693696, 70.698676], [55.728038, 70.677558], [55.746837, 70.647935], [55.711192, 70.673651], [55.662852, 70.689154], [55.495291, 70.712877], [55.444591, 70.743598], [55.404796, 70.750393], [55.405284, 70.736396], [55.36378, 70.718166], [55.34962, 70.702582], [55.420665, 70.696234], [55.452647, 70.68065], [55.472504, 70.65412], [55.404796, 70.68891], [55.34962, 70.681464], [55.290863, 70.68891], [55.250011, 70.678534], [55.232677, 70.666571], [55.236339, 70.651068], [55.286876, 70.619859], [55.295584, 70.60635], [55.275157, 70.612047], [55.2671, 70.585273], [55.207367, 70.580634], [55.213145, 70.565375], [55.162608, 70.553127], [55.056326, 70.599107], [54.99464, 70.616034], [54.986013, 70.633694], [54.911388, 70.64053], [54.869884, 70.660956], [54.801524, 70.667792], [54.76059, 70.680609], [54.707286, 70.722154], [54.712169, 70.757799], [54.691173, 70.76789], [54.590099, 70.778998], [54.513438, 70.825426], [54.55893, 70.792182], [54.568126, 70.777045], [54.492442, 70.784491], [54.487804, 70.749254], [54.47877, 70.736029], [54.650157, 70.695136], [54.622732, 70.68891], [54.660167, 70.678534], [54.734141, 70.669867], [54.767426, 70.647935], [54.570811, 70.674791], [54.544444, 70.68651], [54.547699, 70.702582], [54.452973, 70.717515], [54.286957, 70.777045], [54.269786, 70.772447], [54.269542, 70.763617], [54.294444, 70.743557], [54.260509, 70.729885], [54.225108, 70.72956], [54.140961, 70.756903], [54.084972, 70.743557], [54.045095, 70.74787], [53.854828, 70.822211], [53.840668, 70.823147], [53.834483, 70.815172], [53.889822, 70.784491], [53.797537, 70.806098], [53.719005, 70.798774], [53.638031, 70.829657], [53.585297, 70.831855], [53.560802, 70.839748], [53.567638, 70.852769], [53.544607, 70.854315], [53.536143, 70.844306], [53.54713, 70.812445], [53.539724, 70.804999], [53.518565, 70.819037], [53.459239, 70.823554], [53.407481, 70.850328], [53.300141, 70.8664], [53.520518, 70.869574], [53.553966, 70.886908], [53.576834, 70.888739], [53.669444, 70.837348], [53.690603, 70.834215], [53.704763, 70.845933], [53.684337, 70.857123], [53.673839, 70.872707], [53.673595, 70.890367], [53.683767, 70.908026], [53.738129, 70.947943], [53.72462, 70.968817], [53.672618, 71.004828], [53.491873, 71.072455], [53.50172, 71.094428], [53.583344, 71.079535], [53.677501, 71.078681], [53.663829, 71.092963], [53.695486, 71.098619], [53.744802, 71.084947], [53.801036, 71.086127], [53.904307, 71.054633], [53.93686, 71.059475], [53.833669, 71.109687], [53.80714, 71.133979], [54.0088, 71.140204], [54.067882, 71.119696], [53.980235, 71.132514], [53.938975, 71.130316], [53.917003, 71.106024], [53.935883, 71.101304], [53.999034, 71.106024], [54.078136, 71.099799], [54.243988, 71.12287], [54.211925, 71.140774], [54.139903, 71.127102], [54.063243, 71.136176], [53.992198, 71.16059], [54.007172, 71.162014], [54.033458, 71.185452], [54.095225, 71.188544], [54.056651, 71.20893], [54.164073, 71.209662], [54.064464, 71.237006], [54.041189, 71.233344], [53.992198, 71.199123], [53.943044, 71.176418], [53.917003, 71.17414], [53.850108, 71.206529], [53.801036, 71.209662], [53.828624, 71.185126], [53.832286, 71.170111], [53.820567, 71.157538], [53.795909, 71.155341], [53.704763, 71.174872], [53.72462, 71.188544], [53.708018, 71.19538], [53.62794, 71.208686], [53.576996, 71.199286], [53.509776, 71.224595], [53.450938, 71.264309], [53.5949, 71.301825], [53.605724, 71.322943], [53.653005, 71.348456], [53.682384, 71.398342], [53.725597, 71.411322], [53.888682, 71.422309], [53.925304, 71.43651], [53.951182, 71.462226], [53.89975, 71.471015], [53.830821, 71.435696], [53.576345, 71.390815], [53.553722, 71.379218], [53.539724, 71.3605], [53.54363, 71.31684], [53.487641, 71.303412], [53.413341, 71.311754], [53.361583, 71.333197], [53.347911, 71.367336], [53.25172, 71.456041], [53.320567, 71.473131], [53.334239, 71.497016], [53.358165, 71.514879], [53.444102, 71.545478], [53.365245, 71.569037], [53.34783, 71.567532], [53.20574, 71.509833], [53.142426, 71.462226], [53.150076, 71.440375], [53.134613, 71.426174], [53.113048, 71.422431], [53.102061, 71.432196], [53.097179, 71.452786], [53.046886, 71.484036], [53.05714, 71.498236], [53.029633, 71.499579], [53.007009, 71.483466], [53.046886, 71.456041], [53.038748, 71.442776], [52.971853, 71.442369], [52.96811, 71.405219], [52.928233, 71.409898], [52.903087, 71.392727], [52.882335, 71.393988], [52.860362, 71.413886], [52.865001, 71.439032], [52.855479, 71.456977], [52.8213, 71.469916], [52.797699, 71.464789], [52.820323, 71.428778], [52.76238, 71.433254], [52.739919, 71.442125], [52.71811, 71.489732], [52.688813, 71.485907], [52.635427, 71.462226], [52.609874, 71.468695], [52.649669, 71.52497], [52.643809, 71.546088], [52.573904, 71.575873], [52.56129, 71.592353], [52.561371, 71.627997], [52.547211, 71.634833], [52.520681, 71.62816], [52.49879, 71.565904], [52.469005, 71.55622], [52.38559, 71.549547], [52.368419, 71.534898], [52.374766, 71.513332], [52.41627, 71.476549], [52.326915, 71.493842], [52.280447, 71.513739], [52.258556, 71.538642], [52.271169, 71.57274], [52.268809, 71.587958], [52.17213, 71.548529], [52.141856, 71.545478], [52.163259, 71.518378], [52.279063, 71.476549], [52.139496, 71.485012], [52.053071, 71.476549], [51.962087, 71.479641], [51.840343, 71.456041], [51.709809, 71.517524], [51.600841, 71.536689], [51.5324, 71.565904], [51.552908, 71.603461], [51.549653, 71.613511], [51.523774, 71.646633], [51.46754, 71.692532], [51.46339, 71.702338], [51.471853, 71.710598], [51.42449, 71.736762], [51.406423, 71.781562], [51.401378, 71.87051]]], [[[56.973318, 74.690497], [56.944835, 74.707343], [56.893077, 74.712714], [56.838715, 74.709459], [56.778819, 74.693508], [56.602794, 74.697333], [56.531261, 74.746283], [56.487966, 74.754096], [56.450938, 74.747992], [56.41684, 74.753119], [56.500987, 74.793524], [56.465994, 74.799262], [55.937755, 74.780707], [55.832693, 74.800035], [55.816905, 74.807359], [55.815684, 74.817206], [55.835623, 74.831041], [55.884939, 74.846177], [56.542817, 74.924872], [56.594493, 74.942694], [56.678477, 74.948676], [56.672374, 74.958319], [56.637462, 74.972235], [56.514334, 74.948228], [56.431977, 74.957994], [56.366384, 74.94009], [56.357107, 74.940863], [56.383637, 74.96483], [56.294932, 74.96483], [56.466482, 75.012763], [56.466156, 75.022528], [56.420584, 75.037258], [56.340099, 75.025092], [56.180024, 75.020819], [56.06544, 74.996975], [55.903331, 74.991278], [55.865001, 75.003607], [55.893891, 75.021796], [55.89088, 75.032457], [55.946056, 75.074042], [55.904145, 75.087714], [55.836192, 75.087714], [55.747732, 75.075385], [55.726329, 75.081488], [55.737641, 75.086859], [55.746837, 75.108222], [55.794688, 75.12873], [55.80836, 75.156643], [55.870372, 75.163398], [55.918224, 75.197577], [56.071137, 75.21894], [56.103201, 75.211249], [56.082042, 75.197577], [56.114106, 75.1883], [56.157074, 75.185777], [56.233572, 75.197577], [56.216807, 75.180406], [56.137218, 75.156643], [56.173595, 75.150214], [56.287446, 75.170233], [56.337413, 75.189643], [56.371349, 75.188178], [56.45338, 75.118964], [56.471202, 75.087836], [56.445811, 75.067288], [56.530447, 75.078437], [56.612559, 75.10692], [56.791352, 75.197903], [56.88087, 75.223293], [56.907074, 75.24018], [56.911306, 75.255927], [56.8921, 75.280463], [56.84783, 75.289008], [56.76059, 75.287014], [56.733246, 75.296576], [56.757986, 75.318427], [56.836192, 75.355211], [57.046235, 75.398139], [57.148448, 75.379096], [57.425792, 75.375678], [57.420665, 75.362372], [57.434825, 75.356879], [57.556163, 75.334174], [57.741059, 75.327867], [57.719981, 75.341539], [57.733653, 75.355211], [57.672211, 75.379096], [57.666677, 75.416693], [57.640391, 75.439399], [57.542491, 75.451483], [57.543712, 75.467108], [57.500824, 75.499213], [57.56365, 75.51968], [58.052989, 75.577297], [58.164724, 75.578355], [58.186697, 75.588772], [58.195649, 75.603217], [58.179942, 75.61933], [58.146821, 75.628852], [57.925548, 75.628974], [57.944347, 75.654853], [58.019298, 75.681342], [58.259125, 75.692857], [58.400727, 75.709662], [58.459646, 75.727525], [58.604503, 75.732611], [58.536143, 75.759955], [58.609874, 75.782131], [58.723399, 75.792141], [58.726899, 75.819037], [58.750011, 75.832994], [58.931, 75.867621], [59.136892, 75.865424], [59.228526, 75.886664], [59.333507, 75.891669], [59.358084, 75.903266], [59.358084, 75.923774], [59.398692, 75.937445], [59.74879, 75.930609], [60.0, 75.98267459205472], [60.0, 75.00017615714363], [59.927257, 75.005805], [59.956228, 74.99018], [60.0, 74.98192416461563], [60.0, 74.72999894194582], [59.933767, 74.725287], [59.817556, 74.745103], [59.723318, 74.741604], [59.63087, 74.775865], [59.5088, 74.79975], [59.641938, 74.726996], [59.77003, 74.725816], [59.796723, 74.704088], [59.858246, 74.690619], [59.872569, 74.676825], [59.874766, 74.628485], [59.809093, 74.617133], [59.755219, 74.58747], [59.709321, 74.581936], [59.601899, 74.597235], [59.432628, 74.656195], [59.375173, 74.666571], [59.157481, 74.737942], [59.122081, 74.746772], [59.090505, 74.738267], [59.114024, 74.721503], [59.224457, 74.681627], [59.289806, 74.642646], [59.206065, 74.646186], [59.162283, 74.667304], [59.132172, 74.665513], [59.083669, 74.648871], [59.193696, 74.630805], [59.221446, 74.615424], [59.16627, 74.566962], [59.133311, 74.550482], [59.129405, 74.540432], [59.145763, 74.526028], [59.091156, 74.49494], [59.094493, 74.481269], [59.143321, 74.464016], [59.138357, 74.450873], [59.145763, 74.444037], [58.864513, 74.457099], [58.744802, 74.478217], [58.734874, 74.498033], [58.719981, 74.503323], [58.186778, 74.581244], [58.173106, 74.560736], [58.27003, 74.53266], [58.42628, 74.512356], [58.42628, 74.498033], [58.473481, 74.473822], [58.638682, 74.42357], [58.570486, 74.388861], [58.631033, 74.361274], [58.656586, 74.340481], [58.652192, 74.313707], [58.728038, 74.300035], [58.706879, 74.286444], [58.740977, 74.272773], [58.680349, 74.251654], [58.705577, 74.250067], [58.728038, 74.238593], [58.536143, 74.238593], [58.659028, 74.217475], [58.508311, 74.217475], [58.527354, 74.202297], [58.590831, 74.184027], [58.52947, 74.17178], [58.466807, 74.176581], [58.39975, 74.202948], [58.37794, 74.203843], [58.342052, 74.190131], [58.333181, 74.192939], [58.330089, 74.214097], [58.31837, 74.226874], [58.292247, 74.221625], [58.248302, 74.190172], [58.300629, 74.160631], [58.377208, 74.149115], [58.521983, 74.149237], [58.483246, 74.131903], [58.38502, 74.140082], [58.343272, 74.12873], [58.336925, 74.09398], [58.307953, 74.087633], [58.299164, 74.094184], [58.302908, 74.108303], [58.269705, 74.126044], [58.16212, 74.150377], [58.139008, 74.138983], [58.170421, 74.11636], [58.173106, 74.101386], [58.097423, 74.059882], [58.198497, 74.046129], [58.21339, 74.029446], [58.21339, 74.008368], [58.168956, 74.003241], [58.123302, 73.986721], [58.030121, 74.004706], [57.931326, 74.008287], [57.815766, 74.041571], [57.739268, 74.05093], [57.62436, 74.121283], [57.559337, 74.180243], [57.531749, 74.19184], [57.41212, 74.184027], [57.512706, 74.12344], [57.535655, 74.09398], [57.475108, 74.073676], [57.326996, 74.092719], [57.260753, 74.080308], [57.547699, 74.060777], [57.610606, 74.029934], [57.878429, 73.934312], [57.911876, 73.915839], [57.85906, 73.911607], [57.809418, 73.895413], [57.90504, 73.875474], [57.909923, 73.843207], [57.932872, 73.841376], [57.929454, 73.822577], [57.945974, 73.806586], [57.748709, 73.72602], [57.71461, 73.723334], [57.627696, 73.745185], [57.592296, 73.778957], [57.535004, 73.796088], [57.487071, 73.820746], [57.395356, 73.845526], [56.555675, 73.888577], [56.634613, 73.863349], [56.931651, 73.85399], [57.095551, 73.830146], [57.349864, 73.827582], [57.383067, 73.794989], [57.489919, 73.75434], [57.508149, 73.727688], [57.590587, 73.703843], [57.586436, 73.685452], [57.617524, 73.66885], [57.590343, 73.635321], [57.607188, 73.630927], [57.585785, 73.613674], [57.3296, 73.573879], [57.350108, 73.553412], [57.020193, 73.584215], [56.788341, 73.676256], [56.735118, 73.680243], [56.719493, 73.66885], [56.74643, 73.648383], [56.850352, 73.614814], [56.826996, 73.60692], [56.746755, 73.607367], [56.788341, 73.595526], [56.920258, 73.595933], [57.080251, 73.536566], [57.237559, 73.509589], [57.253917, 73.49136], [57.242686, 73.468655], [57.253917, 73.45718], [57.200206, 73.45307], [57.178722, 73.442043], [57.178722, 73.423041], [56.908458, 73.314683], [56.89088, 73.313178], [56.856619, 73.340522], [56.814138, 73.357367], [56.7671, 73.365627], [56.749278, 73.361518], [56.740489, 73.347317], [56.746267, 73.333808], [56.795177, 73.320624], [56.723155, 73.282416], [56.720958, 73.272854], [56.760997, 73.251695], [56.729828, 73.244534], [56.12086, 73.290025], [56.07781, 73.304023], [56.046235, 73.330268], [56.015798, 73.412299], [55.971446, 73.439276], [55.917491, 73.448391], [55.870372, 73.436103], [55.936209, 73.419013], [55.971202, 73.402981], [55.986501, 73.385199], [55.97283, 73.347317], [55.980235, 73.329657], [55.924001, 73.311998], [55.772309, 73.348049], [55.434906, 73.332099], [55.020681, 73.443549], [54.900076, 73.448391], [54.780528, 73.436103], [54.659434, 73.406806], [54.568126, 73.408759], [54.473888, 73.390815], [54.2942, 73.334133], [54.250011, 73.328274], [54.033051, 73.374661], [54.068044, 73.397854], [54.130219, 73.410102], [54.29363, 73.417711], [54.314952, 73.449693], [54.417328, 73.477688], [54.314952, 73.468817], [54.184581, 73.49136], [54.203624, 73.50495], [54.541515, 73.610989], [54.680919, 73.629869], [54.784923, 73.659329], [54.940766, 73.665473], [55.088634, 73.705512], [55.34962, 73.717231], [55.318044, 73.725328], [54.964529, 73.717108], [54.856456, 73.683539], [54.828298, 73.690579], [54.869884, 73.731513], [54.664073, 73.704779], [54.53004, 73.704169], [54.491954, 73.697333], [54.403575, 73.641506], [54.260265, 73.614814], [54.280772, 73.600531], [54.11964, 73.617174], [54.073985, 73.60871], [53.966482, 73.626654], [53.930675, 73.641506], [53.958018, 73.648912], [53.889822, 73.662665], [53.76002, 73.720649], [53.667491, 73.735012], [53.643321, 73.745185], [53.631114, 73.759589], [53.653575, 73.812486], [53.758962, 73.77969], [53.868663, 73.778713], [54.081554, 73.83393], [54.062755, 73.848619], [54.078136, 73.862006], [54.162446, 73.880316], [54.252778, 73.915839], [54.315929, 73.930976], [54.450857, 73.947943], [54.627778, 73.951483], [54.725841, 73.977932], [54.785411, 73.966213], [54.801524, 73.970445], [54.799978, 73.985419], [54.769379, 73.996283], [54.704926, 74.005276], [54.606781, 74.005601], [54.588634, 74.018866], [54.609223, 74.021959], [54.677989, 74.068183], [55.018891, 74.173], [55.181651, 74.187079], [55.278819, 74.154771], [55.393728, 74.140692], [55.486827, 74.149237], [55.814138, 74.100491], [55.864431, 74.105943], [55.870372, 74.121283], [55.8567, 74.12934], [55.781423, 74.147447], [55.682302, 74.152045], [55.632498, 74.162909], [55.622732, 74.190172], [55.237641, 74.245673], [55.147716, 74.242092], [55.075857, 74.265937], [55.143565, 74.272773], [55.150401, 74.286444], [55.228363, 74.30744], [55.2671, 74.292629], [55.253429, 74.279608], [55.286143, 74.274359], [55.40447, 74.286444], [55.528575, 74.28205], [55.657888, 74.304999], [55.682872, 74.27265], [55.708995, 74.270819], [55.735037, 74.280015], [55.746837, 74.296332], [55.636974, 74.334215], [55.59254, 74.325385], [55.527354, 74.346096], [55.449392, 74.354438], [55.298106, 74.354722], [55.260753, 74.360745], [55.232921, 74.3758], [55.34962, 74.433824], [55.388357, 74.445054], [55.506602, 74.444037], [55.618419, 74.465766], [55.663585, 74.459296], [55.903331, 74.459418], [55.972911, 74.471381], [56.039806, 74.465399], [56.104828, 74.477729], [56.263357, 74.479967], [56.287364, 74.491685], [56.254405, 74.50495], [56.014415, 74.491889], [56.046153, 74.511135], [56.082042, 74.519761], [55.976899, 74.546047], [55.866547, 74.55329], [55.708995, 74.522366], [55.656912, 74.519761], [55.705821, 74.549872], [55.657237, 74.574408], [55.499766, 74.566962], [55.561046, 74.614488], [55.522472, 74.638861], [55.520274, 74.648871], [55.529552, 74.654853], [55.612315, 74.676093], [55.755544, 74.691718], [55.870372, 74.683661], [55.862966, 74.6706], [55.896007, 74.660631], [56.387055, 74.721381], [56.418224, 74.720526], [56.418305, 74.704088], [56.555675, 74.683661], [56.98699, 74.690497], [56.973318, 74.690497]]], [[[58.695567, 70.002834], [58.570486, 70.078803], [58.604503, 70.11286], [58.559581, 70.124579], [58.549164, 70.133979], [58.611339, 70.140204], [58.576671, 70.153876], [58.590831, 70.18122], [58.573985, 70.185207], [58.521983, 70.174954], [58.509939, 70.190375], [58.452973, 70.195461], [58.501475, 70.22956], [58.423513, 70.239569], [58.41212, 70.260321], [58.428966, 70.270738], [58.467621, 70.271145], [58.824229, 70.215888], [58.777192, 70.258246], [58.697032, 70.279486], [58.659923, 70.299465], [58.49464, 70.331977], [58.519705, 70.347602], [58.638682, 70.331977], [58.631847, 70.345649], [58.729177, 70.369045], [58.755219, 70.386908], [58.761404, 70.396877], [58.74586, 70.401313], [58.730642, 70.418199], [58.740977, 70.428209], [58.872813, 70.434556], [59.023611, 70.479804], [59.059825, 70.444281], [59.315115, 70.371649], [59.351817, 70.353095], [59.439952, 70.287055], [59.533214, 70.264879], [59.542979, 70.253485], [59.535492, 70.208482], [59.553966, 70.199612], [59.639171, 70.202297], [59.706309, 70.178127], [59.766287, 70.171373], [59.782888, 70.131496], [59.837738, 70.126614], [59.927257, 70.098578], [60.0, 70.10339172035226], [60.0, 70.0], [58.70333060427618, 70.0], [58.695567, 70.002834]]], [[[57.193044, 70.541449], [57.22169, 70.526068], [57.206065, 70.510728], [57.189301, 70.511217], [57.035411, 70.544867], [57.058849, 70.529853], [57.121349, 70.516059], [57.138438, 70.497056], [57.06365, 70.502427], [56.929047, 70.532172], [56.898204, 70.558539], [56.932384, 70.565375], [56.914073, 70.578803], [56.859711, 70.585273], [56.843028, 70.60635], [57.010916, 70.576809], [57.072113, 70.554918], [57.117361, 70.558539], [57.193044, 70.541449]]], [[[53.2046, 71.191962], [53.21811, 71.168036], [53.2046, 71.151679], [53.149913, 71.127102], [53.161632, 71.108791], [53.151052, 71.095526], [53.121918, 71.086127], [53.062022, 71.088365], [53.046886, 71.072455], [53.041352, 71.034329], [53.068614, 71.016791], [53.139334, 70.993638], [53.120453, 70.977118], [53.061534, 70.966213], [53.009776, 70.968207], [53.015147, 71.004381], [52.972016, 71.02912], [52.971853, 71.045152], [52.956309, 71.057074], [52.799815, 71.092963], [52.798106, 71.114325], [52.77589, 71.13052], [52.772472, 71.168036], [52.756358, 71.176703], [52.684337, 71.188544], [52.642833, 71.223334], [52.55836, 71.24901], [52.511485, 71.250474], [52.450043, 71.235785], [52.351817, 71.245795], [52.254893, 71.273261], [52.228526, 71.288031], [52.211762, 71.308092], [52.217052, 71.333197], [52.257823, 71.348944], [52.412852, 71.37637], [52.461762, 71.372626], [52.529552, 71.387844], [52.646658, 71.38052], [52.720876, 71.349311], [52.738455, 71.353664], [52.687673, 71.384101], [52.687185, 71.397691], [52.708669, 71.407213], [52.741059, 71.405829], [52.909679, 71.367336], [52.958181, 71.318915], [53.01238, 71.297797], [53.019542, 71.281317], [53.004649, 71.279242], [52.916515, 71.308987], [52.86199, 71.353664], [52.803071, 71.37226], [52.74464, 71.374172], [52.77475, 71.370551], [52.875499, 71.333197], [52.852712, 71.324042], [52.779307, 71.325751], [52.779307, 71.318915], [53.061046, 71.238186], [53.112966, 71.2331], [53.156749, 71.243801], [53.081716, 71.250637], [53.081716, 71.257473], [53.160899, 71.268988], [53.211274, 71.257473], [53.196056, 71.226467], [53.205821, 71.216213], [53.231781, 71.215888], [53.2046, 71.191962]]], [[[51.382823, 79.95539], [51.505138, 79.933417], [51.466075, 79.920111], [51.420095, 79.916449], [50.045258, 79.974433], [50.230154, 79.994859], [50.552501, 79.988023], [50.583344, 79.994859], [50.653819, 80.044338], [50.854747, 80.067206], [50.963552, 80.101874], [51.000987, 80.102525], [51.086681, 80.062567], [51.264822, 80.056342], [51.199718, 80.032416], [51.201182, 80.010891], [51.217621, 79.994859], [51.256114, 79.982856], [51.34669, 79.977118], [51.388438, 79.966986], [51.346853, 79.953315], [51.382823, 79.95539]]], [[[50.000173, 80.056342], [49.883149, 80.069892], [49.626801, 80.131415], [49.57545, 80.136298], [49.531261, 80.158759], [49.56072, 80.172919], [49.839122, 80.215033], [49.898611, 80.233954], [50.228526, 80.22602], [50.318614, 80.19599], [50.335623, 80.181586], [50.317638, 80.167792], [50.125987, 80.142157], [50.07252, 80.110989], [50.086762, 80.103461], [50.052013, 80.083645], [50.07781, 80.079006], [50.086762, 80.073798], [50.000173, 80.056342]]], [[[55.748302, 80.650458], [55.644379, 80.649359], [55.602794, 80.665839], [55.705821, 80.700019], [55.495453, 80.700263], [55.431651, 80.71426], [55.60963, 80.741604], [55.723888, 80.732611], [55.760509, 80.741604], [55.761729, 80.755194], [55.7824, 80.761135], [56.530447, 80.787095], [56.57602, 80.775702], [56.558442, 80.763414], [56.570323, 80.757392], [56.67921, 80.754462], [56.8449, 80.727525], [56.946056, 80.693793], [56.935557, 80.689439], [56.93922, 80.669257], [56.927908, 80.662991], [56.329112, 80.624905], [56.34962, 80.639146], [56.312022, 80.655097], [55.837657, 80.631781], [55.748302, 80.650458]]], [[[46.667735, 80.516791], [46.644786, 80.515041], [46.597911, 80.522447], [46.519216, 80.518622], [46.495453, 80.508246], [46.530121, 80.474066], [46.480479, 80.459703], [46.083995, 80.439887], [46.052908, 80.447821], [46.030447, 80.465074], [46.021251, 80.488593], [46.029307, 80.515041], [46.083995, 80.555976], [46.043712, 80.573554], [45.994965, 80.577094], [45.835948, 80.551256], [45.78297, 80.54975], [45.750255, 80.561469], [45.51531, 80.519761], [45.489024, 80.524237], [45.428722, 80.557929], [45.377208, 80.573188], [45.271169, 80.589504], [44.896007, 80.604885], [44.857432, 80.617418], [44.907074, 80.630032], [45.005382, 80.633979], [45.094737, 80.649156], [46.516612, 80.721137], [46.516612, 80.727281], [46.399262, 80.734768], [46.44158, 80.745347], [46.920746, 80.748684], [47.023204, 80.760321], [47.112559, 80.788031], [47.180675, 80.798326], [47.201182, 80.809882], [47.09197, 80.830959], [47.138194, 80.842231], [47.536306, 80.856676], [47.865489, 80.812079], [48.038585, 80.807196], [48.275157, 80.830512], [48.496349, 80.798082], [48.654796, 80.755194], [48.606619, 80.745185], [48.499766, 80.749416], [48.455577, 80.727281], [48.616466, 80.698432], [48.6338, 80.680121], [48.764008, 80.659613], [48.750499, 80.617418], [48.726817, 80.610745], [48.507172, 80.634711], [48.434418, 80.652777], [48.063731, 80.662421], [47.989513, 80.680121], [48.007009, 80.701239], [48.000011, 80.708726], [47.920909, 80.711249], [47.74879, 80.770494], [47.558116, 80.74844], [47.612641, 80.727281], [47.475597, 80.734768], [47.489757, 80.717841], [47.571788, 80.680121], [47.506521, 80.673041], [47.358653, 80.688178], [47.30421, 80.652777], [47.433279, 80.610663], [47.442149, 80.600653], [47.430675, 80.593817], [47.396983, 80.591376], [47.200043, 80.625556], [47.061209, 80.595689], [47.036794, 80.58393], [47.01002, 80.555976], [46.992442, 80.55272], [46.66684, 80.566107], [46.632579, 80.555976], [46.687266, 80.529283], [46.667735, 80.516791]]], [[[59.963227, 80.443101], [59.68686, 80.426907], [59.636404, 80.43122], [59.495942, 80.482611], [59.241954, 80.529283], [59.256114, 80.538886], [59.310883, 80.543158], [59.362153, 80.558824], [59.372325, 80.570258], [59.286143, 80.581977], [59.261485, 80.597886], [59.289806, 80.617418], [59.221446, 80.652777], [59.310232, 80.686957], [59.282237, 80.700019], [59.365489, 80.721137], [59.358084, 80.727281], [59.404633, 80.750312], [59.533865, 80.763414], [59.570811, 80.789984], [59.5088, 80.803656], [59.693858, 80.837144], [59.789317, 80.830959], [59.85141, 80.842353], [60.0, 80.84774597349913], [60.0, 80.81616890746696], [59.96811, 80.809882], [60.0, 80.80996499085231], [60.0, 80.4509779798841], [59.963227, 80.443101]]], [[[58.089854, 80.787746], [57.882498, 80.787299], [57.815684, 80.809882], [57.844249, 80.824693], [58.01588, 80.840562], [58.1574, 80.871243], [58.74586, 80.902737], [58.928884, 80.882148], [58.960216, 80.871894], [59.029063, 80.824123], [59.014008, 80.823188], [58.988617, 80.803656], [58.934418, 80.780748], [58.895518, 80.773749], [58.775727, 80.782538], [58.696056, 80.778876], [58.542735, 80.754299], [58.421235, 80.748765], [58.089854, 80.787746]]], [[[54.87672, 80.721137], [54.663829, 80.741604], [54.689952, 80.768988], [54.677989, 80.782538], [54.656993, 80.788031], [54.542735, 80.780015], [54.011729, 80.79621], [53.990408, 80.80268], [53.980317, 80.81623], [53.98463, 80.828518], [54.100841, 80.851711], [54.323416, 80.864447], [54.406749, 80.851467], [54.722423, 80.871894], [54.764822, 80.864447], [54.772472, 80.855902], [54.753184, 80.844631], [54.822927, 80.835924], [54.857595, 80.839301], [54.983165, 80.892401], [55.097016, 80.902818], [55.257009, 80.890286], [55.368988, 80.861762], [55.986501, 80.803656], [55.93336, 80.791246], [54.87672, 80.721137]]], [[[51.720876, 80.727037], [51.743988, 80.71426], [51.725434, 80.701606], [51.730968, 80.693793], [51.700938, 80.676947], [51.174571, 80.61815], [50.994802, 80.547349], [50.949555, 80.53677], [50.121349, 80.527086], [50.046641, 80.498603], [49.727794, 80.49433], [49.675304, 80.481513], [49.798106, 80.452094], [49.798676, 80.426907], [49.830251, 80.416449], [49.816173, 80.401028], [49.490408, 80.363511], [48.839529, 80.387844], [48.791352, 80.364203], [48.818126, 80.350531], [48.65447, 80.317043], [48.626964, 80.295315], [48.680349, 80.286933], [48.896007, 80.281887], [48.942638, 80.273017], [49.037852, 80.241278], [48.975759, 80.213365], [49.107188, 80.189521], [49.085623, 80.172431], [48.989431, 80.166205], [48.983572, 80.153754], [48.969086, 80.151923], [48.733897, 80.159084], [48.583507, 80.202826], [48.528331, 80.209133], [48.496593, 80.192857], [48.551768, 80.158759], [48.51059, 80.124213], [48.443858, 80.100816], [48.372406, 80.091783], [48.318126, 80.100409], [48.223155, 80.13467], [48.116059, 80.136786], [48.044688, 80.117825], [48.048839, 80.099555], [48.019216, 80.089057], [47.627696, 80.072211], [47.605235, 80.078599], [47.605317, 80.088853], [47.637462, 80.102607], [47.633149, 80.117825], [47.736501, 80.162014], [47.790294, 80.175116], [48.046641, 80.189032], [48.085134, 80.20718], [47.900401, 80.201483], [47.84547, 80.213365], [47.87143, 80.224026], [47.940603, 80.224555], [47.969005, 80.235093], [47.929373, 80.247138], [47.451345, 80.239814], [47.33839, 80.213365], [47.386892, 80.186713], [47.212087, 80.19009], [47.101817, 80.170315], [46.894542, 80.191799], [46.892833, 80.203762], [46.906423, 80.227688], [46.890147, 80.23664], [46.659516, 80.274156], [46.618419, 80.295315], [46.64975, 80.31387], [47.088552, 80.371649], [47.163097, 80.358547], [47.190196, 80.343248], [47.173839, 80.323188], [47.223888, 80.308987], [47.427989, 80.322699], [47.556163, 80.3039], [47.637055, 80.316474], [48.016856, 80.309556], [47.970958, 80.321845], [48.132986, 80.326483], [48.188731, 80.337551], [48.064789, 80.346015], [47.910818, 80.369086], [47.689301, 80.372952], [47.635916, 80.388129], [47.619477, 80.405178], [48.202322, 80.416002], [48.23585, 80.426907], [48.130138, 80.435452], [48.099376, 80.446112], [48.140391, 80.467841], [48.100108, 80.476304], [47.969005, 80.467841], [47.819835, 80.476386], [47.42335, 80.442939], [47.379405, 80.453559], [47.415212, 80.466254], [48.013357, 80.546576], [48.19516, 80.535468], [48.298839, 80.561184], [48.375499, 80.571112], [48.56544, 80.542914], [48.530772, 80.515041], [48.569021, 80.505601], [48.701996, 80.515041], [48.827403, 80.497748], [48.91684, 80.525539], [48.960948, 80.530748], [49.136485, 80.516913], [49.188243, 80.52143], [49.229666, 80.53677], [49.175059, 80.555976], [49.245291, 80.568508], [49.272227, 80.582221], [49.355724, 80.587226], [49.389496, 80.597073], [49.407074, 80.617418], [49.34197, 80.620022], [49.308604, 80.629096], [49.284923, 80.645331], [49.428722, 80.654608], [49.631033, 80.639594], [49.668468, 80.652777], [49.634288, 80.665839], [49.654796, 80.680121], [49.613292, 80.686957], [49.681977, 80.721137], [49.62794, 80.730902], [49.202891, 80.693793], [49.225352, 80.714667], [49.263194, 80.727973], [49.339529, 80.734768], [49.300059, 80.746283], [49.242931, 80.744778], [49.045909, 80.714586], [48.998871, 80.719062], [48.955333, 80.734768], [49.113536, 80.769477], [49.003673, 80.775702], [49.677257, 80.853502], [49.801768, 80.893378], [50.237153, 80.933498], [50.302094, 80.923041], [50.396983, 80.921088], [50.443044, 80.912909], [50.443044, 80.906073], [50.131358, 80.889716], [49.997325, 80.865058], [50.023123, 80.858222], [50.724294, 80.895453], [50.826671, 80.919094], [50.855968, 80.918524], [50.92213, 80.888739], [51.045177, 80.851467], [51.017751, 80.837104], [50.982107, 80.831244], [50.795665, 80.831732], [50.689708, 80.813544], [50.470388, 80.809882], [50.470388, 80.803656], [50.545421, 80.789984], [50.510102, 80.776353], [50.312673, 80.764879], [50.274913, 80.756496], [50.251231, 80.741604], [50.278331, 80.741034], [50.34018, 80.716051], [50.372406, 80.713446], [50.652599, 80.765815], [50.764903, 80.741767], [50.795421, 80.742906], [50.845958, 80.768297], [50.882986, 80.774237], [51.008556, 80.777737], [51.039236, 80.775133], [51.067556, 80.751044], [51.101573, 80.748196], [51.161876, 80.755194], [51.144054, 80.767524], [51.156505, 80.775702], [51.312673, 80.789984], [51.306407, 80.775702], [51.39503, 80.760932], [51.451345, 80.741889], [51.720876, 80.727037]]], [[[58.696625, 81.024726], [58.6067, 80.994859], [58.604503, 80.974311], [58.56129, 80.957017], [58.366954, 80.94595], [58.253591, 80.955146], [57.882823, 81.030219], [57.840994, 81.047675], [57.844737, 81.059516], [57.864024, 81.065172], [58.00115, 81.084174], [57.990489, 81.097602], [58.069509, 81.111518], [58.653656, 81.043769], [58.696625, 81.024726]]], [[[57.198578, 80.906073], [57.23406, 80.933336], [57.201427, 80.953925], [57.146251, 80.961656], [57.014171, 80.961859], [56.932384, 80.974311], [56.897309, 80.992825], [56.894542, 81.002875], [56.918712, 81.00845], [56.896739, 81.016099], [56.845714, 81.013617], [56.799327, 81.027493], [56.144216, 81.092353], [56.095551, 81.09101], [56.123871, 81.118598], [56.147146, 81.123196], [56.224864, 81.107856], [56.702891, 81.113105], [56.944347, 81.072455], [57.174327, 81.056871], [57.256358, 81.064765], [57.644542, 81.024359], [57.679454, 80.998521], [57.750011, 80.970689], [58.2824, 80.9265], [58.248383, 80.917222], [57.965668, 80.888332], [57.838145, 80.853339], [57.534353, 80.862698], [57.440684, 80.883734], [57.198578, 80.906073]]], [[[54.449392, 80.997748], [54.417328, 81.00845], [54.454926, 81.04857], [54.553966, 81.063707], [54.536469, 81.074368], [54.544281, 81.083808], [54.670909, 81.12519], [54.863048, 81.084174], [55.321625, 81.050035], [55.520274, 81.00845], [55.576915, 81.007148], [56.019216, 81.043606], [56.623302, 80.981757], [56.652354, 80.943549], [57.681326, 80.816799], [57.716075, 80.793158], [57.706798, 80.78266], [57.634288, 80.772528], [57.562348, 80.74844], [57.058767, 80.69184], [57.007498, 80.700019], [56.843028, 80.76203], [56.705821, 80.782538], [56.668468, 80.809231], [55.798839, 80.854438], [55.773936, 80.861396], [55.757335, 80.888739], [55.547211, 80.897691], [55.376964, 80.933336], [55.404796, 80.957587], [55.380626, 80.968573], [55.315196, 80.975287], [55.207286, 80.953843], [54.998302, 80.951158], [54.883556, 80.978013], [54.859548, 81.001654], [54.449392, 80.997748]]], [[[50.347423, 81.09101], [50.387869, 81.105292], [50.367361, 81.12519], [50.519054, 81.128974], [50.538585, 81.138821], [50.490896, 81.159247], [50.529633, 81.167873], [50.819835, 81.166164], [50.91212, 81.143012], [50.976817, 81.105902], [50.968028, 81.095689], [50.937999, 81.091702], [50.765961, 81.088365], [50.744802, 81.077379], [50.752208, 81.067816], [50.779145, 81.062445], [50.785004, 81.053453], [50.774425, 81.044013], [50.574555, 81.046373], [50.451508, 81.016547], [50.409434, 81.013129], [50.374278, 81.022773], [50.390961, 81.036444], [50.440929, 81.048326], [50.476573, 81.069973], [50.347423, 81.09101]]], [[[56.740489, 81.453518], [56.792491, 81.472317], [56.935883, 81.482815], [56.981781, 81.493232], [57.007498, 81.508734], [56.946056, 81.522406], [57.013031, 81.536811], [57.48227, 81.533352], [57.514496, 81.542914], [57.484548, 81.551418], [57.514171, 81.560004], [57.784028, 81.564765], [57.823009, 81.550279], [57.795746, 81.536078], [57.864024, 81.516181], [57.843516, 81.495063], [57.888845, 81.485582], [58.399913, 81.474189], [58.544444, 81.429999], [58.570486, 81.413153], [58.305675, 81.376899], [57.797618, 81.378892], [57.659434, 81.399359], [57.576671, 81.398871], [57.562348, 81.419989], [57.438731, 81.43773], [57.266124, 81.426825], [56.740489, 81.453518]]], [[[57.989431, 81.690131], [57.891287, 81.707953], [57.904633, 81.729193], [57.928071, 81.733588], [57.945974, 81.755194], [58.145274, 81.776842], [57.988129, 81.787258], [57.939708, 81.803616], [57.977794, 81.816636], [58.069998, 81.817043], [58.156098, 81.830268], [59.214692, 81.85871], [59.304535, 81.842963], [59.403087, 81.836575], [59.439952, 81.817816], [59.384451, 81.810248], [59.331309, 81.789862], [59.372325, 81.773749], [59.372325, 81.762641], [59.355642, 81.753323], [58.295421, 81.714179], [57.989431, 81.690131]]], [[[59.234141, 75.990668], [59.26002, 75.984076], [59.262462, 75.965399], [59.237153, 75.948228], [59.198904, 75.943793], [59.021251, 75.932074], [58.810313, 75.902086], [58.724132, 75.89704], [58.693207, 75.903266], [58.7317, 75.916897], [58.991222, 75.947984], [59.234141, 75.990668]]], [[[58.792735, 80.011054], [58.768728, 80.021064], [58.778575, 80.037421], [58.796397, 80.043647], [59.529145, 80.120917], [59.590343, 80.108588], [59.809581, 80.088935], [59.841563, 80.070746], [59.844981, 80.037299], [59.836111, 80.027289], [59.85141, 80.015367], [59.909841, 80.005601], [59.927257, 79.994859], [59.862478, 79.988349], [59.737559, 79.959866], [59.542979, 79.939643], [59.440684, 79.948065], [59.433116, 79.933417], [59.372081, 79.919664], [59.206798, 79.9289], [59.173676, 79.939643], [59.200369, 79.953315], [59.151622, 79.954901], [58.792735, 80.011054]]], [[[56.019054, 80.18183], [56.047862, 80.200344], [55.993907, 80.213365], [56.007579, 80.235093], [55.952322, 80.261786], [55.993907, 80.30272], [55.97283, 80.323188], [55.989268, 80.336656], [56.129893, 80.351223], [56.642751, 80.32453], [56.692149, 80.343695], [56.690278, 80.360093], [56.71225, 80.368354], [57.021983, 80.364], [57.097667, 80.34516], [57.131033, 80.306138], [57.086599, 80.272284], [57.083669, 80.258124], [57.098888, 80.220893], [57.148936, 80.207221], [57.153575, 80.198961], [57.119314, 80.179674], [57.054373, 80.167792], [57.046886, 80.154364], [57.072927, 80.137152], [57.138438, 80.117825], [57.117931, 80.096015], [57.077485, 80.082994], [56.956798, 80.066311], [55.948578, 80.078437], [55.759613, 80.104315], [55.712087, 80.103461], [56.019054, 80.18183]]], [[[52.601329, 80.199408], [52.356619, 80.208686], [52.304698, 80.222724], [52.182872, 80.276068], [52.305512, 80.292914], [52.568858, 80.289496], [52.595551, 80.295315], [52.589041, 80.308987], [52.600434, 80.315131], [52.730968, 80.323188], [52.730968, 80.330024], [52.68629, 80.344143], [52.684337, 80.357978], [52.698253, 80.367743], [52.859548, 80.405463], [52.950531, 80.412584], [53.046886, 80.398993], [53.149587, 80.412584], [53.293712, 80.408637], [53.341075, 80.398993], [53.322927, 80.37873], [53.348806, 80.360541], [53.531993, 80.309556], [53.869477, 80.270941], [53.820811, 80.241278], [53.733409, 80.217678], [53.704763, 80.220771], [53.66391, 80.24494], [53.589854, 80.242377], [53.539724, 80.220771], [53.51295, 80.179877], [53.489919, 80.17182], [52.64503, 80.172309], [52.601329, 80.199408]]], [[[57.42628, 80.127753], [57.27768, 80.178371], [57.28061, 80.190416], [57.302257, 80.20718], [57.219737, 80.241278], [57.247081, 80.251532], [57.265391, 80.268866], [57.265961, 80.286038], [57.240245, 80.295315], [57.258962, 80.325873], [57.192393, 80.364203], [57.274425, 80.391547], [57.242849, 80.411526], [56.946056, 80.481513], [58.452403, 80.468085], [58.564708, 80.450507], [58.680431, 80.446031], [58.774181, 80.428168], [58.898692, 80.426907], [59.19337, 80.378485], [59.239431, 80.359198], [59.276134, 80.330024], [58.590831, 80.337551], [58.587576, 80.321194], [58.557872, 80.315253], [58.390961, 80.320217], [58.322032, 80.303616], [58.138438, 80.282294], [58.076915, 80.261786], [58.093272, 80.247992], [58.123302, 80.242133], [58.429373, 80.241889], [58.460623, 80.235093], [58.474864, 80.222357], [58.467052, 80.209459], [58.42628, 80.186713], [58.446788, 80.179877], [58.406505, 80.165595], [58.251313, 80.186713], [58.086192, 80.183295], [58.041352, 80.205756], [57.933604, 80.192206], [57.90504, 80.172431], [57.914399, 80.163398], [57.97047, 80.148505], [57.990977, 80.117092], [58.014903, 80.110989], [57.97047, 80.098944], [57.713064, 80.098822], [57.528819, 80.131415], [57.42628, 80.127753]]], [[[53.853852, 80.482123], [53.837576, 80.505113], [53.847504, 80.510199], [53.88266, 80.510077], [53.972911, 80.529283], [53.858735, 80.554429], [53.841319, 80.573676], [53.853526, 80.600084], [53.883311, 80.610745], [54.269054, 80.58869], [54.314952, 80.577094], [54.170421, 80.572577], [54.136078, 80.555976], [54.165212, 80.547919], [54.409841, 80.542914], [54.387055, 80.52497], [54.401052, 80.514879], [54.458263, 80.50137], [54.465099, 80.481513], [54.429861, 80.464423], [54.369395, 80.456366], [54.333832, 80.428534], [54.288259, 80.420356], [54.239024, 80.420152], [53.798025, 80.472886], [53.853852, 80.482123]]], [[[57.397309, 81.216295], [57.611583, 81.222805], [57.887869, 81.245551], [58.026541, 81.234036], [58.083751, 81.214545], [57.851817, 81.190131], [57.770763, 81.148017], [57.70045, 81.137152], [57.389822, 81.123765], [56.994395, 81.166164], [57.068533, 81.184272], [57.242035, 81.189439], [57.397309, 81.216295]]], [[[55.575043, 81.212226], [55.560557, 81.22309], [55.588634, 81.241889], [55.586111, 81.263617], [55.60906, 81.275946], [55.431651, 81.275946], [55.431651, 81.283433], [55.540782, 81.297105], [55.465668, 81.324408], [55.58546, 81.316962], [55.712087, 81.330552], [55.705821, 81.324408], [55.734141, 81.317043], [55.86964, 81.324408], [55.897716, 81.310126], [55.953624, 81.300849], [56.074474, 81.301947], [56.215994, 81.277248], [56.54477, 81.254788], [56.602794, 81.261705], [56.602794, 81.26911], [56.472992, 81.2897], [56.391124, 81.324408], [56.418305, 81.33808], [56.37379, 81.35517], [56.359223, 81.37401], [56.335948, 81.379055], [56.335948, 81.385199], [56.726248, 81.397162], [56.781016, 81.385199], [56.760997, 81.379055], [56.789073, 81.368476], [56.898204, 81.379055], [57.408702, 81.341132], [57.459972, 81.316962], [57.49879, 81.312323], [57.617524, 81.330552], [57.688731, 81.331122], [57.90504, 81.297105], [57.810802, 81.274644], [57.047537, 81.253241], [56.708344, 81.203925], [56.614513, 81.178534], [56.431163, 81.174465], [56.383637, 81.179836], [56.389985, 81.203762], [56.343761, 81.218573], [56.240408, 81.228217], [55.824392, 81.186469], [55.739594, 81.201158], [55.646821, 81.200263], [55.575043, 81.212226]]], [[[58.481212, 81.323635], [58.464122, 81.334947], [58.469493, 81.34748], [58.536143, 81.351752], [58.6692, 81.381578], [59.017914, 81.403388], [59.245942, 81.376532], [59.300141, 81.364203], [59.385427, 81.330552], [59.342459, 81.304267], [59.224864, 81.3039], [59.054373, 81.287055], [58.654633, 81.306586], [58.563487, 81.324408], [58.481212, 81.323635]]], [[[53.395356, 71.280504], [53.354747, 71.279731], [53.242198, 71.309475], [53.199718, 71.340888], [53.161469, 71.354885], [53.239919, 71.354438], [53.395356, 71.280504]]], [[[58.861176, 79.910956], [58.870372, 79.901313], [58.819591, 79.886542], [58.763357, 79.883002], [58.654063, 79.892768], [58.584727, 79.926459], [58.52947, 79.933295], [58.248302, 79.933417], [58.251638, 79.939195], [58.613943, 79.979438], [58.644867, 79.975328], [58.63738, 79.959133], [58.716075, 79.9289], [58.861176, 79.910956]]], [[[59.993175, 80.146959], [59.891287, 80.175442], [59.89975, 80.183051], [60.0, 80.18610043215722], [60.0, 80.1466439912427], [59.993175, 80.146959]]], [[[54.427501, 80.271877], [54.399587, 80.258857], [54.406098, 80.221137], [54.382091, 80.210354], [54.206309, 80.200385], [54.178071, 80.189276], [54.13795, 80.196479], [54.168224, 80.236884], [54.110362, 80.252672], [54.101248, 80.272895], [54.109223, 80.28677], [54.193533, 80.307115], [54.30128, 80.304674], [54.407725, 80.284817], [54.427501, 80.271877]]], [[[55.524099, 80.306342], [55.503266, 80.293402], [55.498302, 80.277167], [55.424083, 80.259589], [55.299327, 80.246649], [55.234874, 80.227932], [55.075694, 80.219306], [54.996593, 80.237616], [54.942068, 80.240871], [54.931895, 80.244127], [54.941905, 80.248725], [54.929698, 80.259589], [55.153819, 80.275621], [55.157237, 80.279364], [55.140961, 80.284247], [55.06658, 80.292141], [55.070974, 80.300767], [55.296397, 80.33218], [55.351736, 80.333401], [55.49879, 80.31684], [55.524099, 80.306342]]], [[[55.244965, 80.438463], [55.263031, 80.430609], [55.270518, 80.409369], [55.259776, 80.396918], [55.263194, 80.39053], [55.129893, 80.374335], [55.084809, 80.376776], [55.084483, 80.38581], [55.071137, 80.391099], [54.97462, 80.403266], [54.987478, 80.414374], [55.244965, 80.438463]]], [[[54.851085, 80.426174], [54.846446, 80.417711], [54.771495, 80.393012], [54.52589, 80.374905], [54.390391, 80.386542], [54.458263, 80.402533], [54.513438, 80.445624], [54.62672, 80.47724], [54.724294, 80.472073], [54.851085, 80.426174]]], [[[54.63087, 80.502102], [54.622406, 80.511298], [54.708995, 80.525784], [54.886241, 80.533108], [55.056407, 80.502875], [55.068614, 80.498725], [55.073009, 80.484076], [55.046072, 80.467231], [54.981944, 80.44892], [54.821462, 80.464789], [54.63087, 80.502102]]], [[[59.755544, 81.184882], [59.755544, 81.169989], [59.729666, 81.164862], [58.99464, 81.198188], [59.00172, 81.204535], [59.097667, 81.213121], [59.755544, 81.184882]]], [[[59.840587, 81.291571], [60.0, 81.30783827853881], [60.0, 81.27885492283448], [59.840587, 81.291571]]], [[[58.275727, 81.592719], [58.291759, 81.60456], [58.364106, 81.610663], [58.413585, 81.62519], [58.646821, 81.633531], [58.696462, 81.620307], [58.702322, 81.612616], [58.665294, 81.596137], [58.493012, 81.579088], [58.368907, 81.579657], [58.275727, 81.592719]]]]}}]}