{"type": "FeatureCollection", "features": [{"type": "Feature", "properties": {"name": "Australia"}, "geometry": {"type": "MultiPolygon", "coordinates": [[[[131.535899, -31.605564], [131.135427, -31.474786], [130.79005, -31.608087], [130.156912, -31.573907], [129.20045, -31.656427], [128.931651, -31.708103], [128.017345, -32.084242], [127.288748, -32.27337], [126.677745, -32.316583], [126.18572, -32.232517], [126.007579, -32.27337], [125.537275, -32.548379], [125.000255, -32.737237], [124.833991, -32.867698], [124.356944, -32.952813], [124.201182, -33.038018], [124.094737, -33.155694], [123.952485, -33.567315], [123.526622, -33.938653], [123.383311, -33.890883], [123.154633, -34.009454], [123.023123, -33.86061], [122.607432, -33.894789], [122.560313, -33.959161], [122.349864, -33.915297], [122.257823, -34.022068], [122.094737, -34.019138], [122.005707, -33.820733], [121.793712, -33.897149], [121.333751, -33.815199], [120.562185, -33.892999], [120.394298, -33.97381], [120.002208, -33.926039], [119.572032, -34.142022], [119.469493, -34.313409], [119.559255, -34.383722], [119.408458, -34.37005], [119.364024, -34.49505], [119.301443, -34.445896], [119.229991, -34.532159], [118.839854, -34.452569], [118.887706, -34.500421], [118.727306, -34.558038], [118.724946, -34.635837], [118.442638, -34.740004], [118.398448, -34.900974], [118.160818, -34.945489], [118.199392, -35.016778], [117.83546, -35.031427], [118.001475, -35.088149], [117.948578, -35.117364], [117.684337, -35.046319], [117.61964, -35.137872], [117.191661, -35.007501], [117.140391, -35.062758], [116.736339, -35.007501], [116.637869, -35.050226], [116.39503, -34.949477], [116.503673, -34.939223], [116.387543, -34.857517], [116.37615, -34.917413], [115.978526, -34.835626], [115.915782, -34.701918], [115.612315, -34.445896], [115.290782, -34.301853], [115.118826, -34.363377], [115.010427, -34.24505], [114.988536, -33.521091], [115.194672, -33.644627], [115.367198, -33.63128], [115.710134, -33.270685], [115.697927, -33.193129], [115.66684, -33.287693], [115.600922, -32.661716], [115.700938, -32.512953], [115.639659, -32.656915], [115.714122, -32.78045], [115.658865, -32.628513], [115.769298, -32.602309], [115.714529, -32.537042], [115.73585, -32.333185], [115.673676, -32.27337], [115.756847, -32.185642], [115.721528, -31.772638], [115.060802, -30.522393], [114.942638, -30.03102], [114.97877, -29.479913], [114.842459, -29.108575], [114.60377, -28.838556], [114.531098, -28.522393], [114.166026, -28.106703], [114.097911, -27.862726], [114.143891, -27.687758], [114.012543, -27.315362], [113.15698, -26.151926], [113.275971, -26.234857], [113.306224, -25.996651], [113.327998, -26.274896], [113.38427, -26.382755], [113.362674, -26.012815], [113.396642, -26.17658], [113.451631, -26.159384], [113.486755, -26.479943], [113.543565, -26.287118], [113.565507, -26.565081], [113.625147, -26.439997], [113.669586, -26.652893], [113.870286, -26.52213], [113.884773, -26.342673], [113.577239, -26.089343], [113.557553, -25.940989], [113.420781, -25.728215], [113.51525, -25.509337], [113.520796, -25.600955], [113.756951, -25.885217], [113.728004, -26.197035], [113.795386, -26.206715], [113.84807, -26.12171], [113.854503, -25.944268], [113.909577, -25.976373], [113.906016, -26.119317], [114.021534, -26.390888], [114.103776, -26.447882], [114.234371, -26.316584], [114.186534, -25.978936], [114.268565, -25.989516], [114.258556, -25.841892], [114.155284, -25.789727], [113.802419, -25.171808], [113.692149, -25.105239], [113.60434, -24.728285], [113.391449, -24.41367], [113.459727, -23.910333], [113.60434, -23.624688], [113.768809, -23.457696], [113.748302, -23.162286], [113.807384, -22.930597], [113.759776, -22.788751], [113.658946, -22.727797], [113.646658, -22.577732], [113.947032, -21.952569], [114.035818, -21.837823], [114.172211, -21.802992], [114.077485, -22.17547], [114.109711, -22.330987], [114.171397, -22.317478], [114.11085, -22.477716], [114.179698, -22.521742], [114.286632, -22.443292], [114.337413, -22.493829], [114.497813, -22.16367], [114.495616, -22.00449], [114.550304, -22.041925], [114.646739, -21.843357], [115.478526, -21.501153], [115.936697, -21.059015], [116.151541, -20.969985], [116.1963, -20.846856], [116.451508, -20.814711], [116.790863, -20.534926], [116.845388, -20.539321], [116.783946, -20.657159], [116.855479, -20.712091], [117.154063, -20.596368], [117.181326, -20.673517], [117.35377, -20.727716], [117.736339, -20.658461], [118.15089, -20.356134], [118.805675, -20.28102], [119.09547, -19.966729], [119.589854, -20.065851], [119.734386, -19.96266], [120.3685, -19.86712], [121.128266, -19.520685], [121.519379, -19.069594], [121.642589, -18.810235], [121.613292, -18.712498], [121.769054, -18.657403], [121.731619, -18.580987], [121.811046, -18.462579], [121.91033, -18.464451], [122.347016, -18.121189], [122.344086, -17.983005], [122.16977, -17.978285], [122.172048, -17.261163], [122.472911, -16.92018], [122.594981, -16.970961], [122.526134, -16.861749], [122.582367, -16.779555], [122.820974, -16.779718], [122.746104, -16.702895], [122.7588, -16.604425], [122.916189, -16.415948], [123.020274, -16.382582], [123.053722, -16.470636], [122.990001, -16.473403], [122.959809, -16.580336], [123.042817, -16.692478], [123.132172, -16.686293], [123.094493, -16.769301], [123.15089, -16.807712], [123.143321, -16.913751], [123.260427, -17.014744], [123.570811, -17.595147], [123.567638, -17.361993], [123.644298, -17.184747], [123.5796, -17.094008], [123.594981, -16.985121], [123.913341, -17.21559], [123.794607, -17.000095], [123.863048, -17.025567], [123.841645, -16.946547], [123.953298, -16.828546], [123.792491, -16.89072], [123.708263, -16.741876], [123.509939, -16.653904], [123.609223, -16.546319], [123.512543, -16.566664], [123.424164, -16.491143], [123.643321, -16.525974], [123.506114, -16.407973], [123.711681, -16.429783], [123.631602, -16.364679], [123.711681, -16.38128], [123.711681, -16.333591], [123.539724, -16.265232], [123.57016, -16.176935], [123.724132, -16.136326], [123.806895, -16.191095], [123.766856, -16.20436], [123.813487, -16.246026], [123.732677, -16.258966], [123.862641, -16.327325], [123.863048, -16.429783], [123.891856, -16.3388], [123.992849, -16.377862], [123.910899, -16.217462], [124.126231, -16.272231], [124.222667, -16.395603], [124.342133, -16.407973], [124.386078, -16.35117], [124.473643, -16.393324], [124.839692, -16.425714], [124.903982, -16.402439], [124.401541, -16.329278], [124.434337, -16.057794], [124.520356, -16.176446], [124.596202, -16.115004], [124.609711, -15.898696], [124.732677, -15.806573], [124.609711, -15.806573], [124.486339, -15.998305], [124.438487, -15.826349], [124.404307, -15.87477], [124.376475, -15.676202], [124.427501, -15.621515], [124.376475, -15.525323], [124.472911, -15.468683], [124.629649, -15.504978], [124.640147, -15.415948], [124.682628, -15.473891], [124.732677, -15.357517], [124.669688, -15.352309], [124.663748, -15.250421], [124.756602, -15.285252], [124.739513, -15.33294], [124.797862, -15.291925], [124.822032, -15.354099], [124.920421, -15.361017], [124.979747, -15.477634], [125.049815, -15.498224], [125.061697, -15.44964], [125.185232, -15.517836], [125.07252, -15.418878], [125.144298, -15.313084], [125.038097, -15.281427], [124.917735, -15.339776], [124.885265, -15.296808], [125.055431, -15.162286], [124.869884, -15.250421], [124.84197, -15.141209], [125.021251, -15.100274], [125.000173, -14.970392], [125.072276, -14.96852], [125.165294, -15.162286], [125.165294, -15.011407], [125.288259, -15.140558], [125.43214, -15.137953], [125.366466, -15.051446], [125.429535, -15.009047], [125.186778, -14.945489], [125.308849, -14.885024], [125.135997, -14.735935], [125.30128, -14.634698], [125.232921, -14.61419], [125.347667, -14.498712], [125.342784, -14.607354], [125.390636, -14.539158], [125.439464, -14.638849], [125.493663, -14.490655], [125.589203, -14.545343], [125.618175, -14.223728], [125.733165, -14.270929], [125.658051, -14.333103], [125.637706, -14.634698], [125.732921, -14.398533], [125.733165, -14.470147], [125.849946, -14.457615], [125.833018, -14.584568], [125.918142, -14.637791], [125.925059, -14.51865], [126.04127, -14.508722], [125.980235, -14.380792], [126.144786, -14.195245], [126.134451, -14.094903], [125.97283, -14.021417], [126.096365, -14.025079], [126.017345, -13.922052], [126.086436, -13.889418], [126.151622, -13.922133], [126.110606, -14.017755], [126.22047, -13.956231], [126.165863, -14.085382], [126.288829, -14.230076], [126.345063, -14.184666], [126.293712, -14.136489], [126.329112, -14.059259], [126.527517, -13.928969], [126.569184, -13.94199], [126.453298, -14.077569], [126.52768, -14.072931], [126.493663, -14.113377], [126.603526, -14.230076], [126.651866, -14.066095], [126.692719, -14.120782], [126.733735, -14.072931], [126.707205, -13.983575], [126.85727, -13.949395], [126.747406, -13.791762], [126.814464, -13.768324], [126.843028, -13.818536], [126.863536, -13.743341], [127.02003, -13.777765], [127.129731, -13.967706], [127.165212, -13.880548], [127.196951, -13.949314], [127.236827, -13.892022], [127.332693, -13.961196], [127.330251, -13.901056], [127.418468, -13.94199], [127.450206, -14.057306], [127.666026, -14.178399], [127.947276, -14.573175], [128.231293, -14.718194], [128.190603, -14.829848], [128.117931, -14.853774], [128.024262, -15.496515], [128.101329, -15.424574], [128.125173, -15.182061], [128.289317, -15.401788], [128.195811, -15.056817], [128.313487, -14.904962], [128.350108, -15.037286], [128.364919, -14.984063], [128.417979, -15.039727], [128.450206, -15.042657], [128.388438, -14.803399], [128.5324, -14.752862], [129.102306, -14.905369], [129.18393, -14.981866], [129.152599, -15.223728], [129.221446, -15.169692], [129.214122, -15.2374], [129.263031, -15.107599], [129.22877, -14.836602], [129.476573, -14.93377], [129.585216, -15.169692], [129.645518, -15.134942], [129.727061, -15.193617], [129.611827, -14.94256], [129.649181, -14.832696], [129.982432, -14.805922], [129.993337, -14.72503], [129.762706, -14.819594], [129.796886, -14.764418], [129.711599, -14.784845], [129.588064, -14.613458], [129.789399, -14.531671], [129.53533, -14.545343], [129.358084, -14.408787], [129.372895, -14.329278], [129.493175, -14.144464], [129.482188, -14.051853], [129.585216, -14.092869], [129.605724, -13.997247], [129.735606, -13.991795], [129.715994, -13.867446], [129.815929, -13.761977], [129.785492, -13.675714], [129.891287, -13.437677], [129.968923, -13.53045], [130.133962, -13.461033], [130.254161, -13.323826], [130.332286, -13.346368], [130.122732, -13.164646], [130.129893, -12.940525], [130.318614, -12.90602], [130.35434, -12.672052], [130.516124, -12.654067], [130.506847, -12.596449], [130.586436, -12.709242], [130.692882, -12.700616], [130.560395, -12.628351], [130.617524, -12.603936], [130.57838, -12.400811], [130.783865, -12.434991], [130.79005, -12.585138], [130.811046, -12.537367], [130.899913, -12.639825], [130.968598, -12.626723], [130.87379, -12.513604], [130.968598, -12.537367], [130.824718, -12.400811], [130.907237, -12.331964], [131.05128, -12.373468], [131.026134, -12.147149], [131.257335, -12.236261], [131.296235, -12.043878], [131.346853, -12.219659], [131.447765, -12.289809], [131.896983, -12.215916], [132.057872, -12.306736], [132.251313, -12.156345], [132.278331, -12.228204], [132.379893, -12.215997], [132.387543, -12.380304], [132.449392, -12.300388], [132.439626, -12.15488], [132.563975, -12.091567], [132.757579, -12.133396], [132.634532, -12.067153], [132.652192, -11.848565], [132.593028, -11.784438], [132.695567, -11.653497], [132.578868, -11.611017], [132.495372, -11.47617], [132.369884, -11.434991], [132.106456, -11.523126], [131.947765, -11.394464], [131.976085, -11.351251], [131.767589, -11.310805], [131.882498, -11.17197], [131.940278, -11.251397], [131.983246, -11.226251], [131.985606, -11.129164], [132.114513, -11.208754], [132.10727, -11.331964], [132.140636, -11.303399], [132.174653, -11.406427], [132.235606, -11.339451], [132.148123, -11.137302], [132.285167, -11.268487], [132.277517, -11.162205], [132.343028, -11.122003], [132.37794, -11.283136], [132.474946, -11.234145], [132.674164, -11.508396], [132.833263, -11.399672], [132.894867, -11.418878], [132.867442, -11.338149], [132.910981, -11.331801], [133.166759, -11.70436], [133.34669, -11.688246], [133.323741, -11.759454], [133.407237, -11.72381], [133.478526, -11.790785], [133.532074, -11.749119], [133.532074, -11.865818], [133.802501, -11.714939], [133.915782, -11.722345], [133.843761, -11.855239], [133.943126, -11.91367], [134.056, -11.844822], [134.087087, -11.927911], [134.13795, -11.87949], [134.185802, -12.07643], [134.285004, -11.968194], [134.428966, -12.05755], [134.594249, -12.064386], [134.768565, -11.947686], [134.861095, -12.12656], [135.21759, -12.300823], [135.170075, -12.228222], [135.338145, -12.245701], [135.222684, -12.19133], [135.366267, -12.087613], [135.587901, -12.098565], [135.711997, -12.018483], [135.581065, -12.05755], [135.59254, -11.965102], [135.775157, -11.919366], [135.900401, -11.75921], [135.903417, -11.849899], [135.716907, -12.003019], [135.91627, -11.968194], [135.652138, -12.203286], [135.731944, -12.311456], [136.053477, -12.064386], [135.935395, -12.213637], [135.974457, -12.264581], [136.060232, -12.232192], [135.985118, -12.36297], [136.033946, -12.465916], [136.284516, -12.415785], [136.363048, -12.222914], [136.177013, -12.170831], [136.450713, -11.942333], [136.572215, -11.896443], [136.470251, -11.986425], [136.533289, -11.993246], [136.663585, -12.263604], [136.745372, -12.265802], [136.67944, -12.204699], [136.760916, -12.164483], [136.983653, -12.345473], [136.771177, -12.541406], [136.805512, -12.456476], [136.740245, -12.475763], [136.761285, -12.574338], [136.690138, -12.713272], [136.608409, -12.714939], [136.610688, -12.830336], [136.559255, -12.745212], [136.532428, -12.804426], [136.47169, -12.773858], [136.657494, -12.995739], [136.496755, -12.975193], [136.567231, -13.058201], [136.472341, -13.242364], [136.322001, -13.307989], [136.388194, -13.225763], [136.332856, -13.046882], [136.30836, -13.162774], [136.249278, -13.129653], [136.158618, -13.262878], [136.147634, -13.122247], [136.053477, -13.311944], [136.008285, -13.215505], [135.883365, -13.325764], [135.969435, -13.425652], [135.854747, -13.455987], [135.844837, -13.600186], [135.923106, -13.675063], [135.886729, -13.713637], [135.9699, -13.742283], [136.077891, -13.662693], [135.923106, -13.959649], [135.909434, -14.195245], [135.759125, -14.265395], [135.522634, -14.651544], [135.368175, -14.722833], [135.469574, -14.948012], [136.22462, -15.408624], [136.273204, -15.559503], [136.594737, -15.71087], [136.722911, -15.862237], [136.715587, -15.935968], [136.925548, -15.934666], [136.991873, -15.86419], [137.361176, -16.122166], [137.746104, -16.25213], [137.866873, -16.437107], [138.184255, -16.697198], [139.008311, -16.89544], [139.158051, -17.032973], [139.164317, -17.203709], [139.274181, -17.348321], [139.43865, -17.375665], [139.999522, -17.70615], [140.523204, -17.630304], [140.845225, -17.441176], [140.947032, -17.018324], [141.199474, -16.703058], [141.431163, -16.061782], [141.377696, -15.929376], [141.439708, -15.648858], [141.665701, -15.011407], [141.521658, -14.483819], [141.598481, -14.114516], [141.467784, -13.865492], [141.527029, -13.571384], [141.693614, -13.250584], [141.583751, -12.985772], [141.754731, -12.818455], [141.809744, -12.667657], [141.938731, -12.908461], [141.905284, -12.757094], [142.008311, -12.714939], [141.823253, -12.654067], [141.974132, -12.585138], [141.797618, -12.580011], [141.693614, -12.503188], [141.744802, -12.454767], [141.658946, -12.447931], [141.699962, -12.544366], [141.590587, -12.540785], [141.717133, -12.232843], [141.809744, -12.236261], [141.753429, -12.208103], [141.831228, -12.005955], [141.913341, -11.954522], [141.919607, -12.106052], [142.03297, -12.041192], [141.947602, -11.896173], [142.131847, -11.338149], [142.151052, -10.950616], [142.323416, -10.901625], [142.434093, -10.728123], [142.546153, -10.687677], [142.615896, -10.752374], [142.50172, -10.947849], [142.590831, -10.864923], [142.66627, -11.003106], [142.741954, -10.97503], [142.872244, -11.382501], [142.821056, -11.477634], [142.862315, -11.836847], [142.992198, -11.934015], [143.104177, -11.902114], [143.249034, -11.968194], [143.086274, -12.149021], [143.077159, -12.32879], [143.25294, -12.38893], [143.294932, -12.534845], [143.43393, -12.613051], [143.358897, -12.880548], [143.543793, -12.832778], [143.50294, -13.075128], [143.597911, -13.524184], [143.530121, -13.750177], [143.687266, -14.014337], [143.782725, -14.402276], [143.941173, -14.511163], [144.161632, -14.373142], [144.201182, -14.250421], [144.303559, -14.312595], [144.486339, -14.161879], [144.584727, -14.264825], [144.580414, -14.36419], [144.633149, -14.339939], [144.615977, -14.467706], [144.677582, -14.555841], [144.900727, -14.61419], [145.030528, -14.805922], [145.22283, -14.832696], [145.27711, -14.947035], [145.345714, -14.94256], [145.23585, -15.165948], [145.268809, -15.249444], [145.349457, -15.250421], [145.243907, -15.428399], [145.366384, -15.749282], [145.355805, -15.903416], [145.462413, -16.060479], [145.400401, -16.443292], [145.722504, -16.800226], [145.774262, -16.988377], [145.839122, -16.881524], [145.955089, -16.873142], [145.881847, -17.059666], [146.147716, -17.632582], [146.010102, -18.236505], [146.183442, -18.380141], [146.209158, -18.51336], [146.339366, -18.527032], [146.270763, -18.851658], [146.333263, -18.95908], [146.905121, -19.30462], [147.010427, -19.252618], [147.024099, -19.177423], [147.133962, -19.410821], [147.421397, -19.412774], [147.402354, -19.303888], [147.559093, -19.53753], [147.565278, -19.705173], [147.684255, -19.828058], [147.785004, -19.835382], [147.750824, -19.691502], [147.823904, -19.714288], [147.929047, -19.897556], [148.072439, -19.877048], [148.278575, -19.965753], [148.264903, -20.083103], [148.402029, -20.1985], [148.464041, -20.185479], [148.444184, -20.061944], [148.560069, -20.052667], [148.61085, -20.213637], [148.648448, -20.164972], [148.683116, -20.274184], [148.781993, -20.240818], [148.937022, -20.534926], [148.808279, -20.433364], [148.70102, -20.439223], [148.724132, -20.500746], [148.660167, -20.572198], [148.843516, -20.77752], [148.827159, -20.890558], [148.875011, -20.842869], [149.056326, -20.898533], [149.026622, -20.976251], [149.150645, -20.996189], [149.231212, -21.089776], [149.196544, -21.220147], [149.292735, -21.281671], [149.286469, -21.397719], [149.341075, -21.424412], [149.292166, -21.510675], [149.395193, -21.503839], [149.429373, -21.583754], [149.487153, -21.535903], [149.435395, -21.789727], [149.587576, -22.282159], [149.697439, -22.344334], [149.663259, -22.493829], [149.812755, -22.378106], [150.046723, -22.645278], [149.923513, -22.298272], [150.053559, -22.141534], [150.194021, -22.378676], [150.609141, -22.610528], [150.543712, -22.366957], [150.618419, -22.334405], [150.663829, -22.419366], [150.677501, -22.358005], [150.759776, -22.470473], [150.677501, -22.562677], [150.731944, -22.628106], [150.773448, -22.530206], [150.826427, -22.697931], [150.787364, -22.926446], [150.736501, -22.932875], [150.764415, -23.158868], [150.839041, -23.248956], [150.787364, -23.30934], [150.882335, -23.488865], [150.813975, -23.50921], [151.011277, -23.566502], [151.187185, -23.804132], [151.537283, -24.021742], [151.550548, -24.091404], [151.581798, -24.043715], [151.691661, -24.098321], [151.641368, -23.978285], [151.721039, -24.058689], [151.780447, -24.022556], [152.123057, -24.591729], [152.469737, -24.805597], [152.506033, -24.999444], [152.636974, -25.160333], [152.567719, -25.178643], [152.913829, -25.287693], [152.931814, -25.416681], [152.870372, -25.475681], [152.962413, -25.437433], [152.966156, -25.497247], [152.884044, -25.674249], [153.021251, -25.825128], [153.021251, -25.969008], [153.061534, -25.81756], [153.121593, -25.93377], [153.205577, -25.934991], [153.074067, -26.316583], [153.137218, -26.392999], [153.110037, -26.646905], [153.210216, -27.077244], [153.082205, -27.110447], [153.038259, -27.193455], [153.117442, -27.196954], [153.064952, -27.310479], [153.167979, -27.363702], [153.401866, -27.809177], [153.445811, -27.791436], [153.399913, -27.954197], [153.570567, -28.19378], [153.562511, -28.504571], [153.630626, -28.661554], [153.605968, -28.867446], [153.475597, -29.000177], [153.350597, -29.28102], [153.294932, -29.826593], [153.02307, -30.575506], [152.987796, -30.734634], [153.089366, -30.905694], [153.059501, -31.07721], [152.747215, -31.842585], [152.546373, -32.043679], [152.539886, -32.442092], [152.294764, -32.559589], [152.191989, -32.65267], [152.219249, -32.697198], [152.060883, -32.697931], [152.185069, -32.766778], [151.799237, -32.89368], [151.568957, -33.292228], [151.453795, -33.304199], [151.503829, -33.36001], [151.424164, -33.527765], [151.230724, -33.534926], [151.225597, -33.609063], [151.299338, -33.570624], [151.29526, -33.64878], [151.340753, -33.617466], [151.304698, -33.825372], [151.246918, -33.856378], [151.281423, -33.952325], [151.095225, -34.014418], [151.231212, -34.04046], [150.968953, -34.262675], [150.918868, -34.486404], [150.800955, -34.548272], [150.917003, -34.603448], [150.727061, -34.874119], [150.844737, -35.077244], [150.80714, -35.110528], [150.787364, -35.014907], [150.695567, -35.026137], [150.759451, -35.178888], [150.553966, -35.213556], [150.291677, -35.722833], [150.190929, -35.726821], [150.238617, -35.833103], [150.14975, -35.898207], [150.148692, -36.062595], [150.106781, -36.048598], [150.081554, -36.083754], [150.143321, -36.114435], [150.142345, -36.320001], [149.909679, -36.905532], [149.94158, -37.062188], [149.87615, -37.09588], [149.997569, -37.150486], [150.053559, -37.268731], [149.95102, -37.284275], [149.985362, -37.495864], [149.896332, -37.548598], [149.718435, -37.515802], [149.766287, -37.58408], [149.678477, -37.691013], [149.491222, -37.783298], [148.306407, -37.823419], [147.757579, -37.985121], [146.847667, -38.684991], [146.224132, -38.714451], [146.182384, -38.755955], [146.286388, -38.909845], [146.476736, -38.810479], [146.435069, -39.019952], [146.483409, -39.06463], [146.394216, -39.144952], [146.181651, -38.868341], [146.091807, -38.819757], [145.921153, -38.906671], [145.757172, -38.659601], [145.853526, -38.700616], [145.809337, -38.65016], [145.59962, -38.680108], [145.513682, -38.578383], [145.373057, -38.536798], [145.433849, -38.50213], [145.420746, -38.426935], [145.556895, -38.385186], [145.464366, -38.234552], [145.25587, -38.241469], [145.202403, -38.324477], [145.229015, -38.413263], [145.112966, -38.406427], [144.944591, -38.510349], [144.676768, -38.333185], [144.803966, -38.379083], [144.982921, -38.341404], [145.119314, -38.159356], [145.110199, -38.05169], [144.934825, -37.867934], [144.5171, -38.111586], [144.373057, -38.118422], [144.523611, -38.177992], [144.704763, -38.146091], [144.652843, -38.285821], [144.401866, -38.301202], [143.536957, -38.858331], [142.810232, -38.578383], [142.502452, -38.374444], [142.175466, -38.398696], [141.761974, -38.261814], [141.632091, -38.30877], [141.653982, -38.399835], [141.557872, -38.439711], [141.483084, -38.376235], [141.394542, -38.401625], [141.391124, -38.306085], [141.134288, -38.127618], [140.951427, -38.054295], [140.690196, -38.068129], [140.398204, -37.919854], [140.114268, -37.517511], [139.988048, -37.487074], [139.794932, -37.268731], [139.741547, -37.180841], [139.788341, -37.126235], [139.672048, -36.953383], [139.842133, -36.84588], [139.857107, -36.634942], [139.729015, -36.372328], [139.456716, -35.95794], [138.917817, -35.576755], [139.44752, -35.927341], [139.672048, -36.227797], [139.475434, -35.896417], [139.041352, -35.604099], [139.155284, -35.503351], [139.234141, -35.54754], [139.229503, -35.689386], [139.338064, -35.687433], [139.355724, -35.593357], [139.218923, -35.507257], [139.361013, -35.489516], [139.362966, -35.376886], [139.177989, -35.315362], [138.961192, -35.413832], [139.030935, -35.517511], [138.793793, -35.483982], [138.993419, -35.54754], [138.74586, -35.538751], [138.531261, -35.645929], [138.201671, -35.671645], [138.107432, -35.620701], [138.139008, -35.54046], [138.438162, -35.342706], [138.513927, -35.038263], [138.493907, -34.791599], [138.550629, -34.781915], [138.2942, -34.504571], [138.078136, -34.128351], [137.892263, -34.526056], [137.910411, -34.623956], [137.749522, -35.131036], [137.671397, -35.180841], [137.425548, -35.118259], [137.1692, -35.242283], [137.039724, -35.227227], [136.913585, -35.296563], [136.839366, -35.256117], [137.019786, -34.901462], [137.446137, -34.917413], [137.512706, -34.617771], [137.478526, -34.466241], [137.414317, -34.472426], [137.483897, -34.355401], [137.452403, -34.155694], [137.548595, -34.087172], [137.602061, -33.876642], [137.878842, -33.59787], [137.930919, -33.616469], [137.810444, -33.259985], [137.854991, -33.190606], [138.03712, -33.139581], [138.040212, -33.081638], [137.957774, -33.004653], [137.938487, -32.752618], [137.849132, -32.697931], [137.773936, -32.519789], [137.778331, -32.982843], [137.632091, -32.961521], [137.452159, -33.140069], [137.224864, -33.653253], [137.020193, -33.730157], [136.945567, -33.682306], [136.883149, -33.754815], [136.96461, -33.753106], [136.607432, -33.902927], [136.369395, -34.073419], [136.232188, -34.308689], [136.114757, -34.383722], [136.10141, -34.534845], [136.069347, -34.481866], [135.936778, -34.534601], [135.882986, -34.768487], [135.79949, -34.805271], [136.016368, -34.744073], [135.969493, -34.876642], [136.012462, -34.979669], [135.96461, -35.007501], [135.782725, -34.857599], [135.632579, -34.952895], [135.45753, -34.731541], [135.319672, -34.685968], [135.287852, -34.592462], [135.108084, -34.595961], [135.209809, -34.431573], [135.37086, -34.628188], [135.503591, -34.611912], [135.389171, -34.569268], [135.346446, -34.275567], [135.230968, -34.136814], [135.265147, -34.017511], [135.189789, -33.892999], [134.840831, -33.63128], [134.861013, -33.479425], [134.676606, -33.233331], [134.730724, -33.225518], [134.706228, -33.172947], [134.581554, -33.145929], [134.628266, -33.246677], [134.47755, -33.157322], [134.359141, -33.153985], [134.333507, -33.205011], [134.233735, -33.047296], [134.148611, -33.02752], [134.209972, -33.000177], [134.190684, -32.946466], [134.068696, -32.929295], [134.132823, -32.835626], [134.074067, -32.713962], [134.216807, -32.725844], [134.214041, -32.806248], [134.297618, -32.678481], [134.148285, -32.456964], [133.864431, -32.546808], [133.869151, -32.43255], [133.949962, -32.389418], [133.649181, -32.101658], [133.561371, -32.172133], [133.418712, -32.133477], [133.494314, -32.19964], [133.270844, -32.218845], [132.976573, -32.108982], [132.776215, -31.95086], [132.516124, -31.941339], [132.471853, -32.03045], [132.233735, -32.032973], [131.535899, -31.605564]]], [[[128.131358, -15.03753], [128.194509, -15.126886], [128.186778, -15.190199], [128.125987, -15.134698], [128.131358, -15.03753]]], [[[128.416189, -14.956231], [128.440684, -15.038751], [128.35377, -14.869236], [128.416189, -14.956231]]], [[[129.583018, -14.803806], [129.633637, -14.870701], [129.611827, -14.867364], [129.583018, -14.803806]]], [[[129.501964, -14.798517], [129.587087, -14.883477], [129.591482, -14.963637], [129.501964, -14.798517]]], [[[126.515147, -13.90488], [126.553966, -13.875258], [126.61085, -13.901056], [126.515147, -13.90488]]], [[[134.854259, -12.037774], [134.92628, -12.068129], [134.90797, -12.117852], [134.878103, -12.100274], [134.854259, -12.037774]]], [[[134.908472, -12.022625], [134.985986, -12.04145], [134.948729, -12.054669], [134.908472, -12.022625]]], [[[135.121962, -11.929696], [135.057697, -11.953185], [135.046072, -11.941502], [135.053888, -11.919437], [135.121962, -11.929696]]], [[[133.359548, -11.617364], [133.484386, -11.601983], [133.360199, -11.660333], [133.359548, -11.617364]]], [[[133.476899, -11.454848], [133.510997, -11.503188], [133.39503, -11.544203], [133.39503, -11.489028], [133.476899, -11.454848]]], [[[147.998546, -43.230401], [147.882823, -43.131524], [147.792491, -43.244073], [147.700206, -43.162774], [147.747895, -43.105727], [147.627208, -43.042739], [147.692556, -42.936212], [147.763031, -43.03753], [147.887055, -43.034438], [147.840343, -42.902032], [147.533539, -42.836602], [147.559093, -42.977227], [147.436209, -43.046075], [147.40211, -42.998224], [147.469005, -43.011326], [147.477306, -42.908868], [147.422211, -42.926935], [147.283702, -42.778497], [147.360199, -42.925226], [147.333181, -43.042657], [147.254405, -43.027276], [147.30128, -43.083103], [147.247732, -43.129164], [147.257579, -43.254327], [147.163829, -43.270115], [147.092133, -43.231866], [147.106619, -43.154718], [147.060557, -43.201593], [147.017833, -43.1124], [146.972911, -43.131117], [146.966482, -43.198989], [147.099783, -43.299412], [146.962657, -43.340265], [147.055349, -43.356215], [146.921641, -43.42962], [147.017833, -43.478123], [146.901703, -43.531996], [146.927013, -43.611749], [146.710704, -43.629002], [146.554698, -43.469415], [146.51352, -43.533949], [146.238129, -43.484552], [146.024181, -43.552504], [145.943207, -43.364841], [146.085623, -43.353936], [146.161388, -43.415948], [146.180186, -43.364841], [146.230235, -43.395603], [146.229503, -43.319757], [146.168224, -43.277602], [146.025401, -43.324884], [145.917166, -43.195896], [145.869314, -43.273045], [145.925792, -43.289158], [145.831798, -43.292576], [145.729991, -43.10003], [145.510265, -42.958429], [145.352712, -42.650811], [145.265473, -42.604262], [145.297862, -42.558852], [145.188731, -42.195733], [145.434825, -42.379327], [145.472016, -42.512791], [145.558116, -42.341567], [145.463145, -42.327244], [145.345714, -42.147231], [145.27003, -42.223728], [145.229015, -42.195733], [145.266368, -42.123468], [145.206554, -41.966567], [144.920177, -41.702895], [144.749848, -41.414239], [144.781098, -41.365167], [144.605805, -40.996515], [144.703787, -40.871352], [144.698578, -40.660252], [145.118826, -40.821384], [145.250255, -40.791681], [145.269216, -40.719985], [145.332367, -40.838067], [145.523936, -40.845798], [145.809825, -41.026951], [146.214366, -41.155369], [146.546397, -41.132745], [146.585623, -41.180108], [146.744151, -41.065525], [146.808116, -41.156671], [146.949555, -41.161065], [146.819347, -41.075372], [147.017589, -40.976658], [147.171072, -41.006524], [147.342784, -40.942153], [147.444835, -41.008396], [147.650564, -40.828546], [147.849457, -40.888767], [147.984223, -40.736505], [148.209321, -40.840753], [148.331391, -41.002211], [148.272309, -41.045017], [148.321544, -41.268487], [148.257986, -41.346612], [148.354177, -41.291436], [148.27947, -41.450372], [148.314952, -41.606541], [148.260997, -41.800388], [148.364268, -42.20436], [148.321788, -42.278009], [148.257986, -42.244236], [148.320079, -42.119399], [148.162446, -42.059177], [148.24171, -42.00742], [148.181, -41.947361], [148.131358, -42.061944], [148.217052, -42.093357], [148.092947, -42.100193], [147.963878, -42.339776], [148.030935, -42.332289], [148.006033, -42.514093], [147.888682, -42.545099], [147.953136, -42.719985], [147.844574, -42.866143], [147.915294, -42.888442], [147.920746, -42.838311], [148.004731, -42.908868], [147.949555, -43.072849], [147.998546, -43.230401]]], [[[158.85255, -54.613214], [158.962413, -54.469334], [158.838227, -54.750421], [158.85255, -54.613214]]], [[[147.304454, -43.261814], [147.364513, -43.396742], [147.303884, -43.508884], [147.215587, -43.415216], [147.167735, -43.501642], [147.086192, -43.42962], [147.17921, -43.454034], [147.168142, -43.368259], [147.225597, -43.385512], [147.304454, -43.261814]]], [[[147.360037, -43.074884], [147.437511, -43.238946], [147.36085, -43.257908], [147.387869, -43.196222], [147.291759, -43.153009], [147.360037, -43.074884]]], [[[148.024587, -42.613458], [148.176036, -42.648207], [148.011567, -42.751235], [148.024587, -42.613458]]], [[[148.265636, -42.296482], [148.340587, -42.354099], [148.230724, -42.299412], [148.265636, -42.296482]]], [[[144.930512, -40.61533], [145.065196, -40.709161], [144.872813, -40.715997], [144.930512, -40.61533]]], [[[148.194184, -40.596287], [148.131114, -40.513767], [148.25115, -40.489435], [148.194184, -40.596287]]], [[[144.779145, -40.405369], [144.790538, -40.50213], [144.742442, -40.592462], [144.708263, -40.489435], [144.779145, -40.405369]]], [[[144.950206, -40.453383], [144.831228, -40.427992], [144.96046, -40.397882], [144.950206, -40.453383]]], [[[148.323497, -40.304457], [148.484548, -40.427992], [148.408865, -40.489435], [147.998546, -40.417739], [148.323497, -40.304457]]], [[[148.124278, -40.270603], [147.88502, -40.030857], [147.88087, -39.894952], [147.75766, -39.879327], [147.953298, -39.711684], [148.167003, -39.935642], [148.299001, -39.961847], [148.223888, -40.126397], [148.299001, -40.099054], [148.326915, -40.222589], [148.214122, -40.204197], [148.124278, -40.270603]]], [[[144.109223, -39.665785], [144.112478, -40.030857], [143.902843, -40.126153], [143.837169, -39.918634], [143.86199, -39.700616], [143.948009, -39.653985], [143.944591, -39.578871], [144.109223, -39.665785]]], [[[146.471365, -38.747247], [146.660899, -38.755955], [146.53891, -38.797052], [146.471365, -38.747247]]], [[[145.279307, -38.451593], [145.35255, -38.570977], [145.112966, -38.530532], [145.279307, -38.451593]]], [[[145.297862, -38.296563], [145.494395, -38.365167], [145.283702, -38.402602], [145.297862, -38.296563]]], [[[138.129649, -35.816339], [138.047699, -35.918634], [137.821788, -35.864028], [137.628754, -35.910333], [137.602306, -36.025811], [137.459239, -36.082696], [137.227875, -35.97975], [137.139903, -36.04225], [136.715587, -36.062758], [136.532563, -35.911879], [136.59783, -35.757501], [137.335134, -35.58294], [137.622895, -35.582127], [137.581554, -35.64544], [137.647716, -35.659438], [137.580821, -35.726821], [137.778494, -35.739516], [137.812755, -35.811456], [137.935557, -35.726495], [138.129649, -35.816339]]], [[[136.44752, -35.169366], [136.476329, -35.144708], [136.498546, -35.172052], [136.44752, -35.169366]]], [[[136.086111, -34.948175], [136.199718, -35.03281], [136.201345, -35.075372], [136.086111, -34.948175]]], [[[137.336192, -34.515313], [137.37379, -34.498224], [137.354828, -34.538018], [137.336192, -34.515313]]], [[[134.486339, -33.711684], [134.550629, -33.733657], [134.479015, -33.783624], [134.486339, -33.711684]]], [[[133.565684, -32.321222], [133.579356, -32.259698], [133.675548, -32.239353], [133.620372, -32.259698], [133.565684, -32.321222]]], [[[159.044444, -31.51922], [159.106456, -31.567641], [159.08961, -31.589044], [159.064789, -31.588149], [159.044444, -31.51922]]], [[[153.434093, -27.392999], [153.548839, -27.415216], [153.455903, -27.720798], [153.403331, -27.726251], [153.434093, -27.392999]]], [[[153.42921, -27.354425], [153.360525, -27.066013], [153.451345, -27.017022], [153.418224, -27.222833], [153.42921, -27.354425]]], [[[113.216645, -26.068048], [113.207042, -26.139744], [112.953868, -25.773045], [112.959483, -25.482517], [113.137543, -25.885919], [113.115571, -25.963311], [113.216645, -26.068048]]], [[[152.953624, -25.278497], [153.006358, -25.327732], [152.993907, -25.338474], [152.953624, -25.278497]]], [[[113.069347, -25.276462], [113.079112, -25.062433], [113.117686, -25.009454], [113.069347, -25.276462]]], [[[113.134939, -24.892022], [113.117686, -24.995212], [113.151866, -24.755629], [113.134939, -24.892022]]], [[[153.369965, -24.989028], [153.083507, -25.665785], [153.099864, -25.757745], [153.055349, -25.797133], [152.9463, -25.58294], [153.068533, -25.329034], [153.014415, -25.211521], [153.226085, -25.02752], [153.239594, -24.913263], [153.137218, -24.817071], [153.281261, -24.693536], [153.284923, -24.876642], [153.369965, -24.989028]]], [[[151.333263, -23.750177], [151.383067, -23.879571], [151.328624, -23.802911], [151.333263, -23.750177]]], [[[151.239106, -23.488865], [151.266449, -23.776137], [150.979607, -23.487386], [151.0713, -23.447198], [151.195079, -23.533868], [151.239106, -23.488865]]], [[[149.710297, -22.385186], [149.766287, -22.364679], [149.724783, -22.439874], [149.710297, -22.385186]]], [[[150.504568, -22.216729], [150.555837, -22.306329], [150.48227, -22.344985], [150.457774, -22.310154], [150.504568, -22.216729]]], [[[149.916515, -22.041925], [149.928233, -22.160089], [149.88852, -22.226821], [149.869395, -22.142267], [149.916515, -22.041925]]], [[[150.293224, -21.740899], [150.341075, -21.740899], [150.368907, -21.726739], [150.342784, -21.771742], [150.293224, -21.740899]]], [[[150.305349, -21.659763], [150.246104, -21.678888], [150.246104, -21.62363], [150.305349, -21.659763]]], [[[115.464529, -20.730157], [115.408051, -20.853692], [115.306977, -20.870538], [115.428966, -20.669122], [115.464529, -20.730157]]], [[[149.094086, -20.418227], [149.115082, -20.479669], [149.053071, -20.52809], [149.039399, -20.500746], [149.094086, -20.418227]]], [[[149.067393, -20.315199], [148.927013, -20.287286], [148.984874, -20.151462], [149.00408, -20.229262], [149.067393, -20.315199]]], [[[148.95753, -20.143813], [148.881847, -20.137628], [148.963715, -20.041599], [148.980235, -20.056899], [148.95753, -20.143813]]], [[[148.45045, -19.965753], [148.480968, -20.004571], [148.470225, -20.047621], [148.45045, -20.041599], [148.45045, -19.965753]]], [[[146.832856, -19.102309], [146.867035, -19.163832], [146.820079, -19.175063], [146.780284, -19.132013], [146.832856, -19.102309]]], [[[146.302094, -18.237237], [146.310802, -18.478692], [146.223399, -18.465509], [146.199229, -18.375258], [146.097341, -18.245212], [146.217459, -18.277927], [146.229503, -18.198012], [146.302094, -18.237237]]], [[[139.493907, -16.985121], [139.569347, -17.100356], [139.425059, -17.142836], [139.493907, -16.985121]]], [[[139.107677, -16.862481], [139.133311, -16.812921], [139.158051, -16.827569], [139.107677, -16.862481]]], [[[139.734141, -16.443292], [139.707693, -16.526462], [139.487071, -16.517836], [139.524669, -16.556899], [139.473643, -16.557387], [139.444672, -16.664646], [139.302094, -16.724542], [139.177989, -16.662367], [139.144867, -16.756036], [139.164317, -16.616306], [139.287852, -16.470636], [139.582693, -16.395603], [139.734141, -16.443292]]], [[[136.670421, -15.663181], [136.711925, -15.703546], [136.663585, -15.778578], [136.615733, -15.714044], [136.670421, -15.663181]]], [[[136.731781, -15.648858], [136.834972, -15.682387], [136.731781, -15.744399], [136.731781, -15.648858]]], [[[137.083193, -15.652196], [137.072894, -15.846961], [136.934725, -15.721324], [136.994756, -15.592776], [137.083193, -15.652196]]], [[[136.615733, -15.538995], [136.587901, -15.635186], [136.498546, -15.627699], [136.524913, -15.534275], [136.615733, -15.538995]]], [[[136.895681, -15.587498], [136.848481, -15.635186], [136.883311, -15.498142], [136.895681, -15.587498]]], [[[124.417979, -15.254083], [124.431651, -15.308689], [124.336192, -15.300063], [124.417979, -15.254083]]], [[[124.549571, -15.297459], [124.650157, -15.395115], [124.531261, -15.440362], [124.58253, -15.373956], [124.458832, -15.360935], [124.568696, -15.244236], [124.549571, -15.297459]]], [[[124.924571, -14.936293], [124.927013, -15.029229], [124.86378, -14.972589], [124.924571, -14.936293]]], [[[135.727829, -14.834527], [135.762679, -14.900902], [135.687246, -14.902892], [135.727829, -14.834527]]], [[[125.152843, -14.44378], [125.208751, -14.481622], [125.204926, -14.593032], [125.137462, -14.647638], [125.096446, -14.549005], [125.137462, -14.559015], [125.152843, -14.44378]]], [[[136.811697, -13.808852], [136.810313, -13.808282], [136.818126, -13.801365], [136.811697, -13.808852]]], [[[136.234223, -13.666436], [136.28004, -13.791762], [136.197439, -13.853204], [136.177013, -13.763849], [136.156505, -13.839532], [136.11671, -13.816664], [136.114757, -13.723565], [136.234223, -13.666436]]], [[[136.978852, -14.147393], [136.903087, -14.298923], [136.426768, -14.195245], [136.324067, -14.229587], [136.437348, -14.120375], [136.409679, -13.818536], [136.594737, -13.81227], [136.572276, -13.686212], [136.620942, -13.717706], [136.718272, -13.647719], [136.676524, -13.743748], [136.731781, -13.839532], [136.81422, -13.849705], [136.841645, -13.750177], [136.903087, -13.757582], [136.855968, -13.915216], [136.768321, -13.944594], [136.810802, -14.029392], [136.7046, -14.126886], [136.736339, -14.189142], [136.789236, -14.149509], [136.880707, -14.208591], [136.978852, -14.147393]]], [[[136.142956, -13.56045], [136.094981, -13.360447], [136.203136, -13.461196], [136.142956, -13.56045]]], [[[136.797069, -12.108355], [136.829356, -12.132257], [136.820974, -12.137953], [136.797069, -12.108355]]], [[[132.339854, -12.098565], [132.411876, -12.083673], [132.405772, -12.132989], [132.339854, -12.098565]]], [[[136.290212, -11.975681], [136.269298, -12.038995], [136.129161, -12.05755], [136.129161, -12.016697], [136.290212, -11.975681]]], [[[136.483246, -11.889418], [136.477794, -11.814223], [136.498546, -11.79811], [136.483246, -11.889418]]], [[[136.519542, -11.790704], [136.623709, -11.736586], [136.581554, -11.79811], [136.519542, -11.790704]]], [[[135.955906, -11.707165], [135.980865, -11.661368], [136.055205, -11.650048], [136.006045, -11.708678], [135.955906, -11.707165]]], [[[132.545177, -11.631606], [132.645518, -11.65016], [132.640636, -11.691176], [132.544688, -11.708754], [132.545177, -11.631606]]], [[[136.319509, -11.60296], [136.478038, -11.461114], [136.375662, -11.592055], [136.177013, -11.688246], [136.266856, -11.572931], [136.319509, -11.60296]]], [[[130.536794, -11.705011], [130.628184, -11.80462], [130.496349, -11.839044], [130.321056, -11.770196], [130.084239, -11.827813], [130.016612, -11.777032], [130.071544, -11.671157], [130.185395, -11.676528], [130.198497, -11.506606], [130.146983, -11.489028], [130.344981, -11.317071], [130.386485, -11.519708], [130.461681, -11.592055], [130.448009, -11.701349], [130.536794, -11.705011]]], [[[131.517914, -11.380629], [131.473969, -11.600193], [131.386567, -11.577813], [131.293142, -11.724054], [130.961192, -11.933852], [130.496593, -11.649509], [130.367442, -11.204278], [130.400157, -11.153253], [130.516124, -11.296563], [130.587169, -11.286798], [130.566173, -11.394627], [130.658458, -11.331313], [130.695567, -11.43434], [130.920909, -11.30934], [131.023285, -11.413263], [131.048839, -11.315037], [131.153087, -11.249282], [131.219249, -11.399672], [131.205333, -11.246515], [131.274425, -11.18963], [131.301443, -11.277439], [131.427745, -11.249688], [131.47462, -11.390558], [131.517914, -11.380629]]], [[[136.762462, -11.019301], [136.716482, -11.206231], [136.478019, -11.447934], [136.688029, -11.177596], [136.762462, -11.019301]]], [[[132.599294, -11.344985], [132.46811, -11.029962], [132.599294, -10.968357], [132.599294, -11.344985]]], [[[142.193207, -10.591485], [142.283051, -10.714532], [142.187022, -10.769627], [142.112315, -10.68434], [142.193207, -10.591485]]], [[[142.274425, -10.640802], [142.294281, -10.573175], [142.325206, -10.6124], [142.274425, -10.640802]]], [[[142.293468, -10.13893], [142.334239, -10.200453], [142.289806, -10.260186], [142.221202, -10.24212], [142.214366, -10.153253], [142.293468, -10.13893]]], [[[142.1421, -10.050388], [142.190115, -10.143731], [142.142914, -10.185642], [142.097016, -10.118585], [142.1421, -10.050388]]], [[[115.660004, -32.149835], [115.678477, -32.216485], [115.680512, -32.239353], [115.660004, -32.232517], [115.660004, -32.149835]]], [[[115.440142, -32.021834], [115.524607, -31.993807], [115.552192, -32.006203], [115.440142, -32.021834]]], [[[113.684598, -28.486277], [113.720213, -28.428124], [113.749539, -28.427576], [113.684598, -28.486277]]], [[[146.581309, -18.682224], [146.684255, -18.752048], [146.57016, -18.760837], [146.581309, -18.682224]]], [[[142.637462, -9.373956], [142.782563, -9.386326], [142.641612, -9.428399], [142.637462, -9.373956]]], [[[142.15089, -9.271417], [142.280121, -9.261651], [142.279145, -9.287042], [142.15089, -9.271417]]]]}}, {"type": "Feature", "properties": {"name": "New Zealand"}, "geometry": {"type": "MultiPolygon", "coordinates": [[[[165.924083, -50.851251], [166.226329, -50.885431], [165.985525, -50.904392], [165.924083, -50.851251]]], [[[169.293524, -52.520198], [169.195296, -52.600313], [169.015391, -52.542657], [169.113593, -52.546453], [169.186255, -52.469199], [169.293524, -52.520198]]], [[[166.287771, -50.542739], [166.164317, -50.686782], [166.226329, -50.693536], [166.122732, -50.700372], [166.232595, -50.75506], [166.240082, -50.851007], [166.061209, -50.830743], [166.083507, -50.786798], [166.040212, -50.752048], [165.992931, -50.776137], [166.021495, -50.836033], [165.896739, -50.851251], [165.925304, -50.754002], [166.078787, -50.675551], [166.095876, -50.535903], [166.287771, -50.542739]]], [[[178.839041, -49.629164], [178.822113, -49.719822], [178.719005, -49.700128], [178.770763, -49.627211], [178.839041, -49.629164]]], [[[-176.236073, -44.241957], [-176.113881, -44.265069], [-176.218984, -44.341241], [-176.236073, -44.241957]]], [[[-176.285105, -43.769708], [-176.398793, -43.907647], [-176.372263, -43.765883], [-176.53539, -43.755629], [-176.423044, -43.805841], [-176.501536, -43.864435], [-176.456532, -43.949802], [-176.395212, -43.938572], [-176.300038, -44.042576], [-176.51179, -44.121759], [-176.581492, -44.123142], [-176.664377, -44.01922], [-176.51594, -43.922296], [-176.566151, -43.837823], [-176.85497, -43.820082], [-176.580637, -43.703383], [-176.169138, -43.731378], [-176.285105, -43.769708]]], [[[-177.848134, -29.278578], [-177.924875, -29.284356], [-177.957997, -29.222752], [-177.889394, -29.233819], [-177.848134, -29.278578]]], [[[-171.185658, -9.361261], [-171.199696, -9.344334], [-171.2058, -9.330987], [-171.185658, -9.361261]]], [[[-172.483632, -8.586521], [-172.494944, -8.554783], [-172.502553, -8.543227], [-172.483632, -8.586521]]], [[[166.637218, -47.993585], [166.637218, -48.062433], [166.56837, -48.041925], [166.637218, -47.993585]]], [[[167.426768, -47.244561], [167.454275, -47.207452], [167.48699, -47.218927], [167.426768, -47.244561]]], [[[167.69337, -46.757257], [167.682628, -46.795099], [167.662852, -46.778497], [167.69337, -46.757257]]], [[[168.542166, -46.759698], [168.605724, -46.754571], [168.563243, -46.801202], [168.542166, -46.759698]]], [[[168.199474, -47.047621], [168.259288, -47.084731], [167.901866, -47.188409], [167.764903, -47.137465], [167.61671, -47.212172], [167.726573, -47.205255], [167.671886, -47.260512], [167.521007, -47.273045], [167.545584, -47.188246], [167.630382, -47.156915], [167.627452, -47.064711], [167.743826, -47.027276], [167.737071, -46.955173], [167.81422, -46.911228], [167.758311, -46.807387], [167.787446, -46.697198], [167.96754, -46.699802], [168.17921, -46.864435], [168.167328, -46.909845], [168.008149, -46.895115], [167.966645, -46.972589], [168.048676, -46.931573], [168.131114, -46.992446], [168.230235, -46.971612], [168.247325, -47.040785], [168.199474, -47.047621]]], [[[166.711436, -45.616306], [166.739268, -45.72796], [166.650076, -45.73919], [166.623057, -45.658298], [166.506196, -45.724867], [166.566661, -45.63714], [166.711436, -45.616306]]], [[[166.966156, -45.149591], [166.997081, -45.233168], [167.034434, -45.30047], [166.893321, -45.243422], [166.966156, -45.149591]]], [[[174.38087, -41.106378], [174.38087, -41.195082], [174.197276, -41.230076], [174.351248, -41.17547], [174.325694, -41.126886], [174.38087, -41.106378]]], [[[173.777599, -40.921482], [173.784434, -40.838962], [173.845876, -40.873142], [173.832286, -40.757582], [173.887462, -40.805352], [173.964854, -40.708754], [173.921641, -40.866795], [173.777599, -40.921482]]], [[[172.748694, -43.279694], [172.747732, -43.567153], [172.832286, -43.601658], [172.681407, -43.639337], [172.875743, -43.668878], [172.893809, -43.614516], [172.928396, -43.685724], [173.064952, -43.648126], [173.092947, -43.854181], [172.996837, -43.88893], [172.948578, -43.751153], [172.965587, -43.90545], [172.817231, -43.881443], [172.763438, -43.792739], [172.422618, -43.854587], [172.647716, -43.782647], [172.417328, -43.737481], [172.376313, -43.864435], [171.346002, -44.278631], [171.173839, -44.54697], [171.203136, -44.905532], [170.926117, -45.238377], [170.865977, -45.482029], [170.62672, -45.706313], [170.759288, -45.776788], [170.556814, -45.896254], [170.776622, -45.780206], [170.778575, -45.876153], [170.333751, -45.981541], [170.21697, -46.172947], [169.899425, -46.344903], [169.848969, -46.467543], [169.659353, -46.49212], [169.755544, -46.499607], [169.704112, -46.549005], [169.035981, -46.681899], [168.889171, -46.65602], [168.8449, -46.560154], [168.617849, -46.547459], [168.645193, -46.601983], [168.591482, -46.614353], [168.4192, -46.601983], [168.565115, -46.585056], [168.365733, -46.540216], [168.378103, -46.619806], [168.267833, -46.5263], [168.385102, -46.499607], [168.368907, -46.416925], [168.301931, -46.478448], [168.171153, -46.336684], [167.838634, -46.393243], [167.740245, -46.322035], [167.789236, -46.294122], [167.712901, -46.197931], [167.590017, -46.159601], [167.45281, -46.15016], [167.405772, -46.251153], [167.295177, -46.273614], [166.761974, -46.219985], [166.671235, -46.153578], [166.952485, -45.944024], [166.616059, -46.088067], [166.658539, -46.000177], [166.808604, -45.930434], [166.691254, -45.940199], [166.743907, -45.860935], [166.629242, -45.965265], [166.474783, -45.996026], [166.489757, -45.80755], [166.889659, -45.776462], [167.020844, -45.697686], [166.774262, -45.718845], [166.890961, -45.649835], [166.77768, -45.656671], [166.781993, -45.594171], [166.991954, -45.575453], [166.952485, -45.546808], [167.054942, -45.491632], [166.71461, -45.575616], [166.767589, -45.409601], [166.952485, -45.436944], [166.809255, -45.357192], [166.825531, -45.317153], [166.890961, -45.282973], [166.93214, -45.355076], [167.047537, -45.361912], [167.011078, -45.426446], [167.097179, -45.382094], [167.20574, -45.478611], [167.047537, -45.327081], [167.308849, -45.313409], [167.247244, -45.253106], [167.047537, -45.269708], [167.012055, -45.132908], [167.170746, -45.184747], [167.054942, -45.101739], [167.1185, -45.039239], [167.192149, -45.135919], [167.274669, -45.094415], [167.151541, -45.007582], [167.335704, -45.037205], [167.198985, -44.964044], [167.385753, -44.84238], [167.459646, -44.991876], [167.514171, -44.992608], [167.457693, -44.789321], [167.555186, -44.785821], [167.568126, -44.882013], [167.548839, -44.73447], [167.679373, -44.765395], [167.594737, -44.697686], [167.751964, -44.603204], [167.932628, -44.697035], [167.836436, -44.505304], [168.028168, -44.320408], [168.127452, -44.316583], [168.103282, -44.258233], [168.30714, -44.148858], [168.37086, -44.039158], [168.645844, -43.964532], [168.803722, -43.997247], [169.419607, -43.650567], [169.717784, -43.573663], [170.104991, -43.258071], [170.23878, -43.237888], [170.303559, -43.162205], [170.200531, -43.216729], [170.289317, -43.106866], [170.858409, -42.843357], [171.225413, -42.450689], [171.48878, -41.830336], [171.46811, -41.76629], [171.855235, -41.66546], [172.070811, -41.414239], [172.139659, -41.291436], [172.106781, -40.886895], [172.507091, -40.589451], [172.592621, -40.604099], [172.595876, -40.527765], [172.83961, -40.50213], [172.996837, -40.524184], [172.742198, -40.520929], [172.660411, -40.647719], [172.694509, -40.750177], [172.856456, -40.843683], [173.017345, -40.797296], [173.058279, -40.963067], [172.996837, -41.017022], [173.103852, -41.307794], [173.212738, -41.301853], [173.588634, -41.056329], [173.674571, -41.106378], [173.747569, -41.037205], [173.681407, -41.034438], [173.707286, -40.994236], [173.992035, -40.899998], [174.034841, -40.933526], [173.917979, -41.001886], [173.780528, -41.011407], [173.778656, -41.10768], [173.828868, -41.058689], [173.95574, -41.058689], [173.829112, -41.140069], [173.859548, -41.229913], [173.774262, -41.283949], [174.133962, -41.175388], [173.896332, -41.191664], [173.948904, -41.079034], [173.976329, -41.147393], [174.045665, -41.092869], [174.033702, -41.017185], [173.948904, -41.010837], [173.998546, -40.968845], [174.094249, -41.019138], [174.183116, -40.973077], [174.207205, -41.070571], [174.326427, -41.009373], [174.257335, -41.126886], [174.167328, -41.115899], [174.216482, -41.188897], [173.935232, -41.279555], [174.325694, -41.216241], [174.050629, -41.436944], [174.225922, -41.723403], [174.292166, -41.730157], [174.21518, -41.856703], [173.703624, -42.378595], [173.723155, -42.4367], [173.558604, -42.491143], [173.287283, -42.953871], [172.91505, -43.102797], [172.748694, -43.279694]]], [[[175.011729, -36.802667], [175.190603, -36.731215], [175.21518, -36.758477], [175.182628, -36.824965], [175.011729, -36.802667]]], [[[175.847667, -36.625095], [175.797537, -36.621759], [175.771983, -36.576593], [175.799164, -36.569757], [175.847667, -36.625095]]], [[[174.84547, -36.4485], [174.895518, -36.401544], [174.906016, -36.449151], [174.84547, -36.4485]]], [[[175.080821, -36.205662], [175.154959, -36.213556], [175.100352, -36.227797], [175.080821, -36.205662]]], [[[175.501801, -36.241306], [175.565929, -36.309747], [175.522797, -36.352146], [175.333751, -36.223728], [175.375499, -36.065851], [175.53061, -36.176365], [175.501801, -36.241306]]], [[[172.138882, -34.149129], [172.144776, -34.169046], [172.114697, -34.146487], [172.138882, -34.149129]]], [[[176.953712, -39.607513], [177.118907, -39.66725], [176.861827, -40.14072], [176.681814, -40.274591], [176.628429, -40.462091], [176.424815, -40.603936], [175.966807, -41.247003], [175.237478, -41.620294], [175.181814, -41.417901], [174.865571, -41.419529], [174.889659, -41.224542], [174.785411, -41.249444], [174.810069, -41.333754], [174.609386, -41.291925], [174.611501, -41.2374], [174.865977, -41.104181], [174.84197, -41.043715], [175.141287, -40.674412], [175.23878, -40.296319], [175.183767, -40.134454], [174.967296, -39.916436], [174.567638, -39.826755], [174.319021, -39.613865], [173.851248, -39.463962], [173.759288, -39.301365], [173.852712, -39.134454], [174.211599, -38.973321], [174.41505, -38.963067], [174.594005, -38.818617], [174.709809, -38.10475], [174.84669, -38.153741], [174.942638, -38.097345], [174.792003, -38.084731], [174.888031, -37.966892], [174.788097, -37.985284], [174.79184, -37.872003], [174.976817, -37.803806], [174.977061, -37.749933], [174.850352, -37.764907], [174.717784, -37.411879], [174.837901, -37.299005], [174.706391, -37.347833], [174.558279, -37.062758], [174.667328, -37.069513], [174.740001, -37.244399], [174.73585, -37.179457], [174.804861, -37.166274], [174.716645, -37.152602], [174.855968, -37.078302], [174.948416, -37.101739], [174.785818, -37.008477], [174.832774, -36.942804], [174.667328, -36.944106], [174.500336, -37.032159], [174.407563, -36.761489], [174.182302, -36.45322], [174.257172, -36.446954], [174.431407, -36.665623], [174.490733, -36.576593], [174.465994, -36.373224], [174.331228, -36.392511], [174.271007, -36.33766], [174.524913, -36.241469], [174.353038, -36.296075], [174.305186, -36.282403], [174.45045, -36.163263], [174.393891, -36.1242], [174.385509, -36.188735], [174.33253, -36.227797], [174.284679, -36.117934], [174.182302, -36.145196], [174.318858, -36.241469], [174.26059, -36.268243], [174.075206, -36.168064], [173.900564, -35.959649], [173.946788, -35.916436], [173.90797, -35.870294], [173.880138, -35.959649], [174.20281, -36.347589], [174.079845, -36.399509], [173.407237, -35.571222], [173.457856, -35.437921], [173.541515, -35.452569], [173.660899, -35.312921], [173.592621, -35.336521], [173.565278, -35.274509], [173.566417, -35.360528], [173.406993, -35.391209], [173.369965, -35.516534], [173.272146, -35.391371], [173.31837, -35.302341], [173.24936, -35.370701], [173.201671, -35.322849], [173.256847, -35.281345], [173.177501, -35.29046], [173.092947, -35.206801], [173.198416, -35.109063], [173.156749, -34.945001], [172.674083, -34.479913], [172.70281, -34.411798], [173.079275, -34.411716], [173.038097, -34.522068], [172.970063, -34.466567], [172.907481, -34.541436], [172.996837, -34.561782], [173.007498, -34.651137], [173.035818, -34.552341], [173.18865, -34.835626], [173.123057, -34.809666], [173.298188, -34.909438], [173.266612, -35.007745], [173.3685, -34.967218], [173.357921, -34.868748], [173.444102, -34.796319], [173.503184, -34.869806], [173.404063, -34.903416], [173.458751, -34.981215], [173.586436, -35.014907], [173.588227, -34.927504], [173.784434, -35.007501], [173.724457, -35.064223], [173.760265, -35.096938], [173.89088, -35.000665], [173.990001, -35.118748], [174.12794, -35.136489], [174.15504, -35.182306], [174.058116, -35.151544], [174.014985, -35.216974], [174.093516, -35.219822], [174.151134, -35.369724], [174.251638, -35.322524], [174.15504, -35.274509], [174.353038, -35.199395], [174.34018, -35.311782], [174.422374, -35.373712], [174.33253, -35.329034], [174.569509, -35.594334], [174.565278, -35.651788], [174.476573, -35.643243], [174.606781, -35.84352], [174.496918, -35.768487], [174.385509, -35.789483], [174.359874, -35.713311], [174.352712, -35.841974], [174.503754, -35.830011], [174.496918, -35.987563], [174.621104, -36.04225], [174.824474, -36.277032], [174.806407, -36.334893], [174.880544, -36.351332], [174.750743, -36.354425], [174.778819, -36.487237], [174.716645, -36.411554], [174.722911, -36.593683], [174.856944, -36.610935], [174.723481, -36.63128], [174.819102, -36.823663], [174.703624, -36.758477], [174.621104, -36.796319], [174.682628, -36.803155], [174.680186, -36.907403], [174.750743, -36.844822], [174.875662, -36.851007], [174.891449, -36.957778], [174.935232, -36.837335], [174.963145, -36.933526], [175.02711, -36.874607], [175.093435, -36.970473], [175.240977, -36.942315], [175.32602, -37.009454], [175.367198, -37.207208], [175.562755, -37.179946], [175.609548, -37.25156], [175.527843, -36.962498], [175.436209, -36.864679], [175.53712, -36.786065], [175.497569, -36.63128], [175.354259, -36.490981], [175.532237, -36.507745], [175.628103, -36.763849], [175.851736, -36.718357], [175.713552, -36.875177], [175.850759, -36.840997], [175.868012, -37.053399], [175.919688, -37.05462], [175.88795, -37.241957], [175.975434, -37.469903], [176.169119, -37.624933], [175.943126, -37.521905], [175.997244, -37.631768], [176.214122, -37.719496], [176.216807, -37.618259], [177.131033, -38.021661], [177.556814, -37.913832], [177.73878, -37.676202], [177.992035, -37.590916], [177.992035, -37.543064], [178.27768, -37.559259], [178.550548, -37.680597], [178.348318, -38.012628], [178.381114, -38.078709], [178.318533, -38.26572], [178.362071, -38.316502], [178.300141, -38.531671], [178.079845, -38.70908], [177.932384, -38.702407], [177.882823, -39.085545], [177.998871, -39.129815], [177.911957, -39.255955], [177.8685, -39.290216], [177.841156, -39.228936], [177.852061, -39.089288], [177.413259, -39.059015], [177.064952, -39.199395], [176.937511, -39.348728], [176.953712, -39.607513]]]]}}]}