{"type": "FeatureCollection", "features": [{"type": "Feature", "properties": {"name": "Ethiopia"}, "geometry": {"type": "Polygon", "coordinates": [[[43.039884, 9.949988], [43.067686, 9.922522], [43.187214, 9.883326], [43.206334, 9.851209], [43.248812, 9.652332], [43.270671, 9.628354], [43.305966, 9.617554], [43.331753, 9.575076], [43.370665, 9.544225], [43.399449, 9.480947], [43.406322, 9.42865], [43.419034, 9.413018], [43.548225, 9.336072], [43.60724, 9.344625], [43.621502, 9.336899], [43.984788, 9.008314], [44.023855, 8.985525], [45.766384, 8.412227], [46.920526, 8.025609], [46.97923, 7.996567], [47.979169, 7.996567], [46.423915, 6.496736], [45.935986, 5.996689], [44.941525, 4.911484], [44.912586, 4.899392], [43.968975, 4.953962], [43.845158, 4.914352], [43.528485, 4.841566], [43.119259, 4.647702], [42.960406, 4.517374], [42.9325, 4.463217], [42.899634, 4.361104], [42.868938, 4.326765], [42.831628, 4.302322], [42.78977, 4.285605], [42.297294, 4.201734], [42.13534, 4.200081], [42.102887, 4.19189], [41.923466, 4.070554], [41.912201, 4.007974], [41.885019, 3.977226], [41.835927, 3.94945], [41.791381, 3.958157], [41.699811, 3.996915], [41.642967, 3.969449], [41.586329, 3.984151], [41.429543, 3.948882], [41.215293, 3.936608], [41.162996, 3.94268], [41.114524, 3.962343], [41.070082, 3.996915], [41.0059, 4.086677], [40.963628, 4.12037], [40.897689, 4.145924], [40.846013, 4.214989], [40.785758, 4.25584], [40.763744, 4.284933], [40.700699, 4.243515], [40.382682, 4.121377], [40.365732, 4.094867], [40.185588, 4.032158], [40.167191, 4.035465], [40.162437, 4.019394], [40.0, 3.9407016631760667], [40.0, 10.0], [43.02202119971781, 10.0], [43.039884, 9.949988]]]}}, {"type": "Feature", "properties": {"name": "Somalia"}, "geometry": {"type": "Polygon", "coordinates": [[[47.979169, 7.996567], [48.939111, 9.451233], [48.93911130522716, 10.0], [50.89674119309537, 10.0], [50.890798, 9.986029], [50.881196, 9.905463], [50.833263, 9.768785], [50.838634, 9.740912], [50.824474, 9.651068], [50.806163, 9.624457], [50.812999, 9.541164], [50.840343, 9.456122], [50.830333, 9.419623], [50.768321, 9.319281], [50.689464, 9.274848], [50.646983, 9.211371], [50.641124, 9.196357], [50.648448, 9.110419], [50.633637, 9.073188], [50.604503, 9.037909], [50.494884, 8.951972], [50.439708, 8.88817], [50.422048, 8.857123], [50.374278, 8.698879], [50.326508, 8.641099], [50.319591, 8.620347], [50.319591, 8.541815], [50.303477, 8.504584], [50.290212, 8.486762], [50.256196, 8.472561], [50.230154, 8.41767], [50.156423, 8.320624], [50.113048, 8.19953], [50.091075, 8.161038], [50.058279, 8.130316], [49.929373, 8.051744], [49.842052, 7.962714], [49.824229, 7.933905], [49.803233, 7.82689], [49.823416, 7.805325], [49.825043, 7.757758], [49.819347, 7.739936], [49.752208, 7.650295], [49.744151, 7.589057], [49.586599, 7.314765], [49.520518, 7.239651], [49.367035, 7.025702], [49.293224, 6.880927], [49.247325, 6.810614], [49.197927, 6.67357], [49.074718, 6.415269], [49.074067, 6.370795], [49.085623, 6.307359], [49.0713, 6.219916], [49.036143, 6.144232], [48.850108, 5.824449], [48.695811, 5.587348], [48.646739, 5.480048], [48.620128, 5.443996], [48.548106, 5.375067], [48.448009, 5.208726], [48.328868, 5.079657], [48.202403, 4.908922], [48.055675, 4.612942], [47.948497, 4.457099], [47.577973, 4.059882], [47.489268, 3.936347], [47.01295, 3.441067], [46.834239, 3.232489], [46.700043, 3.113267], [46.625743, 3.023912], [46.487804, 2.90884], [46.414317, 2.833441], [46.351573, 2.788642], [46.339203, 2.761705], [46.317638, 2.751899], [46.289399, 2.696234], [46.236501, 2.667629], [46.142345, 2.568915], [46.104991, 2.510565], [46.062999, 2.484036], [46.047618, 2.455064], [45.826345, 2.308824], [45.232188, 1.967678], [45.199718, 1.959621], [45.001475, 1.86636], [44.67628, 1.6376], [44.550059, 1.559068], [44.332774, 1.38996], [44.221365, 1.275621], [44.157888, 1.24079], [44.1421, 1.221381], [44.138031, 1.191596], [44.115001, 1.182034], [44.032888, 1.09748], [43.97877, 1.068671], [43.932628, 1.009833], [43.781912, 0.921617], [43.734223, 0.854967], [43.703461, 0.840522], [43.658946, 0.804918], [43.467621, 0.620551], [43.285492, 0.414984], [43.09018, 0.223375], [42.770274, -0.129327], [42.647797, -0.228936], [42.580333, -0.29754], [42.555919, -0.332127], [42.550792, -0.357599], [42.519298, -0.369317], [42.479747, -0.422052], [42.474457, -0.438653], [42.486501, -0.449395], [42.47641, -0.465997], [42.47283, -0.469903], [42.465994, -0.449395], [42.412608, -0.490981], [42.39796, -0.517348], [42.250255, -0.685642], [42.245291, -0.707452], [42.232595, -0.713067], [42.166515, -0.802667], [42.135509, -0.82171], [42.071544, -0.828709], [42.062511, -0.839288], [42.081716, -0.843438], [42.071951, -0.884454], [42.036957, -0.920017], [42.016368, -0.968032], [41.971934, -0.99977], [41.964692, -0.911554], [41.95281, -0.894464], [41.946462, -0.954767], [41.955577, -0.992934], [41.973155, -1.011163], [41.97169, -1.023614], [41.953461, -1.068617], [41.924653, -1.097101], [41.918305, -1.121026], [41.873871, -1.176039], [41.872895, -1.195489], [41.897472, -1.183201], [41.885427, -1.209649], [41.862804, -1.212335], [41.84197, -1.196954], [41.835297, -1.168878], [41.829112, -1.168878], [41.84197, -1.224867], [41.836599, -1.262302], [41.689708, -1.489516], [41.65211, -1.565118], [41.610606, -1.593194], [41.575043, -1.652602], [41.535085, -1.696303], [41.53858, -1.613699], [41.522871, -1.572771], [40.979751, -0.870798], [40.968486, -0.002738], [40.965385, 2.814145], [40.979751, 2.841895], [41.342727, 3.201149], [41.912201, 4.007974], [41.923466, 4.070554], [42.068367, 4.174553], [42.13534, 4.200081], [42.297294, 4.201734], [42.78977, 4.285605], [42.831628, 4.302322], [42.868938, 4.326765], [42.899634, 4.361104], [42.9325, 4.463217], [42.960406, 4.517374], [43.119259, 4.647702], [43.528485, 4.841566], [43.845158, 4.914352], [43.932284, 4.945203], [43.968975, 4.953962], [44.912586, 4.899392], [44.941525, 4.911484], [45.935986, 5.996689], [46.466963, 6.538292], [47.979169, 7.996567]]]}}, {"type": "Feature", "properties": {"name": "Kenya"}, "geometry": {"type": "MultiPolygon", "coordinates": [[[[40.162437, 4.019394], [40.167191, 4.035465], [40.185588, 4.032158], [40.365732, 4.094867], [40.382682, 4.121377], [40.700699, 4.243515], [40.763744, 4.284933], [40.785758, 4.25584], [40.846013, 4.214989], [40.897689, 4.145924], [40.963628, 4.12037], [41.0059, 4.086677], [41.070082, 3.996915], [41.114524, 3.962343], [41.162996, 3.94268], [41.215293, 3.936608], [41.429543, 3.948882], [41.586329, 3.984151], [41.642967, 3.969449], [41.699811, 3.996915], [41.791381, 3.958157], [41.835927, 3.94945], [41.885019, 3.977226], [41.342727, 3.201149], [40.979751, 2.841895], [40.965385, 2.814145], [40.968486, -0.002738], [40.979751, -0.870798], [41.522871, -1.572771], [41.53858, -1.613699], [41.535085, -1.696303], [41.458344, -1.774835], [41.417654, -1.847263], [41.282725, -1.96852], [41.267345, -1.94964], [41.231456, -1.955499], [41.219981, -1.944024], [41.219005, -1.922459], [41.198985, -1.943129], [41.185802, -1.990167], [41.109141, -1.977634], [41.076996, -2.007094], [41.049978, -2.018487], [41.028656, -2.043227], [41.01295, -2.042413], [40.990245, -2.028904], [40.979503, -2.004978], [40.990082, -1.962498], [40.98699, -1.936456], [41.006114, -1.901788], [40.970714, -1.928969], [40.966645, -2.046563], [40.945323, -2.073175], [40.926768, -2.059259], [40.908214, -1.997735], [40.861013, -1.963474], [40.849132, -1.977634], [40.855968, -2.018487], [40.872244, -2.011407], [40.893809, -2.026056], [40.896821, -2.042413], [40.883149, -2.060154], [40.904307, -2.080336], [40.911957, -2.19199], [40.924815, -2.217218], [40.956879, -2.218927], [40.979259, -2.24212], [40.969493, -2.278985], [40.944835, -2.30934], [40.922618, -2.313735], [40.919444, -2.302423], [40.952159, -2.286065], [40.921072, -2.270603], [40.896821, -2.24505], [40.893728, -2.228204], [40.883149, -2.224054], [40.863048, -2.231378], [40.838064, -2.24505], [40.794688, -2.29046], [40.773936, -2.279229], [40.777192, -2.296808], [40.795584, -2.309991], [40.786957, -2.327325], [40.793468, -2.341974], [40.821788, -2.360772], [40.828624, -2.37477], [40.816905, -2.397882], [40.758149, -2.447442], [40.711762, -2.466567], [40.650564, -2.539321], [40.615896, -2.552504], [40.523611, -2.525079], [40.490896, -2.528497], [40.389822, -2.560317], [40.293712, -2.616388], [40.232107, -2.669041], [40.204845, -2.724867], [40.174978, -2.762628], [40.172618, -2.787205], [40.18865, -2.813572], [40.162608, -2.934259], [40.183767, -2.950291], [40.178559, -2.976495], [40.190684, -2.988051], [40.211274, -2.986017], [40.232107, -2.970636], [40.232921, -2.981866], [40.163829, -3.06699], [40.153168, -3.135186], [40.119151, -3.183526], [40.129242, -3.233331], [40.122895, -3.267348], [40.102387, -3.294203], [40.026622, -3.334405], [40.0, -3.361951631250667], [40.0, 3.9407016631760667], [40.162437, 4.019394]]], [[[41.065684, -2.03631], [41.092784, -2.038018], [41.143321, -2.059503], [41.162771, -2.090916], [41.155284, -2.112074], [41.136892, -2.115492], [41.123383, -2.093683], [41.122813, -2.115899], [41.104828, -2.134047], [41.09197, -2.132989], [41.081798, -2.121515], [41.01352, -2.148858], [40.995616, -2.143813], [40.986176, -2.165948], [41.009939, -2.187188], [41.006114, -2.197361], [40.993663, -2.197198], [40.979503, -2.169366], [40.957286, -2.174005], [40.969249, -2.119806], [40.982921, -2.097345], [41.045177, -2.069757], [41.065684, -2.03631]]]]}}, {"type": "Feature", "properties": {"name": "Somaliland"}, "geometry": {"type": "Polygon", "coordinates": [[[48.939111, 9.451233], [47.979169, 7.996567], [46.97923, 7.996567], [46.920526, 8.025609], [45.766384, 8.412227], [44.023855, 8.985525], [43.984788, 9.008314], [43.621502, 9.336899], [43.60724, 9.344625], [43.548225, 9.336072], [43.419034, 9.413018], [43.406322, 9.42865], [43.399449, 9.480947], [43.370665, 9.544225], [43.331753, 9.575076], [43.305966, 9.617554], [43.270671, 9.628354], [43.248812, 9.652332], [43.206334, 9.851209], [43.187214, 9.883326], [43.067686, 9.922522], [43.039884, 9.949988], [43.02202119971781, 10.0], [48.93911130522716, 10.0], [48.939111, 9.451233]]]}}, {"type": "Feature", "properties": {"name": "Seychelles"}, "geometry": {"type": "MultiPolygon", "coordinates": [[[[46.500662, -9.746515], [46.490489, -9.755548], [46.479666, -9.751072], [46.48699, -9.730157], [46.509776, -9.719985], [46.500662, -9.746515]]], [[[47.507335, -9.698175], [47.51295, -9.694431], [47.515798, -9.700128], [47.507335, -9.713067], [47.507335, -9.698175]]], [[[53.341645, -5.429946], [53.344737, -5.441013], [53.337901, -5.431248], [53.333995, -5.42018], [53.341645, -5.429946]]], [[[55.665863, -3.811782], [55.651866, -3.801202], [55.659679, -3.791111], [55.665863, -3.811782]]], [[[46.525157, -9.38128], [46.4546, -9.426446], [46.380707, -9.424574], [46.299815, -9.449314], [46.234386, -9.452325], [46.207367, -9.385512], [46.230479, -9.41367], [46.274099, -9.426365], [46.320486, -9.423761], [46.434581, -9.378106], [46.440766, -9.385512], [46.447765, -9.378106], [46.468761, -9.385512], [46.45281, -9.3624], [46.447765, -9.33766], [46.495453, -9.357599], [46.525157, -9.38128]]], [[[46.276134, -9.339288], [46.315196, -9.32643], [46.427094, -9.33766], [46.410655, -9.353285], [46.379405, -9.357029], [46.331065, -9.343927], [46.283865, -9.351332], [46.276134, -9.339288]]], [[[56.2588, -7.140232], [56.269379, -7.119806], [56.287446, -7.11004], [56.272472, -7.153578], [56.247081, -7.192641], [56.2588, -7.140232]]], [[[55.394427, -4.657864], [55.397527, -4.649841], [55.37127, -4.646924], [55.367258, -4.639265], [55.377652, -4.637806], [55.374734, -4.632701], [55.38841, -4.619572], [55.417618, -4.611384], [55.431651, -4.591567], [55.433698, -4.562545], [55.454897, -4.562234], [55.467221, -4.583427], [55.456682, -4.625802], [55.528555, -4.680193], [55.521533, -4.707811], [55.528087, -4.736832], [55.516852, -4.750407], [55.537916, -4.803769], [55.504214, -4.795811], [55.486895, -4.762109], [55.46349, -4.759768], [55.468171, -4.741513], [55.491576, -4.736364], [55.478001, -4.706406], [55.468171, -4.70547], [55.448979, -4.677853], [55.394427, -4.657864]]], [[[55.241954, -4.504002], [55.228038, -4.487481], [55.221446, -4.463474], [55.225434, -4.44492], [55.259939, -4.462986], [55.269216, -4.480157], [55.260265, -4.500095], [55.241954, -4.504002]]], [[[55.692008, -4.326297], [55.677175, -4.296413], [55.704437, -4.290228], [55.754479, -4.321092], [55.777162, -4.318489], [55.787038, -4.330592], [55.770925, -4.331325], [55.759125, -4.358425], [55.732757, -4.35224], [55.717635, -4.330116], [55.692008, -4.326297]]], [[[52.747244, -7.00506], [52.742198, -7.001723], [52.741873, -6.994317], [52.747244, -7.00506]]], [[[55.381847, -5.865492], [55.380056, -5.869073], [55.379893, -5.864923], [55.382823, -5.853936], [55.381847, -5.865492]]], [[[55.373822, -4.666434], [55.372911, -4.667893], [55.36197, -4.663699], [55.373822, -4.666434]]], [[[55.406826, -4.675004], [55.405368, -4.679927], [55.397527, -4.673363], [55.406826, -4.675004]]], [[[55.504069, -4.629729], [55.50582, -4.639648], [55.491962, -4.634251], [55.504069, -4.629729]]], [[[55.511509, -4.624769], [55.511071, -4.629583], [55.50509, -4.626228], [55.511509, -4.624769]]], [[[55.503778, -4.598366], [55.514426, -4.600554], [55.496776, -4.614704], [55.503778, -4.598366]]], [[[55.715063, -4.276841], [55.742951, -4.278329], [55.732168, -4.283163], [55.732911, -4.292459], [55.715063, -4.276841]]], [[[55.665607, -4.334106], [55.660401, -4.33485], [55.660029, -4.330388], [55.665607, -4.334106]]], [[[55.648873, -4.348608], [55.651105, -4.353442], [55.643668, -4.349352], [55.648873, -4.348608]]], [[[55.670441, -4.210652], [55.675275, -4.21214], [55.659285, -4.212883], [55.670441, -4.210652]]], [[[55.844094, -4.342659], [55.857109, -4.36497], [55.841491, -4.382819], [55.825502, -4.372035], [55.831823, -4.337453], [55.844094, -4.342659]]], [[[55.883139, -4.3289], [55.884626, -4.336709], [55.873471, -4.332619], [55.868636, -4.317373], [55.883139, -4.3289]]], [[[55.869752, -4.283535], [55.873842, -4.296178], [55.870124, -4.296549], [55.869752, -4.283535]]], [[[55.924786, -4.337081], [55.922555, -4.349724], [55.918836, -4.347865], [55.919952, -4.334106], [55.924786, -4.337081]]], [[[55.944354, -4.579916], [55.950144, -4.590993], [55.933025, -4.58621], [55.944354, -4.579916]]]]}}]}