{"type": "FeatureCollection", "features": [{"type": "Feature", "properties": {"name": "India"}, "geometry": {"type": "Polygon", "coordinates": [[[80.005586, 30.847266], [80.028634, 30.830781], [80.062534, 30.784789], [80.092196, 30.774505], [80.157102, 30.79316], [80.196066, 30.748098], [80.224591, 30.734094], [80.231412, 30.724947], [80.207021, 30.686138], [80.16661, 30.674408], [80.16692, 30.661902], [80.19989, 30.625884], [80.2033, 30.60635], [80.179839, 30.559479], [80.252806, 30.565009], [80.325877, 30.546509], [80.508295, 30.462328], [80.575267, 30.466255], [80.596351, 30.459796], [80.723062, 30.392048], [80.781663, 30.320993], [80.976018, 30.255209], [81.003303, 30.212731], [80.996017, 30.196969], [80.920827, 30.17666], [80.903309, 30.180433], [80.883879, 30.210405], [80.867911, 30.200173], [80.83644, 30.170046], [80.849669, 30.143381], [80.829825, 30.117129], [80.769674, 30.077287], [80.715827, 30.013311], [80.6959636684581, 30.0], [80.0, 30.0], [80.0, 30.849608071019897], [80.005586, 30.847266]]]}}, {"type": "Feature", "properties": {"name": "China"}, "geometry": {"type": "Polygon", "coordinates": [[[80.181906, 42.020976], [80.231206, 42.033689], [80.257561, 42.065263], [80.256527, 42.084357], [80.224591, 42.125569], [80.210328, 42.189519], [80.249086, 42.204893], [80.268413, 42.237966], [80.249499, 42.309951], [80.2187, 42.354935], [80.196169, 42.434594], [80.210535, 42.490844], [80.162373, 42.552391], [80.140048, 42.622955], [80.143769, 42.644762], [80.188934, 42.701581], [80.227485, 42.790981], [80.248259, 42.816199], [80.264899, 42.823666], [80.333938, 42.817078], [80.400498, 42.843019], [80.548602, 42.878469], [80.554493, 42.898933], [80.542918, 42.916658], [80.476152, 42.930275], [80.407732, 42.954692], [80.373833, 42.975182], [80.355126, 43.000581], [80.368148, 43.02846], [80.497856, 43.076183], [80.575887, 43.119411], [80.618469, 43.134267], [80.660017, 43.132821], [80.710763, 43.104786], [80.731537, 43.101091], [80.773395, 43.112925], [80.787864, 43.12804], [80.793445, 43.14946], [80.76523, 43.199948], [80.748487, 43.275163], [80.735464, 43.288883], [80.658466, 43.310639], [80.64286, 43.32622], [80.694227, 43.394717], [80.710143, 43.425852], [80.712727, 43.458873], [80.476152, 43.910241], [80.423132, 43.972149], [80.403805, 44.04894], [80.345101, 44.103097], [80.338899, 44.121494], [80.373213, 44.230996], [80.373006, 44.270219], [80.332905, 44.417393], [80.330424, 44.45305], [80.364531, 44.569684], [80.383755, 44.602808], [80.359157, 44.632574], [80.355849, 44.652883], [80.376313, 44.67128], [80.491965, 44.701717], [80.497443, 44.714946], [80.492275, 44.727969], [80.314508, 44.780317], [80.244745, 44.815974], [80.218287, 44.818092], [80.039383, 44.790497], [80.0, 44.79310236489947], [80.0, 44.97965898121799], [80.061707, 45.018959], [80.103358, 45.032188], [80.21901, 45.026038], [80.29053, 45.046244], [80.390059, 45.045779], [80.406389, 45.056631], [80.425096, 45.092132], [80.445353, 45.104225], [80.53682, 45.101072], [80.69712, 45.143654], [80.745696, 45.144274], [80.853855, 45.126497], [80.976018, 45.161069], [81.021907, 45.161637], [81.062524, 45.172231], [81.144173, 45.204684], [81.54203, 45.293309], [81.665227, 45.347982], [81.739279, 45.338061], [81.765169, 45.307727], [81.781447, 45.266644], [81.793643, 45.19564], [81.875343, 45.181068], [81.910121, 45.15802], [81.950119, 45.144481], [82.000452, 45.153524], [82.191758, 45.222202], [82.245295, 45.231814], [82.294594, 45.228197], [82.341826, 45.20489], [82.427454, 45.137246], [82.475823, 45.115697], [82.539747, 45.123655], [82.585222, 45.17683], [82.614574, 45.248557], [82.63385, 45.339353], [82.631989, 45.415834], [82.615711, 45.435419], [82.51303, 45.465753], [82.362652, 45.481204], [82.32746, 45.493348], [82.291493, 45.533191], [82.304619, 45.582852], [82.336038, 45.635148], [82.372212, 45.73416], [82.447505, 45.825421], [82.488949, 45.901695], [82.515872, 45.993111], [82.541866, 46.131501], [82.568272, 46.19651], [82.607856, 46.255214], [82.674364, 46.331127], [82.70785, 46.434169], [82.747435, 46.493339], [82.838953, 46.732446], [82.985508, 46.94251], [82.993363, 46.975609], [82.985508, 47.012532], [83.006282, 47.080616], [82.99822, 47.110252], [83.01517, 47.154384], [83.013516, 47.194588], [83.021475, 47.205905], [83.071601, 47.218514], [83.150356, 47.211538], [83.221979, 47.171902], [83.353392, 47.144979], [83.524493, 47.067102], [83.905348, 46.973956], [83.999193, 46.974317], [84.069628, 46.964421], [84.158149, 46.993102], [84.265843, 47.00013], [84.421803, 46.993102], [84.475753, 46.975247], [84.521021, 46.969796], [84.616003, 46.98628], [84.663545, 46.983852], [84.731655, 46.947756], [84.751602, 46.91799], [84.749586, 46.882462], [84.715531, 46.835179], [84.719769, 46.821303], [84.739613, 46.814766], [84.916036, 46.850552], [84.93681, 46.861017], [84.975774, 46.901996], [85.048224, 46.920703], [85.145996, 46.97809], [85.191523, 47.023281], [85.225836, 47.041574], [85.303713, 47.039404], [85.432129, 47.053124], [85.498636, 47.051832], [85.556824, 47.178749], [85.601627, 47.194433], [85.647309, 47.197895], [85.65966, 47.206525], [85.678987, 47.274893], [85.667205, 47.326053], [85.678884, 47.363828], [85.670357, 47.384344], [85.600232, 47.463202], [85.584574, 47.492942], [85.579975, 47.523767], [85.595788, 47.590895], [85.595426, 47.624071], [85.515379, 47.92028], [85.517808, 47.944646], [85.561785, 48.030661], [85.586383, 48.141249], [85.718674, 48.358832], [85.747406, 48.390097], [85.783683, 48.407589], [86.005995, 48.429551], [86.19203, 48.418234], [86.246704, 48.437355], [86.307372, 48.483088], [86.333831, 48.4904], [86.430621, 48.485879], [86.565083, 48.527323], [86.605545, 48.59011], [86.669004, 48.634242], [86.751996, 48.715426], [86.739181, 48.783535], [86.789462, 48.839139], [86.741868, 48.878723], [86.718045, 48.912519], [86.709415, 48.954222], [86.743521, 49.007707], [86.798918, 49.042227], [86.838193, 49.093852], [86.859483, 49.105324], [86.975445, 49.092405], [87.116315, 49.129767], [87.400432, 49.071011], [87.47557, 49.087599], [87.506059, 49.120879], [87.716382, 49.158861], [87.816324, 49.165837], [87.835548, 49.100725], [87.815962, 49.050599], [87.821905, 49.02874], [87.872238, 49.00409], [87.8726, 48.96802], [87.835858, 48.945902], [87.756896, 48.920374], [87.735709, 48.886733], [87.737879, 48.86937], [87.796067, 48.839759], [87.805885, 48.800588], [87.821078, 48.788289], [87.907585, 48.758834], [87.975488, 48.755992], [88.033779, 48.72912], [88.05941, 48.708087], [88.063854, 48.682611], [88.055018, 48.673413], [88.010162, 48.653414], [87.989647, 48.624165], [87.942828, 48.599489], [87.95182, 48.575202], [87.983032, 48.552335], [88.016622, 48.539803], [88.062511, 48.542878], [88.165967, 48.493734], [88.235627, 48.493191], [88.304873, 48.469006], [88.383421, 48.408674], [88.416701, 48.394101], [88.479126, 48.400148], [88.50269, 48.392551], [88.565116, 48.342993], [88.57297, 48.32532], [88.558759, 48.288087], [88.56124, 48.268269], [88.580774, 48.211994], [88.596225, 48.197679], [88.635809, 48.175846], [88.709189, 48.166363], [88.805411, 48.105954], [88.916825, 48.105954], [89.045551, 47.992989], [89.074697, 47.984256], [89.218719, 47.976969], [89.243989, 47.980225], [89.354266, 48.038774], [89.425425, 48.021644], [89.5418, 48.031023], [89.571876, 48.020455], [89.583245, 47.962035], [89.627376, 47.943948], [89.655282, 47.899816], [89.707268, 47.889042], [89.723391, 47.878164], [89.751296, 47.824317], [89.783543, 47.818504], [89.889066, 47.824317], [89.921364, 47.832094], [89.934438, 47.844264], [89.946685, 47.883177], [89.96317, 47.888654], [90.044612, 47.879766], [90.059856, 47.868811], [90.064352, 47.85062], [90.052157, 47.8107], [90.082852, 47.756104], [90.163416, 47.710009], [90.302116, 47.678512], [90.3448, 47.658642], [90.349554, 47.64779], [90.327437, 47.623037], [90.381594, 47.538391], [90.441228, 47.493045], [90.448153, 47.404033], [90.487221, 47.378194], [90.485567, 47.344915], [90.468514, 47.323521], [90.46872, 47.308922], [90.712116, 47.014702], [90.742399, 46.991861], [90.828182, 46.982301], [90.885129, 46.944733], [90.91014, 46.892384], [90.936495, 46.864427], [90.919959, 46.833628], [90.925333, 46.813139], [91.004812, 46.74043], [91.01556, 46.703197], [90.995923, 46.594625], [91.047496, 46.566409], [91.035611, 46.529073], [90.935772, 46.343865], [90.896188, 46.302033], [90.948794, 46.168294], [90.995923, 46.113724], [91.005432, 46.068094], [91.002435, 46.021843], [90.986208, 45.993111], [90.919235, 45.950065], [90.710773, 45.752196], [90.696613, 45.730026], [90.651138, 45.493142], [90.737955, 45.441724], [90.753251, 45.42095], [90.790458, 45.337699], [90.796556, 45.292844], [90.854433, 45.270623], [90.866629, 45.25357], [90.857637, 45.215071], [90.873243, 45.186184], [90.90549, 45.185977], [90.975149, 45.214864], [91.056798, 45.217551], [91.135036, 45.197862], [91.184336, 45.153834], [91.249138, 45.129701], [91.366547, 45.11425], [91.41688, 45.145669], [91.43848, 45.146134], [91.533978, 45.0711], [91.563951, 45.077146], [91.662963, 45.059525], [91.746989, 45.072444], [91.919071, 45.065571], [92.042991, 45.074821], [92.108414, 45.058181], [92.19368, 45.014514], [92.218898, 45.010122], [92.285354, 45.019527], [92.331036, 45.007848], [92.413821, 45.011259], [92.475109, 44.997461], [92.63851, 45.0156], [92.752715, 45.037976], [92.798914, 45.03317], [92.847593, 45.039112], [92.945055, 45.005833], [93.165713, 45.007642], [93.244158, 44.981545], [93.341, 44.984852], [93.420582, 44.955087], [93.525278, 44.951263], [93.688265, 44.891059], [93.714, 44.874575], [93.874507, 44.714223], [93.927424, 44.672933], [93.97507, 44.659962], [94.058579, 44.651281], [94.103744, 44.651643], [94.149012, 44.667197], [94.181879, 44.660841], [94.27748, 44.589579], [94.338458, 44.512116], [94.366364, 44.504313], [94.430132, 44.504468], [94.588055, 44.4361], [94.657199, 44.388816], [94.69823, 44.343496], [94.905762, 44.294248], [94.993819, 44.259418], [95.036814, 44.254974], [95.379428, 44.287117], [95.397722, 44.280502], [95.389247, 44.260762], [95.347492, 44.214925], [95.322688, 44.158236], [95.328269, 44.09824], [95.318967, 44.017108], [95.327545, 44.006669], [95.510273, 43.979125], [95.535284, 43.95768], [95.589235, 43.869494], [95.692484, 43.630542], [95.832837, 43.408902], [95.854955, 43.284543], [95.874385, 43.247103], [95.908492, 43.214547], [96.318699, 42.910069], [96.337199, 42.86648], [96.357767, 42.724499], [96.379264, 42.720546], [97.193271, 42.78726], [99.474476, 42.564199], [99.971551, 42.676285], [100.0, 42.67643092763738], [100.0, 30.0], [82.39843171111927, 30.0], [82.394433, 30.003131], [82.347304, 30.003441], [82.318882, 30.031811], [82.255733, 30.039666], [82.210671, 30.064419], [82.153827, 30.058166], [82.135224, 30.089741], [82.127576, 30.124364], [82.155688, 30.181363], [82.095898, 30.213454], [82.084994, 30.230817], [82.0821, 30.257327], [82.093211, 30.31474], [82.088767, 30.330088], [82.049854, 30.339235], [81.969032, 30.328279], [81.941231, 30.353962], [81.887177, 30.354996], [81.844389, 30.371171], [81.779018, 30.358045], [81.614015, 30.416904], [81.591588, 30.414269], [81.576705, 30.390963], [81.536811, 30.37856], [81.520688, 30.331948], [81.509371, 30.328382], [81.46281, 30.341353], [81.42612, 30.372514], [81.407413, 30.37918], [81.387518, 30.373909], [81.387259, 30.345126], [81.368036, 30.301046], [81.377854, 30.232626], [81.361834, 30.204772], [81.350052, 30.15723], [81.322405, 30.133769], [81.277705, 30.131857], [81.266956, 30.125087], [81.275948, 30.095373], [81.272021, 30.079922], [81.257086, 30.063541], [81.225719, 30.050467], [81.227269, 30.022458], [81.21683, 30.008195], [81.194506, 30.004475], [81.148101, 30.023233], [81.097768, 30.016929], [81.084849, 30.026179], [81.074203, 30.071912], [81.030898, 30.152734], [80.996017, 30.196969], [81.003303, 30.212731], [80.976018, 30.255209], [80.781663, 30.320993], [80.723062, 30.392048], [80.596351, 30.459796], [80.575267, 30.466255], [80.508295, 30.462328], [80.325877, 30.546509], [80.252806, 30.565009], [80.179839, 30.559479], [80.2033, 30.60635], [80.19989, 30.625884], [80.16692, 30.661902], [80.16661, 30.674408], [80.207021, 30.686138], [80.231412, 30.724947], [80.196066, 30.748098], [80.157102, 30.79316], [80.092196, 30.774505], [80.062534, 30.784789], [80.028634, 30.830781], [80.005586, 30.847266], [80.0, 30.849608071019897], [80.0, 42.02264257558038], [80.181906, 42.020976]]]}}, {"type": "Feature", "properties": {"name": "Kazakhstan"}, "geometry": {"type": "MultiPolygon", "coordinates": [[[[87.116315, 49.129767], [86.975445, 49.092405], [86.859483, 49.105324], [86.838193, 49.093852], [86.798918, 49.042227], [86.743521, 49.007707], [86.709415, 48.954222], [86.718045, 48.912519], [86.741868, 48.878723], [86.789462, 48.839139], [86.739181, 48.783535], [86.751996, 48.715426], [86.669004, 48.634242], [86.605545, 48.59011], [86.565083, 48.527323], [86.430621, 48.485879], [86.333831, 48.4904], [86.307372, 48.483088], [86.246704, 48.437355], [86.19203, 48.418234], [86.005995, 48.429551], [85.783683, 48.407589], [85.747406, 48.390097], [85.718674, 48.358832], [85.586383, 48.141249], [85.561785, 48.030661], [85.517808, 47.944646], [85.515379, 47.92028], [85.595426, 47.624071], [85.595788, 47.590895], [85.579975, 47.523767], [85.584574, 47.492942], [85.600232, 47.463202], [85.670357, 47.384344], [85.678884, 47.363828], [85.667205, 47.326053], [85.678987, 47.274893], [85.65966, 47.206525], [85.647309, 47.197895], [85.601627, 47.194433], [85.556824, 47.178749], [85.498636, 47.051832], [85.432129, 47.053124], [85.303713, 47.039404], [85.225836, 47.041574], [85.191523, 47.023281], [85.145996, 46.97809], [85.048224, 46.920703], [84.975774, 46.901996], [84.93681, 46.861017], [84.916036, 46.850552], [84.739613, 46.814766], [84.719769, 46.821303], [84.715531, 46.835179], [84.749586, 46.882462], [84.751602, 46.91799], [84.731655, 46.947756], [84.663545, 46.983852], [84.616003, 46.98628], [84.521021, 46.969796], [84.475753, 46.975247], [84.421803, 46.993102], [84.265843, 47.00013], [84.158149, 46.993102], [84.069628, 46.964421], [83.999193, 46.974317], [83.905348, 46.973956], [83.524493, 47.067102], [83.353392, 47.144979], [83.221979, 47.171902], [83.150356, 47.211538], [83.071601, 47.218514], [83.021475, 47.205905], [83.013516, 47.194588], [83.01517, 47.154384], [82.99822, 47.110252], [83.006282, 47.080616], [82.985508, 47.012532], [82.993363, 46.975609], [82.985508, 46.94251], [82.838953, 46.732446], [82.747435, 46.493339], [82.70785, 46.434169], [82.674364, 46.331127], [82.607856, 46.255214], [82.568272, 46.19651], [82.541866, 46.131501], [82.515872, 45.993111], [82.488949, 45.901695], [82.447505, 45.825421], [82.372212, 45.73416], [82.336038, 45.635148], [82.304619, 45.582852], [82.291493, 45.533191], [82.32746, 45.493348], [82.362652, 45.481204], [82.51303, 45.465753], [82.615711, 45.435419], [82.631989, 45.415834], [82.63385, 45.339353], [82.614574, 45.248557], [82.585222, 45.17683], [82.539747, 45.123655], [82.475823, 45.115697], [82.427454, 45.137246], [82.341826, 45.20489], [82.294594, 45.228197], [82.245295, 45.231814], [82.191758, 45.222202], [82.000452, 45.153524], [81.950119, 45.144481], [81.910121, 45.15802], [81.875343, 45.181068], [81.793643, 45.19564], [81.781447, 45.266644], [81.765169, 45.307727], [81.739279, 45.338061], [81.665227, 45.347982], [81.54203, 45.293309], [81.144173, 45.204684], [81.062524, 45.172231], [81.021907, 45.161637], [80.976018, 45.161069], [80.853855, 45.126497], [80.745696, 45.144274], [80.69712, 45.143654], [80.53682, 45.101072], [80.445353, 45.104225], [80.425096, 45.092132], [80.406389, 45.056631], [80.390059, 45.045779], [80.29053, 45.046244], [80.21901, 45.026038], [80.103358, 45.032188], [80.061707, 45.018959], [80.0, 44.97965898121799], [80.0, 50.0], [85.00422316849385, 50.0], [84.954793, 49.99049], [84.954587, 49.906929], [84.975774, 49.89401], [85.032618, 49.884967], [85.056286, 49.873339], [85.070755, 49.85024], [85.081711, 49.80001], [85.163256, 49.733968], [85.185115, 49.705029], [85.195037, 49.625654], [85.223614, 49.595734], [85.263095, 49.581523], [85.384018, 49.615681], [85.475692, 49.583073], [85.531296, 49.589119], [85.597183, 49.619298], [85.614856, 49.617128], [85.628447, 49.606482], [85.642297, 49.577492], [85.673302, 49.560439], [85.747406, 49.572996], [85.809211, 49.536512], [85.880732, 49.563281], [85.940573, 49.559612], [85.931426, 49.492846], [85.946257, 49.481374], [85.980054, 49.482872], [86.027544, 49.515635], [86.070488, 49.52628], [86.111519, 49.520183], [86.177251, 49.463339], [86.214251, 49.496153], [86.272129, 49.583641], [86.32949, 49.610255], [86.391812, 49.624982], [86.475476, 49.670819], [86.482969, 49.686271], [86.472737, 49.708336], [86.545601, 49.74265], [86.565134, 49.742701], [86.610196, 49.795515], [86.642442, 49.793861], [86.68492, 49.778203], [86.748379, 49.782957], [86.758921, 49.778616], [86.759593, 49.767713], [86.73763, 49.735002], [86.740524, 49.722754], [86.775871, 49.695004], [86.736493, 49.671905], [86.667712, 49.664256], [86.647093, 49.653663], [86.595985, 49.601883], [86.591799, 49.587207], [86.599344, 49.573513], [86.642546, 49.547468], [86.732566, 49.550672], [86.824343, 49.509227], [86.814008, 49.450006], [86.828994, 49.433315], [86.933071, 49.390113], [86.905062, 49.351924], [86.91302, 49.338695], [87.012549, 49.280714], [87.017148, 49.258648], [87.03663, 49.242732], [87.190316, 49.237823], [87.271758, 49.205111], [87.287674, 49.184337], [87.323796, 49.085274], [87.116315, 49.129767]]], [[[80.039383, 44.790497], [80.218287, 44.818092], [80.244745, 44.815974], [80.314508, 44.780317], [80.492275, 44.727969], [80.497443, 44.714946], [80.491965, 44.701717], [80.376313, 44.67128], [80.355849, 44.652883], [80.359157, 44.632574], [80.383755, 44.602808], [80.364531, 44.569684], [80.330424, 44.45305], [80.332905, 44.417393], [80.373006, 44.270219], [80.373213, 44.230996], [80.338899, 44.121494], [80.345101, 44.103097], [80.403805, 44.04894], [80.423132, 43.972149], [80.476152, 43.910241], [80.712727, 43.458873], [80.710143, 43.425852], [80.694227, 43.394717], [80.64286, 43.32622], [80.658466, 43.310639], [80.735464, 43.288883], [80.748487, 43.275163], [80.76523, 43.199948], [80.793445, 43.14946], [80.787864, 43.12804], [80.773395, 43.112925], [80.731537, 43.101091], [80.710763, 43.104786], [80.660017, 43.132821], [80.618469, 43.134267], [80.575887, 43.119411], [80.497856, 43.076183], [80.368148, 43.02846], [80.355126, 43.000581], [80.373833, 42.975182], [80.407732, 42.954692], [80.476152, 42.930275], [80.542918, 42.916658], [80.554493, 42.898933], [80.548602, 42.878469], [80.400498, 42.843019], [80.333938, 42.817078], [80.264899, 42.823666], [80.248259, 42.816199], [80.227485, 42.790981], [80.205367, 42.731088], [80.152451, 42.660369], [80.140048, 42.622955], [80.162373, 42.552391], [80.210535, 42.490844], [80.196169, 42.434594], [80.2187, 42.354935], [80.249499, 42.309951], [80.268413, 42.237966], [80.249086, 42.204893], [80.210328, 42.189519], [80.16661, 42.208717], [80.077003, 42.305765], [80.012098, 42.349509], [80.0, 42.36207591472868], [80.0, 44.79310236489947], [80.039383, 44.790497]]]]}}, {"type": "Feature", "properties": {"name": "Mongolia"}, "geometry": {"type": "Polygon", "coordinates": [[[99.971551, 42.676285], [99.474476, 42.564199], [97.193271, 42.78726], [96.379264, 42.720546], [96.357767, 42.724499], [96.337199, 42.86648], [96.318699, 42.910069], [95.908492, 43.214547], [95.874385, 43.247103], [95.854955, 43.284543], [95.832837, 43.408902], [95.692484, 43.630542], [95.589235, 43.869494], [95.535284, 43.95768], [95.510273, 43.979125], [95.327545, 44.006669], [95.318967, 44.017108], [95.328269, 44.09824], [95.322688, 44.158236], [95.347492, 44.214925], [95.389247, 44.260762], [95.397722, 44.280502], [95.379428, 44.287117], [95.036814, 44.254974], [94.993819, 44.259418], [94.905762, 44.294248], [94.69823, 44.343496], [94.657199, 44.388816], [94.588055, 44.4361], [94.430132, 44.504468], [94.366364, 44.504313], [94.338458, 44.512116], [94.27748, 44.589579], [94.181879, 44.660841], [94.149012, 44.667197], [94.103744, 44.651643], [94.058579, 44.651281], [93.97507, 44.659962], [93.927424, 44.672933], [93.874507, 44.714223], [93.714, 44.874575], [93.688265, 44.891059], [93.525278, 44.951263], [93.420582, 44.955087], [93.341, 44.984852], [93.244158, 44.981545], [93.165713, 45.007642], [92.945055, 45.005833], [92.847593, 45.039112], [92.798914, 45.03317], [92.752715, 45.037976], [92.63851, 45.0156], [92.475109, 44.997461], [92.413821, 45.011259], [92.331036, 45.007848], [92.285354, 45.019527], [92.218898, 45.010122], [92.19368, 45.014514], [92.108414, 45.058181], [92.042991, 45.074821], [91.919071, 45.065571], [91.746989, 45.072444], [91.662963, 45.059525], [91.563951, 45.077146], [91.533978, 45.0711], [91.43848, 45.146134], [91.41688, 45.145669], [91.366547, 45.11425], [91.249138, 45.129701], [91.184336, 45.153834], [91.135036, 45.197862], [91.056798, 45.217551], [90.975149, 45.214864], [90.90549, 45.185977], [90.873243, 45.186184], [90.857637, 45.215071], [90.866629, 45.25357], [90.854433, 45.270623], [90.796556, 45.292844], [90.790458, 45.337699], [90.753251, 45.42095], [90.737955, 45.441724], [90.651138, 45.493142], [90.696613, 45.730026], [90.710773, 45.752196], [90.919235, 45.950065], [90.986208, 45.993111], [91.002435, 46.021843], [91.005432, 46.068094], [90.995923, 46.113724], [90.948794, 46.168294], [90.896188, 46.302033], [90.935772, 46.343865], [91.035611, 46.529073], [91.047496, 46.566409], [90.995923, 46.594625], [91.01556, 46.703197], [91.004812, 46.74043], [90.925333, 46.813139], [90.919959, 46.833628], [90.936495, 46.864427], [90.91014, 46.892384], [90.885129, 46.944733], [90.828182, 46.982301], [90.742399, 46.991861], [90.712116, 47.014702], [90.46872, 47.308922], [90.468514, 47.323521], [90.485567, 47.344915], [90.487221, 47.378194], [90.448153, 47.404033], [90.441228, 47.493045], [90.381594, 47.538391], [90.327437, 47.623037], [90.349554, 47.64779], [90.3448, 47.658642], [90.302116, 47.678512], [90.163416, 47.710009], [90.082852, 47.756104], [90.052157, 47.8107], [90.064352, 47.85062], [90.059856, 47.868811], [90.044612, 47.879766], [89.96317, 47.888654], [89.946685, 47.883177], [89.934438, 47.844264], [89.921364, 47.832094], [89.889066, 47.824317], [89.783543, 47.818504], [89.751296, 47.824317], [89.723391, 47.878164], [89.707268, 47.889042], [89.655282, 47.899816], [89.627376, 47.943948], [89.583245, 47.962035], [89.571876, 48.020455], [89.5418, 48.031023], [89.425425, 48.021644], [89.354266, 48.038774], [89.243989, 47.980225], [89.074697, 47.984256], [89.045551, 47.992989], [88.916825, 48.105954], [88.805411, 48.105954], [88.709189, 48.166363], [88.635809, 48.175846], [88.580774, 48.211994], [88.558759, 48.288087], [88.57297, 48.32532], [88.565116, 48.342993], [88.50269, 48.392551], [88.479126, 48.400148], [88.416701, 48.394101], [88.383421, 48.408674], [88.304873, 48.469006], [88.235627, 48.493191], [88.165967, 48.493734], [88.062511, 48.542878], [88.016622, 48.539803], [87.983032, 48.552335], [87.95182, 48.575202], [87.942828, 48.599489], [87.989647, 48.624165], [88.010162, 48.653414], [88.055018, 48.673413], [88.063854, 48.682611], [88.05941, 48.708087], [88.033779, 48.72912], [87.975488, 48.755992], [87.907585, 48.758834], [87.821078, 48.788289], [87.805885, 48.800588], [87.796067, 48.839759], [87.737879, 48.86937], [87.735709, 48.886733], [87.756896, 48.920374], [87.835858, 48.945902], [87.8726, 48.96802], [87.872238, 49.00409], [87.821905, 49.02874], [87.815962, 49.050599], [87.835548, 49.100725], [87.816324, 49.165837], [87.855185, 49.158964], [87.956781, 49.168886], [88.029748, 49.21555], [88.108503, 49.247434], [88.143953, 49.27074], [88.148397, 49.296579], [88.115531, 49.356575], [88.174752, 49.443857], [88.19997, 49.454347], [88.37877, 49.475793], [88.475405, 49.463649], [88.538761, 49.466542], [88.615759, 49.492949], [88.648676, 49.483596], [88.69565, 49.446957], [88.870627, 49.436002], [88.875329, 49.441789], [88.854865, 49.473881], [88.858741, 49.527366], [88.868198, 49.538114], [88.88892, 49.54168], [88.90835, 49.535944], [88.962662, 49.46215], [88.975323, 49.455845], [89.160738, 49.502716], [89.195258, 49.521526], [89.215619, 49.545452], [89.178205, 49.598472], [89.187352, 49.621985], [89.216445, 49.634491], [89.252205, 49.629427], [89.339435, 49.580799], [89.37194, 49.581678], [89.4416, 49.643586], [89.475344, 49.643431], [89.520303, 49.663171], [89.616318, 49.685444], [89.702411, 49.719964], [89.712642, 49.735157], [89.701532, 49.75314], [89.638952, 49.775464], [89.626446, 49.788022], [89.643551, 49.818872], [89.615336, 49.84192], [89.623862, 49.902692], [89.667684, 49.92729], [89.720704, 49.939744], [89.866432, 49.942741], [89.969423, 49.96708], [89.996243, 49.992764], [89.99732638448803, 50.0], [94.99985696281384, 50.0], [95.028339, 49.963411], [95.076398, 49.945531], [95.354727, 49.947702], [95.399789, 49.938865], [95.500661, 49.886724], [95.520608, 49.889617], [95.56319, 49.9276], [95.583964, 49.936695], [95.680495, 49.945996], [95.721423, 49.958502], [95.77307349696582, 50.0], [95.88410220779515, 50.0], [95.892162, 49.992919], [95.922651, 49.944601], [95.946319, 49.938503], [95.974844, 49.952456], [96.011948, 49.985219], [96.055976, 49.99881], [96.235603, 49.9492], [96.346294, 49.888584], [96.372856, 49.886052], [96.474659, 49.921657], [96.503287, 49.922122], [96.523855, 49.915766], [96.56809, 49.861764], [96.585143, 49.857526], [96.625967, 49.873391], [96.680227, 49.90972], [96.701932, 49.91375], [96.969202, 49.886672], [97.005892, 49.865278], [97.057259, 49.812723], [97.119891, 49.793654], [97.152964, 49.750246], [97.262311, 49.726113], [97.343339, 49.734175], [97.474598, 49.788693], [97.542707, 49.822748], [97.57361, 49.847501], [97.581258, 49.877939], [97.563171, 49.908944], [97.566582, 49.916799], [97.756338, 49.961499], [97.777525, 49.956177], [97.829925, 49.92331], [97.906199, 49.973075], [97.98260261409618, 50.0], [100.0, 50.0], [100.0, 42.67643092763738], [99.971551, 42.676285]]]}}, {"type": "Feature", "properties": {"name": "Russia"}, "geometry": {"type": "MultiPolygon", "coordinates": [[[[87.716382, 49.158861], [87.506059, 49.120879], [87.47557, 49.087599], [87.400432, 49.071011], [87.323796, 49.085274], [87.287674, 49.184337], [87.271758, 49.205111], [87.190316, 49.237823], [87.076008, 49.236892], [87.024538, 49.248933], [87.012549, 49.280714], [86.91302, 49.338695], [86.905062, 49.351924], [86.933071, 49.390113], [86.828994, 49.433315], [86.814008, 49.450006], [86.824343, 49.509227], [86.732566, 49.550672], [86.642546, 49.547468], [86.618568, 49.557958], [86.591799, 49.587207], [86.611126, 49.620228], [86.647093, 49.653663], [86.667712, 49.664256], [86.736493, 49.671905], [86.775871, 49.695004], [86.740524, 49.722754], [86.73763, 49.735002], [86.759593, 49.767713], [86.758921, 49.778616], [86.748379, 49.782957], [86.68492, 49.778203], [86.642442, 49.793861], [86.610196, 49.795515], [86.565134, 49.742701], [86.545601, 49.74265], [86.472737, 49.708336], [86.482969, 49.686271], [86.475476, 49.670819], [86.391812, 49.624982], [86.32949, 49.610255], [86.272129, 49.583641], [86.214251, 49.496153], [86.177251, 49.463339], [86.111519, 49.520183], [86.070488, 49.52628], [86.027544, 49.515635], [85.980054, 49.482872], [85.946257, 49.481374], [85.931426, 49.492846], [85.940573, 49.559612], [85.880732, 49.563281], [85.809211, 49.536512], [85.747406, 49.572996], [85.673302, 49.560439], [85.642297, 49.577492], [85.628447, 49.606482], [85.614856, 49.617128], [85.597183, 49.619298], [85.531296, 49.589119], [85.475692, 49.583073], [85.384018, 49.615681], [85.263095, 49.581523], [85.223614, 49.595734], [85.195037, 49.625654], [85.185115, 49.705029], [85.163256, 49.733968], [85.081711, 49.80001], [85.070755, 49.85024], [85.056286, 49.873339], [85.032618, 49.884967], [84.975774, 49.89401], [84.954587, 49.906929], [84.954793, 49.99049], [85.00422316849385, 50.0], [89.99732638448803, 50.0], [89.996243, 49.992764], [89.969423, 49.96708], [89.866432, 49.942741], [89.720704, 49.939744], [89.667684, 49.92729], [89.623862, 49.902692], [89.615336, 49.84192], [89.643551, 49.818872], [89.626446, 49.788022], [89.638952, 49.775464], [89.701532, 49.75314], [89.712642, 49.735157], [89.702411, 49.719964], [89.616318, 49.685444], [89.520303, 49.663171], [89.475344, 49.643431], [89.4416, 49.643586], [89.37194, 49.581678], [89.339435, 49.580799], [89.252205, 49.629427], [89.216445, 49.634491], [89.187352, 49.621985], [89.178205, 49.598472], [89.215619, 49.545452], [89.195258, 49.521526], [89.160738, 49.502716], [88.975323, 49.455845], [88.962662, 49.46215], [88.90835, 49.535944], [88.868198, 49.538114], [88.858741, 49.527366], [88.854865, 49.473881], [88.875329, 49.441789], [88.870627, 49.436002], [88.69565, 49.446957], [88.648676, 49.483596], [88.615759, 49.492949], [88.538761, 49.466542], [88.475405, 49.463649], [88.37877, 49.475793], [88.19997, 49.454347], [88.161729, 49.430111], [88.115531, 49.356575], [88.148397, 49.296579], [88.143953, 49.27074], [88.108503, 49.247434], [88.029748, 49.21555], [87.956781, 49.168886], [87.855185, 49.158964], [87.816324, 49.165837], [87.716382, 49.158861]]], [[[97.906199, 49.973075], [97.829925, 49.92331], [97.777525, 49.956177], [97.756338, 49.961499], [97.566582, 49.916799], [97.563171, 49.908944], [97.581258, 49.877939], [97.57361, 49.847501], [97.542707, 49.822748], [97.474598, 49.788693], [97.343339, 49.734175], [97.262311, 49.726113], [97.152964, 49.750246], [97.119891, 49.793654], [97.057259, 49.812723], [97.005892, 49.865278], [96.969202, 49.886672], [96.701932, 49.91375], [96.680227, 49.90972], [96.625967, 49.873391], [96.585143, 49.857526], [96.56809, 49.861764], [96.523855, 49.915766], [96.503287, 49.922122], [96.474659, 49.921657], [96.372856, 49.886052], [96.346294, 49.888584], [96.235603, 49.9492], [96.055976, 49.99881], [96.011948, 49.985219], [95.974844, 49.952456], [95.946319, 49.938503], [95.922651, 49.944601], [95.892162, 49.992919], [95.88410220779515, 50.0], [97.98260261409618, 50.0], [97.906199, 49.973075]]], [[[95.721423, 49.958502], [95.680495, 49.945996], [95.583964, 49.936695], [95.56319, 49.9276], [95.520608, 49.889617], [95.500661, 49.886724], [95.399789, 49.938865], [95.354727, 49.947702], [95.076398, 49.945531], [95.028339, 49.963411], [94.99985696281384, 50.0], [95.77307349696582, 50.0], [95.721423, 49.958502]]]]}}, {"type": "Feature", "properties": {"name": "Kyrgyzstan"}, "geometry": {"type": "Polygon", "coordinates": [[[80.224591, 42.125569], [80.256527, 42.084357], [80.257561, 42.065263], [80.231206, 42.033689], [80.181906, 42.020976], [80.0, 42.02264257558038], [80.0, 42.36207591472868], [80.012098, 42.349509], [80.077003, 42.305765], [80.16661, 42.208717], [80.210328, 42.189519], [80.224591, 42.125569]]]}}, {"type": "Feature", "properties": {"name": "Nepal"}, "geometry": {"type": "Polygon", "coordinates": [[[80.715827, 30.013311], [80.769674, 30.077287], [80.829825, 30.117129], [80.849669, 30.143381], [80.83644, 30.170046], [80.883879, 30.210405], [80.903309, 30.180433], [80.920827, 30.17666], [80.988162, 30.196556], [81.006507, 30.188908], [81.074203, 30.071912], [81.084849, 30.026179], [81.097768, 30.016929], [81.148101, 30.023233], [81.194506, 30.004475], [81.21683, 30.008195], [81.227269, 30.022458], [81.225719, 30.050467], [81.257086, 30.063541], [81.272021, 30.079922], [81.275948, 30.095373], [81.266956, 30.125087], [81.277705, 30.131857], [81.322405, 30.133769], [81.350052, 30.15723], [81.361834, 30.204772], [81.377854, 30.232626], [81.368036, 30.301046], [81.387259, 30.345126], [81.387518, 30.373909], [81.407413, 30.37918], [81.42612, 30.372514], [81.46281, 30.341353], [81.509371, 30.328382], [81.520688, 30.331948], [81.536811, 30.37856], [81.576705, 30.390963], [81.591588, 30.414269], [81.614015, 30.416904], [81.779018, 30.358045], [81.844389, 30.371171], [81.887177, 30.354996], [81.941231, 30.353962], [81.969032, 30.328279], [82.049854, 30.339235], [82.088767, 30.330088], [82.093211, 30.31474], [82.0821, 30.257327], [82.084994, 30.230817], [82.095898, 30.213454], [82.155688, 30.181363], [82.127576, 30.124364], [82.135224, 30.089741], [82.153827, 30.058166], [82.210671, 30.064419], [82.255733, 30.039666], [82.318882, 30.031811], [82.347304, 30.003441], [82.394433, 30.003131], [82.39843171111927, 30.0], [80.6959636684581, 30.0], [80.715827, 30.013311]]]}}]}