{"type": "FeatureCollection", "features": [{"type": "Feature", "properties": {"name": "Fr. Polynesia"}, "geometry": {"type": "MultiPolygon", "coordinates": [[[[-140.053863, -9.346287], [-140.041412, -9.351007], [-140.027699, -9.343927], [-140.062896, -9.435968], [-140.092844, -9.447524], [-140.111399, -9.437758], [-140.158599, -9.37184], [-140.101633, -9.326267], [-140.076731, -9.323419], [-140.053863, -9.346287]]], [[[-140.015981, -8.859308], [-140.019154, -8.896417], [-140.055572, -8.878513], [-140.060536, -8.899998], [-140.07665, -8.915216], [-140.096018, -8.919041], [-140.117665, -8.905694], [-140.169911, -8.929457], [-140.183217, -8.953709], [-140.227691, -8.927016], [-140.249582, -8.838637], [-140.261057, -8.823175], [-140.247792, -8.786879], [-140.216705, -8.78102], [-140.089711, -8.802016], [-140.051422, -8.80047], [-140.027699, -8.788995], [-140.049428, -8.823175], [-140.015981, -8.859308]]], [[[-140.707834, -8.039727], [-140.717763, -8.041274], [-140.727162, -8.02809], [-140.727773, -7.991469], [-140.70637, -7.963067], [-140.673166, -7.950128], [-140.638417, -7.959731], [-140.675649, -7.976739], [-140.707834, -8.039727]]]]}}, {"type": "Feature", "properties": {"name": "Kiribati"}, "geometry": {"type": "MultiPolygon", "coordinates": [[[[-155.879628, -5.60947], [-155.859812, -5.625095], [-155.906443, -5.635349], [-155.922475, -5.629978], [-155.933461, -5.609145], [-155.899322, -5.616795], [-155.879628, -5.60947]]], [[[-154.940297, -4.031996], [-154.958567, -4.071222], [-154.953359, -4.094822], [-154.964792, -4.094985], [-154.977528, -4.078709], [-155.010813, -4.060642], [-155.018422, -4.051202], [-154.940297, -4.031996]]], [[[-157.179392, 1.753892], [-157.178782, 1.718492], [-157.194081, 1.722968], [-157.22411, 1.709703], [-157.246409, 1.713324], [-157.286855, 1.75023], [-157.410593, 1.781928], [-157.448964, 1.800238], [-157.528269, 1.862494], [-157.546824, 1.856431], [-157.566029, 1.863756], [-157.581166, 1.880316], [-157.578236, 1.907945], [-157.543528, 1.929023], [-157.52123, 1.92768], [-157.517568, 1.923651], [-157.545359, 1.90233], [-157.549509, 1.884467], [-157.537302, 1.86636], [-157.500925, 1.865871], [-157.490671, 1.850165], [-157.428538, 1.838568], [-157.475209, 1.880601], [-157.45165, 1.87641], [-157.447336, 1.901109], [-157.436594, 1.893866], [-157.423695, 1.863227], [-157.411977, 1.858466], [-157.410024, 1.879381], [-157.426381, 1.912055], [-157.419993, 1.929023], [-157.408315, 1.921454], [-157.406321, 1.942694], [-157.394724, 1.935736], [-157.395863, 1.916978], [-157.382069, 1.902167], [-157.358469, 1.923896], [-157.355051, 1.947659], [-157.408884, 1.969306], [-157.477528, 2.018134], [-157.487904, 2.000556], [-157.498891, 2.002183], [-157.508412, 2.010688], [-157.509389, 2.024604], [-157.496287, 2.03441], [-157.423818, 2.020453], [-157.385854, 1.990465], [-157.310129, 1.97309], [-157.315053, 1.952786], [-157.340443, 1.930243], [-157.347727, 1.860785], [-157.325429, 1.835842], [-157.222971, 1.773586], [-157.179392, 1.753892]]], [[[-159.249989, 3.81977], [-159.263417, 3.79914], [-159.308705, 3.784654], [-159.333445, 3.786444], [-159.352854, 3.79914], [-159.360789, 3.819403], [-159.294789, 3.805976], [-159.285227, 3.811428], [-159.28718, 3.837836], [-159.299672, 3.854641], [-159.335439, 3.871487], [-159.352854, 3.909003], [-159.378245, 3.907172], [-159.393788, 3.888577], [-159.367136, 3.840155], [-159.410024, 3.862047], [-159.406321, 3.902574], [-159.37682, 3.933295], [-159.342275, 3.925767], [-159.319895, 3.879096], [-159.284535, 3.874823], [-159.249989, 3.81977]]]]}}, {"type": "Feature", "properties": {"name": "Cook Is."}, "geometry": {"type": "Polygon", "coordinates": [[[-157.978627, -8.976007], [-158.00829, -8.952895], [-158.002878, -8.94671], [-157.940745, -8.974542], [-157.940745, -8.980727], [-157.978627, -8.976007]]]}}]}