{"type": "FeatureCollection", "features": [{"type": "Feature", "properties": {"name": "Belait", "country": "BRN"}, "geometry": {"type": "Polygon", "coordinates": [[[114.52339396700006, 4.708672970000066], [114.465733795, 4.674868875000072], [114.41953548200001, 4.653536486000064], [114.26901085500003, 4.602359436000029], [114.22269558500011, 4.592450013000075], [114.18140949800011, 4.589652034000039], [114.17661423000004, 4.593848999000045], [114.16772544100002, 4.590701277000051], [114.11380791700003, 4.586271127000032], [114.08047698500002, 4.588288988000045], [114.08047698500002, 4.583396957000048], [114.15944702500008, 4.573612794000042], [114.17149330200004, 4.569165403000056], [114.19157043100006, 4.54514901500005], [114.19737049100002, 4.530027175000043], [114.21164756000007, 4.534919570000056], [114.26206346100003, 4.506899044000022], [114.28392522400009, 4.464199025000028], [114.2852636990001, 4.452189196000063], [114.2977561350001, 4.441068809000058], [114.31158704600011, 4.405482447000054], [114.3151563130001, 4.392137121000076], [114.30667930300001, 4.365890618000037], [114.3338949670001, 4.347650982000062], [114.32407948200012, 4.319623364000051], [114.31783326400011, 4.264009951000048], [114.32452564000005, 4.256001287000061], [114.34281813500002, 4.261340406000045], [114.36646453100002, 4.255111431000046], [114.37047995700004, 4.263565028000073], [114.4034956800001, 4.265789643000062], [114.40751110600002, 4.257780998000044], [114.42000354200002, 4.255111431000046], [114.42401896700005, 4.255556359000025], [114.42624976000002, 4.264454875000069], [114.43472677000011, 4.275132958000029], [114.45034231400007, 4.277802455000028], [114.45792700700008, 4.259560704000023], [114.45346542300001, 4.247547607000058], [114.45926548300008, 4.236869142000046], [114.46149627500006, 4.215956720000065], [114.47978877000003, 4.183474611000065], [114.482019562, 4.167455539000059], [114.49272736400007, 4.157220962000054], [114.49986589900004, 4.143871313000034], [114.50968138400003, 4.142536336000035], [114.51637376000008, 4.147431242000039], [114.52217382000003, 4.144761297000059], [114.53065083000001, 4.132301435000045], [114.54180479000001, 4.129186439000023], [114.54760485000008, 4.122956411000075], [114.54938948300003, 4.111386228000072], [114.5440355820001, 4.106936113000074], [114.55340490900005, 4.100705911000034], [114.5551895430001, 4.09047047200005], [114.55206643400004, 4.080234903000076], [114.55697417600004, 4.07711970400004], [114.56902045400011, 4.079344848000062], [114.58865142400009, 4.045967051000048], [114.60828239500006, 4.046412097000029], [114.61586708800007, 4.039291326000068], [114.62612873100011, 4.018373699000051], [114.61006702800012, 4.004576673000031], [114.63683653300006, 4.002351325000063], [114.69885255400004, 4.024604538000062], [114.72696053400011, 4.053087763000065], [114.77960722800003, 4.121176394000031], [114.79165350500011, 4.123401415000046], [114.79477661400006, 4.127406436000058], [114.80905368300012, 4.154106064000075], [114.80905368300012, 4.159445881000067], [114.80325362400004, 4.161670794000031], [114.79745356400008, 4.155441022000048], [114.79477661400006, 4.160335847000056], [114.79700740600003, 4.174130192000064], [114.80414594100012, 4.187034360000041], [114.81039215800001, 4.188369261000048], [114.81529990100012, 4.201273194000066], [114.83225392100007, 4.21907137200003], [114.845192515, 4.240428647000044], [114.85590031700008, 4.278692286000023], [114.85233105000009, 4.279582115000039], [114.838946297, 4.264454875000069], [114.82823849500005, 4.260450556000023], [114.8202076440001, 4.251107063000063], [114.81619221800008, 4.251996924000025], [114.81306910900003, 4.259115778000023], [114.83805398000004, 4.285365981000041], [114.8536695250001, 4.31873358100006], [114.84206940600006, 4.312949969000044], [114.83136160400011, 4.321847816000059], [114.82333075300005, 4.322292705000052], [114.80459209900005, 4.316509120000035], [114.79789972300011, 4.335194391000073], [114.7840688120001, 4.346316357000035], [114.77246869300006, 4.363221430000067], [114.76577631700002, 4.357883027000071], [114.76265320800007, 4.365890618000037], [114.75328388100002, 4.372563545000048], [114.74257607900006, 4.391692273000046], [114.71491425700003, 4.425944814000047], [114.70911419700008, 4.445072168000024], [114.70152950400006, 4.456192494000049], [114.687252435, 4.456192494000049], [114.68502164300003, 4.475763860000029], [114.67475999900012, 4.48643893000002], [114.66895994000004, 4.500672114000054], [114.66003677100002, 4.501116896000042], [114.65289823700004, 4.510012489000076], [114.63817500900007, 4.50867815700002], [114.63358278900012, 4.51682786300006], [114.63358278900012, 4.520107077000034], [114.63924793000001, 4.522293210000043], [114.63796870500005, 4.530308978000051], [114.62407997200012, 4.533770305000075], [114.62133877500003, 4.541785946000061], [114.61549088700008, 4.542878981000058], [114.60434335100001, 4.559638643000028], [114.594109548, 4.558545633000051], [114.59374405500012, 4.57512276600005], [114.58478947700007, 4.577855223000029], [114.58716518100005, 4.584595241000045], [114.58405849100006, 4.596253499000056], [114.56980426500002, 4.604450598000028], [114.56852503900006, 4.610643899000024], [114.57492116700007, 4.614833454000063], [114.57071799700009, 4.628859176000049], [114.55555003900008, 4.646163256000023], [114.54842292600006, 4.643860927000048], [114.53871543200012, 4.653769630000056], [114.54011892500012, 4.659598215000074], [114.53123013600009, 4.663678195000045], [114.53204884000002, 4.672071222000056], [114.52608399500002, 4.676617403000023], [114.52011915000003, 4.689789505000022], [114.52374484000006, 4.691654561000064], [114.5256161640001, 4.700163817000032], [114.52339396700006, 4.708672970000066]]]}}, {"type": "Feature", "properties": {"name": "Tutong", "country": "BRN"}, "geometry": {"type": "Polygon", "coordinates": [[[114.84206940600006, 4.312949969000044], [114.86627350000003, 4.328493327000047], [114.87812458300004, 4.356993290000048], [114.87951882900006, 4.392442954000046], [114.88439868600005, 4.421635531000049], [114.88021595100008, 4.430671096000026], [114.8641821330001, 4.425110761000042], [114.83769147700002, 4.423025625000037], [114.82584039400001, 4.430671096000026], [114.81747492300008, 4.477237251000076], [114.82026341400001, 4.53422463000004], [114.81468643300002, 4.593292167000072], [114.80632096300008, 4.596766577000039], [114.80492671800005, 4.605799961000059], [114.81120082100006, 4.618307536000032], [114.80910945300002, 4.626645796000048], [114.80074398300007, 4.63359427100005], [114.79865261500004, 4.648185847000036], [114.80074398300007, 4.656523755000023], [114.81468643300002, 4.646101355000042], [114.81468643300002, 4.658608216000061], [114.80283535, 4.678062891000025], [114.78540728700011, 4.685010859000045], [114.77564757200003, 4.696822245000021], [114.7847101640001, 4.719054899000071], [114.77704181700005, 4.728086712000049], [114.78192167400005, 4.737118407000025], [114.77425332700011, 4.75934976800005], [114.77773893900007, 4.791306091000024], [114.78192167400005, 4.802420984000037], [114.79307563500004, 4.814230359000021], [114.79656124700011, 4.839237771000057], [114.80632096300008, 4.85521424500007], [114.80632096300008, 4.862160420000066], [114.79516700200008, 4.877441753000028], [114.79237851200003, 4.894806482000035], [114.79516700200008, 4.910087070000031], [114.79307563500004, 4.923978211000076], [114.67317056000002, 4.843405583000049], [114.63358278900012, 4.804248033000022], [114.52339396700006, 4.708672970000066], [114.5256161640001, 4.700163817000032], [114.52374484000006, 4.691654561000064], [114.52011915000003, 4.689789505000022], [114.52608399500002, 4.676617403000023], [114.53204884000002, 4.672071222000056], [114.53123013600009, 4.663678195000045], [114.54011892500012, 4.659598215000074], [114.53871543200012, 4.653769630000056], [114.54842292600006, 4.643860927000048], [114.55555003900008, 4.646163256000023], [114.57071799700009, 4.628859176000049], [114.57492116700007, 4.614833454000063], [114.56852503900006, 4.610643899000024], [114.56980426500002, 4.604450598000028], [114.58405849100006, 4.596253499000056], [114.58716518100005, 4.584595241000045], [114.58478947700007, 4.577855223000029], [114.59374405500012, 4.57512276600005], [114.59283032200005, 4.560185147000027], [114.60087116800003, 4.557270453000058], [114.60434335100001, 4.559638643000028], [114.61549088700008, 4.542878981000058], [114.62133877500003, 4.541785946000061], [114.62407997200012, 4.533770305000075], [114.63796870500005, 4.530308978000051], [114.63924793000001, 4.522293210000043], [114.63358278900012, 4.520107077000034], [114.63358278900012, 4.51682786300006], [114.63817500900007, 4.50867815700002], [114.65289823700004, 4.510012489000076], [114.66003677100002, 4.501116896000042], [114.66895994000004, 4.500672114000054], [114.67475999900012, 4.48643893000002], [114.68502164300003, 4.475763860000029], [114.687252435, 4.456192494000049], [114.70152950400006, 4.456192494000049], [114.70911419700008, 4.445072168000024], [114.71491425700003, 4.425944814000047], [114.74257607900006, 4.391692273000046], [114.75328388100002, 4.372563545000048], [114.76265320800007, 4.365890618000037], [114.76577631700002, 4.357883027000071], [114.77246869300006, 4.363221430000067], [114.7840688120001, 4.346316357000035], [114.79789972300011, 4.335194391000073], [114.80459209900005, 4.316509120000035], [114.82333075300005, 4.322292705000052], [114.83136160400011, 4.321847816000059], [114.84206940600006, 4.312949969000044]]]}}, {"type": "Feature", "properties": {"name": "Brunei-Muara", "country": "BRN"}, "geometry": {"type": "MultiPolygon", "coordinates": [[[[115.05150968100008, 4.890668996000045], [115.05201493900006, 4.89687778800004], [115.04561501, 4.89637437500005], [115.03652037600011, 4.890501190000066], [115.03332041100009, 4.882949876000055], [115.05150968100008, 4.890668996000045]]], [[[115.03601511800002, 4.89805241800002], [115.04443607600001, 4.903925537000021], [115.04780446000007, 4.921208987000057], [115.0358466990001, 4.90157629600003], [115.03601511800002, 4.89805241800002]]], [[[115.02419883000005, 4.92813566500007], [115.0258156540001, 4.931894297000042], [115.02484555900003, 4.931786908000049], [115.02419883000005, 4.92813566500007]]], [[[115.02732468900001, 4.943384841000068], [115.0301271840001, 4.948432026000035], [115.02894151300006, 4.950579753000056], [115.02603123000006, 4.946391679000044], [115.02732468900001, 4.943384841000068]]], [[[115.0623558750001, 4.976351928000042], [115.06429606400002, 4.981721005000054], [115.06149356900005, 4.982902196000055], [115.05901443900007, 4.976244546000032], [115.0623558750001, 4.976351928000042]]], [[[115.09663254400004, 5.011787021000032], [115.07970978600008, 5.020699181000055], [115.07561383200004, 5.01887380900007], [115.0772306560001, 5.008995235000043], [115.09145870700002, 4.994284472000061], [115.12875344600002, 4.994713988000058], [115.1174356790001, 5.014041916000053], [115.11581885500004, 5.011464892000049], [115.09663254400004, 5.011787021000032]]], [[[115.12917476900009, 5.043360002000043], [115.09866706900004, 5.041292979000048], [115.09650371500004, 5.037114934000044], [115.1208304050001, 5.041908689000024], [115.1376957330001, 5.040765228000055], [115.12917476900009, 5.043360002000043]]], [[[114.77861422700005, 4.733272889000034], [114.78827052800011, 4.728549011000041], [114.79399678000004, 4.73442359400002], [114.8046071870001, 4.73442359400002], [114.81387024100002, 4.739962441000046], [114.83424896000008, 4.74482987500005], [114.8470488160001, 4.766145478000055], [114.8507540380001, 4.791320535000068], [114.89639563100002, 4.81649466500005], [114.91509015800011, 4.810285132000047], [114.93782674600004, 4.814480768000067], [114.95231079400003, 4.803739888000052], [114.95803704500008, 4.812466866000022], [114.97218425500012, 4.808271218000073], [114.9878472370001, 4.839486222000062], [114.98414201600008, 4.849219639000069], [114.99239455500003, 4.855932259000042], [114.9885209140001, 4.872881326000027], [115.01260485400007, 4.895199742000045], [115.0248994530001, 4.902247509000063], [115.02175562900004, 4.917480125000054], [115.01786327500008, 4.920761525000046], [115.00438974200006, 4.899879616000021], [114.9882215020001, 4.894509877000075], [114.95528619900006, 4.861992205000035], [114.94750149100003, 4.864677210000025], [114.94630384400011, 4.851252078000073], [114.93402795800012, 4.863782210000068], [114.93486631100006, 4.878770327000041], [114.94559723200007, 4.871705906000045], [114.9561365290001, 4.872278700000038], [114.9854549370001, 4.897481138000046], [114.9946528690001, 4.903781600000059], [115.00365917700003, 4.905499897000027], [115.02780374800011, 4.951510432000021], [115.04849909500001, 4.971364614000038], [115.04849909500001, 4.973655442000052], [115.041600646, 4.97270093100002], [115.03872629200009, 4.975182657000062], [115.03949278700009, 4.97976428000004], [115.04524149400004, 4.982627778000051], [115.03531171300006, 4.994746574000033], [115.04111990100012, 5.001314583000067], [115.06278287000009, 5.00068906100006], [115.06929745900004, 4.98833488300005], [115.06396020500006, 5.000454490000038], [115.06670732100008, 5.021018213000048], [115.09300114300004, 5.03939209400005], [115.06458811800007, 5.037828380000064], [115.05932935300007, 5.045646914000031], [115.05446303400004, 5.044708695000054], [114.94220564400007, 5.003760603000046], [114.87079591800011, 4.972217710000052], [114.84755407400007, 4.96483511200006], [114.81285972600006, 4.941847858000074], [114.79307563500004, 4.923978211000076], [114.79516700200008, 4.910087070000031], [114.79237851200003, 4.894806482000035], [114.79516700200008, 4.877441753000028], [114.80632096300008, 4.862160420000066], [114.80632096300008, 4.85521424500007], [114.79656124700011, 4.839237771000057], [114.79307563500004, 4.814230359000021], [114.78192167400005, 4.802420984000037], [114.77773893900007, 4.791306091000024], [114.77425332700011, 4.75934976800005], [114.78122455200003, 4.741981578000036], [114.78192167400005, 4.737118407000025], [114.77861422700005, 4.733272889000034]]]]}}, {"type": "Feature", "properties": {"name": "Temburong", "country": "BRN"}, "geometry": {"type": "Polygon", "coordinates": [[[115.18330421500002, 4.859548622000034], [115.18631096500008, 4.863696838000067], [115.18330421500002, 4.868536390000031], [115.17150850000007, 4.867384119000064], [115.16896432600004, 4.873836812000036], [115.16156309300004, 4.870149566000066], [115.14884222400008, 4.889737828000023], [115.14722320500005, 4.901260067000067], [115.14005326000006, 4.905177583000068], [115.12710110300009, 4.902873165000074], [115.13357718200007, 4.898264304000065], [115.13496491300009, 4.892503183000031], [115.13010785400002, 4.885589773000049], [115.12201275600012, 4.89895563500005], [115.10767286700002, 4.902412280000021], [115.10119678800004, 4.900107852000076], [115.08639432300004, 4.889737828000023], [115.08940107400008, 4.869688659000076], [115.1053599820001, 4.860700907000023], [115.12201275600012, 4.865310026000031], [115.13218945100004, 4.860009536000064], [115.10466611600009, 4.853556710000021], [115.10027163400002, 4.845721053000034], [115.0903262280001, 4.845721053000034], [115.08940107400008, 4.837654840000027], [115.10304709700006, 4.81760412400007], [115.084312726, 4.827744790000054], [115.0826937060001, 4.835350190000042], [115.07482989700009, 4.839268091000065], [115.05956485400009, 4.833045533000075], [115.0456875430001, 4.819447893000074], [115.04291208000006, 4.810459473000037], [115.04661269700011, 4.795478510000066], [115.07182314600004, 4.777039950000074], [115.05447650600001, 4.780036250000023], [115.05794583400007, 4.769894875000034], [115.05031331300006, 4.776578980000068], [115.04152434900004, 4.794095635000076], [115.02209611300009, 4.79616994600002], [115.02348384400011, 4.791560357000037], [115.02903476900008, 4.788794589000076], [115.04013661800002, 4.787872664000076], [115.03250409700001, 4.771508285000039], [115.031810231, 4.753530067000042], [115.02117095900007, 4.747537224000041], [115.02440899800001, 4.74546276600006], [115.03134765400011, 4.748459203000039], [115.03065378800011, 4.743618798000057], [115.02417771000012, 4.743157805000067], [115.02672188300005, 4.734168385000032], [115.03204152, 4.732324387000062], [115.03435440500004, 4.736703874000057], [115.04406852300008, 4.729788882000037], [115.03296667400002, 4.722412813000062], [115.04268079200006, 4.717341721000025], [115.03458569300005, 4.715728184000056], [115.03389182800004, 4.712501098000075], [115.03851759800011, 4.712270591000049], [115.03620471300007, 4.709504505000041], [115.0380550210001, 4.706046882000066], [115.03366053900004, 4.706277391000071], [115.02949734600008, 4.70051464900007], [115.03944275200001, 4.691755190000038], [115.03435440500004, 4.692907757000057], [115.04684398500001, 4.668703459000028], [115.03990532900002, 4.666628766000031], [115.0382863100001, 4.659021506000045], [115.04244950300006, 4.653949953000051], [115.04869429300004, 4.655333107000047], [115.04961944700005, 4.649569946000042], [115.038980175, 4.633432845000073], [115.0454562540001, 4.625825227000064], [115.04198692600005, 4.62006182500005], [115.054013929, 4.598621560000026], [115.06141516200012, 4.595624482000062], [115.06257160500002, 4.583174947000032], [115.06997283800001, 4.578333402000055], [115.07367345400007, 4.563578018000044], [115.07020412600002, 4.556891884000038], [115.07459860800009, 4.544672237000043], [115.084312726, 4.534527468000022], [115.0829249950001, 4.522307443000045], [115.07829922400003, 4.52322971600006], [115.08130597500008, 4.51331521700007], [115.07922437900004, 4.506628619000026], [115.0829249950001, 4.507320339000046], [115.08778205400006, 4.502708860000041], [115.0900949390001, 4.492332925000028], [115.09472071000005, 4.492332925000028], [115.09061450600007, 4.475402403000032], [115.09753021800009, 4.472285648000025], [115.0971512750001, 4.452734791000069], [115.09298290000004, 4.452923691000024], [115.09478288000003, 4.446123273000069], [115.0912776560001, 4.443856453000024], [115.09857231100011, 4.437244855000074], [115.0913381150001, 4.437381252000023], [115.09278366800004, 4.430895732000067], [115.1068778130001, 4.414681685000062], [115.10470948300008, 4.407115008000062], [115.09856588100001, 4.40279115800007], [115.09748171600006, 4.394143383000028], [115.09025395000003, 4.386936828000046], [115.09061533800002, 4.382973192000065], [115.106516424, 4.379730202000076], [115.10796197800005, 4.373244180000029], [115.12061056900006, 4.373244180000029], [115.14193248000004, 4.37540619400005], [115.145184975, 4.384054186000071], [115.15132857600008, 4.384054186000071], [115.15964050700006, 4.376126864000071], [115.17445742900009, 4.37180283400005], [115.18132380700001, 4.373244180000029], [115.19650211600003, 4.362434018000044], [115.20336849400007, 4.36387538200006], [115.21276459, 4.35702887900004], [115.217824027, 4.35666853500004], [115.22252207500003, 4.362794360000066], [115.230834006, 4.362434018000044], [115.23625483100011, 4.368559796000056], [115.246373704, 4.360632310000028], [115.2442053740001, 4.342254634000028], [115.24890342200001, 4.33757005700005], [115.25540841200007, 4.335768288000054], [115.2778144880001, 4.344416737000074], [115.28359670100008, 4.336849350000023], [115.2962452920001, 4.339011468000024], [115.29407696200008, 4.325678307000032], [115.31720581500008, 4.300092395000036], [115.32660191100001, 4.29829053800006], [115.33925050200003, 4.304777204000061], [115.35334464700009, 4.319912543000044], [115.3634635200001, 4.344056387000023], [115.36198426600004, 4.348290489000021], [115.34668155000008, 4.35110570300003], [115.3393408500001, 4.373064012000043], [115.32296544100006, 4.392206629000043], [115.30207267900005, 4.401214749000076], [115.29473197900006, 4.416978697000047], [115.27383921700005, 4.441749938000044], [115.27835657000003, 4.46314261200007], [115.27892124000005, 4.504237316000058], [115.27722723200009, 4.51211822700003], [115.26762785400001, 4.507614860000047], [115.26819252400003, 4.525065253000037], [115.27440388500008, 4.556024591000039], [115.28852061700002, 4.58923403600005], [115.2879559480001, 4.625256093000075], [115.28174458600006, 4.638763892000043], [115.25859314600007, 4.652834243000029], [115.2698865320001, 4.686601934000066], [115.25012310800003, 4.692792501000042], [115.2439117460001, 4.700108554000053], [115.24729976200001, 4.711926632000029], [115.26367517000006, 4.732185727000058], [115.24504108500003, 4.741189578000046], [115.24504108500003, 4.749067853000042], [115.229230346, 4.756946037000034], [115.23770038500004, 4.789020568000069], [115.23826505400007, 4.803087872000049], [115.189293539, 4.842417390000037], [115.18330421500002, 4.859548622000034]]]}}, {"type": "Feature", "properties": {"name": "B\u1ea1c Li\u00eau", "country": "VNM"}, "geometry": {"type": "Polygon", "coordinates": [[[105.54956000988659, 9.615054759669476], [105.52027787092709, 9.614500217910802], [105.48336761312493, 9.621431920646671], [105.45348788006169, 9.623164824297248], [105.42712340891825, 9.630962779208915], [105.40251657008372, 9.633562057343113], [105.37878854695396, 9.620565466123423], [105.366485127087, 9.609301347779024], [105.33309013120464, 9.613633746300422], [105.2953010567984, 9.639626962014745], [105.28211882122667, 9.625764161786662], [105.30145276583255, 9.600636387959014], [105.31902907992816, 9.58417235177268], [105.31990789563292, 9.546908691882663], [105.29002816256968, 9.517441514714164], [105.27596711219252, 9.452431417076298], [105.26542132283583, 9.425556983567958], [105.28036118981714, 9.385674937648275], [105.26805776995019, 9.363997986617846], [105.26717895514474, 9.343186841699435], [105.27948237411232, 9.330179243677208], [105.26190606091603, 9.293755392297555], [105.23378395926238, 9.258195119409265], [105.24520856342451, 9.225233603947686], [105.26454250803039, 9.211354149174667], [105.27772474270279, 9.194871587853527], [105.26630013943992, 9.164506968222042], [105.2559652671834, 9.147813996119055], [105.2615896866148, 9.133376199951726], [105.27283852817561, 9.123935786207596], [105.29477376719564, 9.118937818325719], [105.33526959411654, 9.102832780708297], [105.3988255437639, 9.087837782587656], [105.41513636335253, 9.077840770335342], [105.43763404467546, 9.05617961769525], [105.46181905200768, 9.073397562747346], [105.48544161793637, 9.1122737529314], [105.50231487892859, 9.123935786207596], [105.531561865188, 9.13393150973144], [105.60186711977184, 9.166693308249648], [105.65417422875771, 9.18335068968264], [105.74753960696734, 9.223325211089673], [105.77872139377735, 9.240335217596282], [105.83762040727377, 9.262284060691774], [105.82965614541484, 9.261074768385924], [105.82909370221267, 9.316026427377778], [105.8240317241848, 9.345996419099492], [105.83528056484624, 9.367084868172185], [105.85327871044421, 9.370969442985427], [105.85890312987561, 9.380403227826775], [105.86227778279351, 9.397605353804067], [105.85046649982917, 9.41036766893285], [105.8341556811398, 9.408703046308574], [105.82178195587261, 9.394830875144805], [105.80097160055897, 9.388172035710909], [105.7925349696132, 9.389836758159902], [105.77566170862104, 9.42368436484162], [105.76103821594097, 9.423129512816786], [105.74247762893947, 9.417580943106088], [105.70029447600933, 9.398160247197723], [105.68060900530139, 9.400934698877279], [105.6665479540249, 9.407593292796264], [105.61255351813043, 9.444768082580993], [105.54956000988659, 9.46307657972045], [105.54956000988659, 9.615054759669476]]]}}, {"type": "Feature", "properties": {"name": "B\u1ebfn Tre", "country": "VNM"}, "geometry": {"type": "Polygon", "coordinates": [[[106.65644593942864, 10.25548362097237], [106.57320451817401, 10.269319724825493], [106.5242720603074, 10.273193726309444], [106.44496773337426, 10.292009626343258], [106.39209818208548, 10.31359118808291], [106.3476652608432, 10.319678028118574], [106.2053674247669, 10.310824404023094], [106.17429812695707, 10.293116409394827], [106.1005057322538, 10.281074403560922], [106.0749483657745, 10.282491134358395], [106.03304669048325, 10.29721587854952], [106.02998180031989, 10.277730895964112], [106.03666271091544, 10.25324853499194], [106.06269522880183, 10.241913468232042], [106.11452988704474, 10.233751968678462], [106.13203848219024, 10.225590258683553], [106.14977745396641, 10.209719668927619], [106.1596836328934, 10.194981983032164], [106.1997430053355, 10.164150206067177], [106.22997448200354, 10.131145211588972], [106.28073465827794, 10.056177072414016], [106.32123048519878, 10.012423814707347], [106.35047747055887, 9.989714101124889], [106.42134516834489, 9.9570314879129], [106.44890482679637, 9.935425928663733], [106.50964856672806, 9.899413493737768], [106.5502498517493, 9.859622085990509], [106.57397787487906, 9.823254979134049], [106.60122116172727, 9.816327458245667], [106.61879747492361, 9.81719340555128], [106.65658655022918, 9.827584606844198], [106.67240523201593, 9.848366028269652], [106.68382983617806, 9.876938346727343], [106.68470865098351, 9.89425369555164], [106.66713233778722, 9.928016000637967], [106.61318758763713, 9.963857490630744], [106.62494918485703, 9.960355293162308], [106.66881966379651, 9.980297413295034], [106.68063094676086, 10.001899997586861], [106.69412955573449, 10.01685479331411], [106.73350049804958, 10.033470422821779], [106.74699910702321, 10.043993214715158], [106.76443481031828, 10.058946066108092], [106.78243295501693, 10.082758436652568], [106.79311935427484, 10.114320961343367], [106.78412028192554, 10.17854387699839], [106.74474933871107, 10.195151151804282], [106.71100281672665, 10.215078738892714], [106.69862909235877, 10.230577110045658], [106.67556896783367, 10.248288608432574], [106.65644593942864, 10.25548362097237]]]}}, {"type": "Feature", "properties": {"name": "B\u00ecnh Thu\u1eadn", "country": "VNM"}, "geometry": {"type": "MultiPolygon", "coordinates": [[[[109.05105311670803, 9.918123504895902], [109.05459169624982, 9.932646912025405], [109.04309131431279, 9.933227833597698], [109.03955273387163, 9.929451816847916], [109.04028993783044, 9.916961605094059], [109.04559780669348, 9.915073508135947], [109.05105311670803, 9.918123504895902]]], [[[108.93096153664567, 10.45632412156101], [108.93039909524214, 10.47512901479223], [108.9146507179563, 10.501122136077754], [108.89946478297344, 10.504993265127155], [108.89327792123913, 10.500569113274025], [108.89384036264266, 10.491720620710112], [108.90171455128558, 10.473469806086712], [108.9169004862685, 10.452452384569938], [108.92814932692994, 10.451346165393261], [108.93096153664567, 10.45632412156101]]], [[[107.54591704966263, 10.543957966126126], [107.57419386035843, 10.555800095398126], [107.58031322887246, 10.566416048961514], [107.634307664767, 10.592954326680854], [107.66670432594395, 10.606399512327698], [107.72681813125183, 10.621613086175046], [107.74481627595043, 10.629396482861466], [107.81608893125923, 10.685997025442418], [107.82801270232443, 10.691855463758714], [107.86794608694242, 10.702908814290424], [107.91069168217547, 10.705672089195616], [107.95681192942709, 10.692408141222813], [107.98212182136501, 10.690750107031874], [108.0040570603851, 10.702908814290424], [108.02767962631378, 10.732750845974806], [108.05298951735239, 10.846013154283696], [108.06480080031673, 10.876393324992023], [108.0974224376954, 10.906770401133144], [108.1576037362235, 10.921681648988965], [108.21384794043018, 10.94763647894041], [108.23184608512878, 10.950397497446602], [108.25546865105747, 10.9492930931018], [108.28865273073899, 10.923890659126641], [108.2869654047297, 10.918368103205466], [108.29877668679472, 10.918368103205466], [108.31340018037406, 10.94487543435389], [108.325773904742, 10.953710685299939], [108.33196076827488, 10.953158488973145], [108.34039739832133, 10.958680397382466], [108.35333356499211, 11.00119563307203], [108.3651448479564, 11.01499796378505], [108.38651764467363, 11.025487301797568], [108.44951115291741, 11.04370473718393], [108.47257127744257, 11.056401069054118], [108.49956849538984, 11.100557937998474], [108.55075071976995, 11.155744633907773], [108.57999770602936, 11.167332509987375], [108.6649264541926, 11.180023462113127], [108.68236215658834, 11.176712832831015], [108.70261006959907, 11.165677126997878], [108.70992181683846, 11.156848261238338], [108.7245453104178, 11.172298601399405], [108.73185705585848, 11.188299870742469], [108.74760543314426, 11.210369138425051], [108.77685241940367, 11.285392026920533], [108.81847313003101, 11.309108427212209], [108.84209569506032, 11.314623588008203], [108.8522647597066, 11.313517796018877], [108.84884719704058, 11.336017527786737], [108.84242085663726, 11.346195837068251], [108.79496481037773, 11.352496513403423], [108.77964046163805, 11.359281701289547], [108.76135011011957, 11.38690544093339], [108.75492377061556, 11.432454519760313], [108.74207109070835, 11.447958919968244], [108.70400738673158, 11.448443418928662], [108.68621136915942, 11.455226315342202], [108.67929069570908, 11.475574027919095], [108.6639663469694, 11.496889106147364], [108.66001167719719, 11.516749431141363], [108.64617033029657, 11.537092701067365], [108.62738564483169, 11.548716764966798], [108.57645624685836, 11.552357174743861], [108.56994405537392, 11.529149314089636], [108.5588709773138, 11.518609448567247], [108.54115405331697, 11.50992926322499], [108.52343712932014, 11.511789324717597], [108.50318921541003, 11.52604939506358], [108.48990152173792, 11.526979374098858], [108.47408283995117, 11.521399452222965], [108.43643437634546, 11.517059434645262], [108.40448063757145, 11.522019448438868], [108.38011986673854, 11.516749431141363], [108.36366843724863, 11.508689215035304], [108.35132986468159, 11.50899922663308], [108.34120590862585, 11.521709450330945], [108.31684513779294, 11.521399452222965], [108.29090249905113, 11.51612942323436], [108.2747674429632, 11.507139146254644], [108.2614797501904, 11.493498178198422], [108.25768326577014, 11.463113650274806], [108.27128733284422, 11.446679839403089], [108.29248436696002, 11.437997439929973], [108.3013428294081, 11.424353132690953], [108.30324107071891, 11.41194864701248], [108.29090249905113, 11.39303076295937], [108.1949273898872, 11.311005654087694], [108.18419599574867, 11.303857896424802], [108.1675927067381, 11.3026665851948], [108.14086546077243, 11.289561843304455], [108.12466713018398, 11.285392026920533], [108.10219194720065, 11.267520701019578], [108.08619609537357, 11.264542037584988], [108.0637209105916, 11.245279277017062], [108.05865893256373, 11.230980312791246], [108.05035728805848, 11.227206856411328], [108.04752258090247, 11.23276772165309], [108.04934489335221, 11.245080685125572], [108.04144820726901, 11.257790289190552], [108.03305797774351, 11.292838085209496], [108.03369072544666, 11.314554648678154], [108.02831237311756, 11.325722526973095], [107.98686742509165, 11.34247352603245], [107.95554643402079, 11.350848656840071], [107.94289148805177, 11.35053847077387], [107.9394113779328, 11.355501401968183], [107.86696181313721, 11.371010002010053], [107.76445675177774, 11.382795972656083], [107.74452521216887, 11.380314756620749], [107.7337685093093, 11.375352258899682], [107.70877499077329, 11.348987537744733], [107.69548729710112, 11.340922548936533], [107.68378147223723, 11.340922548936533], [107.66195169131754, 11.355811581739147], [107.61765937997649, 11.368838848833832], [107.58096003837511, 11.397062548697704], [107.5692542126119, 11.397372684401887], [107.56261036577581, 11.39303076295937], [107.55818113455177, 11.379384294649526], [107.54647530968788, 11.36201511600484], [107.54014783715303, 11.356742121052093], [107.53451521727315, 11.357115097319237], [107.53188696970795, 11.348780745834802], [107.52837170688883, 11.323792306669645], [107.53100815400319, 11.274670743859815], [107.51431065561235, 11.246228103144517], [107.49234026389212, 11.233298702073512], [107.48091565972999, 11.217782654745747], [107.46421816223847, 11.179851035097215], [107.4404901391087, 11.151399061217774], [107.44927829615648, 11.114321098739765], [107.44576303333736, 11.097073928419093], [107.43345961257114, 11.089312368171306], [107.39830698617851, 11.046188846338225], [107.43785369199435, 11.025487301797568], [107.5037648680543, 11.011685463913068], [107.52309881266012, 10.998745652290097], [107.53012933829837, 10.984079845608449], [107.53100815400319, 10.967687789360014], [107.54116726275902, 10.944323222738603], [107.54397947427339, 10.910636351886183], [107.53947993674973, 10.88081200177254], [107.54116726275902, 10.856508471888503], [107.55241610431983, 10.82667871055412], [107.55129121971407, 10.812867630336939], [107.53610528473115, 10.78800608191517], [107.50685829937106, 10.775298274695672], [107.50179632134319, 10.764247571768067], [107.50742074077465, 10.749328480025383], [107.49729678471891, 10.739382007873417], [107.4916723643882, 10.722251207127556], [107.50348364735248, 10.681907103929746], [107.51529493031683, 10.621657311235992], [107.53329307501548, 10.568583427683109], [107.54359701329162, 10.554384606564383], [107.54591704966263, 10.543957966126126]]]]}}, {"type": "Feature", "properties": {"name": "C\u00e0 Mau", "country": "VNM"}, "geometry": {"type": "MultiPolygon", "coordinates": [[[[104.83271638475344, 8.442806136194292], [104.83559608768934, 8.455624152632595], [104.83019664535897, 8.459184637860801], [104.82947671917532, 8.47164607490646], [104.82407727504625, 8.472002111108566], [104.8183178691744, 8.459184637860801], [104.81939775710089, 8.453131793997159], [104.82263742357827, 8.444586441311287], [104.82875679299167, 8.43995762984082], [104.83271638475344, 8.442806136194292]]], [[[105.26542132283583, 9.425556983567958], [105.20422059870174, 9.456419057793312], [105.18172291827813, 9.471398301590398], [105.16372477268015, 9.490814869610574], [105.14403930107295, 9.501909556580813], [105.13054069209932, 9.515222707362113], [105.05011148056042, 9.572907024739436], [105.01411519116323, 9.588990332038236], [104.99161750894092, 9.593426971877307], [104.91343806571422, 9.589544915165732], [104.89487747871271, 9.578453079046426], [104.87575445030768, 9.553495124200651], [104.84088304281823, 9.572352414632292], [104.83750839079966, 9.557932228089896], [104.83357129737755, 9.447542160142632], [104.81894780379815, 9.23831449042143], [104.79813744758519, 9.141705769305872], [104.80207454280594, 9.110607716572929], [104.80151210140241, 9.021185770207182], [104.80544919482452, 8.924518504125729], [104.79701256387875, 8.884510747373156], [104.78576372411663, 8.857836481368565], [104.7778895345744, 8.824490929312958], [104.7835139558045, 8.803370519234136], [104.79813744758519, 8.787807341135931], [104.82119757211035, 8.792254029999526], [104.87013002907764, 8.817265660881617], [104.88644084776695, 8.816154069155004], [104.87856666002341, 8.79725649089437], [104.83582106479037, 8.781137207116444], [104.81726047778886, 8.768352449406052], [104.80263698510885, 8.724992169353186], [104.79251302815379, 8.715541183179084], [104.79026325984165, 8.691078697224157], [104.79926233309027, 8.671062747248016], [104.79138814444735, 8.657162154809669], [104.77057778913371, 8.648821552572656], [104.74245568658074, 8.643261048858392], [104.71714579464276, 8.646041311957049], [104.70814672319278, 8.631027652004605], [104.71489602722994, 8.612676812984603], [104.73458149793782, 8.600998543348169], [104.76382848419723, 8.591544441023188], [104.8273844338446, 8.578753222583202], [104.87912910232626, 8.575972465756763], [104.92806155929361, 8.580977812576066], [104.98149355288524, 8.597105705563933], [105.05461101718475, 8.629359431192825], [105.10804301077638, 8.65771818944296], [105.1558505840373, 8.690522712053564], [105.21321967195036, 8.756123138172313], [105.23346758496115, 8.77002005058489], [105.25371549887126, 8.778913802430111], [105.29871086241644, 8.81393087491], [105.31839633312433, 8.835050679745109], [105.34258133955723, 8.872285281640472], [105.37520297873454, 8.934519757580802], [105.38982647231393, 8.965077444568465], [105.3988255437639, 8.998410172291642], [105.41401147874683, 9.025074142857477], [105.44126722125608, 9.058766171996034], [105.43763404467546, 9.05617961769525], [105.41513636335253, 9.077840770335342], [105.3988255437639, 9.087837782587656], [105.33526959411654, 9.102832780708297], [105.29477376719564, 9.118937818325719], [105.27283852817561, 9.123935786207596], [105.2615896866148, 9.133376199951726], [105.2559652671834, 9.147813996119055], [105.26630013943992, 9.164506968222042], [105.27772474270279, 9.194871587853527], [105.26454250803039, 9.211354149174667], [105.24520856342451, 9.225233603947686], [105.23378395926238, 9.258195119409265], [105.26190606091603, 9.293755392297555], [105.27948237411232, 9.330179243677208], [105.26717895514474, 9.343186841699435], [105.26805776995019, 9.363997986617846], [105.28036118981714, 9.385674937648275], [105.26542132283583, 9.425556983567958]]]]}}, {"type": "Feature", "properties": {"name": "C\u1ea7n Th\u01a1", "country": "VNM"}, "geometry": {"type": "Polygon", "coordinates": [[[105.21510175334328, 10.203064496929017], [105.22938987983912, 10.200582926560855], [105.26366369232562, 10.181554010409286], [105.2935434253888, 10.143492772373577], [105.30936210807488, 10.133111648883528], [105.32430197415687, 10.13138142880996], [105.33396894690941, 10.125325585707287], [105.35506052292487, 10.091583796854763], [105.38142499406825, 10.070817859956321], [105.40954709482264, 10.037935727651757], [105.442942090705, 10.011973790358184], [105.46315485191496, 9.982547749079401], [105.51324734618811, 9.936672442079612], [105.54877154097392, 9.910409751708698], [105.57212799660982, 9.90291102912073], [105.5905831264102, 9.916762285651032], [105.59673483634367, 9.94013495426475], [105.60728062390172, 9.942731815021318], [105.65122140824144, 9.909836729781318], [105.6942833768764, 9.907239609120722], [105.70395034872968, 9.898582390664842], [105.7136173223816, 9.895985180971365], [105.734708898397, 9.899448123032528], [105.7478911330694, 9.906373898336767], [105.76107336864112, 9.918493652360212], [105.77074034139372, 9.919359330768543], [105.79622599593301, 9.907239609120722], [105.83049980841946, 9.90291102912073], [105.86037954058338, 9.903776748897883], [105.87224501669425, 9.905815649572617], [105.88164828573986, 9.924567211207886], [105.90280305677713, 9.941410481659238], [105.87746371777644, 9.960909256656919], [105.81896974615694, 10.017408660581282], [105.79703450623754, 10.052854247425614], [105.7457397928572, 10.096712777073037], [105.68366868865911, 10.13547165429344], [105.68499066778514, 10.139303381345997], [105.67572744026921, 10.171233181965817], [105.63364509504515, 10.21009695880764], [105.60640180819695, 10.27236358730977], [105.59585601973959, 10.287928331127603], [105.53433892220357, 10.32943055967263], [105.5229143189407, 10.331159700559795], [105.49479221728706, 10.344127953242491], [105.4552455105719, 10.32943055967263], [105.442942090705, 10.295710414803864], [105.42272933129368, 10.286198952819461], [105.37615209894028, 10.277551920085102], [105.34187828825247, 10.284469564618746], [105.32869605268075, 10.299169058105576], [105.30848329237011, 10.296575078776925], [105.26630013943992, 10.268904650829029], [105.21510175334328, 10.203064496929017]]]}}, {"type": "Feature", "properties": {"name": "C\u00f4n \u0110\u1ea3o", "country": "VNM"}, "geometry": {"type": "Polygon", "coordinates": [[[106.64238488815215, 8.703310139851112], [106.64688442387711, 8.712761435391997], [106.66713233778722, 8.73666658719327], [106.65475861341935, 8.751676015835528], [106.64182244584924, 8.752787800916337], [106.59795196690982, 8.721100615800822], [106.58445335793618, 8.704422068823476], [106.56982986525611, 8.697194467550673], [106.55520637167677, 8.694970562841263], [106.54733218393318, 8.681626853996136], [106.54789462623609, 8.669394703602734], [106.53439601726245, 8.659942315385592], [106.5338335749596, 8.647709459024384], [106.53889555298741, 8.63603227217169], [106.56533032863183, 8.629359431192825], [106.57826649620188, 8.642148939122308], [106.59682708320338, 8.643817103276717], [106.61988720682922, 8.638256525818065], [106.61707499621417, 8.653269897088137], [106.60807592386487, 8.672174773347137], [106.60751348156197, 8.68273884771969], [106.61819988081993, 8.693858605090611], [106.64238488815215, 8.686074809105207], [106.65532105482288, 8.672174773347137], [106.66150791655718, 8.65938628434958], [106.67725629384296, 8.654381975347917], [106.69581688174378, 8.656050086442406], [106.71606479475452, 8.664390526801412], [106.71550235335098, 8.676066835016456], [106.67950606305442, 8.67551082826219], [106.64632198157426, 8.693858605090611], [106.64238488815215, 8.703310139851112]]]}}, {"type": "Feature", "properties": {"name": "H\u1eadu Giang", "country": "VNM"}, "geometry": {"type": "Polygon", "coordinates": [[[105.54956000988659, 9.615054759669476], [105.55799664083236, 9.62559087411961], [105.59849246685394, 9.634463135765145], [105.62211503278257, 9.643335165385622], [105.6496746930327, 9.647216604262951], [105.70366912802791, 9.668286494026518], [105.75485135420666, 9.697116836073178], [105.77791147693318, 9.704878427797269], [105.82796881760692, 9.740357697849504], [105.84034254287411, 9.755324386211498], [105.84637192162694, 9.819241190628475], [105.86544995605067, 9.865702274640284], [105.86688980661933, 9.895136061779851], [105.87224501669425, 9.905815649572617], [105.83049980841946, 9.90291102912073], [105.79622599593301, 9.907239609120722], [105.77074034139372, 9.919359330768543], [105.76107336864112, 9.918493652360212], [105.7478911330694, 9.906373898336767], [105.734708898397, 9.899448123032528], [105.7136173223816, 9.895985180971365], [105.70395034872968, 9.898582390664842], [105.6942833768764, 9.907239609120722], [105.65122140824144, 9.909836729781318], [105.60728062390172, 9.942731815021318], [105.59673483634367, 9.94013495426475], [105.5905831264102, 9.916762285651032], [105.57212799660982, 9.90291102912073], [105.54312707925135, 9.91156813336272], [105.54049063213705, 9.892522202038037], [105.52379313374621, 9.868280329673553], [105.50358037433489, 9.847500161902985], [105.47721590319145, 9.836243691393292], [105.4552455105719, 9.81979123667628], [105.42536577840798, 9.78082163660929], [105.41745643706497, 9.76090207597008], [105.40778946431237, 9.747910415733145], [105.35506052292487, 9.713263516797895], [105.34363591876269, 9.694206192861543], [105.37703091464505, 9.677746723432563], [105.39197078162636, 9.665618176737496], [105.39460722874065, 9.650023688742294], [105.40251657008372, 9.633562057343113], [105.42712340891825, 9.630962779208915], [105.45348788006169, 9.623164824297248], [105.48336761312493, 9.621431920646671], [105.52027787092709, 9.614500217910802], [105.54956000988659, 9.615054759669476]]]}}, {"type": "Feature", "properties": {"name": "Kh\u00e1nh H\u00f2a", "country": "VNM"}, "geometry": {"type": "MultiPolygon", "coordinates": [[[[114.34848892312539, 9.56967034131327], [114.35151424608569, 9.577567016604576], [114.3328284275899, 9.578970850224607], [114.33318434777948, 9.574408368251625], [114.33941295334523, 9.570547758572275], [114.34848892312539, 9.56967034131327]]], [[[114.00969631293458, 9.908765528406434], [114.00961430915311, 9.917328180451193], [113.99706768832323, 9.916843507921612], [113.99747770992838, 9.908967480165131], [114.00969631293458, 9.908765528406434]]], [[[114.34106938314562, 10.06922280888557], [114.34497964079787, 10.081975778259618], [114.3437576842698, 10.08823176728231], [114.33447082257044, 10.08678808829967], [114.32958300095481, 10.077163396273761], [114.32982739172087, 10.068982181782303], [114.34106938314562, 10.06922280888557]]], [[[114.33327819383362, 10.268755813030396], [114.34844999327265, 10.276297068155202], [114.35236025182428, 10.286146598786559], [114.32545767852912, 10.27737437502742], [114.33327819383362, 10.268755813030396]]], [[[114.43791669170207, 10.285992702301428], [114.43650899909107, 10.290609566278533], [114.42931412504686, 10.295534146783496], [114.41461155587865, 10.294764685941573], [114.41476796596896, 10.288301143283206], [114.42931412504686, 10.2827608572278], [114.4336936138692, 10.270756571658524], [114.443078231875, 10.270756571658524], [114.44917823348874, 10.281529669158942], [114.43791669170207, 10.285992702301428]]], [[[114.25850780888834, 10.94461402391812], [114.2611104765673, 10.95277130565131], [114.25390308935619, 10.953852374387623], [114.2535026788056, 10.946579654127788], [114.25850780888834, 10.94461402391812]]], [[[114.99566334638644, 11.02185346516535], [114.99696468067555, 11.02627495862248], [114.99055811456537, 11.027847028417682], [114.99105862775355, 11.021263928087876], [114.99566334638644, 11.02185346516535]]], [[[109.25198095405784, 12.227993099302125], [109.23830236376313, 12.236084288958807], [109.23182303170762, 12.229400281098151], [109.25270087934217, 12.203366215478525], [109.28365768995047, 12.175922133399808], [109.29157687347401, 12.173459063884764], [109.29877613171317, 12.178737041980924], [109.29913609435533, 12.190700069352772], [109.32037390553137, 12.18507047612161], [109.32901301613782, 12.194570344046213], [109.32973294052283, 12.215328131288288], [109.30381561140143, 12.222716103265611], [109.29769624288735, 12.228696691099458], [109.26026010112281, 12.234677144035004], [109.25198095405784, 12.227993099302125]]], [[[108.68280851170351, 12.321131230521928], [108.69427889675376, 12.30797889021369], [108.69427889675376, 12.285413469256241], [108.69839175457588, 12.27706686404457], [108.70598472161765, 12.210284512020678], [108.7135776895588, 12.201007851331326], [108.71705779967778, 12.177505522961553], [108.72907999794359, 12.160805235773068], [108.74121609174932, 12.155931028094528], [108.7636912747326, 12.15296192355396], [108.78312927179854, 12.158504224990054], [108.79264579067075, 12.15553515012715], [108.79689785275377, 12.143460568150772], [108.79284827033149, 12.119309762935245], [108.80560445568113, 12.059715236968657], [108.8205119821423, 12.020357765598476], [108.8312686859012, 12.014787846881688], [108.84961835760117, 12.012002845255154], [108.85246572001705, 12.007361110526858], [108.86005868795814, 11.95103502664523], [108.87239725962587, 11.934320635389042], [108.90276912959172, 11.92162939008432], [108.92206792149744, 11.91791476735267], [108.97680056229615, 11.898412162091631], [109.0179291369202, 11.891601399285207], [109.03722792972525, 11.880146550023312], [109.08974595491196, 11.823484407479498], [109.11663771475878, 11.806762185826244], [109.16820661884043, 11.810168646865634], [109.18212705841705, 11.812955720530113], [109.16774963463797, 11.832986027283368], [109.18646770552027, 11.851305715586363], [109.18862748227252, 11.865044675571369], [109.18466789051081, 11.874908116916117], [109.17170922639974, 11.864340130492678], [109.15515093226975, 11.827701272795537], [109.14075241669076, 11.818893122919349], [109.12851367786402, 11.822416417583668], [109.11663490167945, 11.834395277520116], [109.11159542199118, 11.863987857053985], [109.12239430845062, 11.882657714382049], [109.13751275111264, 11.896747325428748], [109.15551089581123, 11.906609618339246], [109.17134926375758, 11.91999358623508], [109.18646770552027, 11.941829170479878], [109.19258707493361, 11.96260655934526], [109.20734555405414, 11.97141005702855], [109.21310496082532, 11.95556355561365], [109.20734555405414, 11.936546529398868], [109.21058521963226, 11.91365389461157], [109.20374592493454, 11.903087410955322], [109.21346492346748, 11.881953214269458], [109.2307431428818, 11.878430689424818], [109.24154202934125, 11.863635583615348], [109.23974221613042, 11.852714871394255], [109.23146306906546, 11.849896552583857], [109.21814444051358, 11.854476306036759], [109.21634462640344, 11.846373612252478], [109.2192243293394, 11.837566064022667], [109.22534369875274, 11.832281399467035], [109.24910125112189, 11.831224454145286], [109.25342080552582, 11.852362583566446], [109.27645843171132, 11.86293103404006], [109.27825824582146, 11.879135197631342], [109.26241987787512, 11.895690629219189], [109.25954017493916, 11.904496300563892], [109.27357872787604, 11.942181343194477], [109.27069902494009, 11.954859245258035], [109.25810032347124, 11.973522853197153], [109.22786343994585, 12.002396083912174], [109.19438688994308, 12.078085581384528], [109.20446585111819, 12.106947575070592], [109.22030421906453, 12.121025466152389], [109.23038317934032, 12.142140908376291], [109.21994425552305, 12.1790889035301], [109.21850440405507, 12.194570344046213], [109.22606362493639, 12.20653265735632], [109.205545739944, 12.246989414130212], [109.22568116485394, 12.285791293333546], [109.23411779490038, 12.290187746067659], [109.23861733062535, 12.302827138261875], [109.21611964930241, 12.34129111159558], [109.21274499728383, 12.382496241008766], [109.20543325094383, 12.401173759661333], [109.16887451834441, 12.433032315089292], [109.18237312731804, 12.447312469994529], [109.20937034526526, 12.442369429105895], [109.22961825827605, 12.410512014917629], [109.23186802658824, 12.395680509947624], [109.23917977292825, 12.381397522177963], [109.27855071614272, 12.348433798880762], [109.30723526009922, 12.35392804144601], [109.30892258610851, 12.376453229433025], [109.32242119508214, 12.379200070127183], [109.33648224545931, 12.388539114088871], [109.33704468776222, 12.40831480928108], [109.32354607878858, 12.423694867424217], [109.2909244405106, 12.44511557552346], [109.28305025186768, 12.477517901530007], [109.25324082330542, 12.497835936479362], [109.23580512090967, 12.530780704765789], [109.23411779490038, 12.547251511947763], [109.24424175185544, 12.588423915931003], [109.22905581687252, 12.589521756124213], [109.21611964930241, 12.584581437483394], [109.21330743958674, 12.591168508320038], [109.21555720789888, 12.632882690883548], [109.23917977292825, 12.663615104453584], [109.26336478026047, 12.683369701550532], [109.29654886084131, 12.732749480404266], [109.3196089844671, 12.753047268916362], [109.34379399179932, 12.759081433861127], [109.35279306504799, 12.75414440134307], [109.36010481048868, 12.73933272552489], [109.36010481048868, 12.712450065917835], [109.35166818044223, 12.694343814615422], [109.33535736175293, 12.672943854775099], [109.32692073080716, 12.643310175324359], [109.30667281779637, 12.608733203174836], [109.34660620241436, 12.57305365680088], [109.39497621797813, 12.54505546553736], [109.42028610901679, 12.543957435587231], [109.44390867494548, 12.561525359008158], [109.44503355865186, 12.623552477364967], [109.45965705133193, 12.648798153212226], [109.46528147166265, 12.673492594107984], [109.41409924638316, 12.70696345949608], [109.39385133337242, 12.73878412828492], [109.37472830406801, 12.789250094816055], [109.37247853575587, 12.80351038909322], [109.37304097805873, 12.823802493890014], [109.39210689376094, 12.846477306303226], [109.3673131464846, 12.855703033268412], [109.35127497975657, 12.842672573580444], [109.34096473093763, 12.83894946124866], [109.28597673034187, 12.83522629315894], [109.23709850878919, 12.812886129891012], [109.23137059177947, 12.813630834195692], [109.21953289662594, 12.822939449595992], [109.19785846099921, 12.826871303567827], [109.19003794479539, 12.824726664204263], [109.17830717183858, 12.817577729328775], [109.16095540227008, 12.787311658306407], [109.1528904953002, 12.778731638554348], [109.13162846987802, 12.770866364890878], [109.11281035391477, 12.750844563925511], [109.0829946390914, 12.739879573583494], [109.05562283372683, 12.735350416888252], [109.02996176732177, 12.72533831131409], [109.01364187267433, 12.711802798660301], [109.00669030301515, 12.693153866757598], [108.99800084206527, 12.684252758458058], [108.9406503935009, 12.686372098093898], [108.91327858993503, 12.680014025227138], [108.90980280465578, 12.670264671877135], [108.9102372779281, 12.641862258736296], [108.90458912808583, 12.627447885411641], [108.87200364705075, 12.616000597649531], [108.86896233504376, 12.610488758949089], [108.86894495564525, 12.601483006435672], [108.89383157446764, 12.573344350061745], [108.88604581706085, 12.531274791398573], [108.8765916823603, 12.510101705329475], [108.87492330596586, 12.489741330298216], [108.87798199557272, 12.467478819891653], [108.87047430044868, 12.456618364945655], [108.85323440834134, 12.455260776263856], [108.83265776344507, 12.467750326116686], [108.81319336947848, 12.475080868287478], [108.80234892156551, 12.492184660593637], [108.78260646441686, 12.502772155110904], [108.76925945056325, 12.498971565285558], [108.7503511829608, 12.470465365883967], [108.72171071657635, 12.465035258470436], [108.71225658277513, 12.458790492986907], [108.69640700477953, 12.424848924238518], [108.68723093236167, 12.412085748458594], [108.68139161453144, 12.392804019390042], [108.68278192864318, 12.377323288439072], [108.69279218790922, 12.357767369568478], [108.69279218790922, 12.340654741423236], [108.68280851170351, 12.321131230521928]]]]}}, {"type": "Feature", "properties": {"name": "Ki\u00ean Giang", "country": "VNM"}, "geometry": {"type": "MultiPolygon", "coordinates": [[[[104.3645918277507, 9.754809098960777], [104.36413107538885, 9.772972238677937], [104.37242462059982, 9.785912872281301], [104.37196386823797, 9.797036871754301], [104.35745016389399, 9.794993716386955], [104.3452402222585, 9.785912872281301], [104.33256952826116, 9.751630447886896], [104.33878968739424, 9.704855364683397], [104.34777436069822, 9.696680406775386], [104.36113618368796, 9.695090809193516], [104.3689689774364, 9.705990759665895], [104.39707487960209, 9.713484270682613], [104.40652030706656, 9.721431749575629], [104.4083633174132, 9.734374383271245], [104.40306466300387, 9.746181261356185], [104.38855095865989, 9.763890792925793], [104.37150311587618, 9.754809098960777], [104.3645918277507, 9.754809098960777]]], [[[104.63367129789214, 9.838124331172992], [104.6583215568944, 9.843572008641331], [104.665693598281, 9.851289398686845], [104.66546322075112, 9.865134850992604], [104.6550962903616, 9.871489946204122], [104.64472935817338, 9.868312413886827], [104.63436242598522, 9.86241120111606], [104.62929414910576, 9.851970335662486], [104.60740840427451, 9.843118038966395], [104.60856028472944, 9.839032284012774], [104.63367129789214, 9.838124331172992]]], [[[104.84446557402708, 9.977238813620374], [104.85114648642127, 10.00423786618461], [104.84446557402708, 10.006960335251335], [104.83340751374584, 9.992893999558476], [104.83939729624831, 9.97633124389182], [104.84446557402708, 9.977238813620374]]], [[[104.07550488913938, 10.336347065664597], [104.05627640173464, 10.389391597144538], [104.02702941637455, 10.423689398147246], [104.00171952443657, 10.445261886626838], [103.98540870484788, 10.448027482682221], [103.96966032756211, 10.430327247404591], [103.96741056014929, 10.410413277850523], [103.95053729915708, 10.386625481280987], [103.94491287792704, 10.3711347804458], [103.9314142689534, 10.362282606956796], [103.91172879824552, 10.36172933773878], [103.8779822762611, 10.377773745761829], [103.83804889074378, 10.376114018147462], [103.83861133304663, 10.354536749771228], [103.85998413066318, 10.323551409969639], [103.88810623231683, 10.300863779240046], [103.93422647866913, 10.27540742011638], [103.94491287792704, 10.262678470734897], [103.95278706656995, 10.246628197333507], [103.97472230558998, 10.19736538970102], [103.98034672682007, 10.175775913927339], [103.9837213788386, 10.129270548197269], [103.99616259732608, 10.053961858752814], [104.007321447327, 10.028795978851406], [104.00984118672147, 10.006109565803854], [104.00768140996917, 9.996892757694638], [104.01486660730814, 9.987740773617872], [104.03771581383381, 10.031878129072425], [104.04298870806247, 10.051781243809387], [104.04298870806247, 10.126190712831203], [104.04738278658641, 10.17117412168841], [104.07286844202503, 10.247285444367833], [104.07550488913938, 10.26631042418677], [104.07550488913938, 10.336347065664597]]], [[[104.77676465086802, 10.52434818192313], [104.66765089627188, 10.542043042852185], [104.65021519297682, 10.53927828766291], [104.63277948968175, 10.530983873706873], [104.6136564603774, 10.533195739192081], [104.59576377287988, 10.52994705611178], [104.57906627538836, 10.513530315271908], [104.52106443977215, 10.418468908313514], [104.49206352241367, 10.419333234141504], [104.47448720921739, 10.428840657270541], [104.45778971082655, 10.432297831080064], [104.43581931910637, 10.426247751732433], [104.43142523968311, 10.418468908313514], [104.43318287199202, 10.376978460887301], [104.47097194639827, 10.376114018147462], [104.49821523234715, 10.371791767576042], [104.56500522411187, 10.302627661837164], [104.57730864397882, 10.25679807726948], [104.57994509109312, 10.221340449402248], [104.599279035699, 10.165119031318284], [104.62915876876224, 10.154738609299443], [104.65376560759677, 10.159928862127344], [104.68100889444497, 10.18414892863018], [104.70034283905085, 10.211826752602576], [104.73198020442294, 10.23171870135701], [104.7653752003053, 10.235178043432029], [104.81283124656483, 10.211826752602576], [104.8725907126913, 10.117539332774015], [104.89807636812992, 10.102831453109104], [104.9174103127358, 10.097640275778133], [104.96486635989464, 10.11148322886794], [104.99650372436747, 10.106292191831244], [105.03692924588808, 10.082931485999325], [105.0738395045895, 10.051781243809387], [105.09580989720905, 10.018897177063138], [105.10108279143776, 9.984278766851673], [105.10020397483362, 9.969564826655471], [105.05274792767477, 9.953119049404677], [104.97024471222375, 9.893872767913933], [104.92581179098141, 9.872817159384454], [104.90837608768635, 9.859518186415244], [104.88869061607915, 9.831256086399321], [104.87631689171127, 9.760867432286204], [104.85438165179187, 9.679929815108949], [104.8403206014147, 9.5884357471121], [104.84088304281823, 9.572352414632292], [104.87575445030768, 9.553495124200651], [104.89487747871271, 9.578453079046426], [104.91343806571422, 9.589544915165732], [104.99161750894092, 9.593426971877307], [105.01411519116323, 9.588990332038236], [105.05011148056042, 9.572907024739436], [105.13054069209932, 9.515222707362113], [105.14403930107295, 9.501909556580813], [105.16372477268015, 9.490814869610574], [105.18172291827813, 9.471398301590398], [105.20422059870174, 9.456419057793312], [105.26542132283583, 9.425556983567958], [105.27596711219252, 9.452431417076298], [105.29002816256968, 9.517441514714164], [105.31990789563292, 9.546908691882663], [105.31902907992816, 9.58417235177268], [105.30145276583255, 9.600636387959014], [105.28211882122667, 9.625764161786662], [105.2953010567984, 9.639626962014745], [105.33309013120464, 9.613633746300422], [105.366485127087, 9.609301347779024], [105.37878854695396, 9.620565466123423], [105.40197882136556, 9.633267521279151], [105.39460722874065, 9.650023688742294], [105.39197078162636, 9.665618176737496], [105.37703091464505, 9.677746723432563], [105.34363591876269, 9.694206192861543], [105.35506052292487, 9.713263516797895], [105.40778946431237, 9.747910415733145], [105.41745643706497, 9.76090207597008], [105.42536577840798, 9.78082163660929], [105.4552455105719, 9.81979123667628], [105.47721590319145, 9.836243691393292], [105.50358037433489, 9.847500161902985], [105.52379313374621, 9.868280329673553], [105.54049063213705, 9.892522202038037], [105.54312707925135, 9.91156813336272], [105.54877154097392, 9.910409751708698], [105.51324734618811, 9.936672442079612], [105.46315485191496, 9.982547749079401], [105.442942090705, 10.011973790358184], [105.40954709482264, 10.037935727651757], [105.38142499406825, 10.070817859956321], [105.35506052292487, 10.091583796854763], [105.33396894690941, 10.125325585707287], [105.32430197415687, 10.13138142880996], [105.30936210807488, 10.133111648883528], [105.2935434253888, 10.143492772373577], [105.26366369232562, 10.181554010409286], [105.22938987983912, 10.200582926560855], [105.21445001375719, 10.203177690997677], [105.18105501787483, 10.224799903892517], [105.13096252360162, 10.265445676576746], [105.0557359008912, 10.31469789469213], [105.01748984318175, 10.331298031578967], [104.9274991169907, 10.358409701746382], [104.90443899336492, 10.368921760231103], [104.85269432578258, 10.401009016852697], [104.83863327540541, 10.41262600398693], [104.81951024610106, 10.438624358427433], [104.78632616641949, 10.497250957565711], [104.77676465086802, 10.52434818192313]]]]}}, {"type": "Feature", "properties": {"name": "S\u00f3c Tr\u0103ng", "country": "VNM"}, "geometry": {"type": "MultiPolygon", "coordinates": [[[[106.1447091770869, 8.611570841121477], [106.14493955281819, 8.619543022592495], [106.14010165077065, 8.61908747370802], [106.13848901795387, 8.612481955977557], [106.1447091770869, 8.611570841121477]]], [[[105.82965614541484, 9.261074768385924], [105.89996139909937, 9.276062437931216], [105.96914176997677, 9.298820268840359], [106.06306958958993, 9.323796672378592], [106.10412785881368, 9.333231737854476], [106.1519354320746, 9.338781657447555], [106.18977653226119, 9.349304060833788], [106.20021545607847, 9.358183479284207], [106.20525493666605, 9.373455546836055], [106.20561490020754, 9.432051426032558], [106.22217319343821, 9.470044649241231], [106.23837152402666, 9.480696200669172], [106.27040822166214, 9.494187693307424], [106.28336688667252, 9.511228817256153], [106.29632555168291, 9.559507385257689], [106.18401712638934, 9.67165755415283], [106.14586105844114, 9.715655654085197], [106.12750295020106, 9.745102764680894], [106.10695503234894, 9.769193309923367], [106.04932491261468, 9.815461507342718], [105.97989847373566, 9.886461901895302], [105.92098050234836, 9.93286843932708], [105.913460008073, 9.933209893022195], [105.90280305677713, 9.941410481659238], [105.88164828573986, 9.924567211207886], [105.86688980661933, 9.895136061779851], [105.86544995605067, 9.865702274640284], [105.84637192162694, 9.819241190628475], [105.84034254287411, 9.755324386211498], [105.82796881760692, 9.740357697849504], [105.77791147693318, 9.704878427797269], [105.75485135420666, 9.697116836073178], [105.70366912802791, 9.668286494026518], [105.6496746930327, 9.647216604262951], [105.62211503278257, 9.643335165385622], [105.59849246685394, 9.634463135765145], [105.55799664083236, 9.62559087411961], [105.54956000988659, 9.615054759669476], [105.54956000988659, 9.46307657972045], [105.61255351813043, 9.444768082580993], [105.6665479540249, 9.407593292796264], [105.68060900530139, 9.400934698877279], [105.70029447600933, 9.398160247197723], [105.74247762893947, 9.417580943106088], [105.76103821594097, 9.423129512816786], [105.77566170862104, 9.42368436484162], [105.7925349696132, 9.389836758159902], [105.80097160055897, 9.388172035710909], [105.82178195587261, 9.394830875144805], [105.8341556811398, 9.408703046308574], [105.85046649982917, 9.41036766893285], [105.86227778279351, 9.397605353804067], [105.85890312987561, 9.380403227826775], [105.85327871044421, 9.370969442985427], [105.83528056484624, 9.367084868172185], [105.8240317241848, 9.345996419099492], [105.82909370221267, 9.316026427377778], [105.82965614541484, 9.261074768385924]]]]}}, {"type": "Feature", "properties": {"name": "Tr\u00e0 Vinh", "country": "VNM"}, "geometry": {"type": "Polygon", "coordinates": [[[106.25795106204917, 10.089949573556039], [106.25286003116554, 10.079989647104583], [106.23477189490711, 10.077907500730646], [106.22865252639303, 10.057882775170015], [106.2196759505847, 10.042331744214664], [106.2043100342807, 10.036638372862683], [106.16768380936037, 10.035131939187693], [106.12043867840237, 10.041777918316313], [106.10356541741015, 10.036793446560353], [106.09512878556507, 10.021839571738894], [106.09287901815225, 9.984728829871642], [106.08556727091286, 9.97808168162436], [106.05857005386497, 9.974204117026432], [106.02482353098122, 9.976973811292396], [106.00851271229192, 9.969772556558269], [105.9948040117958, 9.955827383826772], [105.97255776562844, 9.943559958425396], [105.9417937453851, 9.931923448808163], [105.92098050234836, 9.93286843932708], [105.97989847373566, 9.886461901895302], [106.04932491261468, 9.815461507342718], [106.16444976724301, 9.721059381685166], [106.3050602764107, 9.611034314382152], [106.3982147393188, 9.549508613931437], [106.43160973520116, 9.54517539882562], [106.48873275421329, 9.547775335263566], [106.54234051130561, 9.572907024739436], [106.57222024436885, 9.595437304687891], [106.58540247904125, 9.621431920646671], [106.59506945179385, 9.65608829843626], [106.58628129474602, 9.687275988396209], [106.54673458893018, 9.769562900707342], [106.54585577412473, 9.786017848345068], [106.56167445591149, 9.811131721351899], [106.56518971873061, 9.824986836873052], [106.56169709364599, 9.838676251407946], [106.5502498517493, 9.859622085990509], [106.50964856672806, 9.899413493737768], [106.44890482679637, 9.935425928663733], [106.42134516834489, 9.9570314879129], [106.35047747055887, 9.989714101124889], [106.32123048519878, 10.012423814707347], [106.28073465827794, 10.056177072414016], [106.25795106204917, 10.089949573556039]]]}}, {"type": "Feature", "properties": {"name": "V\u0129nh Long", "country": "VNM"}, "geometry": {"type": "Polygon", "coordinates": [[[106.22997448200354, 10.131145211588972], [106.1951996132716, 10.167636632124925], [106.1596836328934, 10.194981983032164], [106.14977745396641, 10.209719668927619], [106.13203848219024, 10.225590258683553], [106.11452988704474, 10.233751968678462], [106.06269522880183, 10.241913468232042], [106.03666271091544, 10.25324853499194], [106.02998180031989, 10.277730895964112], [106.03304669048325, 10.29721587854952], [106.01843418958623, 10.304803797257478], [106.00439563664935, 10.318615605925515], [105.97991815899593, 10.32428181415446], [105.93168312987262, 10.284970397066218], [105.90432594928319, 10.276469987100256], [105.89474469956696, 10.27768644230093], [105.89208721135577, 10.269319724825493], [105.89377453736506, 10.258804340647828], [105.9128975657701, 10.236112058624656], [105.91514733408223, 10.221720991230825], [105.9112102397608, 10.212864624203121], [105.86846464542708, 10.203454464551953], [105.83640544855268, 10.177990285823057], [105.81559509413836, 10.175775913927339], [105.79141008590682, 10.192383332624729], [105.7649753102624, 10.218399882148901], [105.74360251264591, 10.224488554103516], [105.73122878827803, 10.224488554103516], [105.71894505367135, 10.21837774084014], [105.71138583279003, 10.190036202808585], [105.69878713132113, 10.17869888234759], [105.68366868865911, 10.13547165429344], [105.7457397928572, 10.096712777073037], [105.79703450623754, 10.052854247425614], [105.81896974615694, 10.017408660581282], [105.87746371777644, 9.960909256656919], [105.913460008073, 9.933209893022195], [105.9417937453851, 9.931923448808163], [105.97255776562844, 9.943559958425396], [105.9948040117958, 9.955827383826772], [106.00851271229192, 9.969772556558269], [106.02482353098122, 9.976973811292396], [106.05857005386497, 9.974204117026432], [106.08556727091286, 9.97808168162436], [106.09287901815225, 9.984728829871642], [106.09512878556507, 10.021839571738894], [106.10356541741015, 10.036793446560353], [106.12043867840237, 10.041777918316313], [106.16768380936037, 10.035131939187693], [106.2043100342807, 10.036638372862683], [106.2196759505847, 10.042331744214664], [106.22865252639303, 10.057882775170015], [106.23477189490711, 10.077907500730646], [106.25286003116554, 10.079989647104583], [106.25795106204917, 10.089949573556039], [106.22997448200354, 10.131145211588972]]]}}, {"type": "Feature", "properties": {"name": "CENTRAL REGION", "country": "SGP"}, "geometry": {"type": "MultiPolygon", "coordinates": [[[[103.83663500089855, 1.214037810999751], [103.83342561086961, 1.213477585791075], [103.83433491706452, 1.21233085026885], [103.83663500089855, 1.214037810999751]]], [[[103.8323437161072, 1.217046862590619], [103.8325333936408, 1.214757136103165], [103.83368866061534, 1.216262063514223], [103.8323437161072, 1.217046862590619]]], [[[103.86273408285354, 1.22219497248622], [103.85796919395062, 1.22495337996133], [103.8619795195461, 1.22081012620551], [103.86273408285354, 1.22219497248622]]], [[[103.85836328292916, 1.231934821629364], [103.84550789276017, 1.232133762876142], [103.84942349959003, 1.229527772805933], [103.84678766759586, 1.226509086715817], [103.85213908114011, 1.227900700568118], [103.85119686759032, 1.220959162689868], [103.84317266331784, 1.222168500821337], [103.8515754114976, 1.213355286253272], [103.85249816078115, 1.222650166652807], [103.85698625919616, 1.217586315400226], [103.85940910428954, 1.219751077497769], [103.85322107427325, 1.227484832082955], [103.85836328292916, 1.231934821629364]]], [[[103.84060596613757, 1.228628783903971], [103.83931116573301, 1.232234882210819], [103.83596006065233, 1.23479421332939], [103.83715192373448, 1.229035435357927], [103.84060596613757, 1.228628783903971]]], [[[103.85407024219072, 1.238862089939633], [103.85209368765769, 1.245526177193401], [103.8447302249201, 1.238445418156612], [103.85407024219072, 1.238862089939633]]], [[[103.89617617795152, 1.337797238681336], [103.8888719988695, 1.333560170763847], [103.8850619570692, 1.340860550405248], [103.87724942845817, 1.344252620579582], [103.86043696024463, 1.343403431503809], [103.85686288228685, 1.355512347795915], [103.8499238616697, 1.362263929416382], [103.83280472736739, 1.367482133713426], [103.82830004129958, 1.367471642357825], [103.82710457879541, 1.362690194847465], [103.82069354954642, 1.361201161756033], [103.81853716890093, 1.354870317734015], [103.82354651702717, 1.352322678263042], [103.82673786130746, 1.354194415032134], [103.83707615196946, 1.343460437280654], [103.83434333954116, 1.340767951511139], [103.82318969959879, 1.340683555176778], [103.81806961719512, 1.335880034432257], [103.80990241134407, 1.341744703501814], [103.80421311111338, 1.341352450833881], [103.79643772846423, 1.348882433222871], [103.78617701107902, 1.348575483743467], [103.78715364260097, 1.344589453312327], [103.77782825991116, 1.341856662185884], [103.77038402347611, 1.349016439412976], [103.76318337967966, 1.346712644034814], [103.76713467892279, 1.34279405435831], [103.7641470957191, 1.339355670226643], [103.76482642057324, 1.332403294345193], [103.77564504398107, 1.326426737365669], [103.77084747734817, 1.321265209904404], [103.76910224659991, 1.293870295709298], [103.76673250579026, 1.292216342849409], [103.7623275420082, 1.301344462802839], [103.75866536610225, 1.299217220747944], [103.76305599904839, 1.29445877600339], [103.76073046451668, 1.290598280773332], [103.77228709920115, 1.283645941504008], [103.76912961419673, 1.27830871667853], [103.75649395024547, 1.28585233324457], [103.75024302212178, 1.280494919199046], [103.77067283376248, 1.268240732417117], [103.77687184508164, 1.278669856028636], [103.78663266419262, 1.272790725289714], [103.7785694009962, 1.259183348963253], [103.78551368947724, 1.255012448433008], [103.79399378863198, 1.269209472928775], [103.80514180780644, 1.262298863188953], [103.81153976801559, 1.266438961483558], [103.81493865431912, 1.264511943542949], [103.81130930880711, 1.262578365569137], [103.8232505474663, 1.263073196184552], [103.82301692003638, 1.257615740044247], [103.80669840363264, 1.259465456283589], [103.82374688819478, 1.247621738604646], [103.82980178205072, 1.239615142816748], [103.83298692464966, 1.23780105181184], [103.83973362173582, 1.240432385119712], [103.848423497612, 1.252114160858213], [103.82522423964309, 1.255269521848694], [103.8240232298704, 1.260157773015313], [103.8363555501641, 1.254808398778386], [103.84247597686701, 1.257898522227987], [103.83608695869066, 1.263850225867965], [103.82440711369729, 1.26019361616418], [103.82411838839663, 1.263084566391358], [103.83928295635859, 1.267640961506594], [103.84594348772217, 1.261543003036875], [103.84570064866526, 1.26683708477848], [103.85125973416797, 1.260732452570314], [103.85156581997525, 1.268105448048996], [103.86085371592972, 1.26469941314709], [103.85997058242633, 1.26778508485974], [103.87125066651492, 1.276397849651493], [103.87375042475797, 1.282194540521079], [103.87612493478512, 1.280556577873533], [103.87739779707118, 1.280541428864818], [103.89324318552458, 1.293493444951951], [103.91950883367147, 1.301992586923407], [103.91825976348727, 1.307471177568292], [103.90998325114901, 1.305547337131535], [103.90521657799202, 1.316933758072117], [103.90547064705297, 1.328490812525994], [103.89617617795152, 1.337797238681336]]]]}}, {"type": "Feature", "properties": {"name": "EAST REGION", "country": "SGP"}, "geometry": {"type": "Polygon", "coordinates": [[[103.91950883367147, 1.301992586923407], [103.97048844770349, 1.315888908303513], [103.98419315712397, 1.316663798418462], [103.98391172454534, 1.312024562835096], [103.99127367659754, 1.314217688535706], [104.00095446993596, 1.310408111047842], [104.0107396176234, 1.31522093790212], [104.02277675209277, 1.31591545417984], [104.02266464223754, 1.320209208890086], [104.02895238154599, 1.320375654770542], [104.02906343819969, 1.316081349796437], [104.03269497973736, 1.31617652360556], [104.03254994993407, 1.324595728340004], [104.02138848887553, 1.324321656187683], [104.02115825657306, 1.328959076670222], [104.03187117162737, 1.358389802105251], [104.03909843186489, 1.355974049124128], [104.04191424666828, 1.348905320640603], [104.04293700629171, 1.352597031881486], [104.04135685096986, 1.354824343017517], [104.02799748726808, 1.363696212057639], [104.01360516949289, 1.37009772767722], [104.0056733241783, 1.369527097630765], [104.00886200157954, 1.373642495935246], [103.99507091643659, 1.391404842765255], [103.98105475778387, 1.393470470291813], [103.97418442565089, 1.390813086008745], [103.96725719812348, 1.380957315042181], [103.95350385220614, 1.381931871054792], [103.94375507188064, 1.386702547335447], [103.94065828610113, 1.395302996543767], [103.93644407507061, 1.392999627176062], [103.93868408896194, 1.397044325187965], [103.93477911792677, 1.400988154975996], [103.93017854885007, 1.400592120607062], [103.91665629097928, 1.390578205638742], [103.91432583081242, 1.385926360326866], [103.91749852126584, 1.382364899303123], [103.91001478010037, 1.375810540033578], [103.90197410177412, 1.357156518831589], [103.89572555152267, 1.354007724051974], [103.89362992488063, 1.348350429405983], [103.89836278872697, 1.347436933678781], [103.89617617795152, 1.337797238681336], [103.90547064705297, 1.328490812525994], [103.90521657799202, 1.316933758072117], [103.90998325114901, 1.305547337131535], [103.91825976348727, 1.307471177568292], [103.91950883367147, 1.301992586923407]]]}}, {"type": "Feature", "properties": {"name": "NORTH-EAST REGION", "country": "SGP"}, "geometry": {"type": "MultiPolygon", "coordinates": [[[[103.95356765560976, 1.402952138154401], [103.94401052927877, 1.408140025909404], [103.95410564665501, 1.398597733709666], [103.95356765560976, 1.402952138154401]]], [[[103.92804984304104, 1.419668020240827], [103.94885627340162, 1.409948206128426], [103.95844150837621, 1.399463883866712], [103.97819515305245, 1.404170470525697], [104.0031449226011, 1.403839637168576], [103.9991880084538, 1.415606237519019], [103.99394439471057, 1.419344837608896], [103.9560475136618, 1.41769935655085], [103.93371148602739, 1.42810246181049], [103.92640150121812, 1.423653598282003], [103.92804984304104, 1.419668020240827]]], [[[103.89617617795152, 1.337797238681336], [103.89916930247212, 1.343850373894091], [103.89836278872697, 1.347436933678781], [103.89362992488063, 1.348350429405983], [103.89572555152267, 1.354007724051974], [103.90197410177412, 1.357156518831589], [103.91001478010037, 1.375810540033578], [103.91749852126584, 1.382364899303123], [103.91432583081242, 1.385926360326866], [103.91665629097928, 1.390578205638742], [103.93087484923228, 1.403872951291188], [103.91630185147075, 1.417234956427852], [103.9141075230673, 1.416249696146551], [103.91257793232823, 1.421106051743918], [103.90384510500682, 1.420151722454035], [103.89741490625377, 1.414906211362199], [103.89686573686845, 1.420615628446783], [103.88867966961298, 1.42543606136601], [103.88654621306657, 1.423594648873039], [103.8881237361673, 1.425765272079081], [103.87749386098027, 1.431958592640104], [103.87076124039811, 1.429409511109603], [103.86205852363173, 1.418585946848728], [103.8612789320915, 1.410456014070564], [103.85505655500376, 1.404873445049425], [103.85558826892495, 1.39988296067254], [103.85238819145138, 1.397087633320005], [103.82737212669964, 1.392947786019351], [103.81882248913355, 1.394340858203955], [103.81777481099138, 1.380308525255556], [103.82728196789348, 1.379093568974944], [103.82830004129958, 1.367471642357825], [103.8499238616697, 1.362263929416382], [103.85686288228685, 1.355512347795915], [103.86043696024463, 1.343403431503809], [103.87724942845817, 1.344252620579582], [103.8850619570692, 1.340860550405248], [103.8888719988695, 1.333560170763847], [103.89617617795152, 1.337797238681336]], [[103.87059794713127, 1.425441636357289], [103.86736150797813, 1.424716900759365], [103.86935838970442, 1.426473603888602], [103.87059794713127, 1.425441636357289]]], [[[104.05430908977031, 1.432005917398638], [104.04058548362386, 1.440529907957865], [104.02449301595684, 1.437127058786123], [104.01076582549047, 1.425934273392223], [104.00924061177507, 1.418826188962204], [104.01436763669508, 1.408998251138216], [104.03018212939422, 1.411401767654974], [104.02852202354092, 1.403139923192864], [104.01554203235803, 1.401230956007662], [104.0215819765789, 1.388729632358943], [104.08261850378113, 1.337605315343486], [104.08407712868187, 1.340522138335455], [104.07550837483626, 1.354816267557053], [104.0746022725599, 1.363080664888641], [104.0882284049298, 1.403927935991627], [104.08371796212481, 1.407177106789959], [104.08509151066421, 1.410140511061838], [104.0805069992572, 1.418987781547028], [104.06983338337864, 1.427087178370294], [104.05430908977031, 1.432005917398638]]]]}}, {"type": "Feature", "properties": {"name": "NORTH REGION", "country": "SGP"}, "geometry": {"type": "MultiPolygon", "coordinates": [[[[103.87242041853615, 1.439954691741799], [103.86151842784656, 1.452495397517392], [103.85763356459125, 1.451385715562315], [103.8656270074654, 1.435994541664255], [103.8695117974888, 1.435776851637578], [103.87242041853615, 1.439954691741799]]], [[[103.82710457879541, 1.362690194847465], [103.82728196789348, 1.379093568974944], [103.81777481099138, 1.380308525255556], [103.81882248913355, 1.394340858203955], [103.82737212669964, 1.392947786019351], [103.85238819145138, 1.397087633320005], [103.8672440611057, 1.425077228131718], [103.85777773936248, 1.426525346426075], [103.8653621480788, 1.43372097522084], [103.8550357062753, 1.452488892982979], [103.85824491705584, 1.454800875035816], [103.83730813075957, 1.464807333495906], [103.83289910041891, 1.459957867365751], [103.83429689157343, 1.464708588474827], [103.82753875541978, 1.468586573325632], [103.82264279045688, 1.461015514011609], [103.82284764843152, 1.467162516424292], [103.81859086563236, 1.464957793328351], [103.82216803564751, 1.468637482053436], [103.80871649017816, 1.470577590469192], [103.77075964073262, 1.448501206103215], [103.76905359910549, 1.452488423457348], [103.76706280001086, 1.444184051733678], [103.74356051475495, 1.446219175377331], [103.74296570437939, 1.438706851235893], [103.73820269860569, 1.441058108308826], [103.73679908314874, 1.438727710331369], [103.73789823674035, 1.442749582492233], [103.72834958225035, 1.451070769817023], [103.71642152763023, 1.45044173112828], [103.69301472915882, 1.433673811017051], [103.70011093373574, 1.423187166276999], [103.69864670081904, 1.418636043939946], [103.70559723041444, 1.412184306527019], [103.71558648642035, 1.414455127852316], [103.71856139263076, 1.41106801748366], [103.72788870620062, 1.411174594082954], [103.73932856357493, 1.422280703176581], [103.74217973496039, 1.407724471551442], [103.75264620160232, 1.403520225010275], [103.75332082867689, 1.388999409370203], [103.77445026157251, 1.390289453272455], [103.78063587798037, 1.361068197812918], [103.80421311111338, 1.341352450833881], [103.80990241134407, 1.341744703501814], [103.81806961719512, 1.335880034432257], [103.82318969959879, 1.340683555176778], [103.83434333954116, 1.340767951511139], [103.83707615196946, 1.343460437280654], [103.82673786130746, 1.354194415032134], [103.82354651702717, 1.352322678263042], [103.81853716890093, 1.354870317734015], [103.82069354954642, 1.361201161756033], [103.82710457879541, 1.362690194847465]]]]}}, {"type": "Feature", "properties": {"name": "WEST REGION", "country": "SGP"}, "geometry": {"type": "MultiPolygon", "coordinates": [[[[103.73313907175212, 1.176332633237223], [103.72829679164786, 1.173007524034774], [103.73397255062689, 1.167110426247993], [103.73963166194146, 1.167254109092212], [103.73856794166636, 1.172223383129747], [103.74146281422584, 1.174377803065271], [103.73313907175212, 1.176332633237223]]], [[[103.73681069290676, 1.188807492533278], [103.73786170467376, 1.191095525760729], [103.73553483358243, 1.189024413378143], [103.73681069290676, 1.188807492533278]]], [[[103.72740764206748, 1.192263100313032], [103.72234147758836, 1.186772994851015], [103.71726620002761, 1.18699883996072], [103.7190852727261, 1.180083372870286], [103.72838910292477, 1.183351742805372], [103.72832559029762, 1.188289224495341], [103.73154263299796, 1.186657954160602], [103.72740764206748, 1.192263100313032]]], [[[103.7580651663733, 1.19724470089756], [103.75534810775655, 1.196311027121101], [103.75886752714496, 1.196311673558202], [103.7580651663733, 1.19724470089756]]], [[[103.79303356947497, 1.21055140908636], [103.79352726505229, 1.204516677718898], [103.80138470116621, 1.200672966878633], [103.79661012762038, 1.207906629573901], [103.79303356947497, 1.21055140908636]]], [[[103.72345348489358, 1.213132504707402], [103.71385587240661, 1.211208758508371], [103.7071063204076, 1.204719635357381], [103.73365031313733, 1.203540113516484], [103.72738110884417, 1.207916055513659], [103.730630067235, 1.20790077157874], [103.72943669092416, 1.210934170572142], [103.72531397357919, 1.209974849187808], [103.72345348489358, 1.213132504707402]]], [[[103.76322256370882, 1.206120946609913], [103.7589007060715, 1.217410641738903], [103.75841012179627, 1.203099544058885], [103.75964640500308, 1.201022147254942], [103.76329104779859, 1.20385476217597], [103.76376134415726, 1.201544139397439], [103.76059605158433, 1.194994152965232], [103.7665098347534, 1.189029425993791], [103.77099660571376, 1.188728857378639], [103.78135467711856, 1.200197577297976], [103.78042461562302, 1.210372367283546], [103.76322256370882, 1.206120946609913]]], [[[103.75277499069094, 1.225842812051642], [103.74923534399747, 1.227713533902697], [103.75155389712363, 1.22609442323901], [103.75126955229231, 1.223393087078213], [103.75277499069094, 1.225842812051642]]], [[[103.74759817013658, 1.228278700212355], [103.74673117744658, 1.224999275385384], [103.7480383942962, 1.22447543741684], [103.74691669123963, 1.224259619943483], [103.75040038637717, 1.223480928227928], [103.74759817013658, 1.228278700212355]]], [[[103.75739694519058, 1.236659435701104], [103.746287350907, 1.237296317423494], [103.7396717331087, 1.234106145499454], [103.76040258722385, 1.22590906874627], [103.76889550781169, 1.224995599233087], [103.7707795282685, 1.227428313058327], [103.75984605015405, 1.231199990326268], [103.75739694519058, 1.236659435701104]]], [[[103.76180443267873, 1.24042770222724], [103.76071391798543, 1.232451648463117], [103.77898902227054, 1.224050020539095], [103.77435577415267, 1.231866562439975], [103.76180443267873, 1.24042770222724]]], [[[103.79165610468921, 1.349270167714696], [103.78063587798037, 1.361068197812918], [103.77445026157251, 1.390289453272455], [103.75332082867689, 1.388999409370203], [103.75264620160232, 1.403520225010275], [103.74217973496039, 1.407724471551442], [103.73932856357493, 1.422280703176581], [103.72788870620062, 1.411174594082954], [103.71856139263076, 1.41106801748366], [103.71558648642035, 1.414455127852316], [103.70559723041444, 1.412184306527019], [103.69864670081904, 1.418636043939946], [103.70011093373574, 1.423187166276999], [103.69301472915882, 1.433673811017051], [103.67805912246962, 1.429120075554488], [103.67430134106864, 1.425175168864403], [103.67270552376087, 1.413791217386105], [103.66248793686904, 1.405533499976749], [103.6601588864422, 1.385123349729735], [103.6527145588523, 1.373012819140836], [103.64934598313096, 1.372636500822475], [103.63821222065998, 1.350464947967758], [103.63317452293991, 1.350550076367854], [103.63651042708393, 1.34543347595319], [103.6178173084745, 1.296727146542778], [103.6199596909893, 1.284257828011169], [103.61140734907885, 1.276987389806751], [103.60577965146851, 1.261819162222109], [103.61199379017225, 1.2556628267862], [103.61199401813727, 1.252949542883584], [103.60884715655942, 1.252949273432274], [103.6088477132016, 1.24639263510286], [103.61243590566431, 1.246390797103796], [103.61243453437793, 1.243682874734258], [103.60570154061381, 1.243675228736851], [103.60693717013265, 1.22028304698679], [103.64247951314638, 1.210664514018037], [103.65857532673121, 1.21716631791612], [103.65691752851413, 1.221605493420225], [103.61734588393504, 1.221602585665224], [103.61734527547134, 1.229199200044645], [103.64983923787348, 1.229201645905839], [103.64983862452236, 1.238154815830067], [103.61734455350714, 1.238152352148581], [103.61734399571424, 1.24502547860434], [103.63778532919467, 1.245027084076039], [103.64435470035376, 1.247963776051449], [103.64435426987933, 1.253980732232195], [103.61734326448104, 1.253978629631593], [103.61734269957243, 1.260851755255544], [103.64335501855393, 1.260853796233664], [103.64335436714721, 1.269808104683205], [103.63973582930322, 1.269808178178726], [103.64043811113928, 1.279079678247969], [103.64768354573653, 1.279581285793054], [103.65017411905676, 1.284257180455598], [103.64503452914882, 1.300617338029276], [103.63454190997126, 1.311756122096665], [103.63764226898427, 1.316201560328094], [103.64322024683747, 1.311392293102601], [103.64963809730206, 1.317455184867091], [103.65152468425194, 1.315975876450056], [103.64633922118735, 1.309066093570313], [103.6493318900093, 1.305355632065007], [103.65716368179974, 1.311105860621826], [103.64980778357608, 1.301688506704518], [103.66658593825908, 1.288675725764248], [103.67434171924165, 1.295441281853287], [103.66949930879942, 1.30043447088502], [103.66879327633916, 1.306317159312989], [103.6727153528167, 1.306810853123772], [103.67844353704231, 1.296614575775857], [103.68190000548833, 1.298000874173119], [103.68076205703737, 1.308885248819297], [103.68388183374437, 1.299095407052645], [103.69375052682788, 1.30094056534914], [103.69354844309679, 1.305091689057365], [103.69506089085878, 1.307864435267408], [103.69561279612417, 1.30049278838911], [103.69941007929646, 1.299526264155932], [103.69525431962612, 1.307949452403881], [103.70240932448927, 1.30183727366638], [103.70777999710377, 1.302062463515428], [103.71081166984533, 1.308411537205944], [103.71184791893853, 1.291602785166596], [103.70402597272133, 1.290894082858883], [103.69572125345057, 1.281396249540252], [103.69659566402565, 1.277485873610192], [103.68805919952736, 1.272751552478153], [103.68422589097092, 1.276531846336536], [103.6969178710852, 1.290660631445135], [103.6886456820717, 1.290818380491338], [103.66080312507522, 1.2739998059449], [103.65876139864146, 1.276851771769794], [103.65372635981743, 1.272910723353178], [103.66301720372788, 1.244975242569031], [103.6762190333856, 1.228705001151418], [103.67215912299885, 1.223579973226055], [103.66965784246347, 1.228379196436002], [103.67226618341697, 1.222772311405526], [103.67441183361753, 1.223154697568492], [103.69039059468092, 1.240026437335976], [103.68591289597299, 1.257732949096473], [103.6801279824076, 1.263060553923043], [103.68497029121158, 1.26839961198765], [103.6904099578406, 1.26339379317235], [103.69412390480586, 1.250257129862776], [103.71407941189135, 1.259016251461631], [103.70480971112853, 1.265594283248602], [103.70612263551521, 1.268352972342101], [103.71018943575898, 1.269276366569978], [103.72249676312896, 1.258961973649513], [103.73114207130702, 1.263313135671493], [103.73311717528138, 1.267520803887672], [103.7269533557516, 1.270929543658714], [103.72355738025955, 1.269260139450848], [103.72616533949679, 1.271667347525092], [103.73285456650477, 1.269225007218061], [103.74012530242061, 1.273101039898612], [103.72918981540397, 1.280954084840641], [103.72451613294963, 1.289595650183239], [103.71242022911332, 1.291727905003894], [103.711877509315, 1.299610160341831], [103.72272663536006, 1.299674522577779], [103.71219993009207, 1.308439453086037], [103.72760803501066, 1.300271205736088], [103.74085592871587, 1.298813846080644], [103.74343084807114, 1.301322216665348], [103.744152394983, 1.298054672378467], [103.7490826913554, 1.296502715410752], [103.7623275420082, 1.301344462802839], [103.76673250579026, 1.292216342849409], [103.77225763522902, 1.312149147692939], [103.77084747734817, 1.321265209904404], [103.77564504398107, 1.326426737365669], [103.76482642057324, 1.332403294345193], [103.7641470957191, 1.339355670226643], [103.76713467892279, 1.34279405435831], [103.76318337967966, 1.346712644034814], [103.77038402347611, 1.349016439412976], [103.77782825991116, 1.341856662185884], [103.79165610468921, 1.349270167714696]]], [[[103.68527177917387, 1.433530475669905], [103.68539819528706, 1.435062803817555], [103.68425413793722, 1.434220667970911], [103.68527177917387, 1.433530475669905]]]]}}]}