{"type": "FeatureCollection", "features": [{"type": "Feature", "properties": {"name": "Russia"}, "geometry": {"type": "MultiPolygon", "coordinates": [[[[159.863048, 69.992825], [159.760997, 69.961859], [159.692068, 69.910875], [159.688975, 69.890774], [159.763031, 69.838568], [159.729666, 69.838568], [159.801117, 69.807034], [159.788422, 69.774807], [159.769054, 69.76203], [159.861827, 69.789862], [160.0, 69.75384904597827], [160.0, 61.79906872277556], [159.966724, 61.758828], [159.949943, 61.757601], [159.947966, 61.747263], [159.927124, 61.731876], [159.905896, 61.728883], [159.880744, 61.705208], [159.811128, 61.715351], [159.805515, 61.722103], [159.787644, 61.700063], [159.726204, 61.701985], [159.72515, 61.711148], [159.707729, 61.720992], [159.707987, 61.685159], [159.652653, 61.682896], [159.577213, 61.652771], [159.519415, 61.674648], [159.511656, 61.700354], [159.512603, 61.713336], [159.530246, 61.719793], [159.539852, 61.73503], [159.529274, 61.768], [159.536511, 61.785284], [159.546956, 61.805038], [159.565586, 61.816648], [159.530251, 61.819377], [159.526067, 61.796117], [159.485485, 61.792535], [159.477569, 61.763559], [159.399215, 61.795294], [159.380605, 61.814897], [159.356068, 61.816506], [159.35091, 61.826469], [159.392227, 61.833965], [159.40249, 61.853085], [159.394018, 61.875546], [159.359874, 61.893012], [159.117796, 61.91666], [159.017914, 61.915351], [158.98585, 61.901516], [158.920746, 61.903022], [158.894867, 61.894355], [158.844981, 61.85871], [158.853038, 61.826321], [158.837169, 61.821112], [158.754029, 61.821019], [158.736085, 61.832571], [158.548492, 61.830419], [158.520599, 61.798275], [158.484988, 61.789698], [158.463638, 61.80403], [158.402915, 61.822219], [158.260227, 61.825934], [158.230777, 61.811856], [158.229024, 61.798999], [158.169119, 61.76732], [158.140051, 61.771186], [158.080164, 61.734], [158.048746, 61.745315], [158.040612, 61.735815], [158.018809, 61.734198], [157.949956, 61.745588], [157.940867, 61.760134], [157.793657, 61.781177], [157.68766, 61.780161], [157.537341, 61.791946], [157.464509, 61.782105], [157.393295, 61.74583], [157.35654, 61.714753], [157.367111, 61.696993], [157.364644, 61.685394], [157.343434, 61.680677], [157.304013, 61.695989], [157.256605, 61.693135], [157.183773, 61.673796], [157.027599, 61.65058], [157.008782, 61.637365], [156.999312, 61.612863], [156.923833, 61.551813], [156.797855, 61.515999], [156.722318, 61.5271], [156.679463, 61.524017], [156.670423, 61.516027], [156.693293, 61.512058], [156.671151, 61.498224], [156.648936, 61.442857], [156.631684, 61.423896], [156.623794, 61.370591], [156.646194, 61.348142], [156.648543, 61.327985], [156.619877, 61.275328], [156.631851, 61.257582], [156.651451, 61.250707], [156.650596, 61.224126], [156.662918, 61.210892], [156.654971, 61.19676], [156.635684, 61.19131], [156.625313, 61.196057], [156.623602, 61.207144], [156.599761, 61.212141], [156.546888, 61.209226], [156.373897, 61.148768], [156.264336, 61.081146], [156.091173, 61.001567], [156.045202, 60.973033], [156.029922, 60.944727], [156.007631, 60.949572], [155.98182, 60.924023], [155.963672, 60.933384], [155.94306, 60.922629], [155.972621, 60.904677], [155.916779, 60.859378], [155.922946, 60.832685], [155.90339, 60.795962], [155.920739, 60.754794], [155.913621, 60.703583], [155.875846, 60.716449], [155.86853, 60.727592], [155.829845, 60.72899], [155.724824, 60.6551], [155.680125, 60.657983], [155.608424, 60.630914], [155.570962, 60.625549], [155.540652, 60.592149], [155.507986, 60.590562], [155.492073, 60.581982], [155.474724, 60.555377], [155.479773, 60.533924], [155.454092, 60.53197], [155.431511, 60.515222], [155.398348, 60.529572], [155.340281, 60.524582], [155.300036, 60.510619], [155.275313, 60.490966], [155.240599, 60.484278], [155.184354, 60.437371], [155.137593, 60.41141], [154.952403, 60.367418], [154.813691, 60.271658], [154.833258, 60.303173], [154.804235, 60.288853], [154.793607, 60.25537], [154.761078, 60.228176], [154.69212, 60.201314], [154.509729, 60.024956], [154.48759, 59.946307], [154.479157, 59.973307], [154.498975, 60.028848], [154.563698, 60.093705], [154.511571, 60.094304], [154.433597, 60.076429], [154.407835, 60.062928], [154.40669, 60.036173], [154.466715, 59.967587], [154.461784, 59.945066], [154.487804, 59.896308], [154.473481, 59.87934], [154.451969, 59.878118], [154.397797, 59.847968], [154.432628, 59.896308], [154.395844, 59.902045], [154.28072, 59.891683], [154.247157, 59.885235], [154.22077, 59.86962], [154.228452, 59.849774], [154.215465, 59.783955], [154.22877, 59.730373], [154.368251, 59.574686], [154.285809, 59.623627], [154.276159, 59.650074], [154.241804, 59.665741], [154.220074, 59.663976], [154.195811, 59.626939], [154.196601, 59.583167], [154.158622, 59.561345], [154.16146, 59.552537], [154.149287, 59.53642], [154.109463, 59.539747], [154.091061, 59.530569], [154.075043, 59.509182], [154.138438, 59.456977], [154.263782, 59.436878], [154.297877, 59.442553], [154.353881, 59.489884], [154.346934, 59.50845], [154.356944, 59.525824], [154.402311, 59.535015], [154.409907, 59.506508], [154.379893, 59.470038], [154.419688, 59.439765], [154.42685, 59.420882], [154.515856, 59.410386], [154.536779, 59.422841], [154.532709, 59.436044], [154.452485, 59.467597], [154.436046, 59.484198], [154.437251, 59.508451], [154.418305, 59.546291], [154.428762, 59.547034], [154.554124, 59.513399], [154.644287, 59.543434], [154.782954, 59.471286], [154.841807, 59.475491], [154.877596, 59.46081], [154.918725, 59.474301], [154.923029, 59.486783], [154.936803, 59.494132], [154.962901, 59.49608], [155.014945, 59.476413], [155.011718, 59.451377], [155.023353, 59.436657], [155.097341, 59.395453], [155.166759, 59.37934], [155.209713, 59.34388], [155.193372, 59.32961], [155.218686, 59.313791], [155.215758, 59.305493], [155.177322, 59.308187], [155.157625, 59.296358], [155.171397, 59.262274], [155.197176, 59.237229], [155.179022, 59.225335], [155.149608, 59.221569], [155.194102, 59.175767], [155.055673, 59.191653], [155.028605, 59.17345], [154.936393, 59.192439], [154.813301, 59.194172], [154.799239, 59.185452], [154.785141, 59.156062], [154.804879, 59.132226], [154.790698, 59.131347], [154.677516, 59.145639], [154.582908, 59.186656], [154.573455, 59.200278], [154.501565, 59.217887], [154.438021, 59.215521], [154.396526, 59.195572], [154.332723, 59.191753], [154.342627, 59.179519], [154.35771, 59.110587], [154.340822, 59.118433], [154.307975, 59.094159], [154.278943, 59.085928], [154.192393, 59.101264], [154.048676, 59.052802], [153.90504, 59.086982], [153.802013, 59.172309], [153.691975, 59.185061], [153.69414, 59.19729], [153.721642, 59.217657], [153.750905, 59.218532], [153.766976, 59.231248], [153.768557, 59.246583], [153.696634, 59.22574], [153.669392, 59.196071], [153.648024, 59.190771], [153.603609, 59.199723], [153.581224, 59.216249], [153.495242, 59.233716], [153.444205, 59.230952], [153.369151, 59.241278], [153.364463, 59.228398], [153.37094, 59.209338], [153.34839, 59.153625], [153.283539, 59.148993], [153.284233, 59.131324], [153.300321, 59.129309], [153.32635, 59.140531], [153.35022, 59.13402], [153.35568, 59.116475], [153.337275, 59.089887], [153.0901, 59.083094], [153.006708, 59.060565], [152.988607, 59.02931], [152.943316, 59.007021], [152.934636, 58.966489], [152.907725, 58.945944], [152.91605, 58.916555], [152.899913, 58.903632], [152.885653, 58.915699], [152.816789, 58.926275], [152.740553, 58.917866], [152.731502, 58.909132], [152.664813, 58.940422], [152.55674, 58.949981], [152.522631, 58.982566], [152.470698, 59.003367], [152.431488, 59.008857], [152.404796, 59.023424], [152.404796, 59.046047], [152.363292, 59.059719], [152.339366, 59.055487], [152.356456, 59.032375], [152.342296, 59.01968], [152.166129, 58.984063], [152.154383, 58.958425], [152.156652, 58.926503], [152.110262, 58.895286], [152.020298, 58.875037], [151.811889, 58.870507], [151.71728, 58.848956], [151.452841, 58.864754], [151.401318, 58.840143], [151.353665, 58.832562], [151.337277, 58.838867], [151.359093, 58.855993], [151.238068, 58.962506], [151.229646, 58.98145], [151.236028, 58.998267], [151.183604, 59.01675], [151.151255, 59.041632], [151.132468, 59.071692], [151.08805, 59.10202], [151.102061, 59.114325], [151.152843, 59.096422], [151.216528, 59.091682], [151.301492, 59.115516], [151.343374, 59.119548], [151.437731, 59.170317], [151.570496, 59.1567], [151.657481, 59.161444], [151.706798, 59.143215], [151.766041, 59.133628], [151.837998, 59.152703], [151.924342, 59.137779], [151.993149, 59.154352], [152.050629, 59.147861], [152.109357, 59.155798], [152.225229, 59.202169], [152.322238, 59.207409], [152.311827, 59.226649], [152.136729, 59.29621], [152.108654, 59.282714], [151.979015, 59.265082], [151.962169, 59.267076], [151.901353, 59.303016], [151.760265, 59.299262], [151.734298, 59.307264], [151.727593, 59.322196], [151.770278, 59.349664], [151.726938, 59.382889], [151.70524, 59.389542], [151.694775, 59.43112], [151.665509, 59.45944], [151.637576, 59.48248], [151.580253, 59.503255], [151.51588, 59.509101], [151.49851, 59.520373], [151.491009, 59.541936], [151.429408, 59.56456], [151.430797, 59.570348], [151.460579, 59.569392], [151.450911, 59.577145], [151.424627, 59.597716], [151.396057, 59.604163], [151.37098, 59.600993], [151.346907, 59.567866], [151.3221, 59.555888], [151.188731, 59.576606], [151.063069, 59.579334], [150.937106, 59.555868], [150.906743, 59.559352], [150.894867, 59.546484], [150.90438, 59.531866], [150.938357, 59.518795], [150.910167, 59.491034], [150.937185, 59.484198], [150.944347, 59.477444], [150.941833, 59.461225], [150.92584, 59.447642], [150.843143, 59.448377], [150.779912, 59.432263], [150.74012, 59.439773], [150.774396, 59.465413], [150.765622, 59.484321], [150.67452, 59.494696], [150.535562, 59.478969], [150.503741, 59.488666], [150.581172, 59.50786], [150.708448, 59.520572], [150.77156, 59.536958], [150.774348, 59.561915], [150.601303, 59.54096], [150.516368, 59.557034], [150.51876, 59.57224], [150.468272, 59.580878], [150.456806, 59.61259], [150.341075, 59.631985], [150.306, 59.646186], [150.167735, 59.652777], [150.00449, 59.700363], [149.758215, 59.740662], [149.597725, 59.758205], [149.438006, 59.73645], [149.393809, 59.755805], [149.380138, 59.753811], [149.372569, 59.758287], [149.375255, 59.772203], [149.326834, 59.758612], [149.378593, 59.724654], [149.132907, 59.640736], [149.081228, 59.653225], [149.040701, 59.64289], [149.033214, 59.624823], [149.042247, 59.614488], [149.089482, 59.609696], [149.104019, 59.592341], [149.081065, 59.559963], [149.201345, 59.524888], [149.21697, 59.487982], [149.212087, 59.469143], [149.114594, 59.493354], [148.968435, 59.452216], [148.953868, 59.470608], [148.892263, 59.466783], [148.848888, 59.48664], [148.84018, 59.501288], [148.855805, 59.531195], [148.88795, 59.546291], [148.845958, 59.55272], [148.743429, 59.471578], [148.727042, 59.450332], [148.720245, 59.420864], [148.723069, 59.388094], [148.735705, 59.368391], [148.787254, 59.358765], [148.814009, 59.363535], [148.865408, 59.404853], [148.875011, 59.398871], [148.861339, 59.353909], [148.881684, 59.356431], [148.915863, 59.395453], [148.933116, 59.396674], [148.989906, 59.375377], [148.992492, 59.356102], [148.933744, 59.317273], [148.930333, 59.29678], [148.96419, 59.27327], [148.954514, 59.250094], [148.934522, 59.233273], [148.841563, 59.276557], [148.799035, 59.271311], [148.787937, 59.236484], [148.739022, 59.237032], [148.728038, 59.259546], [148.685716, 59.265684], [148.58978, 59.241584], [148.437466, 59.262317], [148.440293, 59.282708], [148.414931, 59.304398], [148.41141, 59.31927], [148.419145, 59.333586], [148.402029, 59.353909], [148.393728, 59.379299], [148.336113, 59.397023], [148.219436, 59.40887], [148.009437, 59.385701], [147.913848, 59.390471], [147.845463, 59.376615], [147.788748, 59.34394], [147.834344, 59.316492], [147.846569, 59.296919], [147.825501, 59.269605], [147.738536, 59.262397], [147.702891, 59.26911], [147.675141, 59.28559], [147.682628, 59.293036], [147.656098, 59.301947], [147.591075, 59.304145], [147.565278, 59.293036], [147.552501, 59.274075], [147.545999, 59.237547], [147.437673, 59.260891], [147.374522, 59.302965], [147.319591, 59.312934], [147.271495, 59.332099], [147.230642, 59.331773], [147.198939, 59.312919], [147.131847, 59.327216], [147.055837, 59.362982], [146.979202, 59.370463], [146.860525, 59.361314], [146.719574, 59.381903], [146.697276, 59.394355], [146.68922, 59.412258], [146.693477, 59.423616], [146.618907, 59.445746], [146.503917, 59.463121], [146.439642, 59.460409], [146.358961, 59.42994], [146.319141, 59.401694], [146.324962, 59.319403], [146.323741, 59.298774], [146.312185, 59.278754], [146.333263, 59.259345], [146.319021, 59.23786], [146.342296, 59.231431], [146.363108, 59.212811], [146.339559, 59.206009], [146.322957, 59.179952], [146.281168, 59.194112], [146.204619, 59.20462], [146.157729, 59.192416], [146.135788, 59.169389], [146.099132, 59.174384], [146.050292, 59.138873], [145.976199, 59.143316], [145.9748, 59.162437], [145.989906, 59.172418], [145.93214, 59.213202], [145.824962, 59.241278], [145.824199, 59.259342], [145.843909, 59.292736], [145.910952, 59.342823], [145.946496, 59.355321], [145.954019, 59.378674], [145.975797, 59.398749], [145.957006, 59.416723], [145.889428, 59.401967], [145.818126, 59.415961], [145.808898, 59.366828], [145.769102, 59.374913], [145.692638, 59.411689], [145.675304, 59.423489], [145.674653, 59.436428], [145.651622, 59.421942], [145.592296, 59.423082], [145.353689, 59.392727], [145.324555, 59.395453], [145.303884, 59.408759], [145.228718, 59.407976], [145.000759, 59.369583], [144.76295, 59.381171], [144.797862, 59.386379], [144.804454, 59.395453], [144.613292, 59.395453], [144.629731, 59.383938], [144.694591, 59.374945], [144.454845, 59.374945], [144.365733, 59.381171], [144.448253, 59.381171], [144.441173, 59.391343], [144.379649, 59.402289], [144.281098, 59.387641], [143.93801, 59.405078], [143.903911, 59.42271], [143.493617, 59.318518], [143.40798, 59.324322], [143.310871, 59.360741], [143.227951, 59.362273], [143.204356, 59.383734], [143.164806, 59.381008], [143.139171, 59.361314], [143.159679, 59.353909], [142.892263, 59.302069], [142.581798, 59.226102], [142.26238, 59.124579], [142.144298, 59.056871], [142.055837, 59.021715], [142.01531, 58.99726], [141.946788, 58.94302], [141.781912, 58.764716], [141.583734, 58.617749], [141.392426, 58.54328], [141.248509, 58.476892], [141.185633, 58.456356], [141.136351, 58.464438], [141.105425, 58.459215], [140.904307, 58.382758], [140.740001, 58.271308], [140.666759, 58.191107], [140.518728, 57.932522], [140.495728, 57.844774], [140.428393, 57.820646], [140.400039, 57.800332], [140.345776, 57.786836], [140.302446, 57.747788], [140.280284, 57.7626], [140.223318, 57.76024], [140.207575, 57.747662], [140.116082, 57.739978], [140.034841, 57.71308], [140.0, 57.69651482069755], [140.0, 70.0], [159.86673101384451, 70.0], [159.863048, 69.992825]]], [[[159.990896, 54.097886], [159.901541, 53.981879], [159.844086, 53.796942], [159.84254, 53.739814], [159.86671, 53.694485], [159.818207, 53.659654], [159.873057, 53.634223], [159.914561, 53.590766], [159.918712, 53.610745], [159.872895, 53.66649], [159.903087, 53.673041], [159.930675, 53.645087], [159.969249, 53.570299], [159.957774, 53.554511], [159.96046, 53.496772], [159.948741, 53.474758], [159.920177, 53.475572], [159.880056, 53.493598], [159.825043, 53.5362], [159.791026, 53.516303], [159.81544, 53.501166], [159.796641, 53.481513], [159.846528, 53.483832], [159.859386, 53.474758], [159.859386, 53.433743], [159.875824, 53.400133], [159.901134, 53.390611], [159.920665, 53.396959], [159.935557, 53.392768], [159.923025, 53.365424], [159.928071, 53.337592], [159.975352, 53.33161], [159.969249, 53.309638], [159.922374, 53.283637], [159.914561, 53.268622], [159.921072, 53.253567], [159.969249, 53.214667], [159.962169, 53.244371], [159.980479, 53.265611], [160.0, 53.272311423537055], [160.0, 53.11477056676558], [159.963064, 53.113227], [159.955577, 53.132066], [159.931163, 53.145941], [159.771495, 53.203599], [159.756847, 53.220893], [159.763194, 53.242418], [159.825043, 53.282945], [159.764008, 53.265611], [159.730154, 53.239], [159.713145, 53.236477], [159.632498, 53.257148], [159.477712, 53.229438], [159.381521, 53.16177], [159.290782, 53.173733], [159.241059, 53.149604], [159.163829, 53.134914], [159.003266, 53.07685], [158.870942, 52.996772], [158.739431, 52.903306], [158.708669, 52.891791], [158.659028, 52.972968], [158.673676, 52.99494], [158.591563, 53.062161], [158.539724, 53.068752], [158.510509, 53.050198], [158.437836, 53.025336], [158.41505, 52.992743], [158.453868, 52.983466], [158.427419, 52.946519], [158.435557, 52.919745], [158.464529, 52.907213], [158.530447, 52.905585], [158.482677, 52.940334], [158.506196, 52.947455], [158.608165, 52.932278], [158.622569, 52.927314], [158.647146, 52.899359], [158.606212, 52.878241], [158.628429, 52.856879], [158.592133, 52.82331], [158.544688, 52.837307], [158.565196, 52.795722], [158.499766, 52.778957], [158.495128, 52.758734], [158.515636, 52.746324], [158.5713, 52.741034], [158.570811, 52.733791], [158.599376, 52.713772], [158.59783, 52.69245], [158.5713, 52.687079], [158.575857, 52.667548], [158.564708, 52.647366], [158.544932, 52.631537], [158.500439, 52.621315], [158.421153, 52.659125], [158.448497, 52.61758], [158.427334, 52.593768], [158.460805, 52.574699], [158.523611, 52.57038], [158.519054, 52.516506], [158.503184, 52.501532], [158.530447, 52.48786], [158.519054, 52.476874], [158.462087, 52.460517], [158.462087, 52.432563], [158.421153, 52.412095], [158.439952, 52.407294], [158.503184, 52.432563], [158.543468, 52.420722], [158.5713, 52.391669], [158.503184, 52.3581], [158.522716, 52.338284], [158.558604, 52.324856], [158.557872, 52.313056], [158.547699, 52.296047], [158.489513, 52.268134], [158.427419, 52.268134], [158.438487, 52.243313], [158.390147, 52.226223], [158.386485, 52.206692], [158.427013, 52.184272], [158.372081, 52.129584], [158.324962, 52.138373], [158.319021, 52.130316], [158.317556, 52.097398], [158.331228, 52.073188], [158.286388, 52.034247], [158.286876, 51.967515], [158.217131, 51.924871], [158.206716, 51.902045], [158.190929, 51.898139], [158.131107, 51.85146], [158.118907, 51.81623], [158.014822, 51.766018], [157.999278, 51.728013], [157.967052, 51.709052], [157.941417, 51.672268], [157.918468, 51.660834], [157.91212, 51.65233], [157.920258, 51.637437], [157.913341, 51.631293], [157.885427, 51.636135], [157.853689, 51.622382], [157.825268, 51.596956], [157.801036, 51.589107], [157.759192, 51.543983], [157.712852, 51.550035], [157.606456, 51.526068], [157.536876, 51.48607], [157.473114, 51.411112], [157.488048, 51.39053], [157.475738, 51.361474], [157.446538, 51.347898], [157.388504, 51.351318], [157.351736, 51.329657], [157.306977, 51.295233], [157.263031, 51.237738], [157.142302, 51.167324], [157.095891, 51.153216], [157.045909, 51.123603], [156.920105, 51.033032], [156.876731, 51.018724], [156.837246, 50.97771], [156.719698, 50.886454], [156.669988, 50.863917], [156.658235, 50.882606], [156.693686, 50.909203], [156.761937, 50.984431], [156.77027, 51.018134], [156.756942, 51.035917], [156.761545, 51.077974], [156.74198, 51.090437], [156.708094, 51.087704], [156.700206, 51.118394], [156.719004, 51.157072], [156.721874, 51.195482], [156.693614, 51.209906], [156.6421, 51.258368], [156.590831, 51.261379], [156.546886, 51.279446], [156.523611, 51.31151], [156.519542, 51.422919], [156.481619, 51.46369], [156.487804, 51.473619], [156.481619, 51.559272], [156.495128, 51.603949], [156.487804, 51.644965], [156.501231, 51.775051], [156.486013, 51.957668], [156.439192, 52.216031], [156.372775, 52.404624], [156.303396, 52.480943], [156.282237, 52.529446], [156.294281, 52.529486], [156.337413, 52.501532], [156.358084, 52.501532], [156.37086, 52.490058], [156.372325, 52.446845], [156.419688, 52.471747], [156.438813, 52.490871], [156.446625, 52.51142], [156.431895, 52.524604], [156.331309, 52.5362], [156.303559, 52.555121], [156.265726, 52.598171], [156.164795, 52.798665], [156.111196, 52.93542], [156.097911, 53.04267], [156.056407, 53.214667], [156.039224, 53.370629], [155.98669, 53.576879], [155.954683, 53.786105], [155.935802, 53.86518], [155.884451, 53.981838], [155.888357, 53.998765], [155.871349, 54.071234], [155.807302, 54.203437], [155.728038, 54.426825], [155.63852, 54.769477], [155.644542, 54.831529], [155.610037, 54.894924], [155.551177, 55.284205], [155.553932, 55.364603], [155.566422, 55.433015], [155.622813, 55.639228], [155.653087, 55.921332], [155.684337, 55.99433], [155.686209, 56.03913], [155.710134, 56.081488], [155.756033, 56.106676], [155.762055, 56.119452], [155.742198, 56.126695], [155.742849, 56.145901], [155.765473, 56.174709], [155.78004, 56.247504], [155.810557, 56.290758], [155.924327, 56.58454], [155.946544, 56.621894], [156.047616, 56.765091], [156.125255, 56.832017], [156.174001, 56.845852], [156.08253, 56.767076], [156.067149, 56.747382], [156.063731, 56.715969], [156.121918, 56.77497], [156.207774, 56.825832], [156.205821, 56.854315], [156.385582, 56.911754], [156.461275, 56.948406], [156.530361, 57.021163], [156.535818, 57.088446], [156.552094, 57.108954], [156.573253, 57.113715], [156.605154, 57.085842], [156.656261, 57.075914], [156.675466, 57.04621], [156.683849, 57.048326], [156.718028, 57.08275], [156.729686, 57.115247], [156.831616, 57.213451], [157.001288, 57.425505], [156.977712, 57.546088], [156.930675, 57.658433], [156.854991, 57.72134], [156.820079, 57.735989], [156.783051, 57.739895], [156.749034, 57.72956], [156.801036, 57.773383], [156.981456, 57.857123], [156.997569, 57.856147], [157.051036, 57.80508], [157.241873, 57.770494], [157.391856, 57.781195], [157.4699, 57.803941], [157.526703, 57.843166], [157.557384, 57.87641], [157.570079, 57.928778], [157.586681, 57.951117], [157.653331, 58.003892], [157.639659, 58.02497], [157.723155, 58.024604], [157.789317, 57.996527], [157.947032, 57.9831], [158.056895, 57.99022], [158.167979, 58.020738], [158.22462, 58.025458], [158.276622, 58.003892], [158.320974, 57.954413], [158.338227, 57.95303], [158.345551, 57.967353], [158.290782, 58.003892], [158.295258, 58.024848], [158.277843, 58.035061], [158.22877, 58.038642], [158.334483, 58.089179], [158.417817, 58.149115], [158.544119, 58.199693], [158.654796, 58.269436], [158.783539, 58.312974], [158.852306, 58.348822], [158.892833, 58.357652], [158.94809, 58.388129], [159.023774, 58.414781], [159.109386, 58.474595], [159.144705, 58.488349], [159.152517, 58.50788], [159.183767, 58.50609], [159.208263, 58.477484], [159.23699, 58.467841], [159.242198, 58.472602], [159.232677, 58.487372], [159.187511, 58.508043], [159.180919, 58.521552], [159.193696, 58.541978], [159.36085, 58.644029], [159.401622, 58.678046], [159.503673, 58.696601], [159.496837, 58.716457], [159.609141, 58.798651], [159.619802, 58.826321], [159.634613, 58.837958], [159.68865, 58.853583], [159.727794, 58.883043], [159.743907, 58.903876], [159.75294, 58.958197], [159.729666, 59.011298], [159.742686, 59.031399], [159.792003, 59.067532], [159.803477, 59.096381], [159.864431, 59.14057], [160.0, 59.21033756020881], [160.0, 54.12858461033818], [159.990896, 54.097886]]], [[[159.998459, 60.963496], [159.966353, 60.966187], [159.950515, 60.959228], [159.957334, 60.95066], [159.950628, 60.940912], [159.885349, 60.941389], [159.888301, 60.931266], [159.904009, 60.924698], [159.898667, 60.915527], [159.882641, 60.913879], [159.827975, 60.932136], [159.797539, 60.931103], [159.828499, 60.941519], [159.838481, 60.969297], [159.830488, 60.97846], [159.853093, 60.982766], [159.968111, 61.058779], [159.952184, 61.071255], [159.969523, 61.079285], [159.976324, 61.096036], [160.0, 61.10605831313767], [160.0, 60.96467365010968], [159.998459, 60.963496]]], [[[159.974866, 61.139591], [159.98214, 61.152187], [159.963388, 61.18186], [159.918198, 61.213638], [159.956233, 61.227247], [159.943293, 61.243774], [159.907725, 61.259426], [159.855497, 61.257572], [159.822731, 61.23252], [159.775618, 61.242206], [159.788678, 61.253409], [159.789717, 61.265719], [159.827616, 61.278786], [159.818522, 61.289178], [159.908632, 61.29352], [159.923187, 61.279954], [159.963657, 61.272809], [159.996383, 61.284324], [160.0, 61.28808073692509], [160.0, 61.10630473364987], [159.974866, 61.139591]]], [[[159.943748, 61.297854], [159.910167, 61.31391], [159.972472, 61.338909], [159.965225, 61.378036], [160.0, 61.378370535834534], [160.0, 61.29260088767533], [159.943748, 61.297854]]], [[[140.00172, 54.122992], [140.053071, 54.114203], [140.240571, 54.056952], [140.244802, 54.044379], [140.226329, 54.012274], [140.235688, 54.001288], [140.281505, 53.979071], [140.330821, 53.970282], [140.32252, 53.947089], [140.251964, 53.89057], [140.257335, 53.868557], [140.3567, 53.790025], [140.521739, 53.727037], [140.534434, 53.711982], [140.539806, 53.671698], [140.581228, 53.639309], [140.651134, 53.619818], [140.713145, 53.58161], [141.09783, 53.474758], [141.047374, 53.478461], [140.994395, 53.495185], [140.949718, 53.488959], [140.933767, 53.476508], [140.939464, 53.453599], [140.927419, 53.444525], [140.930919, 53.436347], [140.943126, 53.432603], [140.972504, 53.448432], [140.995372, 53.448432], [141.035411, 53.409735], [141.12436, 53.392768], [141.117686, 53.37523], [141.229259, 53.315985], [141.407481, 53.303778], [141.411876, 53.293647], [141.398123, 53.255601], [141.357758, 53.220893], [141.368419, 53.213528], [141.384613, 53.215562], [141.411794, 53.228339], [141.424001, 53.217841], [141.412446, 53.194973], [141.432953, 53.148871], [141.375499, 53.12344], [141.349783, 53.091132], [141.363536, 53.086859], [141.364431, 53.073391], [141.333181, 53.07274], [141.281993, 53.091132], [141.253673, 53.087836], [141.186371, 53.050198], [141.186371, 53.04267], [141.203624, 53.037421], [141.261567, 53.035875], [141.188813, 52.987494], [141.131847, 52.987494], [140.966563, 53.061957], [140.894786, 53.07685], [140.860688, 53.118476], [140.729991, 53.126939], [140.706716, 53.111029], [140.773448, 53.089911], [140.876231, 53.038479], [140.933442, 53.031562], [140.945811, 53.023342], [140.946951, 53.001166], [140.939464, 52.99494], [140.966075, 52.944648], [140.993826, 52.925849], [141.044932, 52.924262], [141.08253, 52.883979], [141.15797, 52.869208], [141.197765, 52.848822], [141.26059, 52.85224], [141.20102, 52.777411], [141.270274, 52.735256], [141.281993, 52.721259], [141.298513, 52.671129], [141.316254, 52.659125], [141.300059, 52.641425], [141.28061, 52.578762], [141.235118, 52.526313], [141.21339, 52.50788], [141.135265, 52.470526], [141.117686, 52.448961], [141.128184, 52.422919], [141.167166, 52.364895], [141.186371, 52.350653], [141.258311, 52.323717], [141.278982, 52.293443], [141.349783, 52.268134], [141.366222, 52.246812], [141.40211, 52.225531], [141.480724, 52.212836], [141.54005, 52.220771], [141.544688, 52.217719], [141.536143, 52.199449], [141.545909, 52.19359], [141.555837, 52.162299], [141.550629, 52.149848], [141.514822, 52.171942], [141.493663, 52.172309], [141.473888, 52.158881], [141.402599, 52.140204], [141.354991, 52.105902], [141.342784, 52.093817], [141.364024, 52.083726], [141.30893, 52.037095], [141.302582, 52.021674], [141.31365, 52.004096], [141.417817, 51.954739], [141.429535, 51.941962], [141.425548, 51.925482], [141.354747, 51.909084], [141.331798, 51.890448], [141.280121, 51.880316], [141.2588, 51.857489], [141.200206, 51.823676], [141.169119, 51.751044], [141.122325, 51.705024], [141.131847, 51.692694], [141.109223, 51.678778], [140.987966, 51.659247], [140.915294, 51.623847], [140.90561, 51.615424], [140.91212, 51.562974], [140.901378, 51.494086], [140.88795, 51.480414], [140.822765, 51.480414], [140.803071, 51.467108], [140.800059, 51.454169], [140.808442, 51.422105], [140.818858, 51.416734], [140.878103, 51.432685], [140.896007, 51.428778], [140.87379, 51.371772], [140.8296, 51.343248], [140.70574, 51.334784], [140.68629, 51.312812], [140.693044, 51.281806], [140.713552, 51.261379], [140.703868, 51.245307], [140.667166, 51.23607], [140.658946, 51.223822], [140.679454, 51.199286], [140.667328, 51.131415], [140.704356, 51.092353], [140.706716, 51.031684], [140.701182, 51.021877], [140.665212, 51.008124], [140.679454, 50.966539], [140.673595, 50.94831], [140.656749, 50.937812], [140.599864, 50.928453], [140.529796, 50.862372], [140.547618, 50.835639], [140.542247, 50.805121], [140.534434, 50.78913], [140.480724, 50.747382], [140.46339, 50.698961], [140.485362, 50.676174], [140.514903, 50.617092], [140.495779, 50.616767], [140.483897, 50.607164], [140.442882, 50.544379], [140.442149, 50.530097], [140.514903, 50.445746], [140.511078, 50.419379], [140.545421, 50.344062], [140.514903, 50.294908], [140.536957, 50.23607], [140.520274, 50.195543], [140.52296, 50.151068], [140.549164, 50.114081], [140.600597, 50.075181], [140.638438, 50.09634], [140.68629, 50.103176], [140.690929, 50.080268], [140.660655, 50.05801], [140.53556144862975, 50.0], [140.0, 50.0], [140.0, 54.12410681912447], [140.00172, 54.122992]]], [[[142.536957, 54.296536], [142.520193, 54.285631], [142.521169, 54.276597], [142.529063, 54.252143], [142.543224, 54.237209], [142.570323, 54.234768], [142.586925, 54.247056], [142.570079, 54.276597], [142.588634, 54.280504], [142.635102, 54.266059], [142.649099, 54.283393], [142.625255, 54.310207], [142.625499, 54.327297], [142.669688, 54.348334], [142.686778, 54.369127], [142.673106, 54.392076], [142.681488, 54.415961], [142.690684, 54.423896], [142.723155, 54.425605], [142.751801, 54.402981], [142.772716, 54.362006], [142.805431, 54.338935], [142.819672, 54.301907], [142.895844, 54.245592], [142.957856, 54.170233], [143.003917, 54.135484], [143.01295, 54.119086], [142.999848, 54.067572], [142.927094, 53.975328], [142.900401, 53.901597], [142.892263, 53.892483], [142.865489, 53.892483], [142.851817, 53.871975], [142.916515, 53.874091], [142.933767, 53.857652], [142.94044, 53.823554], [143.002126, 53.700629], [142.926768, 53.829779], [142.898123, 53.823228], [142.890147, 53.813137], [142.906505, 53.766791], [142.939708, 53.749742], [142.964366, 53.69953], [142.988455, 53.694485], [142.967784, 53.66649], [143.003917, 53.666164], [143.029307, 53.646064], [142.99586, 53.625556], [143.070811, 53.598212], [143.044688, 53.58511], [143.016368, 53.590766], [143.006521, 53.575751], [142.988455, 53.570299], [142.988455, 53.562893], [143.042735, 53.5362], [143.090668, 53.55976], [143.121104, 53.518052], [143.13087, 53.486884], [143.125499, 53.467922], [143.083181, 53.473578], [143.070811, 53.461086], [143.069998, 53.448554], [143.110606, 53.419745], [143.111339, 53.40644], [143.094086, 53.381903], [143.117931, 53.379136], [143.182872, 53.398993], [143.210623, 53.363227], [143.254405, 53.215522], [143.29005, 53.151923], [143.292247, 53.083686], [143.312266, 53.04914], [143.326996, 52.936347], [143.360525, 52.871405], [143.32488, 52.809312], [143.337087, 52.759426], [143.331065, 52.603909], [143.296886, 52.453681], [143.251964, 52.389635], [143.193696, 52.336982], [143.207367, 52.395331], [143.197765, 52.425849], [143.223888, 52.447943], [143.26588, 52.450263], [143.272309, 52.463324], [143.235362, 52.480943], [143.286469, 52.565334], [143.293468, 52.591864], [143.261404, 52.597602], [143.249034, 52.590806], [143.249034, 52.562934], [143.235362, 52.556708], [143.241547, 52.542426], [143.178884, 52.446845], [143.159679, 52.391669], [143.126964, 52.358832], [143.118663, 52.337795], [143.129405, 52.326646], [143.146495, 52.327867], [143.166515, 52.344428], [143.177501, 52.313788], [143.155772, 52.203681], [143.151378, 52.120063], [143.115571, 52.153022], [143.097667, 52.104234], [143.139171, 52.089911], [143.133474, 52.07982], [143.136974, 52.030341], [143.159353, 51.995673], [143.159923, 51.979071], [143.149099, 51.967597], [143.125499, 51.967027], [143.1421, 51.924954], [143.164806, 51.913642], [143.163097, 51.873969], [143.213064, 51.854804], [143.238455, 51.891547], [143.255056, 51.837104], [143.310395, 51.75434], [143.317882, 51.706366], [143.29656, 51.71308], [143.276215, 51.700507], [143.261078, 51.678209], [143.252208, 51.641547], [143.235362, 51.613918], [143.241547, 51.569241], [143.221202, 51.531643], [143.224132, 51.522162], [143.24171, 51.507636], [143.273204, 51.520738], [143.337901, 51.508368], [143.347179, 51.523383], [143.344005, 51.548651], [143.325206, 51.592841], [143.346528, 51.635932], [143.365082, 51.644965], [143.394216, 51.564643], [143.447765, 51.508368], [143.461762, 51.46955], [143.474946, 51.343248], [143.427094, 51.370551], [143.379405, 51.350084], [143.434418, 51.321031], [143.43393, 51.309149], [143.474946, 51.289252], [143.483084, 51.254543], [143.474946, 51.240871], [143.495453, 51.233385], [143.483084, 51.213568], [143.5171, 51.22012], [143.521251, 51.246772], [143.495453, 51.309149], [143.521658, 51.285102], [143.537934, 51.239732], [143.586681, 51.010728], [143.678966, 50.736518], [143.701508, 50.605373], [143.790294, 50.309231], [143.810069, 50.27265], [143.910981, 50.150865], [144.002696, 50.012844], [144.00732364880113, 50.0], [142.15931040925213, 50.0], [142.158865, 50.028388], [142.173839, 50.086412], [142.155528, 50.239651], [142.135265, 50.291205], [142.15089, 50.327216], [142.145518, 50.363837], [142.045177, 50.528266], [142.041352, 50.550971], [142.05714, 50.581488], [142.062836, 50.658026], [142.092784, 50.714097], [142.104503, 50.780951], [142.097016, 50.821926], [142.128429, 50.856635], [142.128429, 50.894517], [142.200694, 50.959662], [142.249848, 51.030829], [142.266856, 51.074286], [142.269216, 51.112413], [142.255138, 51.159125], [142.173025, 51.25849], [142.165863, 51.278388], [142.177989, 51.297512], [142.178559, 51.314154], [142.114594, 51.372626], [142.077159, 51.419013], [142.09783, 51.443305], [142.078949, 51.471381], [141.942719, 51.559272], [141.932628, 51.570258], [141.93922, 51.611884], [141.92628, 51.617011], [141.86671, 51.612454], [141.817149, 51.672268], [141.703461, 51.724026], [141.686778, 51.747301], [141.808116, 51.720852], [141.823009, 51.744208], [141.809744, 51.754788], [141.809581, 51.80622], [141.760997, 51.835883], [141.639008, 51.884508], [141.675548, 51.912421], [141.676117, 51.952623], [141.65211, 52.031928], [141.64503, 52.084784], [141.657888, 52.111151], [141.687755, 52.135403], [141.69988, 52.165717], [141.658946, 52.21662], [141.673106, 52.27558], [141.641856, 52.318183], [141.660981, 52.382473], [141.78297, 52.467353], [141.819102, 52.559272], [141.843761, 52.590806], [141.809744, 52.597724], [141.809744, 52.603909], [141.834483, 52.634101], [141.843028, 52.668769], [141.843761, 52.741034], [141.871837, 52.816799], [141.865001, 52.850898], [141.871837, 52.888821], [141.889496, 52.912014], [141.896007, 52.963935], [141.928396, 53.020657], [141.913341, 53.073432], [141.837576, 53.15941], [141.836681, 53.209784], [141.803396, 53.271389], [141.803722, 53.285712], [141.817149, 53.302802], [141.807791, 53.313056], [141.809744, 53.337592], [141.768809, 53.371649], [141.796072, 53.38703], [141.885427, 53.412665], [141.957042, 53.456285], [142.008311, 53.461086], [142.094005, 53.494289], [142.241059, 53.529364], [142.229747, 53.520819], [142.255382, 53.488349], [142.242361, 53.453559], [142.255382, 53.439927], [142.241059, 53.432115], [142.237071, 53.419989], [142.248546, 53.392768], [142.263927, 53.380072], [142.327403, 53.364895], [142.392426, 53.378485], [142.455333, 53.380276], [142.521169, 53.420356], [142.576671, 53.500067], [142.625255, 53.525946], [142.675304, 53.518215], [142.687266, 53.529364], [142.66627, 53.552639], [142.628917, 53.569078], [142.586192, 53.575832], [142.549571, 53.570299], [142.514008, 53.5456], [142.508149, 53.564032], [142.511974, 53.594468], [142.492686, 53.638088], [142.497732, 53.658271], [142.533376, 53.676215], [142.587087, 53.66649], [142.641368, 53.681789], [142.698009, 53.63817], [142.718516, 53.640204], [142.804454, 53.706977], [142.78533, 53.805813], [142.776134, 53.824164], [142.739106, 53.845689], [142.713145, 53.809149], [142.673106, 53.714301], [142.604177, 53.697577], [142.632498, 53.755683], [142.706065, 53.864325], [142.718516, 53.907294], [142.708263, 53.948228], [142.66627, 53.989244], [142.46754, 54.145697], [142.409516, 54.231635], [142.348969, 54.271918], [142.282563, 54.297187], [142.282563, 54.303941], [142.304942, 54.301947], [142.365245, 54.276597], [142.44337, 54.269192], [142.536957, 54.296536]]], [[[156.159434, 50.596625], [156.145763, 50.551581], [156.152517, 50.519029], [156.111583, 50.493557], [156.067882, 50.490058], [156.049327, 50.479315], [156.039317, 50.453437], [156.037608, 50.409898], [155.988292, 50.378404], [155.884939, 50.25373], [155.821544, 50.235053], [155.773204, 50.186591], [155.622813, 50.179389], [155.561534, 50.166571], [155.501475, 50.137274], [155.480317, 50.119086], [155.412446, 50.011054], [155.4003604189003, 50.0], [155.3647619524813, 50.0], [155.364268, 50.000067], [155.384532, 50.037502], [155.37672, 50.046861], [155.294607, 50.064521], [155.227794, 50.054755], [155.216563, 50.067084], [155.220876, 50.109931], [155.255056, 50.15469], [155.243012, 50.193996], [155.249848, 50.215766], [155.187348, 50.261542], [155.186778, 50.274482], [155.201915, 50.293524], [155.267833, 50.306708], [155.32016, 50.288886], [155.34669, 50.302191], [155.410167, 50.360175], [155.441742, 50.370551], [155.549164, 50.376899], [155.570323, 50.397366], [155.631847, 50.383694], [155.689626, 50.403713], [155.775727, 50.479315], [155.789561, 50.52025], [155.862071, 50.614569], [155.870779, 50.659735], [155.889496, 50.690863], [155.977794, 50.747382], [156.041189, 50.772773], [156.073253, 50.781562], [156.104747, 50.767279], [156.117198, 50.749091], [156.125255, 50.637519], [156.159434, 50.596625]]], [[[156.483572, 50.85692], [156.51099, 50.765849], [156.432238, 50.671849], [156.405772, 50.654202], [156.405772, 50.630113], [156.321056, 50.637519], [156.272443, 50.633406], [156.258228, 50.650965], [156.180024, 50.688422], [156.16627, 50.713324], [156.168468, 50.73664], [156.199392, 50.780504], [156.254405, 50.793199], [156.357432, 50.856187], [156.433767, 50.875922], [156.46046, 50.873725], [156.483572, 50.85692]]], [[[155.523285, 50.813422], [155.492198, 50.828437], [155.467621, 50.852484], [155.446788, 50.884589], [155.474132, 50.92182], [155.543791, 50.92982], [155.631265, 50.912284], [155.672862, 50.870307], [155.669941, 50.811954], [155.523285, 50.813422]]], [[[142.587169, 54.3133], [142.604177, 54.310207], [142.540701, 54.297797], [142.587169, 54.3133]]], [[[150.779159, 59.109516], [150.7828, 59.090864], [150.722591, 59.073226], [150.70848, 59.055568], [150.6107, 59.00572], [150.555626, 58.999557], [150.472076, 59.004153], [150.48684, 59.025748], [150.548281, 59.061896], [150.663093, 59.095018], [150.683917, 59.108337], [150.69853, 59.140446], [150.779159, 59.109516]]], [[[155.566932, 59.340424], [155.60015, 59.335147], [155.600049, 59.319429], [155.509036, 59.320148], [155.507711, 59.328127], [155.566932, 59.340424]]], [[[149.040029, 59.20293], [149.070946, 59.197367], [149.117654, 59.20951], [149.141108, 59.20769], [149.136299, 59.197585], [149.09837, 59.175387], [149.103481, 59.161529], [149.034363, 59.169474], [149.032789, 59.192178], [149.040029, 59.20293]]]]}}]}