{"type": "FeatureCollection", "features": [{"type": "Feature", "properties": {"name": "Russia"}, "geometry": {"type": "MultiPolygon", "coordinates": [[[[100.229503, 76.492255], [100.261485, 76.472561], [100.304454, 76.461859], [100.69337, 76.506578], [100.851085, 76.540107], [100.927501, 76.510565], [101.019298, 76.503404], [101.05714, 76.486151], [101.015636, 76.458808], [101.262543, 76.471869], [101.316173, 76.483954], [101.419607, 76.464423], [101.738292, 76.450263], [101.778575, 76.438422], [101.815684, 76.407701], [101.859711, 76.40058], [102.249522, 76.383124], [102.173839, 76.415473], [101.961111, 76.435492], [101.753103, 76.470201], [101.56365, 76.47309], [101.522634, 76.486151], [101.550548, 76.492336], [101.375255, 76.514065], [101.035981, 76.520209], [100.9192, 76.552924], [100.878266, 76.554999], [101.036794, 76.58161], [101.104828, 76.616441], [101.091156, 76.630072], [101.108653, 76.639797], [101.125987, 76.677924], [101.111827, 76.684149], [101.136241, 76.704983], [101.125987, 76.732611], [101.187999, 76.737372], [101.218516, 76.748277], [101.23463, 76.767279], [101.171886, 76.776028], [101.043224, 76.777045], [100.981293, 76.787177], [100.864106, 76.838039], [100.8921, 76.869086], [100.857677, 76.873236], [100.872081, 76.8994], [100.933604, 76.952297], [100.919281, 76.975898], [100.957205, 76.987128], [101.050304, 76.992621], [101.206309, 76.986029], [101.23463, 77.006293], [101.241466, 77.020575], [101.232107, 77.030341], [101.238048, 77.050971], [101.166352, 77.061469], [101.174653, 77.083075], [101.207042, 77.098538], [101.431977, 77.159003], [101.583669, 77.222317], [101.788097, 77.268866], [102.036632, 77.363186], [102.043142, 77.380601], [102.075694, 77.391181], [102.194021, 77.400621], [102.228689, 77.379584], [102.270763, 77.380561], [102.331309, 77.411607], [102.409923, 77.43065], [102.471202, 77.464545], [102.569347, 77.501207], [102.889008, 77.546332], [102.920421, 77.554918], [102.899262, 77.582261], [102.949067, 77.589097], [103.196625, 77.658922], [103.256847, 77.663764], [103.29713, 77.65058], [103.293956, 77.640286], [103.355968, 77.619534], [103.59254, 77.631578], [103.728689, 77.668443], [103.79127, 77.676988], [103.851085, 77.700426], [104.023285, 77.7331], [104.172862, 77.726874], [104.290294, 77.737535], [104.325694, 77.729967], [104.324474, 77.722113], [104.257498, 77.685289], [104.28891, 77.673041], [104.323985, 77.668606], [104.678233, 77.70954], [104.751638, 77.706204], [104.791189, 77.671617], [104.791189, 77.658026], [104.807628, 77.635403], [104.866873, 77.612982], [104.982188, 77.589097], [105.233165, 77.569648], [105.334239, 77.541002], [105.873709, 77.56859], [105.833344, 77.540717], [105.901622, 77.522366], [105.922618, 77.499701], [105.910004, 77.47602], [105.927257, 77.45893], [105.983572, 77.4383], [105.977306, 77.425238], [106.171072, 77.401557], [106.292003, 77.370022], [106.219737, 77.35635], [105.795665, 77.373521], [105.758149, 77.369452], [105.724376, 77.341498], [105.614268, 77.301703], [105.478282, 77.288479], [105.435395, 77.2744], [105.538422, 77.266995], [105.455821, 77.240465], [105.319591, 77.230536], [105.195811, 77.198676], [105.011485, 77.192532], [104.878673, 77.167426], [104.78419, 77.173977], [104.607677, 77.159654], [104.483409, 77.129788], [104.345714, 77.135484], [104.11964, 77.095649], [104.141938, 77.088853], [104.215831, 77.095649], [104.297699, 77.088813], [104.771983, 77.121731], [104.778087, 77.109931], [104.872569, 77.090725], [105.066742, 77.088813], [105.147472, 77.109931], [105.194509, 77.111233], [105.340668, 77.088813], [105.612804, 77.114651], [105.797048, 77.112616], [105.881114, 77.129788], [105.888438, 77.142564], [105.928477, 77.14411], [105.939952, 77.140692], [105.943207, 77.129788], [105.88795, 77.095649], [105.766775, 77.077053], [105.737071, 77.061469], [105.784923, 77.041002], [105.709809, 77.033026], [105.486664, 77.034573], [105.435395, 77.000067], [105.450531, 76.983588], [105.571056, 76.99079], [105.661388, 76.980536], [105.79949, 76.996405], [105.895356, 76.995063], [105.943207, 77.000067], [106.205577, 77.061957], [106.292003, 77.061469], [106.389659, 77.041978], [106.465505, 77.039618], [106.490571, 77.034247], [106.500011, 77.021633], [106.537852, 77.015611], [106.755382, 77.001166], [106.778575, 77.006293], [106.716319, 77.023668], [106.648936, 77.027411], [106.648936, 77.034247], [106.733084, 77.030585], [106.829845, 77.054674], [107.011404, 77.027411], [106.97047, 77.013658], [107.00294, 77.003119], [107.082286, 77.016099], [107.285818, 77.020575], [107.237966, 77.006293], [107.284516, 76.982896], [107.340994, 76.972805], [107.326671, 76.965888], [107.371918, 76.946275], [107.499766, 76.924506], [107.498302, 76.91474], [107.469574, 76.90644], [107.26588, 76.890815], [107.354666, 76.869086], [107.225352, 76.857856], [107.190196, 76.842353], [107.263357, 76.842353], [107.285818, 76.835598], [107.190196, 76.801459], [107.106212, 76.812445], [107.080333, 76.808295], [107.059093, 76.788642], [107.059825, 76.763617], [106.977306, 76.739407], [106.953624, 76.720526], [106.925548, 76.712795], [106.840587, 76.714057], [106.785655, 76.725084], [106.724132, 76.718899], [106.799083, 76.674506], [106.789806, 76.661038], [106.727387, 76.620307], [106.682953, 76.6022], [106.683442, 76.590237], [106.647146, 76.584418], [106.612315, 76.559638], [106.5796, 76.554999], [106.546397, 76.56269], [106.541026, 76.573147], [106.552745, 76.588568], [106.510753, 76.600287], [106.451671, 76.609198], [106.396658, 76.604315], [106.367035, 76.574897], [106.380707, 76.574897], [106.377289, 76.554389], [106.400157, 76.534613], [106.388927, 76.520209], [106.417003, 76.509223], [106.705333, 76.498725], [106.819835, 76.46894], [106.874278, 76.486151], [106.877289, 76.503485], [106.912852, 76.508979], [107.036388, 76.507025], [107.27003, 76.534613], [107.591563, 76.505032], [107.84547, 76.534817], [107.895681, 76.554999], [107.98463, 76.622707], [107.990977, 76.648627], [107.968272, 76.659573], [107.90211, 76.671088], [107.936778, 76.698635], [107.941173, 76.712307], [107.91627, 76.718899], [107.946056, 76.737291], [108.111583, 76.732611], [108.224946, 76.739407], [108.320486, 76.725084], [108.286306, 76.705268], [108.499278, 76.726955], [108.684825, 76.716457], [109.048839, 76.74018], [109.198497, 76.730902], [109.33253, 76.75849], [109.397797, 76.759996], [109.414073, 76.743964], [109.430919, 76.739407], [109.605235, 76.739407], [109.636485, 76.723456], [109.752289, 76.712063], [109.834646, 76.718817], [109.881114, 76.70661], [109.958344, 76.705268], [110.061371, 76.691596], [110.358572, 76.755683], [110.566661, 76.764228], [110.6185, 76.758979], [110.630626, 76.739407], [110.704845, 76.726508], [110.820811, 76.734117], [110.906098, 76.730129], [110.944672, 76.739407], [110.896983, 76.753079], [110.945567, 76.765041], [111.090343, 76.762274], [111.137055, 76.746812], [111.098318, 76.739488], [111.068858, 76.718899], [111.119395, 76.682115], [111.21046, 76.708889], [111.555431, 76.684149], [111.487153, 76.671088], [111.531016, 76.660142], [111.541759, 76.650621], [111.492442, 76.646796], [111.445567, 76.630072], [111.48878, 76.610419], [111.66505, 76.621039], [111.826427, 76.596381], [112.199067, 76.471869], [111.829112, 76.341498], [111.963715, 76.378241], [112.015798, 76.381496], [112.063731, 76.402289], [112.256847, 76.454413], [112.670909, 76.363105], [112.720225, 76.337714], [112.747813, 76.335273], [112.747813, 76.328437], [112.658376, 76.322252], [112.731619, 76.289008], [112.740408, 76.267035], [112.672699, 76.245917], [112.692638, 76.231635], [112.614431, 76.222357], [112.526703, 76.245998], [112.500743, 76.239081], [112.633474, 76.192694], [112.735118, 76.201728], [112.779633, 76.191962], [112.857677, 76.1435], [112.786876, 76.086249], [112.761485, 76.075263], [112.665782, 76.054145], [112.591807, 76.054674], [112.569672, 76.047309], [112.601573, 76.041205], [112.962169, 76.06509], [113.028656, 76.086168], [113.042003, 76.115627], [112.987315, 76.1435], [113.059337, 76.163764], [113.147472, 76.162543], [113.234223, 76.144843], [113.302745, 76.115627], [113.262706, 76.144924], [113.256114, 76.159247], [113.289073, 76.170844], [113.13266, 76.199612], [113.025076, 76.21015], [112.97169, 76.2237], [112.93214, 76.259589], [113.130626, 76.253363], [113.259288, 76.266425], [113.295909, 76.245917], [113.226899, 76.225409], [113.247406, 76.212388], [113.241222, 76.204983], [113.318533, 76.215277], [113.358897, 76.21133], [113.459727, 76.148383], [113.463552, 76.132636], [113.440196, 76.087388], [113.439789, 76.064683], [113.45281, 76.041327], [113.549083, 76.020657], [113.500743, 75.985826], [113.555919, 75.972235], [113.531993, 75.954047], [113.439789, 75.944281], [113.521169, 75.930609], [113.562755, 75.89647], [113.550548, 75.8876], [113.555919, 75.875963], [113.480805, 75.862372], [113.480805, 75.855536], [113.616547, 75.863511], [113.65211, 75.875963], [113.626964, 75.894355], [113.617442, 75.923774], [113.70338, 75.930609], [113.759776, 75.918158], [113.780935, 75.939276], [113.808604, 75.936469], [113.858165, 75.910793], [113.82838, 75.894965], [113.890147, 75.85399], [113.871593, 75.8251], [113.837169, 75.797512], [113.837169, 75.773586], [113.765147, 75.722357], [113.757986, 75.69477], [113.72047, 75.670559], [113.72047, 75.61933], [113.691661, 75.593492], [113.572113, 75.565741], [113.555919, 75.540229], [113.426117, 75.540229], [113.4463, 75.558173], [113.581554, 75.621405], [113.617442, 75.656236], [113.261241, 75.693549], [113.067556, 75.683498], [113.128917, 75.694322], [113.137543, 75.711493], [113.123302, 75.720649], [112.559093, 75.851304], [112.364919, 75.856431], [112.336925, 75.84809], [112.459483, 75.822943], [112.500743, 75.779731], [112.517751, 75.773749], [112.599457, 75.766343], [112.665375, 75.771674], [112.76002, 75.746772], [112.822927, 75.738837], [112.870616, 75.711493], [112.857677, 75.704657], [112.864513, 75.698472], [112.825206, 75.686225], [112.768809, 75.702826], [112.747813, 75.698472], [112.807465, 75.684556], [112.822927, 75.670559], [112.878103, 75.646674], [112.878103, 75.628974], [112.858897, 75.615424], [112.803396, 75.604478], [112.788829, 75.588609], [112.81365, 75.557318], [112.882091, 75.546047], [113.035492, 75.553046], [113.029307, 75.565375], [112.9935, 75.588609], [112.993012, 75.609849], [113.207042, 75.650092], [113.267426, 75.651109], [113.295177, 75.644965], [113.295909, 75.628974], [113.309418, 75.615912], [113.29127, 75.610053], [113.254893, 75.574368], [113.290538, 75.550523], [113.336762, 75.535102], [113.536388, 75.506578], [113.589122, 75.507066], [113.637706, 75.524075], [113.679454, 75.499213], [113.70338, 75.47134], [113.72047, 75.409857], [113.634288, 75.421698], [113.549083, 75.40644], [113.535655, 75.390123], [113.653656, 75.384345], [113.670665, 75.368883], [113.660411, 75.349433], [113.621104, 75.317369], [113.614594, 75.291815], [113.605235, 75.28498], [113.55128, 75.269355], [113.363048, 75.185533], [113.145681, 75.118109], [113.085297, 75.086982], [113.011567, 75.067613], [113.014171, 75.054185], [112.993175, 75.039496], [112.879649, 74.992906], [112.513845, 74.921536], [112.43922, 74.921576], [112.146821, 74.878363], [112.09197, 74.857001], [112.09669, 74.827623], [112.056488, 74.789496], [112.039887, 74.78148], [111.953461, 74.771796], [111.94516, 74.758734], [111.911143, 74.738267], [111.952647, 74.731431], [111.867931, 74.70067], [111.815766, 74.691962], [111.772309, 74.668524], [111.743826, 74.663153], [111.465831, 74.697333], [111.402843, 74.691107], [111.11671, 74.607896], [111.017751, 74.604071], [110.986176, 74.594224], [111.052094, 74.579169], [111.039806, 74.568915], [110.960216, 74.548489], [110.814952, 74.539008], [110.745128, 74.515815], [110.55714, 74.481106], [110.499685, 74.478217], [110.388194, 74.495429], [110.331554, 74.496161], [110.280528, 74.478217], [110.352306, 74.471381], [110.389822, 74.450873], [110.362559, 74.41828], [110.212087, 74.372382], [109.999522, 74.373725], [109.951182, 74.336982], [109.834239, 74.32567], [109.797618, 74.314399], [109.780284, 74.32803], [109.697032, 74.319037], [109.64324, 74.326646], [109.561209, 74.313707], [109.642345, 74.289211], [109.727712, 74.286566], [109.942638, 74.307766], [109.979503, 74.296332], [109.912852, 74.211615], [109.796886, 74.161689], [109.598888, 74.119696], [109.481456, 74.077216], [109.179535, 74.05744], [108.996104, 74.01557], [108.901052, 73.964911], [108.822276, 73.955512], [108.624278, 73.872504], [108.550792, 73.811835], [108.501964, 73.806627], [108.437755, 73.820258], [108.49171, 73.772528], [108.39796, 73.75434], [108.06658, 73.635321], [108.094493, 73.662665], [108.036794, 73.677232], [107.964854, 73.670396], [107.748709, 73.612047], [107.659841, 73.62519], [107.374522, 73.635321], [107.32016, 73.621649], [107.146821, 73.617662], [107.101329, 73.573879], [107.137218, 73.569322], [107.169688, 73.553412], [107.133556, 73.530178], [106.935883, 73.470608], [106.881602, 73.443549], [106.831309, 73.374742], [106.785411, 73.340522], [106.64796, 73.306708], [106.600434, 73.306342], [106.498057, 73.326239], [106.39503, 73.313178], [106.232432, 73.322821], [106.062755, 73.273017], [106.045584, 73.254828], [106.048106, 73.202623], [106.009288, 73.155097], [105.873709, 73.114569], [105.853282, 73.094794], [105.851329, 73.054104], [105.83961, 73.03266], [105.84669, 73.014472], [105.833832, 73.002265], [105.751475, 72.976508], [105.62794, 72.901679], [105.354177, 72.831448], [105.29005, 72.800279], [105.066742, 72.78559], [105.073009, 72.765082], [105.117849, 72.775133], [105.482595, 72.768134], [105.585216, 72.800605], [105.67628, 72.815375], [105.787446, 72.86994], [105.930675, 72.888577], [105.958181, 72.902167], [105.973888, 72.925849], [106.002289, 72.946967], [106.036368, 72.952522], [106.117871, 72.941154], [106.137049, 72.910854], [106.409128, 72.871617], [106.558442, 72.867112], [106.616209, 72.855476], [106.657135, 72.831953], [106.823294, 72.825614], [107.103263, 72.856406], [107.051476, 72.876624], [106.97108, 72.883283], [106.862184, 72.878039], [106.620498, 72.896026], [106.498542, 72.927703], [106.25464, 72.9672], [106.216563, 72.985745], [106.189301, 73.039008], [106.189626, 73.072943], [106.176768, 73.08161], [106.175629, 73.094387], [106.189626, 73.121405], [106.216807, 73.14411], [106.282481, 73.153225], [106.333018, 73.189643], [106.359874, 73.194281], [106.775564, 73.141018], [106.833263, 73.148505], [106.899913, 73.14468], [107.035899, 73.182196], [107.327403, 73.158393], [107.492931, 73.173082], [107.722341, 73.168524], [107.834321, 73.182807], [107.966075, 73.231024], [108.091645, 73.246405], [108.252289, 73.220852], [108.316661, 73.221584], [108.374848, 73.232408], [108.396169, 73.25788], [108.365245, 73.275621], [108.19752, 73.279039], [108.241222, 73.300727], [108.393321, 73.317328], [108.53891, 73.310696], [108.684825, 73.33983], [108.923025, 73.350409], [109.068858, 73.373725], [109.221202, 73.387112], [109.252696, 73.402533], [109.254893, 73.420233], [109.204926, 73.443549], [109.199392, 73.460639], [109.209239, 73.468817], [109.227712, 73.469916], [109.348888, 73.436103], [109.396169, 73.413642], [109.434906, 73.426703], [109.439138, 73.440497], [109.430837, 73.452216], [109.38852, 73.460028], [109.334646, 73.484442], [109.287283, 73.498481], [109.180186, 73.510199], [109.184337, 73.525458], [109.170177, 73.5397], [109.193614, 73.551663], [109.512055, 73.457506], [109.713878, 73.452582], [109.855235, 73.471422], [110.010427, 73.509223], [110.10377, 73.516059], [110.131684, 73.525946], [110.156993, 73.545885], [110.125499, 73.560004], [110.089366, 73.559556], [110.124278, 73.580308], [110.16684, 73.587877], [110.253184, 73.586859], [110.424571, 73.607367], [110.397227, 73.614814], [110.422618, 73.639797], [110.470551, 73.649359], [110.563162, 73.648912], [110.898611, 73.685858], [110.924815, 73.704169], [110.918712, 73.715318], [110.876475, 73.734605], [110.892833, 73.755032], [110.917979, 73.765611], [110.720225, 73.776597], [110.663748, 73.787258], [110.286876, 73.705756], [109.799571, 73.705064], [109.752289, 73.683092], [109.771658, 73.680609], [109.78712, 73.66885], [109.737478, 73.661689], [109.673676, 73.678168], [109.612804, 73.708075], [109.531098, 73.775295], [109.527029, 73.796088], [109.535655, 73.821234], [109.557628, 73.83397], [109.719493, 73.853583], [109.819835, 73.877265], [109.84254, 73.891913], [109.886729, 73.960883], [109.921723, 73.983832], [110.021495, 74.014472], [110.300059, 74.01911], [110.580821, 73.9914], [110.711925, 73.957465], [110.814952, 73.950019], [110.904307, 73.915839], [110.958995, 73.908637], [111.007823, 73.912665], [111.103038, 73.950019], [111.067638, 73.979926], [111.096202, 74.01789], [111.126231, 74.030463], [111.159028, 74.03734], [111.536469, 74.051174], [111.569835, 74.043199], [111.582205, 74.025702], [111.56129, 74.008857], [111.445567, 74.005276], [111.381602, 73.988227], [111.254405, 74.000678], [111.198497, 73.977932], [111.295177, 73.869127], [111.435557, 73.812567], [111.803722, 73.744208], [112.147227, 73.707953], [112.371837, 73.705308], [112.48463, 73.724311], [112.608572, 73.719794], [112.717133, 73.739732], [112.821462, 73.746812], [112.945323, 73.790473], [112.959483, 73.806586], [112.945811, 73.847602], [112.930919, 73.862942], [112.934581, 73.88231], [112.884288, 73.912299], [112.870616, 73.933783], [112.822927, 73.957465], [112.822927, 73.99844], [112.846934, 73.994534], [112.946056, 73.94009], [113.131358, 73.88231], [113.158702, 73.844468], [113.165212, 73.846177], [113.276703, 73.753974], [113.31186, 73.740546], [113.395518, 73.685777], [113.427908, 73.633979], [113.430512, 73.609931], [113.422699, 73.590644], [113.402354, 73.580756], [113.292654, 73.56977], [113.226329, 73.524888], [113.192882, 73.484442], [113.131358, 73.449693], [113.206391, 73.426459], [113.272309, 73.37519], [113.310069, 73.365058], [113.413341, 73.359809], [113.498302, 73.335883], [113.493012, 73.289781], [113.508067, 73.244289], [113.486583, 73.192084], [113.487071, 73.169827], [113.521169, 73.10399], [113.471202, 73.030219], [113.455251, 72.993109], [113.487071, 72.96369], [113.311534, 72.893704], [113.163585, 72.875922], [113.117686, 72.860663], [113.097179, 72.840806], [113.104503, 72.821967], [113.170421, 72.780341], [113.177257, 72.732978], [113.263682, 72.689032], [113.497244, 72.64525], [114.090343, 72.600653], [114.042166, 72.620673], [113.390961, 72.680609], [113.238048, 72.735419], [113.225108, 72.744574], [113.215831, 72.77558], [113.182628, 72.795478], [113.158214, 72.822699], [113.159679, 72.837958], [113.180431, 72.849066], [113.25766, 72.878811], [113.353526, 72.891262], [113.516856, 72.952948], [113.542247, 72.977362], [113.519216, 73.017035], [113.530935, 73.048407], [113.600597, 73.10399], [113.599132, 73.127875], [113.529307, 73.182685], [113.531749, 73.213853], [113.542491, 73.236274], [113.562348, 73.253404], [113.672618, 73.29267], [113.724132, 73.320624], [113.85255, 73.314114], [113.926768, 73.331244], [114.000255, 73.334459], [114.035818, 73.347317], [113.990245, 73.360541], [113.843598, 73.347317], [113.775076, 73.356147], [113.69516, 73.386623], [113.603526, 73.407538], [113.535411, 73.439846], [113.48585, 73.494778], [113.466563, 73.50495], [113.91505, 73.535834], [114.109141, 73.599555], [114.674653, 73.592597], [114.732188, 73.603461], [114.853526, 73.608873], [115.111583, 73.675116], [115.413097, 73.710395], [116.172862, 73.675727], [116.602875, 73.674791], [117.059825, 73.61522], [117.443858, 73.588772], [117.735118, 73.582099], [117.913585, 73.596015], [118.450206, 73.588772], [118.790538, 73.555976], [118.897716, 73.530463], [118.997569, 73.49136], [118.947765, 73.465888], [118.882579, 73.45189], [118.815196, 73.44953], [118.737966, 73.459947], [118.706554, 73.443915], [118.626313, 73.45718], [118.599376, 73.481024], [118.576182, 73.486274], [118.467133, 73.478095], [118.433116, 73.449937], [118.371837, 73.431708], [118.352875, 73.418769], [118.346446, 73.402533], [118.358572, 73.388577], [118.382986, 73.379788], [118.428396, 73.374661], [118.373057, 73.340237], [118.379405, 73.314154], [118.353282, 73.282416], [118.394216, 73.238023], [118.433279, 73.228664], [118.462413, 73.209418], [118.917654, 73.119534], [119.088227, 73.106391], [119.252452, 73.073188], [119.36671, 73.079088], [119.534516, 73.055243], [119.592947, 73.002875], [119.685395, 72.994696], [119.722504, 72.95893], [120.0, 72.9299498636683], [120.0, 70.0], [100.0, 70.0], [100.0, 76.4900108780694], [100.229503, 76.492255]]], [[[119.841563, 72.956855], [119.778331, 72.984809], [119.763845, 73.008287], [119.783376, 73.018012], [120.0, 73.00265992354343], [120.0, 72.94426233150834], [119.841563, 72.956855]]], [[[100.257335, 79.680813], [100.309825, 79.665961], [100.188975, 79.659084], [100.07016, 79.638617], [100.0, 79.61198460729189], [100.0, 79.69831135127573], [100.096934, 79.700629], [100.083263, 79.686428], [100.257335, 79.680813]]], [[[119.720714, 73.03384], [119.702647, 73.046291], [119.764659, 73.072943], [119.73878, 73.093695], [119.658539, 73.108588], [119.634451, 73.12816], [119.671723, 73.130805], [119.792003, 73.16234], [120.0, 73.16756570078269], [120.0, 73.0369402483038], [119.720714, 73.03384]]], [[[116.124848, 74.323228], [116.118175, 74.30744], [116.091482, 74.292629], [116.052989, 74.285224], [116.005626, 74.284857], [115.889985, 74.303697], [115.885753, 74.323635], [115.920665, 74.359036], [115.980724, 74.377509], [116.063324, 74.370998], [116.098318, 74.354682], [116.124848, 74.323228]]], [[[113.429535, 74.406195], [113.429454, 74.394192], [113.364757, 74.382636], [113.366384, 74.351223], [113.327322, 74.327216], [113.241222, 74.300035], [113.281586, 74.279608], [113.223481, 74.263902], [113.207042, 74.251654], [113.220063, 74.244818], [113.1574, 74.225002], [113.028575, 74.212063], [112.966563, 74.19359], [112.845714, 74.108344], [112.774913, 74.08808], [112.667328, 74.106513], [112.577891, 74.101386], [112.477061, 74.122626], [112.162852, 74.138577], [112.041759, 74.187079], [111.938731, 74.217108], [111.581309, 74.260159], [111.484548, 74.292467], [111.459239, 74.313707], [111.468516, 74.344794], [111.510997, 74.360053], [111.647716, 74.37995], [111.703136, 74.377143], [111.851573, 74.350531], [111.951345, 74.370795], [111.986827, 74.395697], [111.972423, 74.408922], [111.972911, 74.4206], [112.004161, 74.447699], [111.973155, 74.478217], [112.007335, 74.538153], [112.110118, 74.551215], [112.411388, 74.533393], [112.749766, 74.495795], [113.047699, 74.495673], [113.314464, 74.479804], [113.366466, 74.466742], [113.405772, 74.444037], [113.429535, 74.406195]]], [[[113.137543, 76.369452], [113.117686, 76.376899], [113.208263, 76.433051], [113.264334, 76.444322], [113.309418, 76.423489], [113.261729, 76.396715], [113.305675, 76.386461], [113.408702, 76.387112], [113.446625, 76.369452], [113.412934, 76.360338], [113.137543, 76.369452]]], [[[112.021007, 76.609605], [112.014171, 76.616441], [111.98463, 76.617662], [111.966319, 76.630072], [112.145844, 76.636949], [112.272227, 76.615546], [112.30893, 76.622707], [112.329356, 76.657416], [112.367198, 76.658149], [112.414806, 76.63642], [112.528087, 76.622707], [112.486501, 76.6022], [112.548513, 76.581732], [112.520681, 76.568061], [112.569672, 76.554999], [112.507579, 76.540717], [112.547618, 76.527493], [112.654552, 76.53266], [112.700938, 76.528713], [112.714122, 76.520453], [112.687185, 76.50849], [112.575938, 76.499742], [112.601736, 76.483059], [112.618012, 76.458808], [112.600841, 76.444648], [112.567882, 76.443508], [112.423106, 76.465725], [112.310069, 76.534003], [112.257009, 76.545803], [112.119395, 76.549221], [112.045665, 76.587958], [111.958832, 76.6022], [112.021007, 76.609605]]], [[[105.90268, 77.304023], [105.970388, 77.30508], [106.011485, 77.287421], [105.911957, 77.276272], [105.861827, 77.254869], [105.832774, 77.256781], [105.784923, 77.280585], [105.90268, 77.304023]]], [[[106.408458, 77.331], [106.456554, 77.321601], [106.390391, 77.304755], [106.354015, 77.307196], [106.333018, 77.321601], [106.408458, 77.331]]], [[[107.743175, 77.313056], [107.704112, 77.294257], [107.72169, 77.269721], [107.625499, 77.267971], [107.344574, 77.232856], [107.272227, 77.240546], [107.204845, 77.23432], [107.237966, 77.253323], [107.423188, 77.269843], [107.457042, 77.280585], [107.413585, 77.289862], [107.319835, 77.28734], [107.279552, 77.301703], [107.395356, 77.360256], [107.605805, 77.328599], [107.700043, 77.33808], [107.729747, 77.33747], [107.745128, 77.329047], [107.743175, 77.313056]]], [[[106.882498, 77.433743], [106.881114, 77.424547], [106.840099, 77.417792], [106.766124, 77.426459], [106.700938, 77.383612], [106.641449, 77.379096], [106.52475, 77.390448], [106.526703, 77.405504], [106.562348, 77.421536], [106.559581, 77.4383], [106.584158, 77.445868], [106.637543, 77.443345], [106.730317, 77.470445], [106.830414, 77.472602], [106.924815, 77.467027], [106.943126, 77.458726], [106.861176, 77.445746], [106.882498, 77.433743]]], [[[107.704112, 78.123481], [107.61964, 78.081855], [107.573578, 78.067572], [107.45102, 78.053168], [107.429047, 78.062079], [107.42156, 78.074123], [107.434581, 78.090806], [107.390636, 78.102484], [107.203868, 78.082506], [106.39503, 78.130927], [106.477061, 78.162502], [106.929861, 78.183295], [106.938162, 78.181952], [106.93629, 78.171942], [107.214122, 78.171942], [107.259044, 78.164496], [107.292979, 78.182115], [107.337901, 78.190741], [107.565115, 78.187567], [107.607758, 78.179023], [107.642589, 78.164496], [107.62908, 78.158271], [107.704112, 78.137152], [107.704112, 78.123481]]], [[[106.500336, 78.241441], [106.193858, 78.193061], [105.990977, 78.219143], [106.010997, 78.231838], [106.025645, 78.257025], [106.068858, 78.270575], [106.279145, 78.26081], [106.337901, 78.265855], [106.388927, 78.288642], [106.380707, 78.295396], [106.417247, 78.328192], [106.470063, 78.342597], [106.605235, 78.341498], [106.765636, 78.308498], [106.74879, 78.298814], [106.747895, 78.275702], [106.71339, 78.261908], [106.659923, 78.263658], [106.648936, 78.278062], [106.620942, 78.286038], [106.450206, 78.261298], [106.468923, 78.254299], [106.532237, 78.253852], [106.500336, 78.241441]]], [[[105.407888, 78.56623], [105.367686, 78.543199], [105.380219, 78.535061], [105.357432, 78.506252], [105.308116, 78.489569], [105.209483, 78.473578], [104.787364, 78.336371], [104.726817, 78.336249], [104.630382, 78.356757], [104.578624, 78.346625], [104.353282, 78.341457], [104.188243, 78.32685], [103.981944, 78.28384], [103.712576, 78.256293], [103.121104, 78.244127], [103.015961, 78.256496], [102.963227, 78.249823], [102.865733, 78.219143], [102.893077, 78.206732], [102.837413, 78.185736], [102.66033, 78.164496], [102.685232, 78.199856], [102.681488, 78.212877], [102.607107, 78.225531], [102.238536, 78.219794], [102.171153, 78.203681], [102.091807, 78.199205], [102.025401, 78.185289], [102.002452, 78.192369], [101.999848, 78.208441], [101.974864, 78.212063], [101.61378, 78.190131], [101.209809, 78.193508], [101.154307, 78.182929], [101.01238, 78.130357], [100.582774, 78.061469], [100.483165, 78.029975], [100.366222, 78.022854], [100.037283, 77.961615], [100.0, 77.95950422202077], [100.0, 78.3378121498665], [100.049653, 78.343207], [100.042979, 78.35932], [100.0, 78.38372949260942], [100.0, 78.38702778644974], [100.015636, 78.40469], [100.000743, 78.417711], [100.096934, 78.449042], [100.150401, 78.486762], [100.131114, 78.500922], [100.142345, 78.510565], [100.179454, 78.520738], [100.199962, 78.542467], [100.275645, 78.579739], [100.288585, 78.592678], [100.254649, 78.623765], [100.261404, 78.65351], [100.254649, 78.665351], [100.331309, 78.69359], [100.354503, 78.709459], [100.364513, 78.737047], [100.385265, 78.751614], [100.601573, 78.798163], [100.733897, 78.775621], [100.993988, 78.764065], [101.030935, 78.743394], [101.139415, 78.751695], [101.166352, 78.760972], [101.128917, 78.777981], [101.082205, 78.785956], [100.904307, 78.788398], [100.857677, 78.794135], [100.823741, 78.808783], [100.832774, 78.831529], [100.782237, 78.863349], [100.789724, 78.870795], [100.784923, 78.895087], [100.878266, 78.94595], [100.891124, 78.976874], [100.907237, 78.985093], [100.973643, 79.004543], [101.02711, 79.03144], [101.070079, 79.034654], [101.591645, 78.976996], [101.625662, 78.986884], [101.377778, 79.00788], [101.226736, 79.043606], [100.988129, 79.062649], [101.018728, 79.091783], [101.028087, 79.123481], [101.042654, 79.133002], [101.195649, 79.147162], [101.125987, 79.165025], [101.166352, 79.179267], [101.194184, 79.202867], [101.309906, 79.238756], [101.370616, 79.245103], [101.497569, 79.24022], [101.557384, 79.254381], [101.54127, 79.264594], [101.541026, 79.273993], [101.56365, 79.295966], [101.52947, 79.302191], [101.550548, 79.330146], [101.543712, 79.340766], [101.646739, 79.364244], [101.817556, 79.371039], [101.844412, 79.363593], [101.911469, 79.314195], [101.951996, 79.302314], [101.967052, 79.284125], [101.960785, 79.261217], [102.050548, 79.261217], [102.246267, 79.241645], [102.263194, 79.254381], [102.167817, 79.292385], [102.139659, 79.356838], [102.174327, 79.377265], [102.180512, 79.398993], [102.197032, 79.408189], [102.302908, 79.432807], [102.605724, 79.417182], [102.752208, 79.388821], [102.893728, 79.381334], [102.912446, 79.374091], [102.927501, 79.347846], [102.944347, 79.341213], [103.138357, 79.325141], [103.153168, 79.309638], [103.111501, 79.290269], [103.063975, 79.281724], [102.929942, 79.275702], [102.82545, 79.227118], [102.85963, 79.220282], [102.768728, 79.178697], [102.742931, 79.15884], [102.797618, 79.138332], [102.771007, 79.117418], [102.674001, 79.07685], [102.700043, 79.051825], [102.701427, 79.04149], [102.691417, 79.032213], [102.639903, 79.014228], [102.636485, 78.997463], [102.550466, 78.956488], [102.440278, 78.88581], [102.379161, 78.822455], [102.53004, 78.843492], [102.665782, 78.892401], [102.687755, 78.918443], [102.79005, 78.956041], [102.831716, 78.986884], [102.886567, 79.045233], [102.921153, 79.058417], [103.144298, 79.057766], [103.27768, 79.083197], [103.304698, 79.096747], [103.29713, 79.103583], [103.349132, 79.11636], [103.462657, 79.113918], [103.516856, 79.127427], [103.523692, 79.132758], [103.516368, 79.148261], [103.531016, 79.159369], [103.573497, 79.169989], [103.624278, 79.17121], [103.646658, 79.165025], [103.606293, 79.138332], [103.807953, 79.15351], [103.804942, 79.145168], [104.001313, 79.127672], [104.021251, 79.108588], [104.023285, 79.096747], [104.0171, 79.084621], [103.976248, 79.062649], [104.073741, 79.032782], [104.06837, 79.011135], [104.073497, 79.004828], [104.383149, 78.988593], [104.455333, 78.966742], [104.503754, 78.925442], [104.483409, 78.890692], [104.524913, 78.885077], [104.499197, 78.863756], [104.36671, 78.857123], [104.632579, 78.842841], [104.654552, 78.829901], [104.658702, 78.819566], [104.638357, 78.790513], [104.578868, 78.775214], [104.607758, 78.771674], [104.725108, 78.790839], [104.751964, 78.807563], [104.757091, 78.819281], [104.722911, 78.843492], [104.759044, 78.853339], [104.887055, 78.857123], [105.058767, 78.843492], [105.175059, 78.809272], [105.257335, 78.740465], [105.239594, 78.725002], [105.249766, 78.713324], [105.294932, 78.689276], [105.343761, 78.64232], [105.333507, 78.604804], [105.3921, 78.598822], [105.415538, 78.583441], [105.407888, 78.56623]]], [[[100.022472, 79.823554], [100.00172, 79.805487], [100.018077, 79.794176], [100.076996, 79.78266], [100.053722, 79.767483], [100.013927, 79.756334], [100.0, 79.75462942747309], [100.0, 79.83201138987579], [100.022472, 79.823554]]]]}}]}