{"type": "FeatureCollection", "features": [{"type": "Feature", "properties": {"name": "Antarctica"}, "geometry": {"type": "MultiPolygon", "coordinates": [[[[-59.995188, -63.958673], [-59.96996, -63.958103], [-59.956207, -63.951918], [-59.957102, -63.930841], [-59.933339, -63.89837], [-59.947092, -63.876886], [-59.94286, -63.865655], [-59.910878, -63.847914], [-59.844472, -63.85947], [-59.822499, -63.845473], [-59.848459, -63.818943], [-59.848378, -63.805271], [-59.836334, -63.787042], [-59.807444, -63.771661], [-59.775624, -63.782159], [-59.760732, -63.799574], [-59.790639, -63.834731], [-59.784901, -63.852716], [-59.770172, -63.859959], [-59.607411, -63.873793], [-59.548736, -63.89129], [-59.489003, -63.879083], [-59.429107, -63.909926], [-59.401194, -63.861993], [-59.424957, -63.851251], [-59.440582, -63.830255], [-59.339752, -63.785333], [-59.338124, -63.773614], [-59.368886, -63.72324], [-59.352284, -63.708591], [-59.231272, -63.680597], [-59.115468, -63.718438], [-59.096303, -63.716241], [-59.012034, -63.671563], [-58.936147, -63.669203], [-58.920766, -63.650974], [-58.941762, -63.585626], [-58.940338, -63.564386], [-58.923899, -63.548923], [-58.898549, -63.540216], [-58.2565, -63.454197], [-58.165191, -63.462986], [-58.144846, -63.458591], [-58.131703, -63.444431], [-58.126536, -63.416111], [-58.182851, -63.407892], [-58.186147, -63.391534], [-58.169911, -63.37656], [-58.144765, -63.379327], [-58.089182, -63.410333], [-58.032948, -63.413181], [-58.003896, -63.391534], [-57.958567, -63.381117], [-57.862782, -63.306573], [-57.797109, -63.307224], [-57.491811, -63.25156], [-57.368723, -63.217869], [-57.28661, -63.214776], [-57.105865, -63.241388], [-57.029408, -63.28102], [-57.036204, -63.347263], [-57.002919, -63.362237], [-57.047597, -63.415623], [-56.96581, -63.395278], [-56.944407, -63.398533], [-56.928863, -63.42018], [-56.941803, -63.438897], [-56.991322, -63.460382], [-56.980051, -63.470636], [-56.945709, -63.47975], [-56.901194, -63.516371], [-56.824371, -63.53102], [-56.799631, -63.543064], [-56.776031, -63.563084], [-56.768137, -63.58294], [-56.775787, -63.603774], [-56.799062, -63.626235], [-56.847808, -63.643731], [-56.874867, -63.642673], [-56.945424, -63.61297], [-56.968373, -63.611423], [-57.020375, -63.632989], [-57.12442, -63.654474], [-57.146474, -63.643243], [-57.175526, -63.596856], [-57.169993, -63.579767], [-57.146637, -63.567071], [-57.096547, -63.558526], [-57.114613, -63.537042], [-57.140289, -63.524509], [-57.12678, -63.503513], [-57.177317, -63.476821], [-57.29426, -63.481378], [-57.445383, -63.444431], [-57.491038, -63.460056], [-57.457916, -63.492364], [-57.450999, -63.510837], [-57.458404, -63.533787], [-57.386098, -63.541681], [-57.420725, -63.561944], [-57.482167, -63.565525], [-57.715566, -63.554132], [-57.74059, -63.580743], [-57.765614, -63.587009], [-57.72643, -63.598728], [-57.6044, -63.602472], [-57.673248, -63.630466], [-57.708079, -63.632501], [-57.750885, -63.656345], [-57.801829, -63.647556], [-57.864166, -63.651788], [-57.881337, -63.659438], [-57.865387, -63.669366], [-57.895375, -63.68377], [-58.097727, -63.663995], [-58.175282, -63.716404], [-58.29247, -63.753595], [-58.329213, -63.776544], [-58.400461, -63.842218], [-58.457265, -63.842543], [-58.470693, -63.858657], [-58.449086, -63.872003], [-58.499135, -63.910333], [-58.619008, -63.944757], [-58.704701, -63.994806], [-58.733306, -64.031427], [-58.723053, -64.067641], [-58.707387, -64.08766], [-58.771311, -64.131524], [-58.819895, -64.218683], [-58.874989, -64.218357], [-58.939198, -64.200128], [-59.033437, -64.188897], [-59.054799, -64.19199], [-59.072662, -64.214451], [-59.1079, -64.227309], [-59.116282, -64.236505], [-59.111643, -64.246515], [-59.088979, -64.25628], [-58.769928, -64.282403], [-58.754547, -64.29339], [-58.748687, -64.316502], [-58.761383, -64.332208], [-58.873402, -64.341567], [-58.922597, -64.357354], [-58.949452, -64.357354], [-58.933176, -64.380629], [-58.905873, -64.400079], [-58.874745, -64.412856], [-58.810658, -64.417413], [-58.779897, -64.431736], [-58.762034, -64.458673], [-58.764027, -64.49863], [-58.783925, -64.527602], [-58.815785, -64.542739], [-58.889882, -64.551528], [-58.990834, -64.514337], [-59.013051, -64.496759], [-58.992747, -64.483575], [-58.986073, -64.463474], [-58.993031, -64.443455], [-59.013661, -64.430434], [-59.171213, -64.459161], [-59.223215, -64.461033], [-59.330881, -64.440037], [-59.367502, -64.411554], [-59.417633, -64.330824], [-59.463938, -64.310642], [-59.543935, -64.32643], [-59.607533, -64.378595], [-59.632395, -64.39072], [-59.66218, -64.391534], [-59.610666, -64.448012], [-59.611562, -64.466241], [-59.649241, -64.520278], [-59.60436, -64.510675], [-59.585561, -64.514255], [-59.563791, -64.526625], [-59.550893, -64.544692], [-59.555409, -64.562595], [-59.591054, -64.587986], [-59.63561, -64.594334], [-59.76891, -64.56699], [-59.755442, -64.542169], [-59.749094, -64.496189], [-59.754221, -64.436293], [-59.770172, -64.424737], [-59.957509, -64.387465], [-60.0, -64.39676857102701], [-60.0, -63.957529049375545], [-59.995188, -63.958673]]], [[[-59.987213, -64.44199], [-60.0, -64.45692403237959], [-60.0, -64.41424168200587], [-59.987213, -64.44199]]], [[[-45.083363, -60.684666], [-45.069, -60.660252], [-45.067128, -60.631117], [-45.029612, -60.656834], [-45.020416, -60.690362], [-45.000234, -60.70086], [-45.025624, -60.710219], [-45.083363, -60.684666]]], [[[-59.514638, -65.245701], [-59.648752, -65.219903], [-59.77774, -65.174412], [-59.841542, -65.127374], [-59.771392, -65.086114], [-59.646148, -65.12184], [-59.435455, -65.233819], [-59.514638, -65.245701]]], [[[-57.584584, -64.417657], [-57.563954, -64.442315], [-57.587514, -64.470961], [-57.652455, -64.450291], [-57.584584, -64.417657]]], [[[-57.258412, -64.427016], [-56.943959, -64.32879], [-56.878407, -64.335707], [-56.94636, -64.375584], [-56.953521, -64.385349], [-56.937815, -64.419122], [-56.967885, -64.455499], [-57.060536, -64.509373], [-57.219106, -64.565362], [-57.304758, -64.574965], [-57.391184, -64.561944], [-57.447581, -64.534356], [-57.45641, -64.518324], [-57.457916, -64.487237], [-57.441965, -64.452244], [-57.41686, -64.443292], [-57.258412, -64.427016]]], [[[-56.714345, -64.235121], [-56.635243, -64.221612], [-56.582509, -64.235121], [-56.633209, -64.27516], [-56.714467, -64.306573], [-56.808827, -64.322686], [-56.898549, -64.317315], [-56.863922, -64.302016], [-56.849477, -64.279962], [-56.714345, -64.235121]]], [[[-57.487131, -64.366795], [-57.492421, -64.373793], [-57.516347, -64.375258], [-57.535227, -64.35117], [-57.555776, -64.341485], [-57.600453, -64.339288], [-57.572174, -64.356866], [-57.587554, -64.356541], [-57.664052, -64.331231], [-57.67748, -64.336033], [-57.652333, -64.369399], [-57.657541, -64.383071], [-57.672841, -64.393162], [-57.72704, -64.39365], [-57.718007, -64.341729], [-57.654205, -64.301528], [-57.685292, -64.289321], [-57.786, -64.315606], [-57.855214, -64.299493], [-57.824574, -64.327732], [-57.825266, -64.354669], [-57.803131, -64.38128], [-57.82665, -64.405043], [-57.853098, -64.403253], [-57.859975, -64.408624], [-57.852528, -64.416681], [-57.901479, -64.417169], [-57.967519, -64.398533], [-57.947987, -64.376153], [-57.947011, -64.346612], [-57.90685, -64.33766], [-57.962392, -64.316013], [-58.06078, -64.321384], [-58.069081, -64.329034], [-58.073638, -64.369806], [-58.106923, -64.389907], [-58.144602, -64.393813], [-58.08967, -64.351983], [-58.13386, -64.349542], [-58.193471, -64.381036], [-58.214996, -64.384535], [-58.230336, -64.380141], [-58.228505, -64.358087], [-58.313303, -64.321384], [-58.278188, -64.298435], [-58.160146, -64.282647], [-58.137847, -64.262791], [-58.041982, -64.25506], [-58.012685, -64.239028], [-58.183217, -64.213067], [-58.131093, -64.102227], [-58.195221, -64.086602], [-58.256744, -64.100356], [-58.361928, -64.139093], [-58.420155, -64.13714], [-58.460764, -64.12949], [-58.443959, -64.113539], [-58.414866, -64.106052], [-58.460357, -64.085707], [-58.451243, -64.069513], [-58.395863, -64.044041], [-58.362172, -64.000584], [-58.299631, -63.987726], [-58.296986, -63.977472], [-58.332631, -63.954278], [-58.303944, -63.924981], [-58.25768, -63.906834], [-58.166331, -63.892755], [-58.118642, -63.898045], [-58.103912, -63.887302], [-58.109039, -63.868341], [-58.091176, -63.85296], [-58.023346, -63.836847], [-57.952626, -63.859959], [-57.943186, -63.846856], [-57.944488, -63.83172], [-57.973541, -63.81463], [-57.951812, -63.805108], [-57.794667, -63.791436], [-57.827952, -63.809747], [-57.8072, -63.818129], [-57.755442, -63.896091], [-57.815785, -63.909926], [-57.823313, -63.923517], [-57.805409, -63.936212], [-57.812978, -63.943129], [-57.887929, -63.975681], [-57.818227, -64.004164], [-57.834381, -64.017348], [-57.817942, -64.029229], [-57.817291, -64.048761], [-57.864369, -64.066583], [-57.791371, -64.079278], [-57.717681, -64.075372], [-57.744374, -64.029962], [-57.625234, -63.982354], [-57.542388, -63.939223], [-57.49352, -63.926202], [-57.515696, -63.94492], [-57.473459, -63.96852], [-57.511138, -63.988214], [-57.509633, -64.009535], [-57.532582, -64.021417], [-57.155385, -64.085138], [-57.195465, -64.096368], [-57.183461, -64.108575], [-57.164703, -64.112481], [-57.196034, -64.125095], [-57.331044, -64.125746], [-57.363759, -64.12949], [-57.40038, -64.145603], [-57.343414, -64.146742], [-57.319976, -64.158136], [-57.282786, -64.161716], [-57.325592, -64.181817], [-57.213124, -64.167657], [-57.149566, -64.163995], [-57.137359, -64.169366], [-57.09203, -64.153985], [-57.070221, -64.159601], [-57.07726, -64.18377], [-57.113026, -64.206964], [-57.203969, -64.222263], [-57.252024, -64.215997], [-57.242747, -64.225274], [-57.264475, -64.24033], [-57.308217, -64.240818], [-57.423329, -64.213637], [-57.453603, -64.217543], [-57.484486, -64.23268], [-57.346669, -64.251397], [-57.30663, -64.269789], [-57.370432, -64.278009], [-57.512318, -64.255548], [-57.564565, -64.287205], [-57.368398, -64.310642], [-57.29955, -64.346775], [-57.284291, -64.361912], [-57.295522, -64.371189], [-57.384104, -64.388767], [-57.430491, -64.385919], [-57.447581, -64.372328], [-57.454579, -64.345473], [-57.483388, -64.337579], [-57.513336, -64.340997], [-57.487131, -64.366795]]], [[[-57.69518, -63.816664], [-57.647694, -63.804783], [-57.369985, -63.788263], [-57.346181, -63.821466], [-57.402496, -63.839125], [-57.367299, -63.841974], [-57.184885, -63.809177], [-57.089101, -63.839451], [-57.154408, -63.853123], [-57.172922, -63.877537], [-57.243967, -63.902276], [-57.236969, -63.883396], [-57.242909, -63.866876], [-57.310048, -63.870782], [-57.365956, -63.884861], [-57.487131, -63.854587], [-57.501088, -63.858575], [-57.513743, -63.875177], [-57.57433, -63.851739], [-57.643056, -63.849379], [-57.69518, -63.816664]]], [[[-57.552317, -63.655938], [-57.572133, -63.642755], [-57.440419, -63.619236], [-57.402089, -63.628025], [-57.463857, -63.688653], [-57.511545, -63.698337], [-57.53893, -63.683119], [-57.552317, -63.655938]]], [[[-56.662831, -63.567478], [-56.602691, -63.557306], [-56.467926, -63.565688], [-56.57787, -63.611017], [-56.64802, -63.623305], [-56.689198, -63.592869], [-56.662831, -63.567478]]], [[[-59.842356, -63.544203], [-59.797353, -63.553399], [-59.777943, -63.594822], [-59.834706, -63.600356], [-59.871571, -63.583754], [-59.87442, -63.572686], [-59.837514, -63.55462], [-59.842356, -63.544203]]], [[[-55.719106, -63.499119], [-55.923736, -63.549249], [-55.932362, -63.57936], [-55.964915, -63.581476], [-56.157786, -63.5263], [-56.240468, -63.478692], [-56.219716, -63.443455], [-56.206654, -63.436212], [-56.012807, -63.41131], [-55.806386, -63.407403], [-55.746978, -63.428399], [-55.719594, -63.475356], [-55.719106, -63.499119]]], [[[-56.70287, -63.189223], [-56.691721, -63.17547], [-56.654856, -63.158298], [-56.609853, -63.150567], [-56.565989, -63.162856], [-56.591868, -63.208591], [-56.646718, -63.219496], [-56.677235, -63.217543], [-56.698557, -63.206231], [-56.70287, -63.189223]]], [[[-55.085764, -63.221612], [-55.05248, -63.245375], [-55.042836, -63.282973], [-55.063954, -63.319268], [-55.10912, -63.343683], [-55.172719, -63.357599], [-55.31192, -63.356866], [-55.485911, -63.326918], [-55.583241, -63.337823], [-55.625234, -63.334161], [-55.7919, -63.285577], [-55.775543, -63.309828], [-55.791737, -63.324965], [-55.824941, -63.323337], [-55.872141, -63.298028], [-55.901357, -63.296645], [-55.913075, -63.316583], [-55.946401, -63.341241], [-55.996409, -63.333917], [-56.047475, -63.368422], [-56.094879, -63.388767], [-56.242014, -63.406671], [-56.355133, -63.439711], [-56.450266, -63.429295], [-56.467926, -63.420099], [-56.493235, -63.390395], [-56.553782, -63.367283], [-56.547515, -63.346368], [-56.425649, -63.31463], [-56.477406, -63.294041], [-56.431793, -63.25628], [-56.369537, -63.228123], [-56.245269, -63.192071], [-55.974517, -63.146905], [-55.723053, -63.147556], [-55.631581, -63.130304], [-55.575673, -63.129083], [-55.477854, -63.15252], [-55.50886, -63.16074], [-55.534983, -63.179132], [-55.44343, -63.207778], [-55.384185, -63.18727], [-55.159373, -63.203871], [-55.085764, -63.221612]]], [[[-56.603586, -63.070245], [-56.618031, -63.051446], [-56.602651, -63.030532], [-56.524281, -63.003188], [-56.476796, -62.976658], [-56.313873, -63.004327], [-56.104237, -63.004164], [-56.047719, -63.017022], [-56.035024, -63.05755], [-56.068349, -63.086847], [-56.21581, -63.161065], [-56.273508, -63.178481], [-56.336049, -63.174574], [-56.408437, -63.155532], [-56.603586, -63.070245]]], [[[-59.98941, -62.630141], [-59.802968, -62.611261], [-60.0, -62.67785697641497], [-60.0, -62.62920823801117], [-59.98941, -62.630141]]], [[[-59.764719, -62.540134], [-59.783681, -62.51629], [-59.799062, -62.509535], [-59.9322, -62.489435], [-59.996083, -62.452569], [-59.932281, -62.440118], [-59.722483, -62.451918], [-59.776967, -62.48089], [-59.726552, -62.503676], [-59.610585, -62.480076], [-59.579823, -62.48561], [-59.5537, -62.501235], [-59.601959, -62.51393], [-59.599192, -62.534356], [-59.618235, -62.544692], [-59.764719, -62.540134]]], [[[-59.689198, -62.361098], [-59.603871, -62.347345], [-59.436757, -62.355076], [-59.382314, -62.372735], [-59.347401, -62.406508], [-59.386871, -62.446873], [-59.508778, -62.456964], [-59.575307, -62.443536], [-59.625722, -62.408136], [-59.602162, -62.381524], [-59.663889, -62.388767], [-59.694163, -62.378513], [-59.689198, -62.361098]]], [[[-58.899159, -62.263116], [-58.871897, -62.270929], [-58.849029, -62.286065], [-58.83434, -62.30934], [-59.029856, -62.348077], [-59.069407, -62.349054], [-59.104319, -62.341404], [-59.217763, -62.292087], [-59.156606, -62.260186], [-59.032948, -62.233494], [-58.978586, -62.241143], [-58.983144, -62.265395], [-58.899159, -62.263116]]], [[[-58.446116, -62.188653], [-58.447377, -62.204767], [-58.584625, -62.248956], [-58.622548, -62.247979], [-58.633372, -62.227146], [-58.676096, -62.223728], [-58.745717, -62.236912], [-58.783111, -62.22503], [-58.740875, -62.210056], [-58.798004, -62.197849], [-58.794057, -62.178888], [-58.807362, -62.17018], [-58.942006, -62.193129], [-58.959869, -62.210626], [-58.949127, -62.225681], [-59.010732, -62.219659], [-58.982818, -62.184503], [-58.946034, -62.158787], [-58.712799, -62.052667], [-58.701324, -62.04046], [-58.706776, -62.025567], [-58.699086, -62.012384], [-58.465321, -61.966485], [-58.434478, -61.93727], [-58.414052, -61.933282], [-58.224436, -61.960219], [-58.007883, -61.904474], [-57.890248, -61.938409], [-57.835805, -61.94199], [-57.669911, -61.913507], [-57.656321, -61.917087], [-57.64566, -61.937595], [-57.657704, -61.958185], [-57.684967, -61.971449], [-57.678578, -61.98089], [-57.637196, -62.009373], [-57.589833, -62.025486], [-57.788442, -62.008722], [-57.95401, -62.078058], [-57.989084, -62.079848], [-58.155263, -62.058526], [-58.16804, -62.063897], [-58.172597, -62.091241], [-58.185862, -62.111912], [-58.169993, -62.128351], [-58.123158, -62.140069], [-58.138254, -62.156915], [-58.163075, -62.167576], [-58.242828, -62.181573], [-58.2919, -62.175388], [-58.367909, -62.123956], [-58.379018, -62.106052], [-58.313344, -62.100356], [-58.279205, -62.082615], [-58.306549, -62.07464], [-58.404408, -62.084405], [-58.476186, -62.070408], [-58.508901, -62.080987], [-58.467763, -62.098403], [-58.468129, -62.11419], [-58.481842, -62.127374], [-58.633941, -62.177911], [-58.55016, -62.181736], [-58.466908, -62.160414], [-58.446116, -62.188653]]], [[[-54.057037, -61.288832], [-54.098012, -61.312107], [-54.20287, -61.284112], [-54.227406, -61.270115], [-54.086903, -61.180352], [-54.069447, -61.159438], [-54.057362, -61.127048], [-54.00886, -61.137628], [-54.006459, -61.152114], [-54.048207, -61.175714], [-54.057485, -61.19256], [-54.0572, -61.202407], [-54.03425, -61.223728], [-54.036041, -61.245701], [-54.057037, -61.288832]]], [[[-54.9735, -61.10711], [-54.651519, -61.106541], [-54.667714, -61.111423], [-54.710561, -61.148045], [-54.729563, -61.152276], [-55.0537, -61.159763], [-55.067616, -61.167576], [-55.085927, -61.202244], [-55.139719, -61.211114], [-55.178944, -61.255466], [-55.211415, -61.267267], [-55.281484, -61.256931], [-55.343739, -61.227472], [-55.391225, -61.178481], [-55.344838, -61.153741], [-55.449045, -61.115004], [-55.414052, -61.083591], [-55.378041, -61.070489], [-54.9735, -61.10711]]], [[[-44.535227, -60.736505], [-44.566274, -60.74505], [-44.697581, -60.744399], [-44.719716, -60.750421], [-44.717844, -60.772719], [-44.819936, -60.740004], [-44.84732, -60.715509], [-44.78303, -60.733819], [-44.694569, -60.722752], [-44.680776, -60.708591], [-44.690256, -60.676202], [-44.609283, -60.708917], [-44.52481, -60.674737], [-44.505238, -60.675551], [-44.45165, -60.703302], [-44.518544, -60.718438], [-44.535227, -60.736505]]], [[[-46.004058, -60.587579], [-45.988149, -60.568536], [-45.948313, -60.566339], [-45.957102, -60.534112], [-45.955068, -60.527765], [-45.935129, -60.524672], [-45.842844, -60.548435], [-45.808095, -60.535821], [-45.746978, -60.532322], [-45.737294, -60.518976], [-45.72057, -60.516209], [-45.665761, -60.524102], [-45.567535, -60.553643], [-45.477162, -60.545587], [-45.390981, -60.579278], [-45.372385, -60.597263], [-45.389516, -60.612237], [-45.349436, -60.628595], [-45.190663, -60.632908], [-45.217844, -60.654555], [-45.146799, -60.685805], [-45.182932, -60.683852], [-45.187327, -60.698907], [-45.141021, -60.736098], [-45.184641, -60.733331], [-45.283803, -60.683364], [-45.355295, -60.675714], [-45.363108, -60.660414], [-45.408518, -60.648045], [-45.46581, -60.6513], [-45.590566, -60.639255], [-45.680531, -60.649102], [-45.718861, -60.645603], [-45.759104, -60.611098], [-45.752594, -60.596368], [-45.789296, -60.58408], [-45.824696, -60.586114], [-45.95226, -60.625584], [-45.993642, -60.621759], [-46.006988, -60.612726], [-46.004058, -60.587579]]]]}}, {"type": "Feature", "properties": {"name": "Falkland Is."}, "geometry": {"type": "MultiPolygon", "coordinates": [[[[-59.676869, -52.21559], [-59.679189, -52.229262], [-59.693267, -52.242446], [-59.738596, -52.258884], [-59.746693, -52.274021], [-59.756012, -52.273614], [-59.769521, -52.248305], [-59.749501, -52.227797], [-59.748402, -52.19378], [-59.791005, -52.166681], [-59.796864, -52.149509], [-59.792144, -52.130548], [-59.765859, -52.166436], [-59.69518, -52.166274], [-59.680165, -52.179457], [-59.694447, -52.208103], [-59.676869, -52.21559]]], [[[-59.725657, -51.799249], [-59.83137, -51.894952], [-59.871734, -51.948989], [-59.887034, -51.957778], [-59.93106, -51.96502], [-59.994862, -51.994561], [-60.0, -51.97870578932351], [-60.0, -51.468920153328064], [-59.988637, -51.467543], [-60.0, -51.45919888751663], [-60.0, -51.39556929543246], [-59.994862, -51.413507], [-59.901479, -51.372817], [-59.871938, -51.378839], [-59.88561, -51.399347], [-59.762074, -51.419692], [-59.830393, -51.42669], [-59.801829, -51.447035], [-59.748525, -51.447035], [-59.560374, -51.419692], [-59.488393, -51.392511], [-59.488393, -51.399347], [-59.584584, -51.43963], [-59.539296, -51.455743], [-59.491322, -51.456231], [-59.392812, -51.432794], [-59.41161, -51.414809], [-59.443959, -51.400323], [-59.447377, -51.358331], [-59.413238, -51.358331], [-59.419504, -51.337823], [-59.405263, -51.33766], [-59.37149, -51.345636], [-59.35733, -51.361423], [-59.255971, -51.387384], [-59.214019, -51.413507], [-59.274485, -51.417169], [-59.282867, -51.432794], [-59.279164, -51.447849], [-59.235178, -51.447035], [-59.308217, -51.490004], [-59.33137, -51.501723], [-59.348459, -51.487074], [-59.372304, -51.494887], [-59.368642, -51.507013], [-59.378529, -51.528985], [-59.350575, -51.522719], [-59.350575, -51.528985], [-59.382232, -51.556899], [-59.396148, -51.597345], [-59.447377, -51.625177], [-59.464101, -51.612481], [-59.460439, -51.591078], [-59.491567, -51.614435], [-59.508616, -51.623142], [-59.522532, -51.618341], [-59.577138, -51.65252], [-59.549428, -51.651137], [-59.632395, -51.741306], [-59.725657, -51.799249]]], [[[-59.920318, -51.309991], [-59.906484, -51.329197], [-59.91804, -51.338962], [-59.961334, -51.344008], [-59.998199, -51.325128], [-60.0, -51.32300854387034], [-60.0, -51.292740291152], [-59.960317, -51.286798], [-59.899281, -51.303643], [-59.920318, -51.309991]]], [[[-57.776438, -51.684666], [-57.734283, -51.6867], [-57.734283, -51.693536], [-57.762359, -51.695001], [-57.86384, -51.726251], [-57.965566, -51.732599], [-57.96642, -51.74033], [-57.992421, -51.751072], [-58.144399, -51.762302], [-58.261301, -51.755548], [-58.261301, -51.762384], [-58.214101, -51.776625], [-58.145172, -51.782892], [-58.145172, -51.789727], [-58.261301, -51.796563], [-58.330637, -51.823826], [-58.357493, -51.824477], [-58.315338, -51.830011], [-58.253163, -51.81113], [-58.186147, -51.810805], [-58.224965, -51.833185], [-58.419057, -51.892185], [-58.51122, -51.882989], [-58.598948, -51.892755], [-58.757802, -51.89129], [-58.906239, -51.835138], [-58.940297, -51.796563], [-58.952789, -51.802423], [-58.971506, -51.83172], [-58.969106, -51.853774], [-58.939117, -51.875421], [-58.892568, -51.884373], [-58.8155, -51.915297], [-58.796295, -51.93434], [-58.810414, -51.951918], [-58.784169, -51.957127], [-58.698476, -51.9485], [-58.632314, -51.96795], [-58.631825, -51.988377], [-58.604482, -52.002048], [-58.672841, -52.036228], [-58.653879, -52.052179], [-58.641225, -52.107843], [-58.67512, -52.10711], [-58.7294, -52.051039], [-58.789174, -52.029962], [-58.8131, -52.043064], [-58.857086, -52.039646], [-58.850942, -52.06406], [-58.925771, -52.101658], [-58.947743, -52.056573], [-58.968577, -52.070977], [-58.994944, -52.029962], [-59.01651, -52.023126], [-59.055898, -52.0263], [-59.063222, -52.008884], [-59.096181, -52.01214], [-59.138295, -51.983331], [-59.157786, -51.985284], [-59.173085, -52.002048], [-59.200266, -52.007582], [-59.250844, -51.989841], [-59.269602, -51.990492], [-59.303293, -52.007908], [-59.297515, -52.01922], [-59.282582, -52.026137], [-59.253082, -52.014337], [-59.200673, -52.022556], [-59.186025, -52.028985], [-59.184478, -52.05755], [-59.176829, -52.06406], [-59.13036, -52.057224], [-59.111643, -52.06406], [-59.145741, -52.090753], [-59.109446, -52.089288], [-59.076812, -52.09824], [-59.145741, -52.125584], [-59.153432, -52.14422], [-59.115793, -52.148858], [-59.038889, -52.135837], [-59.035878, -52.145929], [-59.046498, -52.154392], [-59.097971, -52.173923], [-59.04898, -52.212498], [-59.063222, -52.228611], [-59.084706, -52.231541], [-59.152577, -52.208103], [-59.221669, -52.207208], [-59.241322, -52.19378], [-59.262441, -52.159601], [-59.298166, -52.149672], [-59.30956, -52.139093], [-59.326894, -52.143976], [-59.366851, -52.115167], [-59.385976, -52.111912], [-59.404856, -52.155938], [-59.433746, -52.13242], [-59.456044, -52.142185], [-59.44636, -52.159926], [-59.413238, -52.186944], [-59.430776, -52.202081], [-59.428578, -52.21795], [-59.392812, -52.221775], [-59.352162, -52.24212], [-59.345937, -52.256931], [-59.350575, -52.2763], [-59.373891, -52.299086], [-59.33137, -52.324151], [-59.338938, -52.341729], [-59.392812, -52.310479], [-59.466705, -52.295668], [-59.488393, -52.283787], [-59.484446, -52.264418], [-59.496816, -52.252048], [-59.58019, -52.229669], [-59.580637, -52.217218], [-59.55663, -52.200616], [-59.622182, -52.197198], [-59.625559, -52.173923], [-59.703359, -52.128351], [-59.721547, -52.107599], [-59.71935, -52.096856], [-59.703847, -52.094334], [-59.659657, -52.118748], [-59.641225, -52.117934], [-59.628285, -52.11061], [-59.625966, -52.098891], [-59.639231, -52.084568], [-59.598012, -52.079197], [-59.579661, -52.071384], [-59.570302, -52.056573], [-59.624745, -52.02988], [-59.631174, -52.006768], [-59.618235, -52.004002], [-59.5985, -52.016371], [-59.55663, -52.01572], [-59.59142, -51.98211], [-59.522532, -51.968438], [-59.522532, -51.961033], [-59.604726, -51.940525], [-59.605092, -51.920668], [-59.581288, -51.91131], [-59.488393, -51.93434], [-59.467397, -51.922133], [-59.522532, -51.885349], [-59.516672, -51.874282], [-59.474721, -51.872247], [-59.468902, -51.855239], [-59.488393, -51.844903], [-59.396148, -51.820733], [-59.376088, -51.83294], [-59.363759, -51.822361], [-59.350575, -51.776625], [-59.318756, -51.788507], [-59.282867, -51.782892], [-59.303375, -51.748712], [-59.207183, -51.707208], [-59.190541, -51.72088], [-59.149159, -51.693536], [-59.056386, -51.6867], [-59.05016, -51.721449], [-59.029652, -51.75213], [-59.0419, -51.778741], [-59.036122, -51.79339], [-59.042714, -51.817071], [-58.990102, -51.803643], [-58.981272, -51.789727], [-59.007558, -51.740004], [-59.003896, -51.713637], [-59.02831, -51.69378], [-59.022206, -51.673028], [-58.992258, -51.664646], [-58.9912, -51.64658], [-59.100697, -51.621759], [-59.145741, -51.597345], [-59.167836, -51.573663], [-59.121653, -51.536228], [-59.111643, -51.501723], [-59.060943, -51.562758], [-59.029124, -51.583917], [-59.007965, -51.556899], [-59.034576, -51.533624], [-59.041127, -51.510837], [-59.026112, -51.498956], [-58.988108, -51.508477], [-59.014272, -51.491795], [-59.125315, -51.456964], [-59.099029, -51.41253], [-59.084299, -51.40602], [-59.037709, -51.419854], [-59.004872, -51.413507], [-58.98469, -51.385675], [-58.893463, -51.38006], [-58.873606, -51.371759], [-58.864613, -51.358331], [-58.909576, -51.300714], [-58.941762, -51.278904], [-58.953969, -51.248468], [-58.88565, -51.283298], [-58.816477, -51.296645], [-58.73351, -51.328302], [-58.659088, -51.330987], [-58.626454, -51.343438], [-58.611399, -51.344008], [-58.615142, -51.325453], [-58.576527, -51.306736], [-58.481435, -51.300958], [-58.406606, -51.323826], [-58.343617, -51.368422], [-58.329091, -51.416274], [-58.333811, -51.427504], [-58.377024, -51.445082], [-58.428334, -51.450616], [-58.446889, -51.447035], [-58.473459, -51.401625], [-58.487864, -51.392511], [-58.50475, -51.395278], [-58.549224, -51.432794], [-58.515452, -51.433364], [-58.509348, -51.446873], [-58.521962, -51.491143], [-58.508901, -51.498224], [-58.445465, -51.476251], [-58.422353, -51.477797], [-58.421213, -51.549412], [-58.402008, -51.547947], [-58.388824, -51.536554], [-58.374867, -51.560154], [-58.36144, -51.565688], [-58.331654, -51.55934], [-58.323964, -51.549493], [-58.302968, -51.557306], [-58.290395, -51.56756], [-58.276479, -51.614516], [-58.230865, -51.65252], [-58.213368, -51.646091], [-58.247629, -51.60475], [-58.236928, -51.592543], [-58.172515, -51.611586], [-58.179921, -51.588067], [-58.229563, -51.571873], [-58.241444, -51.560154], [-58.212229, -51.538507], [-58.217193, -51.525974], [-58.230051, -51.52158], [-58.275502, -51.528985], [-58.285471, -51.521091], [-58.289174, -51.494887], [-58.307485, -51.481866], [-58.314361, -51.500746], [-58.324208, -51.506036], [-58.359364, -51.504653], [-58.291249, -51.42254], [-58.227447, -51.392511], [-58.017893, -51.382745], [-57.96288, -51.37184], [-57.906402, -51.376642], [-57.884511, -51.392511], [-57.867584, -51.433526], [-57.819651, -51.477797], [-57.767812, -51.494887], [-57.802602, -51.522719], [-57.777089, -51.522556], [-57.769154, -51.531671], [-57.777943, -51.543064], [-57.802602, -51.549493], [-57.927235, -51.538832], [-58.032094, -51.504327], [-58.040883, -51.512302], [-58.028554, -51.536554], [-58.081939, -51.522393], [-58.145172, -51.542657], [-58.127512, -51.56113], [-58.056711, -51.586847], [-58.028554, -51.591078], [-57.971059, -51.582208], [-57.943105, -51.593032], [-57.812327, -51.60589], [-57.780995, -51.619399], [-57.767812, -51.642267], [-57.786204, -51.655043], [-57.898793, -51.673028], [-57.898793, -51.680434], [-57.816233, -51.693536], [-57.776438, -51.684666]]], [[[-59.799957, -51.273045], [-59.808746, -51.255955], [-59.766754, -51.241143], [-59.690745, -51.26214], [-59.588002, -51.255304], [-59.579172, -51.256768], [-59.56725, -51.283298], [-59.546457, -51.289483], [-59.529368, -51.270196], [-59.502024, -51.26214], [-59.479482, -51.267511], [-59.462514, -51.281671], [-59.447377, -51.324151], [-59.494985, -51.336033], [-59.553212, -51.337823], [-59.576772, -51.330255], [-59.610097, -51.297052], [-59.635813, -51.289483], [-59.748402, -51.283298], [-59.799957, -51.273045]]], [[[-59.751688, -52.309228], [-59.692321, -52.303713], [-59.688745, -52.315111], [-59.712467, -52.319399], [-59.712264, -52.332895], [-59.742495, -52.357973], [-59.720249, -52.3672], [-59.654092, -52.355405], [-59.641989, -52.36779], [-59.687521, -52.391941], [-59.695822, -52.406523], [-59.760908, -52.37883], [-59.78639, -52.381034], [-59.820694, -52.358357], [-59.764872, -52.338363], [-59.768428, -52.326961], [-59.751688, -52.309228]]], [[[-58.402211, -52.00213], [-58.410797, -52.020196], [-58.450266, -52.015558], [-58.444203, -52.029555], [-58.461252, -52.035577], [-58.450754, -52.039972], [-58.429514, -52.032973], [-58.436431, -52.05169], [-58.426178, -52.072524], [-58.427602, -52.100681], [-58.456166, -52.093032], [-58.448354, -52.080743], [-58.464752, -52.08294], [-58.517974, -52.063653], [-58.525624, -52.041681], [-58.546742, -52.025567], [-58.476959, -51.999607], [-58.48058, -51.992283], [-58.438547, -52.005548], [-58.415598, -51.994073], [-58.402211, -52.00213]]], [[[-59.671702, -51.980564], [-59.680287, -51.987726], [-59.695872, -51.988702], [-59.718902, -51.97617], [-59.711293, -51.945896], [-59.698883, -51.938409], [-59.68871, -51.940606], [-59.69164, -51.955336], [-59.671702, -51.980564]]], [[[-59.689398, -51.35972], [-59.687848, -51.339458], [-59.665641, -51.341512], [-59.660384, -51.357484], [-59.600481, -51.368977], [-59.596946, -51.38069], [-59.723187, -51.409918], [-59.75231, -51.398281], [-59.748994, -51.383354], [-59.728576, -51.372637], [-59.79174, -51.372808], [-59.822528, -51.361152], [-59.829411, -51.350507], [-59.773132, -51.346115], [-59.764718, -51.327971], [-59.744239, -51.328978], [-59.689398, -51.35972]]]]}}]}