{"type": "FeatureCollection", "features": [{"type": "Feature", "properties": {"name": "Antarctica"}, "geometry": {"type": "MultiPolygon", "coordinates": [[[[20.112315, -70.930922], [20.228526, -70.905369], [20.422618, -70.92254], [20.498546, -70.902439], [20.578868, -70.902114], [20.637706, -70.885919], [20.705251, -70.883071], [20.844249, -70.856622], [21.005382, -70.870864], [21.201182, -70.812188], [21.172618, -70.784763], [21.159516, -70.756036], [21.166759, -70.728123], [21.198985, -70.701918], [21.158539, -70.664646], [21.156098, -70.649998], [21.184255, -70.622328], [21.224457, -70.6124], [21.20281, -70.594008], [21.208507, -70.57643], [21.317231, -70.49033], [21.341482, -70.481703], [21.431326, -70.479669], [21.451671, -70.468438], [21.472016, -70.439548], [21.464366, -70.417576], [21.611339, -70.272149], [21.694347, -70.234633], [21.745616, -70.22617], [21.801606, -70.235935], [21.993663, -70.302179], [22.058279, -70.34881], [22.181488, -70.385024], [22.283214, -70.4367], [22.338064, -70.455255], [22.447927, -70.477797], [22.579275, -70.540216], [22.575694, -70.561212], [22.555512, -70.58172], [22.480968, -70.61004], [21.852794, -70.63836], [21.826427, -70.655043], [22.028494, -70.683038], [22.367361, -70.694594], [22.326915, -70.759454], [22.416189, -70.769464], [22.471039, -70.754327], [22.563324, -70.778253], [22.724946, -70.769301], [22.832693, -70.804132], [22.917735, -70.812921], [22.94988, -70.829197], [23.180675, -70.813084], [23.292654, -70.821222], [23.323009, -70.809747], [23.412608, -70.743748], [23.437836, -70.717706], [23.435232, -70.691176], [23.487641, -70.683201], [23.512869, -70.670831], [23.553071, -70.629164], [23.557791, -70.605564], [23.547862, -70.585138], [23.522146, -70.574884], [23.616873, -70.565199], [23.643565, -70.551365], [23.686209, -70.493585], [23.712413, -70.42669], [23.752452, -70.402602], [24.108897, -70.409438], [24.175466, -70.424249], [24.277517, -70.460545], [24.419444, -70.544854], [24.439952, -70.599054], [24.455414, -70.614516], [24.346528, -70.673598], [24.26531, -70.678643], [24.291515, -70.71795], [24.319347, -70.74033], [24.479177, -70.796563], [24.555186, -70.846775], [24.968028, -70.945489], [25.26059, -70.98089], [25.44044, -70.980157], [25.524587, -70.994317], [25.567556, -70.993422], [25.548513, -70.975356], [25.576915, -70.971449], [25.661876, -71.000421], [25.715831, -70.990004], [25.758556, -71.002699], [25.827891, -71.008233], [25.916026, -71.034356], [25.982677, -71.041925], [26.101329, -71.042657], [26.267833, -71.008396], [26.39031, -71.03045], [26.445649, -71.032403], [26.478852, -71.018976], [26.517833, -71.022638], [26.606619, -71.008071], [26.635265, -70.9992], [26.674001, -70.965509], [26.804861, -70.9638], [26.839366, -70.94199], [26.888845, -70.94199], [26.92628, -70.923923], [27.275076, -70.989679], [27.296723, -70.984796], [27.303396, -70.968438], [27.298839, -70.93727], [27.318858, -70.925551], [27.302257, -70.911391], [27.217459, -70.904392], [27.159353, -70.870701], [27.22462, -70.839288], [27.297048, -70.846775], [27.317393, -70.843194], [27.328624, -70.824395], [27.351817, -70.838637], [27.412446, -70.811293], [27.500336, -70.809503], [27.574392, -70.789158], [27.628429, -70.741306], [28.029063, -70.726495], [28.114024, -70.707289], [28.202485, -70.715265], [28.282074, -70.678481], [28.451671, -70.694024], [28.609874, -70.632989], [28.77296, -70.594008], [28.833263, -70.594985], [29.034679, -70.56878], [29.089203, -70.537042], [29.14503, -70.529067], [29.174653, -70.491143], [29.294444, -70.461521], [29.346202, -70.456476], [29.376231, -70.432875], [29.440684, -70.410903], [29.451427, -70.392267], [29.602712, -70.372491], [29.763357, -70.36297], [29.785492, -70.329034], [29.841156, -70.311293], [30.165212, -70.285577], [30.18629, -70.271091], [30.211681, -70.288018], [30.439301, -70.266778], [30.631684, -70.261326], [30.737804, -70.273533], [30.935313, -70.214614], [30.965017, -70.214044], [31.044119, -70.231622], [31.280447, -70.237074], [31.411632, -70.223321], [31.495779, -70.20436], [31.60906, -70.200128], [31.844412, -70.146905], [31.994395, -70.134454], [32.045177, -70.118422], [32.266368, -70.086521], [32.313487, -70.065525], [32.365896, -70.053318], [32.568858, -70.051528], [32.671886, -70.023207], [32.745291, -70.013442], [32.75644724824162, -70.0], [38.24140642000903, -70.0], [38.219737, -70.024021], [38.295909, -70.033949], [38.385997, -70.018487], [38.418712, -70.024672], [38.4699, -70.052179], [38.537934, -70.108575], [38.562755, -70.120375], [38.685069, -70.149835], [38.711192, -70.163507], [38.714041, -70.188735], [38.789236, -70.187921], [38.940278, -70.204685], [39.050466, -70.188572], [39.076427, -70.172621], [39.075206, -70.154555], [39.065929, -70.146091], [38.921072, -70.108575], [38.815196, -70.055352], [38.797048, -70.028741], [38.8016105417774, -70.0], [40.0, -70.0], [40.0, -90.0], [20.0, -90.0], [20.0, -70.91960370937434], [20.112315, -70.930922]]], [[[26.817231, -70.276544], [26.879893, -70.318943], [26.87672, -70.346449], [26.850434, -70.396417], [26.839854, -70.412042], [26.817882, -70.424086], [26.737641, -70.428155], [26.623302, -70.411228], [26.56544, -70.420099], [26.507823, -70.445408], [26.457774, -70.450128], [26.057302, -70.391046], [25.988048, -70.368259], [25.975352, -70.346612], [25.932384, -70.316664], [25.912283, -70.284926], [25.939626, -70.262953], [25.937673, -70.247817], [25.948904, -70.222589], [25.987315, -70.195001], [26.115082, -70.15309], [26.221934, -70.094415], [26.327403, -70.066583], [26.458263, -70.059991], [26.589692, -70.074802], [26.650157, -70.092706], [26.706065, -70.129653], [26.765636, -70.224298], [26.817231, -70.276544]]]]}}]}