{"type": "FeatureCollection", "features": [{"type": "Feature", "properties": {"name": "Ethiopia"}, "geometry": {"type": "Polygon", "coordinates": [[[40.037483, 14.451522], [40.104559, 14.465966], [40.194373, 14.444649], [40.277055, 14.404574], [40.421646, 14.273755], [40.479834, 14.244403], [40.585874, 14.19469], [40.704419, 14.173219], [40.772322, 14.148362], [40.833197, 14.105962], [41.043623, 13.872488], [41.192038, 13.615863], [41.222217, 13.586614], [41.530726, 13.393783], [41.7118, 13.247926], [41.784767, 13.164572], [41.8166, 13.112792], [41.894321, 12.94797], [41.946617, 12.876166], [42.024649, 12.82697], [42.137304, 12.77333], [42.184949, 12.733048], [42.250165, 12.623985], [42.33171, 12.515465], [42.379459, 12.465907], [42.319205, 12.386377], [42.288715, 12.321006], [42.155494, 12.142257], [42.132343, 12.093475], [42.097719, 12.070169], [42.057308, 11.996271], [41.936386, 11.827445], [41.877784, 11.790134], [41.862282, 11.763056], [41.808228, 11.736236], [41.792415, 11.704455], [41.778669, 11.628645], [41.74911, 11.537953], [41.749834, 11.483383], [41.775672, 11.368429], [41.787971, 11.259727], [41.785594, 11.067388], [41.779289, 11.024677], [41.761306, 10.996203], [41.773811, 10.980054], [41.916852, 10.947059], [41.937522, 10.929825], [41.954162, 10.941271], [42.038395, 10.950444], [42.069401, 10.981501], [42.096272, 10.990261], [42.151359, 10.996203], [42.221639, 10.984344], [42.270835, 11.003516], [42.305872, 11.004601], [42.338532, 11.015504], [42.391758, 11.005893], [42.479712, 11.059119], [42.569732, 11.086146], [42.615621, 11.08966], [42.729619, 11.06501], [42.754837, 11.010544], [42.771787, 10.996462], [42.873279, 10.978246], [42.908109, 11.004187], [42.923715, 10.998787], [42.893536, 10.919671], [42.834832, 10.888406], [42.819432, 10.872567], [42.801242, 10.820788], [42.738094, 10.759784], [42.711635, 10.675163], [42.699646, 10.65855], [42.647247, 10.63222], [42.64859, 10.611033], [42.668537, 10.56623], [42.695202, 10.524708], [42.765792, 10.451947], [42.776644, 10.42461], [42.78946, 10.333324], [42.836279, 10.208086], [42.862324, 10.177158], [42.958235, 10.115559], [42.981903, 10.091633], [42.999887, 10.061971], [43.02202119971781, 10.0], [40.0, 10.0], [40.0, 14.456207456243174], [40.037483, 14.451522]]]}}, {"type": "Feature", "properties": {"name": "Somalia"}, "geometry": {"type": "Polygon", "coordinates": [[[48.939112, 11.24913], [49.239594, 11.300279], [49.278087, 11.316962], [49.303477, 11.345445], [49.335704, 11.334621], [49.4192, 11.344794], [49.521739, 11.393785], [49.544444, 11.436713], [49.558604, 11.453518], [49.576834, 11.460028], [49.644542, 11.460354], [49.686778, 11.474351], [49.804861, 11.458401], [49.851248, 11.464911], [49.880707, 11.488227], [49.942149, 11.51557], [49.962657, 11.508734], [50.07252, 11.508734], [50.161876, 11.563381], [50.197602, 11.562649], [50.268321, 11.589301], [50.372325, 11.668931], [50.418142, 11.678046], [50.437022, 11.690619], [50.512706, 11.771226], [50.52947, 11.859524], [50.561209, 11.907904], [50.575938, 11.920966], [50.627452, 11.940131], [50.641124, 11.954413], [50.661469, 11.947577], [50.797864, 11.989119], [50.867055, 11.942891], [50.970083, 11.932323], [51.029307, 11.885077], [51.048839, 11.878648], [51.127696, 11.878648], [51.181163, 11.855373], [51.247081, 11.847561], [51.292698, 11.833108], [51.249359, 11.728775], [51.255708, 11.681655], [51.247801, 11.652391], [51.12086, 11.505316], [51.125011, 11.447984], [51.081309, 11.341498], [51.07252, 11.233791], [51.085948, 11.187974], [51.130945, 11.160752], [51.17444, 11.158764], [51.189504, 11.138306], [51.164399, 11.116767], [51.12379, 11.038764], [51.115082, 10.993354], [51.138194, 10.676744], [51.160655, 10.598456], [51.154307, 10.587714], [51.107432, 10.576565], [51.101899, 10.55858], [51.107188, 10.515041], [51.092296, 10.482164], [51.035818, 10.467515], [51.010102, 10.434027], [51.018403, 10.41942], [51.038097, 10.416083], [51.19044, 10.446112], [51.220388, 10.442043], [51.219574, 10.461005], [51.196544, 10.477444], [51.193044, 10.521186], [51.176117, 10.562812], [51.220647, 10.524928], [51.292532, 10.480075], [51.325879, 10.47268], [51.35721, 10.48374], [51.395173, 10.479023], [51.403077, 10.456707], [51.417038, 10.447485], [51.397509, 10.395793], [51.372569, 10.381415], [51.37608, 10.367693], [51.367419, 10.367726], [51.320079, 10.378485], [51.300831, 10.372566], [51.272873, 10.377905], [51.256602, 10.420315], [51.240977, 10.425605], [51.090099, 10.407313], [51.017125, 10.381916], [50.927389, 10.327844], [50.90988, 10.295635], [50.901703, 10.234442], [50.912814, 10.176853], [50.8838, 10.101264], [50.901703, 10.011664], [50.89674119309537, 10.0], [48.93911130522716, 10.0], [48.939112, 11.24913]]]}}, {"type": "Feature", "properties": {"name": "Somaliland"}, "geometry": {"type": "Polygon", "coordinates": [[[48.93911130522716, 10.0], [43.02202119971781, 10.0], [42.999887, 10.061971], [42.981903, 10.091633], [42.958235, 10.115559], [42.862324, 10.177158], [42.836279, 10.208086], [42.78946, 10.333324], [42.776644, 10.42461], [42.765792, 10.451947], [42.695202, 10.524708], [42.64859, 10.611033], [42.647247, 10.63222], [42.699646, 10.65855], [42.711635, 10.675163], [42.738094, 10.759784], [42.801242, 10.820788], [42.819432, 10.872567], [42.834832, 10.888406], [42.893536, 10.919671], [42.923715, 10.998787], [43.240733, 11.48786], [43.266938, 11.462348], [43.288341, 11.460354], [43.282725, 11.498928], [43.320079, 11.446112], [43.375987, 11.391588], [43.413829, 11.380927], [43.459727, 11.35106], [43.478201, 11.37995], [43.489431, 11.380927], [43.494395, 11.364732], [43.479015, 11.271796], [43.488129, 11.238918], [43.529307, 11.186591], [43.562999, 11.170315], [43.658946, 10.987982], [43.755626, 10.894232], [43.8296, 10.802965], [43.92213, 10.724189], [44.028168, 10.652167], [44.097504, 10.58926], [44.149587, 10.559149], [44.274262, 10.456732], [44.347554, 10.414511], [44.3892, 10.397207], [44.465258, 10.401481], [44.586149, 10.383585], [44.750662, 10.427865], [44.899366, 10.411814], [44.962009, 10.415799], [44.994151, 10.442694], [44.987966, 10.460395], [45.001475, 10.460395], [45.111339, 10.52558], [45.157237, 10.541083], [45.252289, 10.600531], [45.320567, 10.662095], [45.33725, 10.670844], [45.40919, 10.659491], [45.487071, 10.684719], [45.542979, 10.721666], [45.573009, 10.758124], [45.673106, 10.79621], [45.706391, 10.832831], [45.737966, 10.843573], [45.753591, 10.871731], [45.769298, 10.878119], [45.816905, 10.869208], [45.855642, 10.823961], [45.872325, 10.823472], [45.868175, 10.841376], [45.884451, 10.841213], [45.97755, 10.79914], [46.102224, 10.770657], [46.207367, 10.79621], [46.237559, 10.792426], [46.335134, 10.709703], [46.370128, 10.696845], [46.447765, 10.693101], [46.499848, 10.708482], [46.52768, 10.726223], [46.659679, 10.75434], [46.694102, 10.781928], [46.782237, 10.821723], [46.821951, 10.852607], [46.865977, 10.871894], [46.886485, 10.898586], [47.008067, 10.938951], [47.180675, 11.080471], [47.226736, 11.093817], [47.263357, 11.120795], [47.366873, 11.172797], [47.405935, 11.184638], [47.437022, 11.179836], [47.489513, 11.192816], [47.522716, 11.186957], [47.677745, 11.107978], [47.71046, 11.101264], [47.767345, 11.130194], [47.892833, 11.132554], [47.948253, 11.125149], [48.130382, 11.136664], [48.160818, 11.145657], [48.195811, 11.186835], [48.215587, 11.196234], [48.2199, 11.211127], [48.30421, 11.227525], [48.31837, 11.25552], [48.342784, 11.275458], [48.478526, 11.296332], [48.521983, 11.319281], [48.585948, 11.316962], [48.654796, 11.330634], [48.723888, 11.315253], [48.800629, 11.279039], [48.888845, 11.250556], [48.939112, 11.24913], [48.93911130522716, 10.0]]]}}, {"type": "Feature", "properties": {"name": "Oman"}, "geometry": {"type": "MultiPolygon", "coordinates": [[[[56.290688, 25.327543], [56.309369, 25.301328], [56.349123, 25.294025], [56.344375, 25.266528], [56.29315, 25.245846], [56.252204, 25.217635], [56.235771, 25.211175], [56.219958, 25.215258], [56.207625, 25.220835], [56.208375, 25.255374], [56.244887, 25.277988], [56.233625, 25.312526], [56.260625, 25.331075], [56.290688, 25.327543]], [[56.282979, 25.255476], [56.288328, 25.271926], [56.265075, 25.281175], [56.259578, 25.275982], [56.263026, 25.249223], [56.282979, 25.255476]]], [[[56.091482, 26.106513], [56.181814, 26.245998], [56.208263, 26.263088], [56.208263, 26.244045], [56.2199, 26.227729], [56.212413, 26.207831], [56.266856, 26.227484], [56.29184, 26.211859], [56.294932, 26.194241], [56.301931, 26.205308], [56.329112, 26.201077], [56.366954, 26.221503], [56.404145, 26.214748], [56.406912, 26.223131], [56.394542, 26.239163], [56.367849, 26.244086], [56.346853, 26.238593], [56.319591, 26.217922], [56.308442, 26.221503], [56.315929, 26.290432], [56.358409, 26.26496], [56.36378, 26.279527], [56.34783, 26.297431], [56.322276, 26.309638], [56.356293, 26.337592], [56.36378, 26.385972], [56.383637, 26.35871], [56.404145, 26.372301], [56.411632, 26.364936], [56.406505, 26.354804], [56.411632, 26.345038], [56.421072, 26.352118], [56.438975, 26.337592], [56.462169, 26.331855], [56.487315, 26.331366], [56.479828, 26.351874], [56.500987, 26.35871], [56.508962, 26.323717], [56.45281, 26.318345], [56.406261, 26.284898], [56.398611, 26.268704], [56.432302, 26.239447], [56.445811, 26.235175], [56.476248, 26.249172], [56.487315, 26.235175], [56.459646, 26.202094], [56.453298, 26.221503], [56.431977, 26.221503], [56.431977, 26.194241], [56.472911, 26.164008], [56.479828, 26.145819], [56.438975, 26.160102], [56.424571, 26.153795], [56.412446, 26.158433], [56.404145, 26.186754], [56.377452, 26.173733], [56.378917, 26.192532], [56.391124, 26.201077], [56.368419, 26.204535], [56.343598, 26.191392], [56.328787, 26.172838], [56.335948, 26.160102], [56.329763, 26.137112], [56.335948, 26.11164], [56.353038, 26.142646], [56.36378, 26.145819], [56.371104, 26.127834], [56.36378, 26.104885], [56.383311, 26.09748], [56.472992, 26.098619], [56.449229, 26.073554], [56.380138, 26.038235], [56.383637, 26.022284], [56.408865, 26.034369], [56.422862, 26.023139], [56.42335, 26.004625], [56.400401, 25.990465], [56.42213, 25.95661], [56.453298, 25.94717], [56.438975, 25.926093], [56.407888, 25.937405], [56.383637, 25.926093], [56.399425, 25.90233], [56.36378, 25.837958], [56.36378, 25.806871], [56.316254, 25.749579], [56.301768, 25.741767], [56.301768, 25.762885], [56.273774, 25.709133], [56.266612, 25.672593], [56.279055, 25.627446], [56.221508, 25.613838], [56.205799, 25.617766], [56.188849, 25.645412], [56.150815, 25.658848], [56.145131, 25.670837], [56.141203, 25.732694], [56.172002, 25.76525], [56.139653, 25.822973], [56.170555, 25.87682], [56.183475, 26.014537], [56.162701, 26.073552], [56.077397, 26.061048], [56.091482, 26.106513]]], [[[56.405447, 24.897284], [56.480317, 24.765123], [56.4935, 24.700181], [56.611176, 24.496324], [56.692149, 24.425238], [56.801443, 24.302965], [56.82309, 24.271145], [56.841075, 24.223822], [56.939464, 24.115912], [57.151541, 23.953559], [57.184255, 23.934272], [57.326345, 23.884019], [57.509613, 23.839097], [57.645193, 23.790432], [57.795746, 23.782213], [57.834972, 23.740058], [57.887706, 23.720852], [58.043142, 23.724555], [58.131602, 23.713324], [58.227387, 23.679145], [58.2824, 23.631415], [58.317231, 23.620917], [58.411957, 23.616197], [58.452973, 23.623969], [58.483653, 23.638129], [58.490896, 23.656562], [58.584158, 23.646959], [58.604503, 23.6376], [58.633311, 23.585273], [58.659028, 23.562486], [58.680349, 23.562486], [58.706879, 23.535142], [58.714366, 23.535142], [58.720551, 23.548814], [58.728038, 23.528388], [58.740977, 23.54206], [58.749522, 23.536444], [58.762055, 23.54206], [58.792979, 23.495673], [58.789399, 23.480618], [58.807628, 23.421129], [58.879161, 23.351264], [58.915212, 23.336086], [58.929454, 23.318101], [58.956228, 23.259426], [59.00172, 23.212388], [59.010102, 23.153306], [59.073741, 23.093248], [59.087901, 23.048407], [59.20753, 22.970364], [59.23227, 22.94302], [59.297537, 22.792711], [59.351817, 22.761176], [59.410655, 22.670844], [59.452485, 22.634101], [59.535492, 22.583075], [59.530447, 22.570054], [59.515636, 22.575588], [59.515798, 22.56151], [59.549815, 22.555121], [59.626801, 22.57982], [59.693858, 22.541449], [59.721202, 22.541449], [59.728038, 22.507636], [59.739757, 22.497789], [59.762543, 22.498603], [59.741547, 22.524726], [59.745779, 22.538235], [59.776378, 22.541449], [59.803233, 22.534735], [59.82488, 22.508857], [59.844574, 22.445258], [59.82488, 22.281399], [59.811778, 22.237372], [59.791759, 22.198065], [59.734711, 22.123114], [59.688162, 22.082709], [59.645274, 21.925849], [59.605642, 21.910224], [59.576996, 21.856269], [59.497895, 21.756334], [59.448578, 21.624905], [59.354991, 21.485663], [59.344249, 21.444729], [59.16627, 21.362779], [59.054373, 21.277086], [58.9192, 21.143704], [58.878103, 21.083808], [58.854259, 21.065619], [58.807872, 20.99079], [58.798839, 20.936021], [58.734874, 20.883002], [58.739024, 20.86225], [58.680349, 20.828355], [58.659028, 20.790839], [58.667654, 20.772284], [58.686534, 20.759467], [58.72934, 20.786811], [58.728038, 20.766913], [58.69988, 20.74079], [58.681814, 20.735907], [58.666515, 20.746405], [58.645356, 20.691148], [58.604503, 20.663275], [58.591807, 20.643948], [58.570486, 20.564276], [58.531261, 20.481391], [58.518565, 20.416815], [58.483572, 20.404202], [58.474132, 20.396389], [58.467459, 20.369534], [58.445811, 20.358629], [58.417654, 20.359605], [58.359141, 20.381578], [58.313813, 20.380805], [58.275564, 20.368476], [58.284516, 20.381985], [58.279633, 20.384833], [58.202891, 20.404731], [58.200531, 20.424384], [58.21339, 20.465277], [58.217296, 20.441555], [58.23463, 20.423651], [58.238455, 20.443834], [58.228282, 20.488837], [58.251313, 20.529202], [58.264171, 20.587633], [58.255138, 20.60928], [58.20574, 20.613349], [58.090831, 20.56684], [58.067231, 20.511054], [58.075857, 20.480048], [57.994395, 20.442288], [57.955821, 20.399563], [57.956554, 20.376939], [57.973888, 20.352281], [57.966563, 20.330227], [57.888438, 20.290717], [57.85613, 20.260647], [57.823741, 20.201077], [57.823009, 20.176663], [57.847992, 20.111762], [57.816254, 20.020738], [57.81365, 19.976996], [57.762055, 19.842963], [57.698904, 19.754381], [57.68922, 19.728176], [57.69337, 19.697455], [57.719981, 19.653062], [57.718923, 19.607978], [57.704438, 19.548733], [57.760265, 19.454088], [57.773936, 19.409654], [57.769054, 19.357611], [57.748302, 19.291002], [57.750662, 19.268052], [57.770844, 19.216946], [57.81186, 19.156887], [57.802013, 19.094794], [57.839854, 19.029975], [57.840099, 19.015326], [57.815684, 18.991767], [57.79713, 18.979234], [57.752289, 18.973049], [57.709727, 18.943996], [57.501475, 18.953681], [57.20753, 18.90998], [57.083751, 18.87637], [56.91505, 18.810289], [56.807791, 18.745592], [56.659679, 18.595364], [56.641124, 18.559272], [56.636892, 18.511949], [56.644298, 18.467597], [56.612315, 18.399604], [56.600597, 18.305406], [56.548839, 18.189846], [56.563731, 18.170233], [56.56129, 18.149237], [56.527599, 18.114691], [56.462576, 18.084418], [56.431977, 18.032172], [56.404145, 18.01911], [56.357677, 17.969794], [56.356293, 17.940009], [56.188487, 17.957099], [56.116222, 17.936591], [56.031098, 17.943427], [55.909434, 17.906643], [55.653494, 17.895331], [55.522472, 17.866441], [55.506602, 17.85399], [55.44516, 17.84101], [55.388682, 17.744289], [55.369477, 17.696357], [55.263194, 17.607733], [55.228201, 17.538764], [55.229503, 17.488593], [55.273774, 17.457424], [55.293224, 17.43769], [55.300792, 17.416815], [55.2942, 17.352118], [55.251231, 17.289984], [55.250662, 17.263617], [55.264822, 17.254788], [55.260265, 17.23428], [55.219249, 17.210395], [55.18922, 17.144761], [55.143565, 17.127834], [55.124766, 17.092475], [55.026866, 17.011135], [55.010916, 17.026272], [54.975352, 16.997463], [54.931326, 16.987128], [54.917003, 16.990668], [54.882823, 16.969062], [54.79184, 16.951402], [54.780528, 16.963935], [54.739431, 16.956488], [54.705333, 16.977607], [54.697927, 16.97016], [54.674083, 17.019761], [54.592052, 17.038479], [54.547699, 17.031643], [54.499278, 17.038479], [54.461681, 17.024807], [54.389985, 17.039455], [54.369477, 17.024807], [54.350352, 17.031684], [54.164073, 17.011135], [54.084972, 17.011135], [54.012706, 16.977607], [54.009451, 16.937445], [53.98113, 16.908759], [53.83074, 16.887641], [53.771332, 16.862616], [53.753184, 16.867743], [53.709321, 16.836005], [53.669281, 16.784084], [53.615408, 16.75788], [53.582693, 16.749945], [53.423025, 16.746812], [53.338634, 16.734809], [53.175304, 16.684516], [53.090343, 16.642401], [52.801562, 17.267423], [52.79102, 17.28122], [52.736243, 17.289178], [52.721464, 17.29817], [52.730145, 17.299875], [51.978615, 18.995638], [54.97838, 19.995421], [55.637565, 21.97897], [55.626713, 22.023773], [55.186843, 22.703577], [55.197592, 22.849459], [55.191287, 22.995471], [55.22591, 23.121251], [55.321098, 23.275092], [55.375255, 23.469344], [55.445328, 23.552259], [55.478298, 23.67636], [55.538346, 23.770049], [55.530595, 23.874668], [55.514575, 23.896605], [55.461555, 23.930556], [55.45277, 23.948565], [55.456801, 23.963164], [55.499795, 23.970605], [55.618341, 24.020137], [55.646866, 24.02502], [55.727998, 24.019594], [55.762415, 24.028147], [55.78846, 24.009569], [55.807063, 24.007476], [55.923542, 24.051143], [55.986794, 24.06538], [55.997853, 24.08127], [55.960749, 24.142429], [55.933154, 24.220719], [55.903182, 24.232243], [55.847164, 24.211417], [55.830318, 24.21227], [55.755697, 24.230331], [55.762105, 24.262965], [55.807373, 24.340789], [55.808614, 24.397633], [55.774611, 24.4259], [55.77368, 24.49525], [55.759831, 24.558528], [55.784016, 24.58633], [55.790217, 24.619868], [55.818226, 24.643381], [55.794764, 24.70392], [55.797038, 24.778359], [55.788667, 24.855202], [55.799105, 24.886105], [55.829388, 24.921167], [55.89698, 24.968606], [55.935428, 24.977727], [55.978422, 24.971759], [56.005604, 24.956178], [56.029272, 24.861171], [55.978422, 24.886105], [55.960852, 24.881247], [55.957649, 24.868664], [55.96478, 24.853859], [56.00209, 24.823008], [56.031546, 24.754149], [56.062138, 24.731773], [56.099139, 24.730507], [56.127251, 24.7457], [56.171176, 24.82399], [56.241662, 24.842438], [56.308325, 24.895174], [56.31928, 24.962534], [56.328995, 24.972689], [56.383311, 24.978217], [56.405447, 24.897284]]], [[[55.831716, 17.502346], [55.837087, 17.510077], [55.862966, 17.518866], [55.89088, 17.504584], [55.836192, 17.490912], [55.831716, 17.502346]]], [[[56.067882, 17.532213], [56.095551, 17.518866], [56.046886, 17.493354], [55.97283, 17.498358], [55.964203, 17.519924], [56.055349, 17.559801], [56.067882, 17.532213]]], [[[58.914317, 20.587836], [58.953949, 20.519924], [58.950043, 20.508938], [58.844086, 20.437323], [58.808279, 20.379584], [58.787608, 20.314521], [58.785167, 20.279527], [58.724294, 20.215155], [58.691254, 20.20775], [58.674571, 20.179511], [58.652192, 20.170478], [58.637462, 20.218451], [58.635916, 20.277004], [58.648204, 20.368842], [58.693858, 20.407172], [58.700694, 20.431098], [58.751231, 20.440131], [58.768891, 20.451606], [58.780772, 20.466986], [58.795584, 20.538398], [58.852875, 20.613349], [58.882579, 20.682522], [58.891287, 20.694281], [58.906261, 20.697984], [58.918305, 20.681464], [58.906261, 20.626003], [58.914317, 20.587836]]]]}}, {"type": "Feature", "properties": {"name": "United Arab Emirates"}, "geometry": {"type": "MultiPolygon", "coordinates": [[[[56.340017, 25.60456], [56.369965, 25.525702], [56.36378, 25.433254], [56.368337, 25.396308], [56.359223, 25.37641], [56.383637, 25.313463], [56.365977, 25.209215], [56.36199, 25.057278], [56.383311, 24.978217], [56.328995, 24.972689], [56.31928, 24.962534], [56.308325, 24.895174], [56.241662, 24.842438], [56.171176, 24.82399], [56.127251, 24.7457], [56.099139, 24.730507], [56.062138, 24.731773], [56.031546, 24.754149], [56.00209, 24.823008], [55.96478, 24.853859], [55.960852, 24.881247], [55.978422, 24.886105], [56.029272, 24.861171], [56.005604, 24.956178], [55.978422, 24.971759], [55.935428, 24.977727], [55.89698, 24.968606], [55.829388, 24.921167], [55.799105, 24.886105], [55.788667, 24.855202], [55.797038, 24.778359], [55.792697, 24.722291], [55.818226, 24.643381], [55.790217, 24.619868], [55.784016, 24.58633], [55.759831, 24.558528], [55.77368, 24.49525], [55.774611, 24.4259], [55.801069, 24.40647], [55.810887, 24.389236], [55.807373, 24.340789], [55.762105, 24.262965], [55.755697, 24.230331], [55.830318, 24.21227], [55.847164, 24.211417], [55.903182, 24.232243], [55.933154, 24.220719], [55.960749, 24.142429], [55.997853, 24.08127], [55.986794, 24.06538], [55.923542, 24.051143], [55.807063, 24.007476], [55.78846, 24.009569], [55.762415, 24.028147], [55.727998, 24.019594], [55.646866, 24.02502], [55.618341, 24.020137], [55.499795, 23.970605], [55.456801, 23.963164], [55.45277, 23.948565], [55.461555, 23.930556], [55.514575, 23.896605], [55.530595, 23.874668], [55.538346, 23.770049], [55.478298, 23.67636], [55.445328, 23.552259], [55.375255, 23.469344], [55.321098, 23.275092], [55.22591, 23.121251], [55.191287, 22.995471], [55.197592, 22.849459], [55.186843, 22.703577], [55.120387, 22.623426], [52.558476, 22.938575], [51.578536, 24.101837], [51.569347, 24.256171], [51.590668, 24.28441], [51.591645, 24.328599], [51.573985, 24.364447], [51.593761, 24.384914], [51.62379, 24.339342], [51.634451, 24.226874], [51.648692, 24.218573], [51.662934, 24.232815], [51.672618, 24.278062], [51.700694, 24.22191], [51.723643, 24.227769], [51.740082, 24.277533], [51.7588, 24.290513], [51.77947, 24.26203], [51.773448, 24.153225], [51.785655, 24.103746], [51.787771, 24.04857], [51.809418, 24.000678], [51.893565, 23.990383], [51.928722, 23.964748], [51.939138, 23.969184], [51.931407, 23.987982], [51.952891, 23.990912], [52.016938, 23.989691], [52.067393, 23.963446], [52.145518, 23.971991], [52.155528, 23.966539], [52.171072, 23.973375], [52.224376, 23.974026], [52.279063, 24.00137], [52.341075, 24.007514], [52.378103, 24.037991], [52.428071, 24.052639], [52.444184, 24.06269], [52.456554, 24.084662], [52.574555, 24.152086], [52.58074, 24.199368], [52.600271, 24.20954], [52.618419, 24.203681], [52.670095, 24.144721], [52.681326, 24.140815], [52.697439, 24.152167], [52.720063, 24.151516], [52.782725, 24.137885], [52.827647, 24.152167], [52.947113, 24.137885], [52.992198, 24.152167], [53.00587, 24.165839], [53.067231, 24.121894], [53.107188, 24.137885], [53.146495, 24.121324], [53.163422, 24.124823], [53.149669, 24.132229], [53.142426, 24.165839], [53.165294, 24.170315], [53.215587, 24.141547], [53.253754, 24.098782], [53.309093, 24.095771], [53.445811, 24.119818], [53.47877, 24.093695], [53.519298, 24.096869], [53.557384, 24.076402], [53.58961, 24.047065], [53.629161, 24.057034], [53.656993, 24.048529], [53.70281, 24.070502], [53.732107, 24.06273], [53.878917, 24.064846], [53.951182, 24.103746], [54.014334, 24.113267], [54.122569, 24.144721], [54.153656, 24.165269], [54.187022, 24.203599], [54.252778, 24.221096], [54.314952, 24.258246], [54.323009, 24.270657], [54.382579, 24.254584], [54.427257, 24.292141], [54.485606, 24.388332], [54.483165, 24.425116], [54.499278, 24.432685], [54.485606, 24.439521], [54.485606, 24.446967], [54.540294, 24.432685], [54.513438, 24.474311], [54.574392, 24.446967], [54.5713, 24.473334], [54.499278, 24.487942], [54.440684, 24.523912], [54.417328, 24.528957], [54.417328, 24.535102], [54.451915, 24.556545], [54.465099, 24.535102], [54.465831, 24.554348], [54.485606, 24.569892], [54.4935, 24.542304], [54.512869, 24.515286], [54.537446, 24.49844], [54.56129, 24.501614], [54.540294, 24.515855], [54.581798, 24.50845], [54.636404, 24.597805], [54.619802, 24.604315], [54.612153, 24.613227], [54.615896, 24.621161], [54.643403, 24.630561], [54.65211, 24.658393], [54.670584, 24.666083], [54.650157, 24.713853], [54.655528, 24.721096], [54.640473, 24.732611], [54.643321, 24.748684], [54.691661, 24.782172], [54.707042, 24.8039], [54.739431, 24.789618], [54.754161, 24.792426], [54.773611, 24.814765], [54.76002, 24.830552], [54.868826, 24.888658], [54.96811, 24.958645], [55.049978, 24.993394], [55.044607, 25.013902], [55.082286, 25.016832], [55.259044, 25.215277], [55.263357, 25.24494], [55.2824, 25.260688], [55.29835, 25.25849], [55.31837, 25.225287], [55.301117, 25.193671], [55.328868, 25.201483], [55.334239, 25.219224], [55.303722, 25.283026], [55.339366, 25.321438], [55.363292, 25.324042], [55.359386, 25.348578], [55.365489, 25.358588], [55.376964, 25.364976], [55.387055, 25.357082], [55.438975, 25.412787], [55.455333, 25.399888], [55.465668, 25.419623], [55.472504, 25.412787], [55.486095, 25.449937], [55.506602, 25.47484], [55.494151, 25.48078], [55.535655, 25.562405], [55.551036, 25.578599], [55.568126, 25.584662], [55.542247, 25.542548], [55.548188, 25.529486], [55.563731, 25.523749], [55.626313, 25.536322], [55.656912, 25.597724], [55.683442, 25.623521], [55.733897, 25.646796], [55.770518, 25.687161], [55.842459, 25.713813], [55.878103, 25.740058], [55.959727, 25.823676], [55.937185, 25.776679], [55.952322, 25.772121], [55.965994, 25.834215], [56.030772, 25.900865], [56.041026, 25.933539], [56.007579, 25.906887], [56.055349, 25.988756], [56.077397, 26.061048], [56.162701, 26.073552], [56.183475, 26.014537], [56.170555, 25.87682], [56.139653, 25.822973], [56.172002, 25.76525], [56.141203, 25.732694], [56.145131, 25.670837], [56.150815, 25.658848], [56.188849, 25.645412], [56.205799, 25.617766], [56.221508, 25.613838], [56.279055, 25.627446], [56.340017, 25.60456]], [[56.233625, 25.312526], [56.244887, 25.277988], [56.208375, 25.255374], [56.207625, 25.220835], [56.219958, 25.215258], [56.235771, 25.211175], [56.252204, 25.217635], [56.29315, 25.245846], [56.344375, 25.266528], [56.349123, 25.294025], [56.309369, 25.301328], [56.290688, 25.327543], [56.260625, 25.331075], [56.233625, 25.312526]]], [[[56.259578, 25.275982], [56.265075, 25.281175], [56.288328, 25.271926], [56.282979, 25.255476], [56.263026, 25.249223], [56.259578, 25.275982]]], [[[53.628184, 24.164211], [53.627778, 24.171942], [53.72283, 24.229885], [53.748302, 24.234442], [53.770274, 24.22724], [53.848155, 24.275051], [53.853526, 24.262681], [53.848155, 24.254584], [53.863048, 24.234687], [53.892345, 24.217841], [53.9546, 24.200995], [53.964854, 24.172593], [53.95102, 24.149726], [53.920421, 24.139838], [53.884613, 24.141181], [53.854991, 24.152167], [53.849376, 24.174221], [53.837413, 24.177436], [53.826996, 24.158393], [53.834483, 24.152167], [53.807302, 24.135972], [53.774669, 24.130113], [53.628184, 24.164211]]], [[[54.180837, 24.245063], [54.112559, 24.271674], [54.101573, 24.297756], [54.115245, 24.318508], [54.136974, 24.32689], [54.188324, 24.277493], [54.198904, 24.253119], [54.190766, 24.22724], [54.180837, 24.245063]]], [[[52.587169, 24.3605], [52.611095, 24.373236], [52.634461, 24.3666], [52.650855, 24.324899], [52.648774, 24.309516], [52.592154, 24.253368], [52.556104, 24.306946], [52.558239, 24.326813], [52.587169, 24.3605]]], [[[53.308666, 24.278623], [53.276008, 24.288666], [53.266142, 24.27381], [53.213838, 24.280926], [53.186534, 24.275946], [53.184581, 24.287014], [53.194347, 24.302965], [53.241873, 24.297797], [53.329607, 24.336115], [53.338327, 24.33608], [53.357849, 24.315161], [53.36671, 24.319241], [53.361583, 24.350735], [53.399099, 24.401435], [53.416759, 24.412828], [53.423595, 24.39175], [53.447032, 24.379828], [53.44044, 24.341254], [53.369773, 24.301218], [53.345793, 24.298335], [53.331589, 24.288463], [53.322759, 24.262691], [53.308666, 24.278623]]], [[[54.334809, 24.453192], [54.334809, 24.46894], [54.396251, 24.522691], [54.389415, 24.501573], [54.396658, 24.483466], [54.451427, 24.453192], [54.469737, 24.436469], [54.470551, 24.425035], [54.456716, 24.420803], [54.334809, 24.453192]]], [[[54.239268, 24.281195], [54.222179, 24.284491], [54.183116, 24.315009], [54.184581, 24.337063], [54.203787, 24.353746], [54.232432, 24.357571], [54.273448, 24.302924], [54.239268, 24.281195]]], [[[54.336111, 24.350328], [54.32545, 24.321275], [54.30893, 24.31387], [54.279063, 24.364447], [54.311371, 24.355292], [54.292003, 24.384508], [54.304861, 24.385932], [54.325857, 24.373033], [54.336111, 24.350328]]], [[[52.332565, 24.525414], [52.339238, 24.501552], [52.326224, 24.480646], [52.314228, 24.475651], [52.283214, 24.497016], [52.282338, 24.510402], [52.309744, 24.539496], [52.332565, 24.525414]]]]}}, {"type": "Feature", "properties": {"name": "Djibouti"}, "geometry": {"type": "Polygon", "coordinates": [[[42.923715, 10.998787], [42.908109, 11.004187], [42.873279, 10.978246], [42.771787, 10.996462], [42.754837, 11.010544], [42.729619, 11.06501], [42.615621, 11.08966], [42.569732, 11.086146], [42.479712, 11.059119], [42.391758, 11.005893], [42.338532, 11.015504], [42.305872, 11.004601], [42.270835, 11.003516], [42.221639, 10.984344], [42.151359, 10.996203], [42.096272, 10.990261], [42.069401, 10.981501], [42.038395, 10.950444], [41.954162, 10.941271], [41.937522, 10.929825], [41.916852, 10.947059], [41.773811, 10.980054], [41.761306, 10.996203], [41.779289, 11.024677], [41.785594, 11.067388], [41.787971, 11.259727], [41.775672, 11.368429], [41.749834, 11.483383], [41.74911, 11.537953], [41.778669, 11.628645], [41.792415, 11.704455], [41.808228, 11.736236], [41.862282, 11.763056], [41.877784, 11.790134], [41.936386, 11.827445], [42.057308, 11.996271], [42.097719, 12.070169], [42.132343, 12.093475], [42.155494, 12.142257], [42.288715, 12.321006], [42.319205, 12.386377], [42.430929, 12.520322], [42.475681, 12.516343], [42.521569, 12.496241], [42.678252, 12.360022], [42.691482, 12.378832], [42.727758, 12.388806], [42.749876, 12.417073], [42.792251, 12.429165], [42.798038, 12.456088], [42.785223, 12.517222], [42.828838, 12.557633], [42.852092, 12.611738], [42.868835, 12.626155], [42.900358, 12.616389], [43.117686, 12.707913], [43.133962, 12.697211], [43.161794, 12.642727], [43.259613, 12.533352], [43.283214, 12.496527], [43.312999, 12.477688], [43.329356, 12.488756], [43.331228, 12.436713], [43.360525, 12.383002], [43.367849, 12.306871], [43.411388, 12.241767], [43.414317, 12.224921], [43.418712, 12.091254], [43.413341, 12.059272], [43.377126, 12.004828], [43.350434, 11.987942], [43.288341, 11.967434], [43.206554, 11.957831], [43.174001, 11.935004], [43.097179, 11.84455], [43.069184, 11.830268], [43.055512, 11.803616], [42.986827, 11.796088], [42.942638, 11.77383], [42.915538, 11.783596], [42.896495, 11.780585], [42.777192, 11.732245], [42.75408, 11.707953], [42.684093, 11.582261], [42.667979, 11.568549], [42.627696, 11.559068], [42.569021, 11.563381], [42.548595, 11.583808], [42.515147, 11.574123], [42.514985, 11.567206], [42.528087, 11.570217], [42.538748, 11.502997], [42.60377, 11.46776], [42.644786, 11.488227], [42.672537, 11.479722], [42.681651, 11.484524], [42.687511, 11.497219], [42.665294, 11.51557], [42.674083, 11.532131], [42.694102, 11.545966], [42.739757, 11.563381], [42.829112, 11.576972], [42.855805, 11.595771], [42.875173, 11.583686], [43.081798, 11.589545], [43.103363, 11.576972], [43.123057, 11.581488], [43.141124, 11.608588], [43.151866, 11.611762], [43.172211, 11.542873], [43.183849, 11.526557], [43.240733, 11.48786], [42.923715, 10.998787]]]}}, {"type": "Feature", "properties": {"name": "Eritrea"}, "geometry": {"type": "MultiPolygon", "coordinates": [[[[42.900358, 12.616389], [42.868835, 12.626155], [42.852092, 12.611738], [42.828838, 12.557633], [42.785223, 12.517222], [42.798038, 12.456088], [42.792251, 12.429165], [42.749876, 12.417073], [42.727758, 12.388806], [42.691482, 12.378832], [42.678252, 12.360022], [42.521569, 12.496241], [42.475681, 12.516343], [42.430929, 12.520322], [42.379459, 12.465907], [42.33171, 12.515465], [42.250165, 12.623985], [42.184949, 12.733048], [42.137304, 12.77333], [42.024649, 12.82697], [41.946617, 12.876166], [41.894321, 12.94797], [41.8166, 13.112792], [41.784767, 13.164572], [41.7118, 13.247926], [41.530726, 13.393783], [41.222217, 13.586614], [41.192038, 13.615863], [41.043623, 13.872488], [40.833197, 14.105962], [40.772322, 14.148362], [40.704419, 14.173219], [40.585874, 14.19469], [40.479834, 14.244403], [40.421646, 14.273755], [40.277055, 14.404574], [40.194373, 14.444649], [40.104559, 14.465966], [40.037483, 14.451522], [40.0, 14.456207456243174], [40.0, 15.385135077679905], [40.005138, 15.381008], [40.050792, 15.366116], [40.079926, 15.340725], [40.081309, 15.319159], [40.047211, 15.284369], [40.026622, 15.237209], [40.052013, 15.22956], [40.053966, 15.219224], [40.04127, 15.21247], [40.041515, 15.204983], [40.081309, 15.164537], [40.101817, 15.113023], [40.101817, 15.064643], [40.12794, 15.06623], [40.154307, 15.037299], [40.149587, 15.000067], [40.159434, 14.982245], [40.272634, 14.937567], [40.286794, 14.913479], [40.347179, 14.944078], [40.389822, 15.003241], [40.3921, 14.973578], [40.401378, 14.966132], [40.417735, 14.969062], [40.422699, 14.99901], [40.454438, 15.004462], [40.464854, 14.997016], [40.463145, 14.979682], [40.499034, 14.962226], [40.520193, 14.982733], [40.512706, 15.017483], [40.527029, 14.997016], [40.55421, 14.99018], [40.561046, 14.95539], [40.616384, 14.948676], [40.627696, 14.891995], [40.656586, 14.880316], [40.652029, 14.897121], [40.660411, 14.902574], [40.694509, 14.896226], [40.692719, 14.881903], [40.677094, 14.887152], [40.670909, 14.880316], [40.732432, 14.82567], [40.723888, 14.757066], [40.766368, 14.714586], [40.766449, 14.695299], [40.786632, 14.706041], [40.808116, 14.702826], [40.808116, 14.722073], [40.831065, 14.712226], [40.884451, 14.714545], [40.944672, 14.677314], [40.972667, 14.669623], [41.040212, 14.667426], [41.167491, 14.636949], [41.208751, 14.568101], [41.28297, 14.517564], [41.306814, 14.488918], [41.335948, 14.402004], [41.376638, 14.376288], [41.399669, 14.346666], [41.412771, 14.306545], [41.50587, 14.213446], [41.541759, 14.126166], [41.588634, 14.096177], [41.620942, 14.063625], [41.657237, 13.996487], [41.676524, 13.940253], [41.753429, 13.920722], [41.798106, 13.934394], [41.848969, 13.876166], [41.904307, 13.879788], [41.969737, 13.845649], [41.980968, 13.837795], [41.993663, 13.783596], [42.034923, 13.752265], [42.075531, 13.69477], [42.089203, 13.687974], [42.106619, 13.643541], [42.143809, 13.650377], [42.171153, 13.626532], [42.184825, 13.585598], [42.212169, 13.567572], [42.215994, 13.55386], [42.223888, 13.553941], [42.229503, 13.56387], [42.198741, 13.5987], [42.198497, 13.606024], [42.219005, 13.606024], [42.219737, 13.632554], [42.18922, 13.652737], [42.159923, 13.656562], [42.171641, 13.667182], [42.184825, 13.667467], [42.219005, 13.640204], [42.25587, 13.591986], [42.288422, 13.574612], [42.294688, 13.509223], [42.305919, 13.476142], [42.335216, 13.443508], [42.34254, 13.418118], [42.358084, 13.302476], [42.372325, 13.278632], [42.379405, 13.222642], [42.431326, 13.198391], [42.476817, 13.194525], [42.507498, 13.206977], [42.520681, 13.2355], [42.533946, 13.232571], [42.541759, 13.208197], [42.559906, 13.194322], [42.570079, 13.170966], [42.620453, 13.12934], [42.655447, 13.072333], [42.7046, 13.054023], [42.729747, 13.033149], [42.781261, 12.851874], [42.795421, 12.848375], [42.835785, 12.864936], [42.849294, 12.837836], [42.868907, 12.821357], [42.93214, 12.81094], [42.918468, 12.790473], [42.927989, 12.78974], [42.978038, 12.823961], [42.991466, 12.859605], [43.000987, 12.864936], [42.9935, 12.884589], [43.000987, 12.900295], [43.043142, 12.865627], [43.053233, 12.844875], [43.086436, 12.820868], [43.097179, 12.762519], [43.123871, 12.715318], [42.900358, 12.616389]]], [[[40.406261, 15.638129], [40.414236, 15.598293], [40.408051, 15.580024], [40.393891, 15.572333], [40.356619, 15.586168], [40.287364, 15.572984], [40.208263, 15.599677], [40.158702, 15.589545], [40.143321, 15.592231], [40.122813, 15.613959], [40.102224, 15.589057], [40.085297, 15.587633], [40.001475, 15.611274], [40.0, 15.610963586924811], [40.0, 15.659430025463084], [40.026622, 15.647447], [40.081309, 15.661119], [40.038585, 15.71898], [40.0088, 15.736558], [40.0, 15.738258605484981], [40.0, 15.82489522144286], [40.033458, 15.826239], [40.037446, 15.838406], [40.019379, 15.868109], [40.009288, 15.87401], [40.0, 15.873414601741521], [40.0, 15.886575371654024], [40.026215, 15.882636], [40.091563, 15.84984], [40.105642, 15.828681], [40.09018, 15.803127], [40.088145, 15.792141], [40.095714, 15.784613], [40.122813, 15.792141], [40.115408, 15.809027], [40.136485, 15.80622], [40.133067, 15.711168], [40.163829, 15.644355], [40.232107, 15.627021], [40.247406, 15.655015], [40.261567, 15.663235], [40.227794, 15.674018], [40.219086, 15.68537], [40.226573, 15.696479], [40.266938, 15.703518], [40.315115, 15.693427], [40.329926, 15.664252], [40.406261, 15.638129]]], [[[40.080577, 16.034166], [40.077403, 16.019029], [40.114513, 15.985907], [40.09669, 15.981024], [40.042979, 16.003404], [40.000011, 16.007758], [40.0, 16.007768954945053], [40.0, 16.05013066987814], [40.047211, 16.063463], [40.041352, 16.092108], [40.050466, 16.107245], [40.111013, 16.073961], [40.118826, 16.061998], [40.080577, 16.034166]]]]}}, {"type": "Feature", "properties": {"name": "Iraq"}, "geometry": {"type": "MultiPolygon", "coordinates": [[[[48.49304, 29.971763], [48.530772, 29.956204], [48.554942, 29.956488], [48.559255, 29.946601], [48.546886, 29.934719], [48.520518, 29.9289], [48.411876, 29.938422], [48.33546, 29.961412], [48.25823444192167, 30.0], [48.45506288659272, 30.0], [48.49304, 29.971763]]], [[[47.948009, 29.994045], [47.934362222142276, 30.0], [47.948132132070675, 30.0], [47.948009, 29.994045]]], [[[47.110488, 29.960911], [47.025429, 29.772137], [46.988842, 29.712658], [46.97737, 29.657984], [46.883112, 29.512515], [46.85345, 29.44456], [46.774488, 29.363532], [46.711856, 29.271393], [46.532436, 29.095745], [46.357459, 29.063137], [44.717456, 29.193103], [44.691825, 29.201836], [43.56010903852292, 30.0], [47.14200648327716, 30.0], [47.110488, 29.960911]]]]}}, {"type": "Feature", "properties": {"name": "Iran"}, "geometry": {"type": "MultiPolygon", "coordinates": [[[[59.940823, 25.354911], [59.903806, 25.329863], [59.861696, 25.343057], [59.819865, 25.379201], [59.774873, 25.389869], [59.613997, 25.383777], [59.53799, 25.39975], [59.490443, 25.443467], [59.453902, 25.461607], [59.195323, 25.422919], [59.117198, 25.394192], [59.094086, 25.406399], [59.043956, 25.399604], [58.994314, 25.419623], [58.923513, 25.513373], [58.884451, 25.529486], [58.840343, 25.532904], [58.825206, 25.56037], [58.728038, 25.563625], [58.546397, 25.593655], [58.484141, 25.584662], [58.430512, 25.587958], [58.411794, 25.596015], [58.418956, 25.612006], [58.357595, 25.60456], [58.321056, 25.580797], [58.290701, 25.583726], [58.260753, 25.565741], [58.248302, 25.573879], [58.207286, 25.549302], [58.170421, 25.544094], [58.07309, 25.563625], [58.046235, 25.574937], [57.994314, 25.659166], [57.963227, 25.693183], [57.925304, 25.701321], [57.884044, 25.691636], [57.787446, 25.635443], [57.771739, 25.635565], [57.783051, 25.699774], [57.771251, 25.730455], [57.755626, 25.742743], [57.709727, 25.748521], [57.631847, 25.734931], [57.587169, 25.748521], [57.520681, 25.743557], [57.452485, 25.762885], [57.459972, 25.769029], [57.326182, 25.777004], [57.311534, 25.784125], [57.298676, 25.8487], [57.253591, 25.95897], [57.219737, 25.995022], [57.198578, 25.995022], [57.166759, 26.082994], [57.170909, 26.115627], [57.212901, 26.166246], [57.199229, 26.198188], [57.133067, 26.263739], [57.138438, 26.290432], [57.131033, 26.296617], [57.118175, 26.364325], [57.080333, 26.415351], [57.076345, 26.447455], [57.093435, 26.572211], [57.090017, 26.618801], [57.024913, 26.850979], [56.96518, 26.911119], [56.966482, 26.927232], [56.925548, 26.955146], [56.973318, 26.968817], [56.963552, 26.985053], [56.973318, 27.002997], [56.932384, 26.989325], [56.89088, 27.017035], [56.865489, 27.011868], [56.863455, 27.03026], [56.850597, 27.027655], [56.844086, 27.040229], [56.884613, 27.070624], [56.884613, 27.07807], [56.855317, 27.081692], [56.831391, 27.096137], [56.808849, 27.139553], [56.784434, 27.125312], [56.757335, 27.12523], [56.716075, 27.153144], [56.612315, 27.154242], [56.589692, 27.160631], [56.582856, 27.153144], [56.558604, 27.165188], [56.436534, 27.17886], [56.353038, 27.201606], [56.259613, 27.19123], [56.21518, 27.167873], [56.123709, 27.160631], [56.098888, 27.141018], [56.093516, 27.125556], [55.987315, 27.066352], [55.939301, 27.026679], [55.842459, 27.009752], [55.79835, 27.009752], [55.763682, 26.996161], [55.684825, 27.002997], [55.665863, 26.995429], [55.608572, 26.953681], [55.554454, 26.899888], [55.582367, 26.91356], [55.580414, 26.859117], [55.554454, 26.810533], [55.521739, 26.784573], [55.48406, 26.767524], [55.442231, 26.759914], [55.397309, 26.762152], [55.316742, 26.787095], [55.270844, 26.792548], [55.232921, 26.776435], [55.205903, 26.726386], [55.103282, 26.701321], [54.930675, 26.572659], [54.791026, 26.495836], [54.749685, 26.508938], [54.663829, 26.502021], [54.619965, 26.508246], [54.590587, 26.559963], [54.56129, 26.584662], [54.516612, 26.592515], [54.425629, 26.589342], [54.389415, 26.605129], [54.337738, 26.693427], [54.308116, 26.714993], [54.150401, 26.708197], [54.053722, 26.731635], [54.015798, 26.749457], [53.929373, 26.718004], [53.842784, 26.702094], [53.75172, 26.716051], [53.728282, 26.704739], [53.716075, 26.708564], [53.663829, 26.749091], [53.588634, 26.788764], [53.491547, 26.854315], [53.471446, 26.889635], [53.469086, 26.937201], [53.444102, 26.975653], [53.41212, 26.993557], [53.072032, 27.096869], [53.028656, 27.104071], [52.992198, 27.146959], [52.932628, 27.160346], [52.914724, 27.191962], [52.848318, 27.215277], [52.732188, 27.301337], [52.601329, 27.352932], [52.58074, 27.37226], [52.579112, 27.392768], [52.605235, 27.412055], [52.666515, 27.415351], [52.678966, 27.425279], [52.670095, 27.448635], [52.598399, 27.485826], [52.567638, 27.540717], [52.459646, 27.632636], [52.423106, 27.646633], [52.244884, 27.681383], [52.207205, 27.698228], [52.089203, 27.795396], [52.011241, 27.832709], [51.963715, 27.838446], [51.894298, 27.830878], [51.85963, 27.845893], [51.722799, 27.825117], [51.683443, 27.830581], [51.585134, 27.849311], [51.570323, 27.877631], [51.496424, 27.893041], [51.452077, 27.947515], [51.428156, 27.961147], [51.420405, 27.933201], [51.399876, 27.931713], [51.380271, 27.991418], [51.345222, 28.052669], [51.30753, 28.107132], [51.269759, 28.140454], [51.264822, 28.160549], [51.286876, 28.214301], [51.28533, 28.240912], [51.141856, 28.400784], [51.08074, 28.533922], [51.07252, 28.565253], [51.071544, 28.692694], [51.058849, 28.735907], [51.010916, 28.79914], [50.978689, 28.816636], [50.87615, 28.832017], [50.804861, 28.93358], [50.802582, 28.985826], [50.823253, 28.996649], [50.862478, 28.976142], [50.888682, 28.941392], [50.899262, 28.949449], [50.894867, 28.976142], [50.928966, 29.00967], [50.929942, 29.054633], [50.920177, 29.069037], [50.901703, 29.064887], [50.893321, 29.093899], [50.87436, 29.113267], [50.850841, 29.105455], [50.840343, 29.140611], [50.738292, 29.140082], [50.693696, 29.12344], [50.665863, 29.12641], [50.643809, 29.143459], [50.634939, 29.171332], [50.635753, 29.207709], [50.667491, 29.25727], [50.682628, 29.243069], [50.689464, 29.290839], [50.661469, 29.318793], [50.668224, 29.38227], [50.655284, 29.449123], [50.622732, 29.493069], [50.607432, 29.499498], [50.606944, 29.469631], [50.572765, 29.518012], [50.52003, 29.555976], [50.48878, 29.605373], [50.456065, 29.634101], [50.396983, 29.654731], [50.381602, 29.685004], [50.313324, 29.763983], [50.243826, 29.866848], [50.183849, 29.903144], [50.144867, 29.938056], [50.133962, 29.983547], [50.153331, 29.991034], [50.13999389424775, 30.0], [60.0, 30.0], [60.0, 25.359536959728075], [59.940823, 25.354911]]], [[[48.658702, 29.983629], [48.6338, 29.963039], [48.61085, 29.957017], [48.537446, 29.963039], [48.537446, 29.969875], [48.531016, 29.96133], [48.464307, 29.989127], [48.45744744082943, 30.0], [48.658870965948985, 30.0], [48.658702, 29.983629]]], [[[54.547374, 26.290432], [54.521007, 26.250963], [54.492198, 26.26557], [54.488129, 26.298041], [54.506847, 26.321234], [54.547374, 26.290432]]], [[[53.955414, 26.49258], [53.923106, 26.506537], [53.902843, 26.5362], [53.912852, 26.550198], [53.945486, 26.56509], [54.018809, 26.555569], [54.033051, 26.550442], [54.036469, 26.52676], [54.050466, 26.517768], [54.048025, 26.493842], [54.036876, 26.48843], [53.955414, 26.49258]]], [[[53.299083, 26.790717], [53.22283, 26.799547], [53.189789, 26.815172], [53.149425, 26.847886], [53.178071, 26.856879], [53.262462, 26.833645], [53.337413, 26.828681], [53.382009, 26.803127], [53.317149, 26.799994], [53.299083, 26.790717]]], [[[56.326834, 26.86107], [56.341156, 26.87934], [56.404145, 26.893052], [56.40919, 26.86225], [56.379161, 26.83869], [56.340994, 26.827623], [56.322276, 26.834418], [56.326834, 26.86107]]], [[[56.25766, 26.988715], [56.27947, 26.973822], [56.287446, 26.955146], [56.255219, 26.938788], [56.193533, 26.924547], [56.171397, 26.906806], [56.137218, 26.844672], [56.080821, 26.785346], [56.042817, 26.768134], [55.97641, 26.711575], [55.947032, 26.696275], [55.924001, 26.705024], [55.876638, 26.742906], [55.772716, 26.688381], [55.685557, 26.690497], [55.50294, 26.594875], [55.441173, 26.588609], [55.369558, 26.564114], [55.33961, 26.568996], [55.319835, 26.548285], [55.290538, 26.548489], [55.28061, 26.584662], [55.289236, 26.613593], [55.273774, 26.649807], [55.284679, 26.660224], [55.331879, 26.645331], [55.351899, 26.647447], [55.404796, 26.674018], [55.574229, 26.720689], [55.640391, 26.760565], [55.705821, 26.783271], [55.746837, 26.783271], [55.774181, 26.796942], [55.766775, 26.810533], [55.782074, 26.826158], [55.785655, 26.844957], [55.781016, 26.889635], [55.773204, 26.906724], [55.732595, 26.940904], [55.757986, 26.954047], [55.897716, 26.906806], [55.935557, 26.914781], [56.041026, 26.975653], [56.173188, 27.002346], [56.212413, 27.002997], [56.25766, 26.988715]]], [[[56.504649, 27.088935], [56.504731, 27.061672], [56.466156, 27.043931], [56.434581, 27.054836], [56.43686, 27.080024], [56.455414, 27.102769], [56.472992, 27.106024], [56.504649, 27.088935]]], [[[50.334651, 29.258661], [50.326427, 29.20893], [50.30663, 29.215446], [50.283267, 29.268939], [50.295001, 29.275218], [50.334651, 29.258661]]], [[[54.553233, 25.899848], [54.543224, 25.893052], [54.513682, 25.902655], [54.509776, 25.913764], [54.54656, 25.9265], [54.553233, 25.899848]]], [[[55.903982, 26.64525], [55.889659, 26.623765], [55.869314, 26.613023], [55.853201, 26.621039], [55.855479, 26.64411], [55.868337, 26.666449], [55.894298, 26.679429], [55.903982, 26.64525]]], [[[53.65919, 26.66885], [53.646251, 26.657172], [53.611176, 26.667304], [53.601248, 26.679592], [53.609223, 26.690497], [53.639415, 26.688788], [53.65919, 26.66885]]], [[[55.054373, 25.86461], [55.032644, 25.854641], [55.018403, 25.859605], [55.012055, 25.881619], [55.043712, 25.89289], [55.054373, 25.86461]]]]}}, {"type": "Feature", "properties": {"name": "Qatar"}, "geometry": {"type": "Polygon", "coordinates": [[[50.826671, 24.748684], [50.852794, 24.770006], [50.85963, 24.7956], [50.851085, 24.890815], [50.796641, 25.003607], [50.807384, 25.031643], [50.808604, 25.069159], [50.775727, 25.091864], [50.757823, 25.186225], [50.764985, 25.204291], [50.757823, 25.269355], [50.765798, 25.323554], [50.750987, 25.419623], [50.763845, 25.482408], [50.750987, 25.494696], [50.778005, 25.527045], [50.797093, 25.529896], [50.820508, 25.491293], [50.820486, 25.471829], [50.847179, 25.467353], [50.827891, 25.525051], [50.832856, 25.578518], [50.818533, 25.595771], [50.785004, 25.60456], [50.796397, 25.617255], [50.836925, 25.628811], [50.846528, 25.649848], [50.857188, 25.650824], [50.87615, 25.631781], [50.868663, 25.559556], [50.881521, 25.535142], [50.898692, 25.532213], [50.90919, 25.597724], [50.920584, 25.608344], [50.949555, 25.597724], [50.97755, 25.646145], [50.924327, 25.63231], [50.903168, 25.640123], [50.887543, 25.680894], [50.894867, 25.728095], [50.90919, 25.745103], [50.901703, 25.789537], [50.915538, 25.786444], [50.932872, 25.810614], [50.945567, 25.798489], [50.949555, 25.775295], [50.972992, 25.797512], [50.970714, 25.830512], [50.963878, 25.823676], [50.949392, 25.837958], [50.951182, 25.85928], [50.977306, 25.916449], [50.984223, 25.98135], [51.004731, 25.967027], [51.027354, 26.026923], [51.047374, 26.053046], [51.141856, 26.087795], [51.176117, 26.139594], [51.194347, 26.133531], [51.251231, 26.160102], [51.33074, 26.121161], [51.346853, 26.104885], [51.347179, 26.039008], [51.376638, 26.022895], [51.388438, 25.967027], [51.403982, 25.954088], [51.511974, 25.946112], [51.559418, 25.913764], [51.577485, 25.880845], [51.594493, 25.758246], [51.583507, 25.741767], [51.563324, 25.762885], [51.544607, 25.737372], [51.555024, 25.720649], [51.573985, 25.734931], [51.590099, 25.7119], [51.576834, 25.688666], [51.556814, 25.681627], [51.552908, 25.707587], [51.505138, 25.687161], [51.54713, 25.663153], [51.552908, 25.652981], [51.54949, 25.631171], [51.505138, 25.612006], [51.491384, 25.618232], [51.491384, 25.549302], [51.471934, 25.521389], [51.516938, 25.440172], [51.511974, 25.330227], [51.518809, 25.297065], [51.590017, 25.283759], [51.607595, 25.255113], [51.616547, 25.137193], [51.605724, 25.034247], [51.611013, 25.022366], [51.602306, 25.013821], [51.586925, 24.953437], [51.539399, 24.898871], [51.528819, 24.874416], [51.500255, 24.855373], [51.47283, 24.759426], [51.455821, 24.740668], [51.443614, 24.679755], [51.381521, 24.635077], [51.37615, 24.611884], [51.340587, 24.569892], [51.328949, 24.584784], [51.346853, 24.635077], [51.339122, 24.646186], [51.285981, 24.645006], [51.284434, 24.662502], [51.278087, 24.662991], [51.220958, 24.644232], [51.215258, 24.62585], [51.147451, 24.576279], [51.095465, 24.560182], [50.978883, 24.567726], [50.928602, 24.587208], [50.881008, 24.636404], [50.807872, 24.746649], [50.826671, 24.748684]]]}}, {"type": "Feature", "properties": {"name": "Saudi Arabia"}, "geometry": {"type": "MultiPolygon", "coordinates": [[[[50.881008, 24.636404], [50.928602, 24.587208], [50.978883, 24.567726], [51.095465, 24.560182], [51.147451, 24.576279], [51.215258, 24.62585], [51.217621, 24.617662], [51.268809, 24.624498], [51.295177, 24.602607], [51.306407, 24.610826], [51.306326, 24.594062], [51.290294, 24.578518], [51.302419, 24.517157], [51.333669, 24.53205], [51.361095, 24.576117], [51.38795, 24.597073], [51.395844, 24.608344], [51.395274, 24.631334], [51.443858, 24.619696], [51.455333, 24.594184], [51.498302, 24.583564], [51.498302, 24.576117], [51.443696, 24.554755], [51.395274, 24.487942], [51.336192, 24.447943], [51.306407, 24.405992], [51.299653, 24.34634], [51.278575, 24.340522], [51.278819, 24.307766], [51.344981, 24.297797], [51.412852, 24.323472], [51.479015, 24.310858], [51.526134, 24.268256], [51.569347, 24.256171], [51.575539, 24.217722], [51.573162, 24.127831], [51.593522, 24.078325], [52.558476, 22.938575], [55.105297, 22.620946], [55.120387, 22.623426], [55.186843, 22.703577], [55.626713, 22.023773], [55.637565, 21.97897], [54.97838, 19.995421], [51.978615, 18.995638], [49.128815, 18.612095], [49.035849, 18.57972], [48.161949, 18.148919], [47.589012, 17.463276], [47.457961, 17.130893], [47.427575, 17.091826], [47.161338, 16.947442], [46.983003, 16.949096], [46.970342, 16.956847], [46.747203, 17.254762], [46.710099, 17.275381], [46.322629, 17.224066], [45.430384, 17.312019], [45.384702, 17.326489], [45.222128, 17.417388], [45.165387, 17.428395], [44.646453, 17.431805], [44.561962, 17.404468], [44.404142, 17.418731], [44.211544, 17.390619], [44.149015, 17.40483], [44.10447, 17.351965], [44.08535, 17.343439], [44.003908, 17.36783], [43.982307, 17.356823], [43.938692, 17.305198], [43.915128, 17.301839], [43.894044, 17.312174], [43.892649, 17.351035], [43.886706, 17.353671], [43.863245, 17.346953], [43.76878, 17.345506], [43.730643, 17.35243], [43.689302, 17.38385], [43.619539, 17.458832], [43.577061, 17.482965], [43.487144, 17.517485], [43.412885, 17.519965], [43.303072, 17.459039], [43.215946, 17.387209], [43.165044, 17.32592], [43.222199, 17.307834], [43.241836, 17.293416], [43.252171, 17.27197], [43.248605, 17.25192], [43.176878, 17.225513], [43.156156, 17.2097], [43.145304, 17.146551], [43.118432, 17.086245], [43.135899, 17.009609], [43.108717, 16.926978], [43.112644, 16.910028], [43.145821, 16.834477], [43.194448, 16.815461], [43.211502, 16.796857], [43.208608, 16.773396], [43.182873, 16.757996], [43.168507, 16.737222], [43.186077, 16.683272], [43.179979, 16.664617], [43.162926, 16.661516], [43.097762, 16.677794], [43.084946, 16.672575], [43.074611, 16.61878], [43.036267, 16.536304], [42.970948, 16.49579], [42.906766, 16.479357], [42.906766, 16.434915], [42.898187, 16.418896], [42.872452, 16.401636], [42.78948, 16.370958], [42.788259, 16.409857], [42.781261, 16.420233], [42.794932, 16.452826], [42.788259, 16.471869], [42.739757, 16.524563], [42.728689, 16.547187], [42.725922, 16.610175], [42.737315, 16.671129], [42.719249, 16.67536], [42.725922, 16.682807], [42.703868, 16.709052], [42.701508, 16.723334], [42.712413, 16.730618], [42.635753, 16.815172], [42.596934, 16.836819], [42.575857, 16.832343], [42.541759, 16.877997], [42.555675, 16.922065], [42.5442, 17.00434], [42.524913, 17.01496], [42.512706, 17.037014], [42.459727, 17.038479], [42.44752, 17.049018], [42.425059, 17.093085], [42.410818, 17.155748], [42.3567, 17.18244], [42.384044, 17.120998], [42.36378, 17.10871], [42.373871, 17.04328], [42.362966, 17.024807], [42.3567, 17.114163], [42.339122, 17.17357], [42.31072, 17.350979], [42.315196, 17.422065], [42.301524, 17.453599], [42.273611, 17.459947], [42.26059, 17.485053], [42.152843, 17.573798], [42.14088, 17.571194], [42.093516, 17.652086], [42.053233, 17.653225], [42.043793, 17.674302], [42.000499, 17.717475], [41.97934, 17.710639], [41.938975, 17.761868], [41.869477, 17.820502], [41.84783, 17.811957], [41.810395, 17.8369], [41.787608, 17.833564], [41.778331, 17.859809], [41.719249, 17.909247], [41.677257, 17.960598], [41.670909, 17.977525], [41.673676, 18.009263], [41.653575, 18.015326], [41.651052, 18.039008], [41.593516, 18.095893], [41.60255, 18.114691], [41.570811, 18.165188], [41.556407, 18.174302], [41.561046, 18.189846], [41.521332, 18.196682], [41.533702, 18.210354], [41.518565, 18.227973], [41.493337, 18.223944], [41.504649, 18.242987], [41.500173, 18.258734], [41.506358, 18.272203], [41.500499, 18.278998], [41.472179, 18.279202], [41.472016, 18.311957], [41.450857, 18.356024], [41.439708, 18.41059], [41.435802, 18.469957], [41.415782, 18.481513], [41.411469, 18.505764], [41.369802, 18.535834], [41.355724, 18.569037], [41.328298, 18.587633], [41.307791, 18.573432], [41.275401, 18.592027], [41.210216, 18.697943], [41.212169, 18.731024], [41.249034, 18.834174], [41.239513, 18.848334], [41.212169, 18.862006], [41.171235, 18.871649], [41.16033, 18.908881], [41.136485, 18.93651], [41.137218, 18.957709], [41.176524, 19.067369], [41.149425, 19.093736], [41.068614, 19.125393], [41.040212, 19.183539], [41.048188, 19.217719], [41.036143, 19.264553], [41.017833, 19.273993], [41.009125, 19.304023], [40.998302, 19.314927], [40.955903, 19.343329], [40.956716, 19.368638], [40.937673, 19.419379], [40.938324, 19.430569], [40.959239, 19.456], [40.944672, 19.505683], [40.83546, 19.546617], [40.784679, 19.59634], [40.760427, 19.60871], [40.760427, 19.614936], [40.771251, 19.613511], [40.794444, 19.601264], [40.798025, 19.692328], [40.790863, 19.714057], [40.744884, 19.777004], [40.725434, 19.789252], [40.654063, 19.794338], [40.64503, 19.784735], [40.656586, 19.759508], [40.628673, 19.792141], [40.619477, 19.82099], [40.605154, 19.829535], [40.564464, 19.885891], [40.527029, 19.910346], [40.540538, 19.943915], [40.534516, 19.961819], [40.445567, 20.009711], [40.393565, 20.064276], [40.313487, 20.090725], [40.232107, 20.16356], [40.23878, 20.178046], [40.221853, 20.189032], [40.164806, 20.200385], [40.125987, 20.245551], [40.083832, 20.279242], [40.045177, 20.286119], [40.000336, 20.275133], [40.0, 20.27479371295634], [40.0, 30.0], [43.56010903852292, 30.0], [44.691825, 29.201836], [44.717456, 29.193103], [46.357459, 29.063137], [46.532436, 29.095745], [47.433466, 28.994717], [47.494496, 28.904025], [47.549945, 28.770596], [47.55842, 28.69148], [47.581674, 28.631483], [47.596815, 28.608823], [47.659809, 28.560041], [47.668129, 28.533505], [48.432781, 28.54048], [48.456391, 28.518459], [48.49464, 28.500149], [48.507823, 28.415717], [48.499034, 28.393378], [48.476085, 28.400784], [48.468761, 28.387112], [48.504893, 28.389635], [48.523936, 28.414455], [48.535492, 28.40762], [48.517833, 28.354193], [48.522227, 28.318834], [48.618419, 28.217271], [48.623546, 28.205268], [48.601736, 28.167385], [48.600841, 28.147773], [48.606456, 28.126451], [48.654796, 28.061591], [48.65211, 28.046088], [48.701996, 28.023993], [48.747081, 28.023993], [48.792003, 28.007025], [48.784516, 27.989244], [48.746837, 27.981635], [48.743663, 27.96133], [48.773285, 27.929755], [48.814708, 27.906684], [48.88266, 27.826728], [48.87379, 27.806586], [48.874522, 27.769924], [48.839203, 27.728583], [48.857595, 27.803534], [48.852875, 27.817939], [48.838064, 27.804023], [48.821788, 27.766832], [48.805024, 27.756496], [48.825531, 27.811103], [48.820567, 27.830024], [48.812511, 27.828599], [48.778819, 27.71955], [48.791352, 27.714911], [48.81129, 27.742825], [48.815278, 27.687567], [48.839203, 27.708075], [48.846202, 27.697089], [48.84547, 27.667141], [48.858084, 27.662828], [48.880138, 27.687567], [48.877126, 27.644477], [48.85963, 27.640448], [48.873302, 27.612494], [48.848969, 27.623358], [48.838878, 27.623196], [48.831798, 27.612494], [48.870779, 27.605618], [48.900645, 27.632961], [48.907481, 27.61872], [48.895274, 27.607733], [48.891124, 27.588121], [48.896739, 27.572008], [48.914317, 27.571519], [48.921641, 27.578843], [48.907481, 27.599433], [48.915294, 27.608629], [48.968516, 27.620347], [49.05421, 27.568264], [49.063975, 27.556342], [49.044688, 27.544176], [49.05893, 27.538153], [49.077647, 27.546536], [49.072032, 27.557847], [49.106293, 27.546861], [49.144298, 27.544176], [49.178477, 27.557847], [49.239757, 27.545111], [49.305349, 27.482123], [49.312755, 27.448635], [49.292654, 27.452948], [49.291759, 27.475328], [49.284923, 27.475328], [49.263927, 27.452867], [49.208832, 27.458075], [49.181895, 27.441148], [49.175059, 27.458319], [49.157725, 27.458482], [49.119802, 27.441148], [49.161388, 27.426907], [49.207042, 27.395168], [49.240245, 27.427191], [49.263845, 27.413886], [49.229666, 27.379706], [49.223399, 27.331285], [49.278819, 27.358791], [49.312755, 27.344957], [49.304861, 27.325507], [49.319021, 27.266425], [49.322602, 27.205715], [49.339529, 27.207831], [49.33839, 27.189602], [49.345225, 27.182807], [49.366873, 27.194159], [49.361827, 27.209133], [49.37086, 27.218736], [49.386404, 27.219631], [49.40089, 27.207831], [49.407074, 27.215277], [49.412364, 27.204006], [49.397472, 27.162584], [49.366873, 27.160631], [49.374848, 27.149075], [49.399099, 27.144721], [49.407074, 27.132717], [49.435069, 27.166815], [49.441905, 27.160631], [49.431895, 27.142768], [49.465668, 27.146959], [49.524425, 27.132717], [49.489106, 27.17475], [49.50408, 27.187934], [49.516449, 27.188381], [49.544932, 27.173651], [49.572113, 27.194159], [49.558604, 27.139553], [49.570079, 27.104071], [49.612478, 27.071967], [49.699474, 26.958238], [49.871837, 26.862494], [49.942149, 26.858344], [49.972992, 26.842353], [50.001964, 26.816962], [50.069102, 26.728583], [50.158458, 26.664862], [50.161876, 26.639228], [50.09254, 26.689114], [50.023692, 26.69953], [50.014008, 26.710761], [50.006358, 26.747626], [49.988455, 26.724433], [49.983246, 26.683743], [50.006358, 26.648586], [50.003673, 26.570705], [50.03061, 26.494615], [50.058279, 26.463935], [50.162283, 26.427069], [50.19158, 26.403551], [50.209239, 26.369534], [50.216563, 26.32392], [50.21225, 26.191311], [50.201996, 26.171373], [50.182384, 26.160102], [50.181895, 26.175482], [50.174083, 26.180732], [50.154552, 26.166246], [50.158376, 26.102484], [50.141368, 26.035956], [50.125824, 26.046454], [50.113292, 26.103258], [50.073578, 26.131537], [50.065684, 26.173733], [50.0324, 26.201077], [50.021007, 26.197659], [49.994884, 26.152167], [49.975841, 26.139594], [50.010427, 26.07689], [49.990001, 26.060452], [49.996918, 26.017279], [49.990001, 26.001776], [50.006847, 25.996527], [50.021007, 26.004462], [50.028168, 26.019477], [50.024099, 26.035956], [50.064626, 26.013373], [50.066905, 25.996283], [50.101329, 25.989488], [50.127696, 25.940375], [50.107758, 25.91474], [50.118337, 25.867865], [50.161876, 25.782701], [50.247244, 25.679429], [50.257498, 25.631903], [50.251231, 25.631903], [50.226736, 25.687161], [50.187511, 25.703559], [50.15919, 25.731757], [50.144705, 25.733344], [50.141368, 25.713813], [50.148692, 25.699856], [50.182384, 25.672838], [50.196056, 25.687161], [50.23406, 25.61518], [50.347992, 25.482123], [50.374278, 25.461168], [50.36199, 25.502997], [50.381358, 25.512885], [50.410167, 25.464097], [50.462901, 25.446926], [50.471528, 25.437201], [50.490896, 25.392279], [50.483409, 25.385443], [50.520356, 25.314765], [50.525076, 25.29267], [50.517589, 25.244859], [50.549083, 25.174791], [50.545421, 25.118598], [50.562185, 25.054836], [50.572765, 25.042873], [50.580414, 25.062161], [50.606293, 25.042711], [50.661632, 24.979967], [50.681407, 24.913886], [50.72641, 24.881659], [50.737315, 24.782172], [50.76059, 24.736396], [50.771332, 24.726955], [50.786143, 24.72724], [50.807872, 24.746649], [50.881008, 24.636404]]], [[[42.176556, 16.651644], [42.188199, 16.605264], [42.178559, 16.583482], [42.155836, 16.584977], [42.127975, 16.617357], [42.083815, 16.626718], [42.07317, 16.635801], [42.117633, 16.659855], [42.111114, 16.68047], [42.085753, 16.693525], [42.01056, 16.682557], [41.975532, 16.663553], [41.955457, 16.670115], [41.916863, 16.705099], [41.894087, 16.710394], [41.843368, 16.74672], [41.824941, 16.798237], [41.807561, 16.80992], [41.778168, 16.81269], [41.77956, 16.840952], [41.755614, 16.878387], [41.757085, 16.896372], [41.828084, 16.858608], [41.86006, 16.821122], [41.863292, 16.785142], [41.905143, 16.747581], [41.941391, 16.751169], [41.953321, 16.733098], [42.011048, 16.73908], [42.02302, 16.727427], [42.022921, 16.715867], [42.03499, 16.715773], [42.064606, 16.728382], [42.036488, 16.733744], [42.021739, 16.755805], [42.047862, 16.812079], [42.062185, 16.814195], [42.104076, 16.792283], [42.116547, 16.744167], [42.141165, 16.740596], [42.147694, 16.721273], [42.186438, 16.705528], [42.176556, 16.651644]]], [[[41.834972, 16.891669], [41.846202, 16.901272], [41.88795, 16.907782], [41.910981, 16.936021], [41.923106, 16.935045], [41.928477, 16.954901], [41.920909, 16.978949], [41.846202, 16.997463], [41.86085, 17.013617], [41.863292, 17.00495], [41.921153, 16.992011], [41.938162, 16.972886], [41.94516, 16.942288], [41.943802, 16.883459], [41.975963, 16.875505], [41.985181, 16.853596], [41.944102, 16.853013], [41.932302, 16.838365], [41.938162, 16.821357], [41.995442, 16.797002], [42.001845, 16.760987], [41.97247, 16.77791], [41.918893, 16.791155], [41.834972, 16.891669]]], [[[49.585134, 27.344306], [49.688813, 27.317694], [49.670421, 27.311428], [49.60727, 27.322455], [49.56544, 27.297797], [49.538097, 27.311469], [49.554047, 27.328274], [49.531261, 27.346177], [49.487559, 27.334133], [49.456228, 27.290351], [49.453624, 27.316392], [49.472179, 27.342027], [49.501231, 27.360541], [49.531261, 27.365465], [49.585134, 27.344306]]]]}}, {"type": "Feature", "properties": {"name": "Kuwait"}, "geometry": {"type": "MultiPolygon", "coordinates": [[[[47.975271, 29.942572], [47.982677, 29.860663], [47.995616, 29.827704], [48.021739, 29.779731], [48.052419, 29.742987], [48.078868, 29.743964], [48.119151, 29.654527], [48.161306, 29.60163], [48.180917, 29.562217], [48.176758, 29.541916], [48.154518, 29.53909], [48.113536, 29.554633], [48.085948, 29.575019], [48.023859, 29.584809], [47.965531, 29.576298], [47.91062, 29.531789], [47.849258, 29.501979], [47.807043, 29.467622], [47.763865, 29.412933], [47.718387, 29.394195], [47.704717, 29.363633], [47.791744, 29.372481], [47.837304, 29.387505], [47.851152, 29.380198], [47.822612, 29.363431], [47.816434, 29.337556], [47.840926, 29.322931], [47.857903, 29.323029], [47.899185, 29.335249], [47.905387, 29.359263], [47.920202, 29.364872], [47.939326, 29.359433], [47.98574, 29.393761], [48.025238, 29.354885], [48.063274, 29.343368], [48.100266, 29.349954], [48.095376, 29.257746], [48.106131, 29.213525], [48.133804, 29.153617], [48.158458, 29.017279], [48.225922, 28.91828], [48.240977, 28.905666], [48.27947, 28.894436], [48.276866, 28.839586], [48.328787, 28.759955], [48.393565, 28.743394], [48.379649, 28.710354], [48.386729, 28.675116], [48.366222, 28.688707], [48.365977, 28.675727], [48.379893, 28.66767], [48.367686, 28.656724], [48.352712, 28.661444], [48.351817, 28.64053], [48.361013, 28.635565], [48.386729, 28.653998], [48.397146, 28.583319], [48.432781, 28.54048], [47.668129, 28.533505], [47.659809, 28.560041], [47.596815, 28.608823], [47.581674, 28.631483], [47.55842, 28.69148], [47.549945, 28.770596], [47.494496, 28.904025], [47.434086, 28.994588], [46.532436, 29.095745], [46.711856, 29.271393], [46.774488, 29.363532], [46.85345, 29.44456], [46.883112, 29.512515], [46.957836, 29.620441], [46.97737, 29.657984], [46.988842, 29.712658], [47.025429, 29.772137], [47.110488, 29.960911], [47.14200648327716, 30.0], [47.934362222142276, 30.0], [47.948009, 29.994045], [47.975271, 29.942572]]], [[[48.37322, 29.443061], [48.389008, 29.424872], [48.397356, 29.387497], [48.316867, 29.427013], [48.269242, 29.429685], [48.27003, 29.455959], [48.281098, 29.471096], [48.338227, 29.462795], [48.37322, 29.443061]]], [[[48.303071, 29.645209], [48.266287, 29.615953], [48.229015, 29.599921], [48.185802, 29.603949], [48.161632, 29.629706], [48.085134, 29.767808], [48.046072, 29.800482], [48.113292, 29.839097], [48.119151, 29.873603], [48.085134, 29.879869], [48.095063, 29.894721], [48.133556, 29.879869], [48.158702, 29.879218], [48.166515, 29.885932], [48.160818, 29.901557], [48.193696, 29.916449], [48.197439, 29.92536], [48.181326, 29.935126], [48.147227, 29.935126], [48.140391, 29.969875], [48.122732, 29.969672], [48.11671, 29.974066], [48.12086, 29.981391], [48.16212, 29.995673], [48.188731, 29.983547], [48.344493, 29.790595], [48.359548, 29.754462], [48.352712, 29.709784], [48.303071, 29.645209]]], [[[48.05836, 29.983547], [48.031098, 29.971015], [48.010753, 29.980455], [48.009288, 29.986884], [48.025129203255496, 30.0], [48.0814093507141, 30.0], [48.05836, 29.983547]]]]}}, {"type": "Feature", "properties": {"name": "Yemen"}, "geometry": {"type": "MultiPolygon", "coordinates": [[[[52.730145, 17.299875], [52.721464, 17.29817], [52.736243, 17.289178], [52.79102, 17.28122], [52.801562, 17.267423], [53.090343, 16.642401], [53.021821, 16.619452], [52.984874, 16.62816], [52.973888, 16.618313], [52.940278, 16.610175], [52.909923, 16.583075], [52.851085, 16.556138], [52.809093, 16.548326], [52.736827, 16.511949], [52.597667, 16.476711], [52.532563, 16.447252], [52.420421, 16.371243], [52.292735, 16.263821], [52.261404, 16.20897], [52.221446, 16.160875], [52.217052, 16.138088], [52.224376, 16.113593], [52.194347, 16.070299], [52.184093, 16.029446], [52.160004, 16.002102], [52.155528, 15.983873], [52.186534, 15.919094], [52.175466, 15.877916], [52.224376, 15.846747], [52.217052, 15.760728], [52.221446, 15.716986], [52.231212, 15.67475], [52.244884, 15.657701], [52.228363, 15.616116], [52.04713, 15.570014], [52.025727, 15.551215], [51.913097, 15.515326], [51.874197, 15.491523], [51.868663, 15.451565], [51.829275, 15.468695], [51.809418, 15.455756], [51.7588, 15.445624], [51.679942, 15.403469], [51.66212, 15.377143], [51.676443, 15.340277], [51.530528, 15.31684], [51.498302, 15.298041], [51.474294, 15.270697], [51.454275, 15.269517], [51.367849, 15.229722], [51.342459, 15.237698], [51.268809, 15.201809], [51.069835, 15.149644], [50.851329, 15.109931], [50.661469, 15.058498], [50.554047, 15.04857], [50.459483, 15.010443], [50.358246, 14.933336], [50.302257, 14.917467], [50.179535, 14.843329], [50.146251, 14.849799], [50.04184, 14.818264], [50.029796, 14.850287], [49.942149, 14.838772], [49.798595, 14.792182], [49.578136, 14.737291], [49.46046, 14.67357], [49.372406, 14.649807], [49.190196, 14.54857], [49.181895, 14.516588], [49.137055, 14.53266], [49.092784, 14.519599], [49.028087, 14.436347], [49.009939, 14.401109], [49.000255, 14.359565], [49.007986, 14.354438], [49.003673, 14.324774], [48.941661, 14.294379], [48.935802, 14.270453], [48.886974, 14.250312], [48.880138, 14.212104], [48.862966, 14.194648], [48.85255, 14.166978], [48.797618, 14.140448], [48.738292, 14.068183], [48.695811, 14.043606], [48.564789, 14.046047], [48.548106, 14.040513], [48.503429, 14.002631], [48.468761, 13.988959], [48.45045, 14.010647], [48.338227, 14.016303], [48.345714, 14.002631], [48.30421, 14.001899], [48.188731, 13.969143], [48.193614, 13.993394], [48.140391, 14.030585], [48.133556, 14.023139], [48.016856, 14.057278], [47.931163, 14.030585], [47.866547, 13.961656], [47.820974, 13.938463], [47.667247, 13.887193], [47.645681, 13.873196], [47.56422, 13.78913], [47.436046, 13.678046], [47.398204, 13.654853], [47.16684, 13.585598], [46.911876, 13.533271], [46.824229, 13.476304], [46.700694, 13.430325], [46.604747, 13.440904], [46.52003, 13.413031], [46.312999, 13.41356], [46.269542, 13.420478], [46.234548, 13.436347], [46.19752, 13.420478], [46.111339, 13.406806], [45.940603, 13.399359], [45.875743, 13.379462], [45.81544, 13.379543], [45.665782, 13.341986], [45.632091, 13.324897], [45.494151, 13.194648], [45.481456, 13.157538], [45.403005, 13.070136], [45.365245, 13.053697], [45.193533, 13.012681], [45.154063, 12.992133], [45.118175, 12.961737], [45.093761, 12.926256], [45.058767, 12.827135], [45.058604, 12.76203], [45.017751, 12.759833], [44.97934, 12.782294], [44.980968, 12.797309], [45.035167, 12.803656], [45.042491, 12.820868], [45.015147, 12.85871], [44.998057, 12.831448], [44.97755, 12.838202], [44.944591, 12.83397], [44.916759, 12.799465], [44.898285, 12.79621], [44.884776, 12.81094], [44.871593, 12.803534], [44.871837, 12.769965], [44.885427, 12.777981], [44.920909, 12.771389], [44.912771, 12.748196], [44.881358, 12.729885], [44.83961, 12.743476], [44.822602, 12.765082], [44.785167, 12.772284], [44.727794, 12.742011], [44.719249, 12.780097], [44.693614, 12.803453], [44.652354, 12.817939], [44.610606, 12.819566], [44.542817, 12.797309], [44.489919, 12.753485], [44.415538, 12.670152], [44.406993, 12.685248], [44.289561, 12.638983], [44.228526, 12.638658], [44.191173, 12.619127], [44.149425, 12.624986], [44.138031, 12.638983], [44.189952, 12.632148], [44.198416, 12.639065], [44.191173, 12.660468], [44.179698, 12.652655], [44.153494, 12.655951], [44.062348, 12.611721], [44.0171, 12.603705], [43.99171, 12.612128], [43.9463, 12.598049], [43.927094, 12.610175], [43.909434, 12.645331], [43.894786, 12.652655], [43.857758, 12.662543], [43.813487, 12.688381], [43.737804, 12.705756], [43.679454, 12.735256], [43.644054, 12.734565], [43.600597, 12.756293], [43.525564, 12.690375], [43.490733, 12.680609], [43.468028, 12.683905], [43.46225, 12.693345], [43.481212, 12.773424], [43.473155, 12.846625], [43.452891, 12.878607], [43.422618, 12.906195], [43.415538, 12.9289], [43.401378, 12.943427], [43.386404, 13.00727], [43.341807, 13.062649], [43.308849, 13.139309], [43.248871, 13.212714], [43.226329, 13.283881], [43.248302, 13.348944], [43.254242, 13.526557], [43.284516, 13.58039], [43.295177, 13.585598], [43.281993, 13.617133], [43.280935, 13.722113], [43.2435, 13.794338], [43.233165, 13.87637], [43.161717, 13.95399], [43.118067, 14.052492], [43.09552, 14.083956], [43.075792, 14.194759], [43.010997, 14.388414], [42.987315, 14.489244], [42.959321, 14.513495], [42.965994, 14.53026], [42.983653, 14.520331], [43.006114, 14.454779], [43.021495, 14.442084], [43.014008, 14.496772], [43.028656, 14.537991], [42.987315, 14.633857], [42.999848, 14.663316], [42.961681, 14.708564], [42.942231, 14.788886], [42.894542, 14.84748], [42.883637, 14.883694], [42.883311, 14.915513], [42.895763, 14.905992], [42.891124, 14.880316], [42.910411, 14.841376], [42.945649, 14.811428], [42.952322, 14.879543], [42.937266, 14.948472], [42.880138, 15.024848], [42.882335, 15.102484], [42.864024, 15.13642], [42.828949, 15.15176], [42.776703, 15.191392], [42.733409, 15.209296], [42.691417, 15.21426], [42.676931, 15.205797], [42.671397, 15.18537], [42.637706, 15.190863], [42.618012, 15.207506], [42.610118, 15.243598], [42.654633, 15.237209], [42.682628, 15.246487], [42.691905, 15.270697], [42.678233, 15.308295], [42.712413, 15.366278], [42.715099, 15.336982], [42.699392, 15.311672], [42.774262, 15.260443], [42.778575, 15.221625], [42.794932, 15.209296], [42.788097, 15.229722], [42.803071, 15.245185], [42.809093, 15.267768], [42.806895, 15.344306], [42.777192, 15.421942], [42.781261, 15.455715], [42.774262, 15.491034], [42.719249, 15.570014], [42.733409, 15.592231], [42.708263, 15.627834], [42.713634, 15.694729], [42.691905, 15.702094], [42.699229, 15.717434], [42.74171, 15.753241], [42.752452, 15.816392], [42.765798, 15.835761], [42.819998, 15.874945], [42.834809, 15.915351], [42.840099, 16.097805], [42.812755, 16.238267], [42.802989, 16.347357], [42.78948, 16.370958], [42.872452, 16.401636], [42.898187, 16.418896], [42.906766, 16.434915], [42.906766, 16.479357], [42.970948, 16.49579], [43.036267, 16.536304], [43.074611, 16.61878], [43.084946, 16.672575], [43.097762, 16.677794], [43.162926, 16.661516], [43.179979, 16.664617], [43.186077, 16.683272], [43.168507, 16.737222], [43.182873, 16.757996], [43.208608, 16.773396], [43.211502, 16.796857], [43.194448, 16.815461], [43.145821, 16.834477], [43.112644, 16.910028], [43.108717, 16.926978], [43.135899, 17.009609], [43.118432, 17.086245], [43.145304, 17.146551], [43.156156, 17.2097], [43.176878, 17.225513], [43.248605, 17.25192], [43.252171, 17.27197], [43.241836, 17.293416], [43.222199, 17.307834], [43.165044, 17.32592], [43.215946, 17.387209], [43.303072, 17.459039], [43.412885, 17.519965], [43.50337, 17.513454], [43.619539, 17.458832], [43.689302, 17.38385], [43.730643, 17.35243], [43.76878, 17.345506], [43.863245, 17.346953], [43.886706, 17.353671], [43.892649, 17.351035], [43.894044, 17.312174], [43.915128, 17.301839], [43.938692, 17.305198], [43.982307, 17.356823], [44.003908, 17.36783], [44.08535, 17.343439], [44.10447, 17.351965], [44.149015, 17.40483], [44.211544, 17.390619], [44.404142, 17.418731], [44.561962, 17.404468], [44.646453, 17.431805], [45.165387, 17.428395], [45.222128, 17.417388], [45.384702, 17.326489], [45.430384, 17.312019], [46.322629, 17.224066], [46.710099, 17.275381], [46.747203, 17.254762], [46.970342, 16.956847], [46.983003, 16.949096], [47.161338, 16.947442], [47.427575, 17.091826], [47.457961, 17.130893], [47.589012, 17.463276], [48.161949, 18.148919], [49.035849, 18.57972], [49.128815, 18.612095], [51.978615, 18.995638], [52.730145, 17.299875]]], [[[53.286884, 12.127337], [53.310267, 12.111444], [53.263076, 12.114869], [53.248326, 12.121302], [53.286884, 12.127337]]], [[[53.082918, 12.164794], [53.086378, 12.134344], [53.05659, 12.128251], [52.985265, 12.162727], [52.98872, 12.172198], [53.003953, 12.176942], [53.053068, 12.17492], [53.082918, 12.164794]]], [[[52.319374, 12.188264], [52.374685, 12.200588], [52.389578, 12.197252], [52.394705, 12.187323], [52.371129, 12.171565], [52.388464, 12.148868], [52.359981, 12.153854], [52.330577, 12.146186], [52.24023, 12.156877], [52.224376, 12.180325], [52.179861, 12.172838], [52.162364, 12.197414], [52.136691, 12.204541], [52.112315, 12.198635], [52.068487, 12.222008], [52.064118, 12.235473], [52.118435, 12.241549], [52.147777, 12.234898], [52.200434, 12.206443], [52.289199, 12.200815], [52.319374, 12.188264]]], [[[43.442231, 12.667222], [43.448985, 12.652981], [43.447439, 12.638658], [43.435802, 12.632148], [43.411388, 12.652655], [43.392751, 12.653062], [43.390147, 12.666327], [43.428966, 12.673774], [43.442231, 12.667222]]], [[[54.516092, 12.558434], [54.540294, 12.550238], [54.527927, 12.537446], [54.457423, 12.519228], [54.446654, 12.51115], [54.444684, 12.484721], [54.40234, 12.467224], [54.328169, 12.443457], [54.283337, 12.447291], [54.245942, 12.433539], [54.218761, 12.3994], [54.140498, 12.351344], [54.047546, 12.352962], [54.008244, 12.329857], [53.969981, 12.341864], [53.731165, 12.300414], [53.672924, 12.306342], [53.572147, 12.334614], [53.505626, 12.416327], [53.479375, 12.42517], [53.334239, 12.51553], [53.306895, 12.543402], [53.315684, 12.550279], [53.363002, 12.544913], [53.389415, 12.560777], [53.403168, 12.598049], [53.396027, 12.656468], [53.470077, 12.671424], [53.499869, 12.712065], [53.518946, 12.714351], [53.606198, 12.699985], [53.654755, 12.704758], [53.762894, 12.619703], [53.846104, 12.598605], [53.875995, 12.647294], [53.903391, 12.653031], [53.940184, 12.642426], [54.008097, 12.645744], [54.058259, 12.671163], [54.093028, 12.698879], [54.119395, 12.701117], [54.16789, 12.664995], [54.195491, 12.6754], [54.218761, 12.652655], [54.26002, 12.647528], [54.269341, 12.632119], [54.360145, 12.602689], [54.470662, 12.543566], [54.516092, 12.558434]]], [[[42.782563, 13.779934], [42.794932, 13.769924], [42.79184, 13.750718], [42.761485, 13.719306], [42.75408, 13.697903], [42.688487, 13.663764], [42.693533, 13.699205], [42.719249, 13.742621], [42.782563, 13.779934]]], [[[42.767589, 14.071519], [42.801768, 14.023139], [42.788097, 13.975328], [42.788585, 13.926703], [42.781749, 13.919989], [42.75408, 13.920722], [42.767589, 13.948676], [42.721528, 13.969387], [42.700694, 13.987942], [42.691905, 14.01317], [42.721039, 14.045966], [42.767589, 14.071519]]], [[[42.610362, 15.429389], [42.608084, 15.410386], [42.581554, 15.391588], [42.628184, 15.398668], [42.608409, 15.314032], [42.614106, 15.308051], [42.582205, 15.268215], [42.56837, 15.268866], [42.545746, 15.29442], [42.55893, 15.392971], [42.601899, 15.446275], [42.623871, 15.457343], [42.635997, 15.445543], [42.610362, 15.429389]]]]}}, {"type": "Feature", "properties": {"name": "Bahrain"}, "geometry": {"type": "MultiPolygon", "coordinates": [[[[50.594737, 26.160305], [50.619898, 26.185466], [50.632779, 26.146823], [50.64566, 26.14575], [50.635507, 26.134382], [50.634926, 26.115694], [50.614757, 26.111151], [50.618419, 25.964748], [50.603526, 25.85456], [50.565278, 25.789537], [50.531423, 25.88524], [50.467784, 25.957587], [50.46046, 25.985297], [50.490896, 26.048], [50.485199, 26.085639], [50.448904, 26.161607], [50.461192, 26.225246], [50.481456, 26.24258], [50.516368, 26.239691], [50.545421, 26.227729], [50.586681, 26.242499], [50.593272, 26.238593], [50.609141, 26.208279], [50.603526, 26.197659], [50.551606, 26.194241], [50.594737, 26.160305]]], [[[50.419172, 26.166144], [50.423466, 26.119988], [50.385897, 26.123208], [50.382676, 26.159704], [50.397704, 26.174732], [50.419172, 26.166144]]], [[[50.632779, 26.287439], [50.65532, 26.276705], [50.656394, 26.24665], [50.684302, 26.221961], [50.678935, 26.208007], [50.673568, 26.20264], [50.657467, 26.211227], [50.647807, 26.239136], [50.612384, 26.241283], [50.599504, 26.262751], [50.60165, 26.278852], [50.632779, 26.287439]]], [[[50.80089, 25.73114], [50.78317, 25.696967], [50.795827, 25.684943], [50.762286, 25.667856], [50.776209, 25.638745], [50.765451, 25.629886], [50.77431, 25.612166], [50.756591, 25.579891], [50.737606, 25.595712], [50.748997, 25.621026], [50.741403, 25.674185], [50.77431, 25.721648], [50.80089, 25.73114]]], [[[50.790132, 25.755188], [50.791397, 25.74886], [50.780639, 25.745063], [50.775576, 25.752657], [50.790132, 25.755188]]], [[[50.819875, 25.678614], [50.816711, 25.669122], [50.808484, 25.664059], [50.804687, 25.679247], [50.819875, 25.678614]]], [[[50.816711, 25.644441], [50.811648, 25.631784], [50.790764, 25.630518], [50.785069, 25.648238], [50.816711, 25.644441]]]]}}]}