{"type": "FeatureCollection", "features": [{"type": "Feature", "properties": {"name": "Barina-Waini", "country": "GUY"}, "geometry": {"type": "Polygon", "coordinates": [[[-58.79934, 7.6790101], [-58.80725, 7.6859299], [-58.81402, 7.70008], [-58.8140601, 7.7070401], [-58.8187201, 7.7103701], [-58.8307, 7.7319599], [-58.84625, 7.74426], [-58.8545201, 7.74513], [-58.86928, 7.7531801], [-58.8926601, 7.78271], [-58.91055, 7.79602], [-58.91339, 7.7949801], [-58.9240499, 7.81117], [-58.93622, 7.81729], [-58.96588, 7.85967], [-58.9902801, 7.8840301], [-59.0186201, 7.92022], [-59.0412099, 7.9407201], [-59.0854, 7.9933201], [-59.12073, 8.02716], [-59.16277, 8.05965], [-59.16069, 8.05656], [-59.1889401, 8.0713601], [-59.22579, 8.0978201], [-59.25872, 8.11348], [-59.29297, 8.13802], [-59.32589, 8.1543199], [-59.35055, 8.17169], [-59.4032099, 8.20075], [-59.4574599, 8.2364799], [-59.6032635, 8.3104364], [-59.6749299, 8.35871], [-59.73956, 8.39405], [-59.76781, 8.4031201], [-59.80427, 8.4032499], [-59.8120099, 8.39998], [-59.81608, 8.3906799], [-59.7600014, 8.3530425], [-59.7639793, 8.3497836], [-59.7726301, 8.3528592], [-59.7808899, 8.3517899], [-59.7814361, 8.3425313], [-59.8220752, 8.3606376], [-59.83938, 8.35936], [-59.8573, 8.3720901], [-59.87765, 8.3959001], [-59.90232, 8.4443799], [-59.9364496, 8.4884466], [-59.9868111, 8.5283698], [-59.828611, 8.329167], [-59.809167, 8.300833], [-59.801389, 8.275], [-59.819444, 8.258611], [-59.825556, 8.236111], [-59.831944, 8.228889], [-59.848333, 8.225], [-59.879167, 8.222222], [-59.900278, 8.216389], [-59.9453331, 8.2133579], [-59.9459729, 8.1976161], [-59.9760317, 8.1879679], [-59.982651, 8.1684247], [-59.9934055, 8.1582008], [-59.9933277, 8.1515737], [-59.9818264, 8.138829], [-59.9806248, 8.1327114], [-59.994186, 8.1196262], [-59.9998508, 8.1002525], [-59.9995205, 8.0753264], [-60.0057768, 8.07209], [-60.0057998, 8.0600926], [-60.0238036, 8.0450595], [-60.0318968, 8.0333314], [-60.0409562, 8.0361311], [-60.048431, 8.027168], [-60.061274, 8.023432], [-60.077847, 8.032439], [-60.084816, 8.030471], [-60.088928, 8.035839], [-60.100616, 8.03528], [-60.104128, 8.029461], [-60.1219344, 8.0288746], [-60.122165, 8.020534], [-60.140796, 7.989915], [-60.162765, 7.979644], [-60.166679, 7.972572], [-60.172482, 7.973535], [-60.190025, 7.961377], [-60.192204, 7.965793], [-60.197777, 7.967329], [-60.196807, 7.961934], [-60.199451, 7.959057], [-60.219113, 7.957744], [-60.234638, 7.944211], [-60.230393, 7.935265], [-60.242813, 7.930984], [-60.242993, 7.921682], [-60.247768, 7.910702], [-60.253109, 7.915109], [-60.260247, 7.901538], [-60.262314, 7.903543], [-60.262604, 7.898719], [-60.269619, 7.89646], [-60.276982, 7.886391], [-60.28365, 7.882009], [-60.287156, 7.883895], [-60.288079, 7.878437], [-60.29388, 7.878995], [-60.293651, 7.876124], [-60.301125, 7.871395], [-60.31216, 7.869469], [-60.317569, 7.857453], [-60.331249, 7.849661], [-60.33292, 7.841675], [-60.34407, 7.837048], [-60.348252, 7.831281], [-60.361729, 7.824885], [-60.363556, 7.828197], [-60.368182, 7.827912], [-60.370866, 7.833051], [-60.376626, 7.833129], [-60.379498, 7.839812], [-60.382536, 7.832853], [-60.401679, 7.826618], [-60.404816, 7.820792], [-60.407207, 7.825473], [-60.42135, 7.825074], [-60.423441, 7.829307], [-60.42862, 7.830702], [-60.435692, 7.827664], [-60.437634, 7.83613], [-60.441808, 7.838004], [-60.448191, 7.839566], [-60.457305, 7.835333], [-60.466966, 7.838321], [-60.47105, 7.834088], [-60.47588, 7.833988], [-60.476057, 7.831127], [-60.480024, 7.833331], [-60.488052, 7.829763], [-60.490749, 7.83181], [-60.499078, 7.829807], [-60.501173, 7.835025], [-60.507784, 7.832134], [-60.509773, 7.827353], [-60.514591, 7.829877], [-60.520786, 7.822306], [-60.530576, 7.821809], [-60.540174, 7.815728], [-60.541512, 7.811025], [-60.535394, 7.804906], [-60.5371, 7.80298], [-60.532231, 7.795094], [-60.543979, 7.782778], [-60.549292, 7.782514], [-60.552197, 7.777501], [-60.551473, 7.769909], [-60.558907, 7.770193], [-60.562025, 7.766161], [-60.568011, 7.74285], [-60.57198, 7.740141], [-60.575004, 7.741968], [-60.579141, 7.736515], [-60.581799, 7.738263], [-60.583635, 7.734219], [-60.582675, 7.728219], [-60.57617, 7.726267], [-60.576386, 7.720521], [-60.570773, 7.714999], [-60.568138, 7.705602], [-60.579424, 7.696248], [-60.577448, 7.688915], [-60.581883, 7.686543], [-60.582115, 7.678703], [-60.589669, 7.679529], [-60.593377, 7.673901], [-60.587723, 7.660654], [-60.591747, 7.656734], [-60.589312, 7.654093], [-60.592221, 7.649698], [-60.588383, 7.635295], [-60.590323, 7.631478], [-60.595482, 7.632509], [-60.599443, 7.639463], [-60.605056, 7.637874], [-60.61236, 7.643466], [-60.617837, 7.642679], [-60.625205, 7.633097], [-60.626104, 7.623308], [-60.619532, 7.616943], [-60.622576, 7.610475], [-60.62773, 7.609368], [-60.62856, 7.603834], [-60.639594, 7.600721], [-60.63828, 7.597677], [-60.642297, 7.592801], [-60.636896, 7.582526], [-60.638868, 7.577579], [-60.660349, 7.564573], [-60.665572, 7.570627], [-60.675603, 7.564885], [-60.679235, 7.565991], [-60.685738, 7.578098], [-60.689439, 7.578202], [-60.692345, 7.575573], [-60.687675, 7.558105], [-60.692622, 7.555753], [-60.705801, 7.560111], [-60.711578, 7.553573], [-60.709571, 7.549319], [-60.712027, 7.543127], [-60.720363, 7.538838], [-60.713999, 7.53441], [-60.711335, 7.529187], [-60.713549, 7.525659], [-60.707081, 7.518983], [-60.710194, 7.513172], [-60.704313, 7.506772], [-60.705905, 7.496257], [-60.697776, 7.485845], [-60.697637, 7.479065], [-60.692829, 7.474534], [-60.6856, 7.475848], [-60.682415, 7.471342], [-60.683563, 7.46319], [-60.672282, 7.453745], [-60.66488, 7.459902], [-60.639214, 7.447242], [-60.637134, 7.433922], [-60.642399, 7.427961], [-60.64311, 7.418389], [-60.627442, 7.409493], [-60.625328, 7.402622], [-60.607224, 7.393565], [-60.612555, 7.390324], [-60.607309, 7.375683], [-60.61134, 7.369104], [-60.604257, 7.35885], [-60.593736, 7.351796], [-60.598033, 7.338875], [-60.591454, 7.331733], [-60.59341, 7.323346], [-60.588135, 7.314277], [-60.592432, 7.307905], [-60.606954, 7.307313], [-60.608169, 7.302334], [-60.61543, 7.298688], [-60.612911, 7.287278], [-60.616971, 7.282033], [-60.616171, 7.277913], [-60.630366, 7.271127], [-60.636175, 7.261732], [-60.634338, 7.254293], [-60.637953, 7.245995], [-60.628677, 7.231503], [-60.624469, 7.210965], [-60.618245, 7.204564], [-60.612288, 7.202845], [-60.606302, 7.205868], [-60.599412, 7.201366], [-60.599426, 7.184372], [-60.588579, 7.175718], [-60.57794, 7.174532], [-60.566234, 7.158084], [-60.558677, 7.15435], [-60.546525, 7.125722], [-60.539591, 7.123736], [-60.537709, 7.132932], [-60.527403, 7.138019], [-60.528565, 7.148719], [-60.520041, 7.157005], [-60.521829, 7.16544], [-60.514467, 7.16386], [-60.509272, 7.172021], [-60.502919, 7.172469], [-60.505273, 7.177252], [-60.501536, 7.188799], [-60.496903, 7.184502], [-60.49339, 7.186706], [-60.483899, 7.184128], [-60.471159, 7.194479], [-60.464588, 7.194997], [-60.459505, 7.204774], [-60.456948, 7.202767], [-60.449502, 7.204806], [-60.440858, 7.197652], [-60.438463, 7.200663], [-60.431794, 7.200565], [-60.42519, 7.194091], [-60.420658, 7.176448], [-60.413018, 7.177322], [-60.409424, 7.173308], [-60.372872, 7.183994], [-60.361081, 7.18187], [-60.354395, 7.169426], [-60.34747, 7.169021], [-60.347589, 7.157552], [-60.344806, 7.157576], [-60.34338, 7.152353], [-60.331682, 7.157599], [-60.323466, 7.151795], [-60.318264, 7.151951], [-60.303441, 7.139203], [-60.299779, 7.139226], [-60.299601, 7.135542], [-60.2763821, 7.1237615], [-60.256119, 7.0971488], [-60.2422625, 7.0896083], [-60.231237, 7.0882776], [-60.1916046, 7.1048371], [-60.1780461, 7.1015843], [-60.1500353, 7.0739354], [-60.1171076, 7.0635851], [-60.1019102, 7.0653594], [-60.082988, 7.0810326], [-60.058702, 7.1231701], [-60.0248804, 7.124205], [-60.0077461, 7.1211003], [-59.9859929, 7.1082376], [-59.9398048, 7.1440156], [-59.9325041, 7.1531814], [-59.9222235, 7.192208], [-59.9007684, 7.2019641], [-59.8562192, 7.2025554], [-59.837148, 7.1984165], [-59.7993035, 7.1653037], [-59.73911, 7.1284924], [-59.7012655, 7.1104553], [-59.6278115, 7.1086811], [-59.6076973, 7.0980359], [-59.5333493, 7.0270615], [-59.4904391, 7.0060628], [-59.4706229, 7.0025136], [-59.4560215, 6.9909786], [-59.4336724, 6.9810701], [-59.3809285, 6.9633231], [-59.3676681, 6.9615483], [-59.3518747, 6.9673162], [-59.3407002, 6.9763377], [-59.3283337, 6.9914223], [-59.3143282, 7.0181889], [-59.2995778, 7.0273572], [-59.2887013, 7.0300189], [-59.2398313, 7.0178931], [-59.2051157, 7.0035488], [-59.1787438, 7.0023657], [-59.1809687, 7.0251293], [-59.1939213, 7.0525921], [-59.1927438, 7.0972887], [-59.1815575, 7.1822879], [-59.1376954, 7.2891715], [-59.1011928, 7.3519464], [-59.1085522, 7.3904829], [-59.1259204, 7.4179235], [-59.1182666, 7.4549948], [-59.032364, 7.5300035], [-58.943996, 7.5577272], [-58.9060215, 7.5804884], [-58.9046048, 7.5977045], [-58.8862983, 7.6026649], [-58.79934, 7.6790101]]]}}, {"type": "Feature", "properties": {"name": "Cuyuni-Mazaruni", "country": "GUY"}, "geometry": {"type": "Polygon", "coordinates": [[[-60.293774, 7.133823], [-60.296676, 7.126411], [-60.292791, 7.120472], [-60.295359, 7.116454], [-60.292144, 7.106609], [-60.296565, 7.101719], [-60.29297, 7.097589], [-60.295828, 7.09433], [-60.28759, 7.087275], [-60.29198, 7.074334], [-60.289386, 7.071217], [-60.292745, 7.067655], [-60.295562, 7.069708], [-60.295335, 7.066553], [-60.299324, 7.066059], [-60.30364, 7.060288], [-60.307898, 7.045828], [-60.305709, 7.040141], [-60.311074, 7.033092], [-60.3192, 7.030899], [-60.317861, 7.023396], [-60.324926, 7.020811], [-60.326819, 7.016979], [-60.33349, 7.017025], [-60.335568, 7.013146], [-60.351798, 7.011392], [-60.357338, 7.003035], [-60.362394, 7.002642], [-60.366295, 6.99791], [-60.364691, 6.991403], [-60.367199, 6.987903], [-60.362259, 6.977502], [-60.369954, 6.9497], [-60.367794, 6.942153], [-60.375589, 6.939448], [-60.377113, 6.931261], [-60.380253, 6.92994], [-60.397271, 6.9451678], [-60.4088016, 6.950662], [-60.412566, 6.9439789], [-60.4449831, 6.9343763], [-60.4576661, 6.9264967], [-60.4663802, 6.91442], [-60.4781142, 6.9077392], [-60.4908834, 6.888467], [-60.5005466, 6.8817858], [-60.5141787, 6.8783595], [-60.5335914, 6.8786165], [-60.5428232, 6.8625982], [-60.5482588, 6.8590004], [-60.5673263, 6.8539464], [-60.5750052, 6.855831], [-60.595712, 6.8527471], [-60.6116736, 6.8422105], [-60.6347963, 6.8392123], [-60.6636134, 6.8299604], [-60.6811832, 6.8110311], [-60.6965353, 6.7776109], [-60.7094665, 6.7613103], [-60.7185007, 6.7555054], [-60.7248777, 6.7544499], [-60.7500315, 6.7628935], [-60.7851643, 6.777904], [-60.8097276, 6.794204], [-60.821596, 6.7944385], [-60.8411995, 6.7808944], [-60.8535402, 6.7823016], [-60.8750922, 6.7932072], [-60.8947547, 6.8109724], [-60.9138858, 6.8166009], [-60.9223295, 6.8069856], [-60.925577, 6.7894548], [-60.9193181, 6.7751482], [-60.904025, 6.7681121], [-60.9006003, 6.7556813], [-60.9094573, 6.7470616], [-60.9327217, 6.7422533], [-60.9461843, 6.7195011], [-60.9556908, 6.7156308], [-60.9836198, 6.7163931], [-61.0050538, 6.7311705], [-61.012907, 6.7282972], [-61.0254839, 6.7169796], [-61.039537, 6.716745], [-61.0515234, 6.7230782], [-61.0555976, 6.7199703], [-61.0759097, 6.72947], [-61.0821517, 6.7191064], [-61.0839888, 6.7057544], [-61.0879135, 6.7035152], [-61.0956794, 6.7065837], [-61.1021928, 6.7167843], [-61.1106267, 6.7150428], [-61.1157205, 6.7189406], [-61.1214991, 6.7178595], [-61.1354275, 6.7225895], [-61.1398668, 6.7200629], [-61.1500155, 6.7089842], [-61.1526295, 6.701193], [-61.1484542, 6.6943924], [-61.1514604, 6.6885039], [-61.1660737, 6.690992], [-61.1607294, 6.6826984], [-61.1617315, 6.6788003], [-61.1674098, 6.6812055], [-61.1721695, 6.6744875], [-61.1768458, 6.676478], [-61.1829416, 6.6709212], [-61.1842777, 6.6564066], [-61.189789, 6.6523424], [-61.1891209, 6.6464535], [-61.1827746, 6.6404815], [-61.1814385, 6.6315235], [-61.1908745, 6.6262149], [-61.200561, 6.6250537], [-61.199726, 6.615017], [-61.2068239, 6.5992565], [-61.2064899, 6.593367], [-61.2104146, 6.5896341], [-61.2158424, 6.5930351], [-61.2241928, 6.5913761], [-61.2196836, 6.5748683], [-61.2289526, 6.575283], [-61.2319587, 6.5704716], [-61.2194331, 6.5658261], [-61.2196836, 6.5585258], [-61.2247773, 6.5529676], [-61.2151743, 6.5529676], [-61.2097465, 6.5493174], [-61.2132537, 6.5412702], [-61.209329, 6.5410214], [-61.208661, 6.5380348], [-61.2211032, 6.5379518], [-61.2221887, 6.5258393], [-61.2140888, 6.5260052], [-61.2129197, 6.5301534], [-61.2041517, 6.5212763], [-61.2065734, 6.5321445], [-61.2035672, 6.5360437], [-61.1964693, 6.5373711], [-61.1966363, 6.5270837], [-61.1889539, 6.5255904], [-61.1802695, 6.5306511], [-61.1819395, 6.5225207], [-61.17242, 6.5194511], [-61.1754262, 6.5129798], [-61.1747582, 6.5061766], [-61.1707499, 6.5053469], [-61.1746747, 6.4986265], [-61.1740066, 6.4934825], [-61.1825241, 6.489417], [-61.1860313, 6.4826135], [-61.1758437, 6.4809541], [-61.182564, 6.471753], [-61.163547, 6.457133], [-61.157037, 6.4645], [-61.152354, 6.464443], [-61.151898, 6.45839], [-61.157437, 6.452165], [-61.1479, 6.446854], [-61.154582, 6.44674], [-61.155667, 6.436575], [-61.151669, 6.430122], [-61.14316, 6.429151], [-61.150013, 6.424183], [-61.149671, 6.419728], [-61.146244, 6.418472], [-61.148071, 6.413047], [-61.151441, 6.411391], [-61.154296, 6.415559], [-61.158579, 6.414532], [-61.154867, 6.411334], [-61.158122, 6.406023], [-61.152697, 6.400655], [-61.158008, 6.402539], [-61.157665, 6.389861], [-61.161263, 6.389119], [-61.160178, 6.392146], [-61.166174, 6.394658], [-61.16783, 6.392888], [-61.165603, 6.386435], [-61.160978, 6.388205], [-61.157323, 6.385921], [-61.161492, 6.384436], [-61.161263, 6.376955], [-61.165203, 6.380953], [-61.16783, 6.379639], [-61.158579, 6.366162], [-61.173598, 6.342748], [-61.171771, 6.335552], [-61.178224, 6.340578], [-61.175883, 6.33344], [-61.184163, 6.330127], [-61.175654, 6.327101], [-61.165318, 6.313052], [-61.167317, 6.308312], [-61.164918, 6.299803], [-61.155724, 6.288325], [-61.1479, 6.292094], [-61.140248, 6.287525], [-61.141961, 6.277417], [-61.13625, 6.271478], [-61.12243, 6.273134], [-61.12066, 6.27599], [-61.114036, 6.271364], [-61.11889, 6.265025], [-61.1258, 6.26257], [-61.129398, 6.254689], [-61.132481, 6.254917], [-61.135336, 6.241097], [-61.132653, 6.232189], [-61.142361, 6.216256], [-61.133281, 6.204834], [-61.129512, 6.208775], [-61.126656, 6.207804], [-61.132081, 6.201294], [-61.124543, 6.193698], [-61.127342, 6.188102], [-61.13368, 6.18833], [-61.132881, 6.180735], [-61.138135, 6.176566], [-61.162634, 6.181877], [-61.164861, 6.184733], [-61.169601, 6.18479], [-61.172114, 6.180907], [-61.179252, 6.187074], [-61.183478, 6.178851], [-61.187247, 6.178508], [-61.184677, 6.176509], [-61.18936, 6.171484], [-61.187304, 6.161661], [-61.183078, 6.159549], [-61.184506, 6.147499], [-61.192444, 6.139618], [-61.189303, 6.132651], [-61.20021, 6.131338], [-61.20415, 6.134022], [-61.202437, 6.127397], [-61.20929, 6.111978], [-61.214715, 6.115119], [-61.215401, 6.111236], [-61.222939, 6.125341], [-61.231619, 6.126312], [-61.242812, 6.108438], [-61.251664, 6.107638], [-61.25943, 6.112778], [-61.269881, 6.109637], [-61.274963, 6.103127], [-61.275249, 6.092333], [-61.279703, 6.094389], [-61.27976, 6.082854], [-61.286499, 6.079941], [-61.2849, 6.077143], [-61.294437, 6.073945], [-61.291353, 6.06892], [-61.297863, 6.067035], [-61.298777, 6.063038], [-61.304031, 6.060411], [-61.301861, 6.054472], [-61.311912, 6.05213], [-61.311055, 6.046705], [-61.315966, 6.041337], [-61.319107, 6.027289], [-61.325218, 6.026432], [-61.333498, 6.014611], [-61.335668, 6.00496], [-61.331043, 5.998963], [-61.350287, 5.986343], [-61.352914, 5.975036], [-61.35794, 5.968868], [-61.366036, 5.968101], [-61.369656, 5.961585], [-61.37918, 5.962556], [-61.383737, 5.959476], [-61.404992, 5.972287], [-61.414905, 5.970795], [-60.764444, 5.240556], [-60.748889, 5.2225], [-60.7375541, 5.2018977], [-60.7319719, 5.2120342], [-60.7278092, 5.21303], [-60.723, 5.22], [-60.7006566, 5.221834], [-60.682, 5.232], [-60.659, 5.227], [-60.652, 5.231], [-60.638, 5.22], [-60.624, 5.215], [-60.614, 5.219], [-60.603, 5.215], [-60.597, 5.221], [-60.592, 5.218], [-60.59, 5.208], [-60.569, 5.196], [-60.545, 5.194], [-60.539, 5.203], [-60.527, 5.208], [-60.5, 5.203], [-60.474, 5.201], [-60.469, 5.203], [-60.463, 5.199], [-60.451, 5.203], [-60.446, 5.184], [-60.434, 5.182], [-60.418, 5.194], [-60.413, 5.214], [-60.405, 5.211], [-60.384, 5.222], [-60.371, 5.215], [-60.371, 5.208], [-60.367, 5.205], [-60.356, 5.21], [-60.345, 5.205], [-60.319, 5.208], [-60.305622, 5.2185682], [-60.3007554, 5.2284746], [-60.2848252, 5.2289618], [-60.2710838, 5.2363125], [-60.264, 5.251], [-60.235, 5.263], [-60.231018, 5.2714578], [-60.2185379, 5.2842873], [-60.2150053, 5.280936], [-60.2082471, 5.2834573], [-60.1996395, 5.2724876], [-60.1868593, 5.2672057], [-60.1793319, 5.2704769], [-60.1931667, 5.2391502], [-60.172, 5.227], [-60.158, 5.232], [-60.135, 5.249], [-60.132, 5.225], [-60.106, 5.194], [-60.1013656, 5.1725953], [-60.0799398, 5.183641], [-60.0524644, 5.2052298], [-60.0330552, 5.2260648], [-60.0146543, 5.2556845], [-59.9972616, 5.2923306], [-59.9929764, 5.3189353], [-59.9811293, 5.3467937], [-59.965249, 5.3661181], [-59.905761, 5.3977387], [-59.8714798, 5.4112898], [-59.8235869, 5.415054], [-59.7187267, 5.4037614], [-59.6955365, 5.3942254], [-59.6630198, 5.3949782], [-59.6110938, 5.3902101], [-59.596978, 5.3944763], [-59.5957177, 5.4042633], [-59.5911805, 5.4082785], [-59.5911805, 5.4185672], [-59.5964739, 5.4228331], [-59.5992466, 5.5073938], [-59.6088252, 5.5415158], [-59.6065566, 5.5545619], [-59.6015153, 5.5630919], [-59.5833664, 5.5816568], [-59.514804, 5.6280664], [-59.4724566, 5.6258087], [-59.4222951, 5.5959564], [-59.3791915, 5.5974615], [-59.3547409, 5.609503], [-59.3076043, 5.6794889], [-59.2884471, 5.7025648], [-59.2710545, 5.71335], [-59.2317319, 5.7256398], [-59.2251781, 5.7246366], [-59.1593884, 5.6639372], [-59.1505661, 5.6212933], [-59.1266196, 5.5992176], [-59.1193097, 5.5884303], [-59.1177973, 5.5590778], [-59.1230907, 5.5400105], [-59.1160328, 5.5204407], [-59.0971277, 5.5154227], [-59.0842723, 5.517179], [-59.0338587, 5.5420176], [-59.0210033, 5.5402614], [-59.0061313, 5.5307275], [-58.9905031, 5.506892], [-58.9726063, 5.4873212], [-58.9592467, 5.4797937], [-58.908329, 5.473019], [-58.9015232, 5.4629821], [-58.8911884, 5.4336234], [-58.8836264, 5.423335], [-58.8755119, 5.3956628], [-58.8575152, 5.4035501], [-58.8330144, 5.4017], [-58.8155068, 5.4104148], [-58.8010801, 5.4059844], [-58.7862134, 5.405887], [-58.7372767, 5.425063], [-58.7133291, 5.4223704], [-58.6811042, 5.4357206], [-58.6686946, 5.446281], [-58.6516815, 5.4798538], [-58.6371703, 5.4945974], [-58.626362, 5.5190031], [-58.6252612, 5.5591459], [-58.6085544, 5.60318], [-58.5988518, 5.6480723], [-58.6034135, 5.65816], [-58.6097129, 5.6623392], [-58.6138401, 5.6758851], [-58.6061649, 5.6887103], [-58.6047168, 5.7003103], [-58.6096763, 5.7292726], [-58.6020477, 5.7719471], [-58.6110584, 5.8096821], [-58.6087533, 5.8186464], [-58.592618, 5.8413692], [-58.5918846, 5.8735757], [-58.5754349, 5.8978595], [-58.5741982, 5.9083892], [-58.5849188, 5.9474168], [-58.5786517, 6.0125078], [-58.5937769, 6.0597143], [-58.5872409, 6.0716274], [-58.5929571, 6.0909037], [-58.5821461, 6.1061019], [-58.5832023, 6.1245738], [-58.5747523, 6.1366204], [-58.5721427, 6.146937], [-58.575103, 6.2416067], [-58.570217, 6.2569224], [-58.5808975, 6.2880137], [-58.5788631, 6.310004], [-58.5986983, 6.3373009], [-58.601877, 6.3509489], [-58.6070901, 6.4208258], [-58.6045896, 6.4446644], [-58.6232139, 6.4473294], [-58.6242054, 6.4603687], [-58.6201493, 6.4728401], [-58.6177816, 6.5082563], [-58.6279132, 6.5135855], [-58.6413226, 6.5125493], [-58.6678435, 6.4947851], [-58.6796141, 6.4934527], [-58.6948114, 6.5027791], [-58.706731, 6.5195068], [-58.7222263, 6.5193587], [-58.7812279, 6.5556249], [-58.8061099, 6.5520724], [-58.8332268, 6.5544407], [-58.8426134, 6.5582893], [-58.854086, 6.5695386], [-58.8558739, 6.5849319], [-58.8433584, 6.6151253], [-58.8400805, 6.6504965], [-58.8347168, 6.6568601], [-58.828608, 6.6993312], [-58.8393356, 6.7187158], [-58.8411235, 6.7308492], [-58.8714438, 6.7461636], [-58.8772545, 6.7544494], [-58.8775525, 6.7781224], [-58.8972197, 6.7831527], [-58.9286574, 6.7747194], [-58.9544334, 6.7864076], [-58.9654589, 6.7988353], [-58.9723127, 6.8503178], [-58.9872121, 6.8698442], [-59.0001745, 6.8753174], [-59.0198417, 6.8762049], [-59.0347411, 6.872211], [-59.0497895, 6.8556433], [-59.06305, 6.8463237], [-59.1002985, 6.8444005], [-59.1376959, 6.8550515], [-59.1430597, 6.8600811], [-59.1730075, 6.8711755], [-59.1968465, 6.8748736], [-59.210405, 6.8874468], [-59.2077231, 6.9134798], [-59.1780733, 6.9794433], [-59.1787438, 7.0023657], [-59.2051157, 7.0035488], [-59.2398313, 7.0178931], [-59.2887013, 7.0300189], [-59.2995778, 7.0273572], [-59.3143282, 7.0181889], [-59.3283337, 6.9914223], [-59.3518747, 6.9673162], [-59.3676681, 6.9615483], [-59.3809285, 6.9633231], [-59.4336724, 6.9810701], [-59.4560215, 6.9909786], [-59.4706229, 7.0025136], [-59.4904391, 7.0060628], [-59.5333493, 7.0270615], [-59.6076973, 7.0980359], [-59.6278115, 7.1086811], [-59.7012655, 7.1104553], [-59.73911, 7.1284924], [-59.7993035, 7.1653037], [-59.837148, 7.1984165], [-59.8562192, 7.2025554], [-59.909559, 7.1994512], [-59.9222235, 7.192208], [-59.9325041, 7.1531814], [-59.9398048, 7.1440156], [-59.9859929, 7.1082376], [-60.0077461, 7.1211003], [-60.0248804, 7.124205], [-60.058702, 7.1231701], [-60.082988, 7.0810326], [-60.1019102, 7.0653594], [-60.1171076, 7.0635851], [-60.1500353, 7.0739354], [-60.1780461, 7.1015843], [-60.1916046, 7.1048371], [-60.231237, 7.0882776], [-60.2422625, 7.0896083], [-60.256119, 7.0971488], [-60.2763821, 7.1237615], [-60.293774, 7.133823]]]}}, {"type": "Feature", "properties": {"name": "Potaro-Siparuni", "country": "GUY"}, "geometry": {"type": "Polygon", "coordinates": [[[-60.1013656, 5.1725953], [-60.094, 5.14], [-60.0634122, 5.1377204], [-60.0574105, 5.1246498], [-60.0502925, 5.1226141], [-60.0523243, 5.1189041], [-60.0481888, 5.1110264], [-60.0456214, 5.1135836], [-60.0425843, 5.110962], [-60.0450659, 5.1069364], [-60.0409266, 5.1064783], [-60.0359339, 5.11228], [-60.0374382, 5.107571], [-60.0170917, 5.0922225], [-60.0183908, 5.0888797], [-60.0123695, 5.0906069], [-60.0084009, 5.0857947], [-59.9982101, 5.0828973], [-59.9930384, 5.087278], [-59.9767103, 5.0796423], [-59.9720456, 5.0764256], [-59.9698422, 5.0633452], [-59.9775642, 5.0531439], [-59.9738793, 5.0478041], [-59.976651, 5.0466195], [-59.9769803, 5.033961], [-59.973841, 5.0310075], [-59.9769834, 5.0192188], [-59.9795153, 5.0152664], [-59.9853167, 5.0183008], [-59.985533, 5.0064847], [-59.9896434, 5.0012492], [-59.9867658, 4.9896629], [-59.9907232, 4.984097], [-59.9864474, 4.9784703], [-59.9940966, 4.9650372], [-59.989478, 4.9503014], [-59.9940471, 4.9494164], [-59.9920379, 4.9371161], [-59.9972159, 4.9310763], [-59.9984738, 4.9187453], [-60.0017975, 4.9160599], [-60.0006319, 4.906691], [-60.006991, 4.8881067], [-60.005037, 4.8810856], [-60.0101022, 4.8728856], [-60.0089607, 4.8617742], [-60.0134738, 4.8432234], [-60.0251875, 4.8318253], [-60.0281972, 4.8177999], [-60.0222751, 4.8117797], [-60.0307305, 4.8075261], [-60.0344416, 4.8010836], [-60.0351714, 4.7892312], [-60.0213256, 4.7818046], [-60.0265678, 4.7658775], [-60.0255195, 4.7428303], [-60.0392628, 4.7244223], [-60.0365136, 4.7194702], [-60.0266221, 4.7140555], [-60.0252349, 4.706496], [-60.0330722, 4.6984175], [-60.0418535, 4.6949904], [-60.0539708, 4.6787922], [-60.058734, 4.6779946], [-60.0754247, 4.6554815], [-60.0763064, 4.6490768], [-60.0718805, 4.6506912], [-60.0695309, 4.6441177], [-60.0703939, 4.6376332], [-60.07573, 4.6337377], [-60.0705004, 4.6168806], [-60.0774548, 4.616134], [-60.0890208, 4.605977], [-60.093981, 4.6070069], [-60.0965965, 4.603832], [-60.1054266, 4.6080674], [-60.1125801, 4.6025181], [-60.1234201, 4.6050112], [-60.1311482, 4.5957574], [-60.1277608, 4.5842931], [-60.1225662, 4.5792178], [-60.1281755, 4.575008], [-60.1355333, 4.5806849], [-60.140134, 4.5794234], [-60.1364289, 4.5648662], [-60.1455136, 4.5660998], [-60.1507896, 4.5761653], [-60.1572459, 4.5724751], [-60.1607404, 4.5556008], [-60.1557556, 4.5524849], [-60.1540467, 4.5451624], [-60.1612544, 4.5215773], [-60.1562307, 4.5128618], [-60.1366646, 4.5143422], [-60.1238346, 4.5074984], [-60.1217063, 4.5019507], [-60.1071928, 4.5047218], [-60.0981806, 4.5132391], [-60.0989363, 4.5185778], [-60.1049599, 4.5236157], [-60.1036386, 4.5284511], [-60.0945939, 4.5277255], [-60.0878134, 4.5335602], [-60.0829342, 4.5301641], [-60.0864777, 4.5173398], [-60.0813647, 4.5185287], [-60.0761833, 4.5247259], [-60.0645327, 4.5210716], [-60.0715238, 4.5000845], [-60.0706604, 4.4933056], [-60.0639345, 4.4957956], [-60.0450812, 4.4947191], [-60.0347065, 4.4905281], [-60.0242707, 4.4943514], [-60.0182768, 4.4896109], [-60.0091655, 4.4958755], [-60.002762, 4.4953375], [-59.9896259, 4.4859442], [-59.9801228, 4.4870257], [-59.9729164, 4.4801046], [-59.975994, 4.491238], [-59.9723428, 4.4962152], [-59.9738227, 4.5085954], [-59.9709435, 4.5095523], [-59.9536373, 4.5035455], [-59.9519225, 4.4999554], [-59.9355867, 4.5000433], [-59.9335529, 4.4934318], [-59.926837, 4.4918868], [-59.9253806, 4.4878937], [-59.930311, 4.4807758], [-59.9119199, 4.4791131], [-59.9161262, 4.4687453], [-59.9094056, 4.4604304], [-59.9048693, 4.4605918], [-59.8982284, 4.4785936], [-59.8755918, 4.4730877], [-59.8781329, 4.4842461], [-59.874831, 4.4871721], [-59.8718134, 4.4854054], [-59.8743811, 4.4815158], [-59.8718312, 4.4771098], [-59.8630094, 4.4719049], [-59.8714895, 4.462503], [-59.861538, 4.4524027], [-59.8536652, 4.45618], [-59.84822, 4.4532558], [-59.8329335, 4.458218], [-59.8310582, 4.4513268], [-59.8122413, 4.4470859], [-59.8065133, 4.4541404], [-59.8049528, 4.4659987], [-59.7950268, 4.4655405], [-59.7945223, 4.4480719], [-59.7873796, 4.4460689], [-59.7834202, 4.4503447], [-59.7795174, 4.4468077], [-59.7807642, 4.4398902], [-59.7749007, 4.4412746], [-59.7706484, 4.4365923], [-59.7691279, 4.4391189], [-59.7503446, 4.4205675], [-59.7351197, 4.4232663], [-59.7300798, 4.4124179], [-59.7204947, 4.4103649], [-59.7187399, 4.4031599], [-59.7219162, 4.3986786], [-59.714012, 4.3960507], [-59.6946635, 4.3799938], [-59.6838887, 4.3851457], [-59.6608068, 4.3742173], [-59.6271133, 4.3855227], [-59.59619, 4.4559209], [-59.5400127, 4.5083298], [-59.5054816, 4.5201469], [-59.487443, 4.5124401], [-59.4843507, 4.49754], [-59.4956893, 4.4744186], [-59.4946585, 4.4502687], [-59.4668275, 4.4394781], [-59.4544582, 4.4250904], [-59.4606428, 4.4024806], [-59.5018739, 4.3644534], [-59.4864123, 4.3238547], [-59.4786814, 4.2714329], [-59.4828045, 4.256014], [-59.499297, 4.236483], [-59.5080586, 4.2184935], [-59.5023893, 4.1948495], [-59.4786814, 4.1753169], [-59.4493043, 4.1588681], [-59.3343727, 4.1460172], [-59.3199418, 4.1542418], [-59.2771645, 4.1460172], [-59.2684029, 4.1552699], [-59.1916101, 4.1516716], [-59.1766638, 4.1465313], [-59.1612021, 4.1521857], [-59.1565636, 4.1634944], [-59.1472866, 4.1701767], [-59.1390404, 4.1712048], [-59.1333712, 4.1814852], [-59.1277019, 4.1850833], [-59.1055402, 4.1840552], [-59.0833785, 4.1748029], [-59.0699784, 4.1650365], [-59.0704938, 4.1485874], [-59.0601688, 4.107781], [-59.0537492, 4.0961989], [-59.0139102, 4.0538239], [-59.0104172, 4.0401693], [-58.9887984, 4.0130477], [-58.9483929, 3.9991099], [-58.928379, 3.9991099], [-58.8838197, 4.0303755], [-58.8334073, 4.07407], [-58.8082955, 4.1053328], [-58.7860159, 4.1252951], [-58.7714775, 4.1365943], [-58.7393797, 4.1520363], [-58.7286175, 4.1725623], [-58.6989742, 4.2104117], [-58.6770722, 4.2527783], [-58.6058906, 4.2701008], [-58.57266, 4.2842222], [-58.5479258, 4.2785737], [-58.5247021, 4.28008], [-58.4999679, 4.2629459], [-58.4765554, 4.2522134], [-58.4648158, 4.2566759], [-58.4680927, 4.2762827], [-58.454481, 4.309965], [-58.4093609, 4.390143], [-58.4106213, 4.4549828], [-58.3281951, 4.5874091], [-58.3223975, 4.6032383], [-58.3160959, 4.6401718], [-58.342815, 4.6389156], [-58.37634, 4.6283633], [-58.4489355, 4.6173084], [-58.5477461, 4.6165547], [-58.577238, 4.6208259], [-58.6039572, 4.6283633], [-58.6644554, 4.6562388], [-58.6752701, 4.6523036], [-58.6785316, 4.6538434], [-58.6881447, 4.686693], [-58.711319, 4.6976425], [-58.7073707, 4.7097894], [-58.7075424, 4.7313454], [-58.7094307, 4.7426363], [-58.7205887, 4.7564931], [-58.7380981, 4.7621384], [-58.7586975, 4.7595724], [-58.7677955, 4.7655598], [-58.7760353, 4.7583749], [-58.7937164, 4.7583749], [-58.7997246, 4.7616252], [-58.8000679, 4.7847191], [-58.8121456, 4.7944209], [-58.818779, 4.7939565], [-58.8234138, 4.8031937], [-58.8204471, 4.8364524], [-58.8333933, 4.8435494], [-58.8352688, 4.8521314], [-58.8297653, 4.8625484], [-58.8493232, 4.9007145], [-58.8525231, 4.9275679], [-58.8576455, 4.9356486], [-58.8701141, 4.9432153], [-58.8814338, 4.973944], [-58.8485639, 5.0986782], [-58.8291974, 5.1093898], [-58.8262275, 5.1192284], [-58.8207075, 5.1230867], [-58.8219707, 5.1506076], [-58.8262773, 5.1551086], [-58.8434197, 5.161383], [-58.848761, 5.1697944], [-58.848154, 5.2230412], [-58.840698, 5.2486952], [-58.8410803, 5.2569528], [-58.8530267, 5.2623934], [-58.8659251, 5.2734468], [-58.8738638, 5.2945828], [-58.8989345, 5.3065653], [-58.9065075, 5.3297721], [-58.9058505, 5.3429933], [-58.8909655, 5.3802287], [-58.8817716, 5.3935205], [-58.8755119, 5.3956628], [-58.8836264, 5.423335], [-58.8911884, 5.4336234], [-58.9015232, 5.4629821], [-58.908329, 5.473019], [-58.9592467, 5.4797937], [-58.9726063, 5.4873212], [-58.9905031, 5.506892], [-59.0061313, 5.5307275], [-59.0210033, 5.5402614], [-59.0338587, 5.5420176], [-59.0842723, 5.517179], [-59.0971277, 5.5154227], [-59.1160328, 5.5204407], [-59.1230907, 5.5400105], [-59.1177973, 5.5590778], [-59.1193097, 5.5884303], [-59.1266196, 5.5992176], [-59.1505661, 5.6212933], [-59.1593884, 5.6639372], [-59.2251781, 5.7246366], [-59.2478642, 5.7223793], [-59.2710545, 5.71335], [-59.2884471, 5.7025648], [-59.3076043, 5.6794889], [-59.3547409, 5.609503], [-59.3791915, 5.5974615], [-59.4222951, 5.5959564], [-59.4724566, 5.6258087], [-59.514804, 5.6280664], [-59.5833664, 5.5816568], [-59.6015153, 5.5630919], [-59.6065566, 5.5545619], [-59.6088252, 5.5415158], [-59.5992466, 5.5073938], [-59.5964739, 5.4228331], [-59.5911805, 5.4185672], [-59.5911805, 5.4082785], [-59.5957177, 5.4042633], [-59.596978, 5.3944763], [-59.6110938, 5.3902101], [-59.6630198, 5.3949782], [-59.6955365, 5.3942254], [-59.7187267, 5.4037614], [-59.8235869, 5.415054], [-59.8714798, 5.4112898], [-59.905761, 5.3977387], [-59.965249, 5.3661181], [-59.9811293, 5.3467937], [-59.9929764, 5.3189353], [-59.9972616, 5.2923306], [-60.0146543, 5.2556845], [-60.0330552, 5.2260648], [-60.0524644, 5.2052298], [-60.0799398, 5.183641], [-60.1013656, 5.1725953]]]}}]}