{"type": "FeatureCollection", "features": [{"type": "Feature", "properties": {"name": "Congo"}, "geometry": {"type": "Polygon", "coordinates": [[[18.634552, 3.449222], [18.642407, 3.323829], [18.631141, 3.17898], [18.613055, 3.128182], [18.541431, 3.08281], [18.528409, 3.064775], [18.471771, 2.909229], [18.425159, 2.822154], [18.393223, 2.713686], [18.313745, 2.575968], [18.233026, 2.502587], [18.199126, 2.389106], [18.16378, 2.321048], [18.146727, 2.315932], [18.111173, 2.265289], [18.072416, 2.160024], [18.080787, 2.084163], [18.076033, 1.988484], [18.081718, 1.942415], [18.066111, 1.858983], [18.071382, 1.551457], [18.012264, 1.421956], [17.966996, 1.253723], [17.956247, 1.171661], [17.892478, 1.077403], [17.86664, 1.016632], [17.878216, 0.947178], [17.877906, 0.867907], [17.907671, 0.740473], [17.893202, 0.607664], [17.91842, 0.535214], [17.933096, 0.527049], [17.949943, 0.491496], [17.945498, 0.377291], [17.854031, 0.241072], [17.757086, -0.009456], [17.716365, -0.195801], [17.716262, -0.246237], [17.740756, -0.346179], [17.749541, -0.523429], [17.664172, -0.612726], [17.650943, -0.646316], [17.60216, -0.688691], [17.411474, -0.918341], [17.364965, -0.967227], [17.330446, -0.986554], [17.308018, -1.014976], [17.022557, -1.097038], [16.909179, -1.211139], [16.833215, -1.269017], [16.725521, -1.47996], [16.636224, -1.62083], [16.623822, -1.6538], [16.617207, -1.728731], [16.604185, -1.754052], [16.522536, -1.861746], [16.513958, -1.887377], [16.470033, -1.912699], [16.382596, -2.002202], [16.231288, -2.129016], [16.194598, -2.182036], [16.187363, -2.204567], [16.189947, -2.241878], [16.174857, -2.303062], [16.191704, -2.346884], [16.192324, -2.39515], [16.225603, -2.635239], [16.204519, -2.782723], [16.177028, -2.882459], [16.188293, -2.976406], [16.185709, -3.136397], [16.199248, -3.171847], [16.193357, -3.238406], [16.198628, -3.25949], [16.227464, -3.289876], [16.225603, -3.313233], [16.115533, -3.544227], [16.053314, -3.619985], [16.005255, -3.724784], [15.991096, -3.738944], [15.974249, -3.786486], [15.930324, -3.858626], [15.912134, -3.917434], [15.882989, -3.945339], [15.844231, -3.965597], [15.711216, -3.992158], [15.566832, -4.038047], [15.533759, -4.057994], [15.52115, -4.076804], [15.490351, -4.175196], [15.458932, -4.21385], [15.20396, -4.339011], [15.09792, -4.499931], [15.076113, -4.520085], [15.022783, -4.54706], [15.00821, -4.571038], [14.931005, -4.646899], [14.831167, -4.815054], [14.672727, -4.899907], [14.623324, -4.899493], [14.575058, -4.873655], [14.562139, -4.855878], [14.532477, -4.856188], [14.519868, -4.841305], [14.481937, -4.845853], [14.437289, -4.880166], [14.400702, -4.886264], [14.396464, -4.855878], [14.412588, -4.778157], [14.399048, -4.737539], [14.410934, -4.701056], [14.406903, -4.676044], [14.365769, -4.627262], [14.350783, -4.559049], [14.37476, -4.530213], [14.424576, -4.502308], [14.466538, -4.448048], [14.469742, -4.429341], [14.428607, -4.400402], [14.392744, -4.352756], [14.385716, -4.332913], [14.395328, -4.289711], [14.387059, -4.277102], [14.279986, -4.312759], [14.222212, -4.359784], [14.184694, -4.377458], [14.146351, -4.38986], [14.058397, -4.400505], [14.021087, -4.415388], [13.989874, -4.45797], [13.944502, -4.498071], [13.867091, -4.489286], [13.832881, -4.441227], [13.810454, -4.426654], [13.78999, -4.424587], [13.714956, -4.453009], [13.721777, -4.561012], [13.699091, -4.642661], [13.712475, -4.685656], [13.705861, -4.694338], [13.681934, -4.695371], [13.67532, -4.731751], [13.633979, -4.725654], [13.613101, -4.739193], [13.591397, -4.779397], [13.570727, -4.785908], [13.526182, -4.754282], [13.482257, -4.77485], [13.496416, -4.792109], [13.493522, -4.799654], [13.430787, -4.843372], [13.39265, -4.885334], [13.35875, -4.794797], [13.334565, -4.777537], [13.274001, -4.755833], [13.18212, -4.686069], [13.112357, -4.576929], [13.087966, -4.579513], [13.071532, -4.60163], [13.073703, -4.635323], [13.027194, -4.612172], [12.961565, -4.533831], [12.902447, -4.480191], [12.869891, -4.411978], [12.854285, -4.403089], [12.814804, -4.412908], [12.761681, -4.391204], [12.737909, -4.40495], [12.718479, -4.451872], [12.670523, -4.491353], [12.623808, -4.559255], [12.497201, -4.5853], [12.429091, -4.607521], [12.387026, -4.605454], [12.377621, -4.619407], [12.374107, -4.683176], [12.321914, -4.778157], [12.258559, -4.790766], [12.235201, -4.803995], [12.213497, -4.769165], [12.192206, -4.763481], [12.15717, -4.870554], [12.130815, -4.912929], [12.009608, -5.019631], [11.895728, -4.882645], [11.886241, -4.855239], [11.82021, -4.7848], [11.824069, -4.77236], [11.848424, -4.786044], [11.850367, -4.752839], [11.776906, -4.667878], [11.777688, -4.657701], [11.801321, -4.657938], [11.820163, -4.637281], [11.824624, -4.614767], [11.806409, -4.577118], [11.692982, -4.463491], [11.497895, -4.294041], [11.450587, -4.26473], [11.401403, -4.221366], [11.364757, -4.162774], [11.358246, -4.111912], [11.270181, -4.041725], [11.114016, -3.936856], [11.212524, -3.697293], [11.334688, -3.608616], [11.413959, -3.587635], [11.45499, -3.528207], [11.482585, -3.509294], [11.532712, -3.516528], [11.569815, -3.54495], [11.64919, -3.673315], [11.665933, -3.691401], [11.687638, -3.69874], [11.742105, -3.691712], [11.838326, -3.710935], [11.879977, -3.687164], [11.905505, -3.643549], [11.898477, -3.622362], [11.834915, -3.592079], [11.824994, -3.571202], [11.827784, -3.548051], [11.884835, -3.413279], [11.898374, -3.389198], [11.941472, -3.356952], [11.954908, -3.335454], [11.944366, -3.303208], [11.821893, -3.254839], [11.781585, -3.221663], [11.687534, -3.17102], [11.688258, -3.092265], [11.706448, -3.04989], [11.75368, -3.042345], [11.778381, -3.027153], [11.778381, -3.005655], [11.636788, -2.833263], [11.616841, -2.826751], [11.588419, -2.835433], [11.547905, -2.863855], [11.530748, -2.866749], [11.52558, -2.843288], [11.537466, -2.797709], [11.61033, -2.678853], [11.624386, -2.632758], [11.619011, -2.586456], [11.576533, -2.502533], [11.583355, -2.42967], [11.55824, -2.349365], [11.566198, -2.329727], [11.605369, -2.330348], [11.655908, -2.345644], [11.721331, -2.404142], [11.756057, -2.415097], [11.806597, -2.374169], [11.938372, -2.329107], [11.966794, -2.348538], [12.000693, -2.390602], [12.031286, -2.411583], [12.062292, -2.414994], [12.45927, -2.329934], [12.447901, -2.30792], [12.475496, -2.212422], [12.470225, -2.156301], [12.499784, -2.09553], [12.46082, -2.077857], [12.440046, -2.045817], [12.431468, -2.005406], [12.426921, -1.88407], [12.438083, -1.886654], [12.468985, -1.919417], [12.486555, -1.924894], [12.499474, -1.917866], [12.506296, -1.888204], [12.523452, -1.863296], [12.58319, -1.826502], [12.632386, -1.825159], [12.674967, -1.842832], [12.745454, -1.893888], [12.804572, -1.919107], [12.847153, -2.037239], [12.872992, -2.065868], [12.876299, -2.104935], [12.895109, -2.109793], [12.882707, -2.140798], [12.902034, -2.167257], [12.907098, -2.195369], [12.945649, -2.18245], [12.982442, -2.232989], [12.990194, -2.268026], [13.008177, -2.276501], [13.010658, -2.287766], [12.996705, -2.304819], [12.987093, -2.340683], [12.966113, -2.366418], [12.969006, -2.372412], [12.982442, -2.371689], [13.025024, -2.338202], [13.135198, -2.37696], [13.176849, -2.361974], [13.361024, -2.428843], [13.438952, -2.425432], [13.458899, -2.441039], [13.469441, -2.435044], [13.482257, -2.408069], [13.557601, -2.340476], [13.603386, -2.320012], [13.617442, -2.279601], [13.701571, -2.194749], [13.709478, -2.153511], [13.743171, -2.09708], [13.782755, -2.138008], [13.800532, -2.200433], [13.823269, -2.246838], [13.86058, -2.293657], [13.863887, -2.321459], [13.906158, -2.359803], [13.890035, -2.373652], [13.875876, -2.403831], [13.847661, -2.423055], [13.8458, -2.466567], [13.884971, -2.488477], [13.930446, -2.485377], [13.967033, -2.470597], [13.985637, -2.5015], [14.045582, -2.4861], [14.090023, -2.498606], [14.106766, -2.460262], [14.131881, -2.435147], [14.131468, -2.408896], [14.14418, -2.390189], [14.182317, -2.363317], [14.234407, -2.354946], [14.226966, -2.323113], [14.151208, -2.259034], [14.148004, -2.224824], [14.195857, -2.201777], [14.209189, -2.187204], [14.204332, -2.152167], [14.233787, -2.134494], [14.251667, -2.037859], [14.233477, -2.018222], [14.245053, -1.974814], [14.397291, -1.906808], [14.404526, -1.893062], [14.396878, -1.849447], [14.406696, -1.735552], [14.413104, -1.713951], [14.448761, -1.686253], [14.402976, -1.670853], [14.390883, -1.630339], [14.364839, -1.612045], [14.413208, -1.585277], [14.430364, -1.554891], [14.463127, -1.54869], [14.462714, -1.5336], [14.438426, -1.502595], [14.456306, -1.440169], [14.487725, -1.40937], [14.482144, -1.388596], [14.447004, -1.365342], [14.426333, -1.331029], [14.46075, -1.278009], [14.465814, -1.224369], [14.428297, -1.169488], [14.434395, -1.135072], [14.391814, -1.023347], [14.412794, -0.921545], [14.457133, -0.856122], [14.44597, -0.775714], [14.492169, -0.663369], [14.498991, -0.630916], [14.489999, -0.600944], [14.454239, -0.539553], [14.414448, -0.512164], [14.39233, -0.482398], [14.320603, -0.444468], [14.292698, -0.436406], [14.244742, -0.451599], [14.193066, -0.440437], [14.159683, -0.455113], [14.138289, -0.336361], [14.121443, -0.302151], [14.095398, -0.276623], [14.058811, -0.258846], [14.01871, -0.252645], [13.98233, -0.262257], [13.967033, -0.245824], [13.921558, -0.237865], [13.903058, -0.258846], [13.883421, -0.264944], [13.831228, -0.205413], [13.832158, -0.177094], [13.8427, -0.152289], [13.921145, -0.052967], [13.91298, -0.016587], [13.932927, 0.022067], [13.925072, 0.034366], [13.894893, 0.043668], [13.890656, 0.115911], [13.871225, 0.196423], [13.875773, 0.220298], [13.909776, 0.270941], [13.945226, 0.350419], [13.966517, 0.373053], [14.040414, 0.413774], [14.059121, 0.435272], [14.063048, 0.455942], [14.045582, 0.497283], [14.075967, 0.539451], [14.125473, 0.546169], [14.231823, 0.542552], [14.328768, 0.621204], [14.33838, 0.693912], [14.367319, 0.735512], [14.447624, 0.81623], [14.437599, 0.875142], [14.466228, 0.899636], [14.468088, 0.913227], [14.436565, 0.933277], [14.400805, 0.970329], [14.346442, 1.087118], [14.298486, 1.109236], [14.28288, 1.130113], [14.274715, 1.155641], [14.273061, 1.257237], [14.252184, 1.330824], [14.183868, 1.380847], [14.14449, 1.391622], [14.12444, 1.393585], [14.070696, 1.375111], [14.049509, 1.376403], [14.00083, 1.413016], [13.794744, 1.434436], [13.780585, 1.431025], [13.75485, 1.374336], [13.744101, 1.370279], [13.724361, 1.377953], [13.699091, 1.362786], [13.642247, 1.357386], [13.579202, 1.323486], [13.543442, 1.283489], [13.479776, 1.277132], [13.41394, 1.295529], [13.37694, 1.294444], [13.357406, 1.28907], [13.342937, 1.263852], [13.307797, 1.25672], [13.289194, 1.233983], [13.25023, 1.221787], [13.184911, 1.22251], [13.18181, 1.236463], [13.150184, 1.256617], [13.169201, 1.258581], [13.188321, 1.291447], [13.23359, 1.30881], [13.251263, 1.337646], [13.239584, 1.356507], [13.239481, 1.427976], [13.223461, 1.438001], [13.205478, 1.48637], [13.184911, 1.496886], [13.190905, 1.511072], [13.182637, 1.536548], [13.171268, 1.545256], [13.164447, 1.53784], [13.129617, 1.592462], [13.146773, 1.612254], [13.149977, 1.636284], [13.143983, 1.681811], [13.157522, 1.739146], [13.150184, 1.756302], [13.173025, 1.776947], [13.191008, 1.828727], [13.188321, 1.85658], [13.162173, 1.899833], [13.178193, 1.907792], [13.210232, 1.956316], [13.206925, 1.993575], [13.281132, 2.044967], [13.291364, 2.068945], [13.294568, 2.161058], [14.266963, 2.152428], [14.320293, 2.17067], [14.383649, 2.162091], [14.432948, 2.132119], [14.4592, 2.146537], [14.54705, 2.166536], [14.547773, 2.193666], [14.562139, 2.208807], [14.587874, 2.201727], [14.620947, 2.16483], [14.644821, 2.154185], [14.636346, 2.13832], [14.672003, 2.134341], [14.720476, 2.099589], [14.713654, 2.12398], [14.720889, 2.127597], [14.747864, 2.113205], [14.727297, 2.099589], [14.761403, 2.099589], [14.764814, 2.065456], [14.841192, 2.075921], [14.857005, 2.115944], [14.887804, 2.072252], [14.907338, 2.058894], [14.892455, 2.00639], [14.953846, 2.005822], [14.963045, 2.010421], [14.971003, 2.034451], [14.980718, 2.033107], [15.028261, 1.995306], [15.04366, 1.990862], [15.06309, 1.997166], [15.074873, 1.979364], [15.091616, 1.984428], [15.117764, 2.01701], [15.138538, 2.011506], [15.151664, 2.040988], [15.1836, 2.029335], [15.212642, 2.039618], [15.233726, 2.031298], [15.248092, 2.003341], [15.295428, 1.981534], [15.303283, 1.966419], [15.301629, 1.943578], [15.337389, 1.92146], [15.388135, 1.939547], [15.439192, 1.969829], [15.48291, 1.97585], [15.611791, 1.942544], [15.706772, 1.931976], [15.76465, 1.908722], [15.80289, 1.859965], [15.875651, 1.823766], [15.889913, 1.793277], [15.92588, 1.804749], [15.928981, 1.788962], [15.94376, 1.781624], [15.98045, 1.770591], [15.990786, 1.776172], [16.013833, 1.771314], [16.026339, 1.752297], [16.021998, 1.72279], [16.069851, 1.654551], [16.114809, 1.719069], [16.145092, 1.714315], [16.15584, 1.719069], [16.159044, 1.734805], [16.135066, 1.845315], [16.101373, 1.932803], [16.06489, 1.97895], [16.063753, 2.015873], [16.081736, 2.046827], [16.076672, 2.08592], [16.090315, 2.092742], [16.092485, 2.106901], [16.085767, 2.149172], [16.104371, 2.193562], [16.12039, 2.203329], [16.140647, 2.199815], [16.159251, 2.18209], [16.207723, 2.22307], [16.196665, 2.236454], [16.479128, 2.836314], [16.483779, 2.860395], [16.448329, 2.913467], [16.445538, 2.95765], [16.484192, 3.031909], [16.490807, 3.067824], [16.464762, 3.1318], [16.465485, 3.156501], [16.511477, 3.227246], [16.517782, 3.273238], [16.542793, 3.336154], [16.551682, 3.419767], [16.567701, 3.464389], [16.598501, 3.501674], [16.639428, 3.528597], [16.686351, 3.542214], [16.729552, 3.542214], [16.811924, 3.521672], [16.833008, 3.522861], [16.852645, 3.532809], [16.853162, 3.560094], [16.904735, 3.550637], [16.942252, 3.553092], [16.968607, 3.533481], [17.009225, 3.538131], [17.061418, 3.56614], [17.102139, 3.566605], [17.142757, 3.580842], [17.197224, 3.58172], [17.259442, 3.625904], [17.298096, 3.615904], [17.334373, 3.618514], [17.375714, 3.663447], [17.458913, 3.708276], [17.481858, 3.704762], [17.494983, 3.683213], [17.508936, 3.681766], [17.550484, 3.648151], [17.586761, 3.632234], [17.627275, 3.626317], [17.733212, 3.632208], [17.755949, 3.614509], [17.793156, 3.617506], [17.821165, 3.593994], [17.842146, 3.540147], [17.875322, 3.542731], [17.919247, 3.565597], [17.969476, 3.537511], [18.047094, 3.563143], [18.082028, 3.563453], [18.116444, 3.552007], [18.134014, 3.534824], [18.146727, 3.494904], [18.159852, 3.480305], [18.181556, 3.477386], [18.220004, 3.503947], [18.248529, 3.574899], [18.355603, 3.581462], [18.379891, 3.574382], [18.392293, 3.595854], [18.429707, 3.600221], [18.459059, 3.631382], [18.472081, 3.632053], [18.513422, 3.592237], [18.570267, 3.489607], [18.582462, 3.477386], [18.626387, 3.476869], [18.634552, 3.449222]]]}}, {"type": "Feature", "properties": {"name": "Dem. Rep. Congo"}, "geometry": {"type": "MultiPolygon", "coordinates": [[[[18.593004, 3.709775], [18.612848, 3.833746], [18.613675, 3.901468], [18.64158, 3.958261], [18.646541, 4.045982], [18.619669, 4.169566], [18.57254, 4.265684], [18.545048, 4.289016], [18.53709, 4.306069], [18.541948, 4.327851], [18.576468, 4.372757], [18.614295, 4.359813], [18.654086, 4.357229], [18.721058, 4.377357], [18.753304, 4.400611], [18.776972, 4.433451], [18.828235, 4.559981], [18.85242, 4.594062], [18.886526, 4.621399], [18.897895, 4.650647], [18.928178, 4.666435], [18.962284, 4.724441], [19.011583, 4.765033], [19.019748, 4.8033], [19.044139, 4.82689], [19.057782, 4.867792], [19.08331, 4.90934], [19.133023, 4.946934], [19.195655, 4.950345], [19.236996, 5.010781], [19.373112, 5.087546], [19.408975, 5.130386], [19.517082, 5.135967], [19.568759, 5.15519], [19.605552, 5.138292], [19.71955, 5.135967], [19.82466, 5.096977], [19.850188, 5.073748], [19.890909, 5.002125], [20.0, 4.975450442415184], [20.0, -7.001949], [19.521836, -7.001949], [19.54261, -7.052282], [19.497032, -7.121735], [19.487213, -7.153877], [19.476361, -7.315935], [19.487213, -7.381977], [19.513775, -7.448433], [19.513155, -7.479439], [19.468713, -7.52109], [19.458274, -7.560261], [19.443908, -7.575247], [19.355645, -7.57411], [19.353681, -7.600258], [19.380966, -7.679737], [19.38138, -7.703921], [19.333838, -7.867322], [19.330944, -7.898638], [19.355542, -8.001991], [18.773768, -8.001991], [18.752064, -7.965921], [18.74731, -7.937809], [18.738525, -7.932331], [18.516523, -7.932228], [18.504327, -7.940703], [18.507635, -7.997547], [18.420508, -7.99827], [18.366558, -8.016771], [18.316225, -8.001681], [18.192719, -7.996927], [18.120372, -8.022455], [18.102181, -8.033307], [18.09288, -8.056355], [18.098151, -8.109271], [17.981879, -8.105344], [17.930822, -8.062142], [17.901367, -8.048086], [17.867984, -8.044469], [17.789539, -8.081779], [17.713265, -8.068344], [17.628412, -8.098006], [17.600197, -8.098523], [17.544283, -8.084777], [17.536531, -8.075992], [17.528366, -8.060592], [17.540045, -8.032067], [17.536531, -8.015117], [17.496224, -7.987212], [17.481858, -7.945664], [17.468318, -7.959926], [17.463047, -7.949798], [17.468318, -7.939463], [17.434109, -7.915795], [17.452402, -7.883962], [17.44093, -7.871146], [17.426357, -7.875487], [17.420569, -7.843861], [17.3907, -7.83921], [17.400002, -7.823397], [17.380985, -7.823191], [17.375404, -7.792288], [17.342435, -7.78402], [17.315976, -7.753634], [17.310602, -7.740818], [17.32042, -7.713637], [17.303781, -7.706712], [17.303781, -7.692449], [17.288898, -7.699477], [17.286417, -7.625167], [17.217791, -7.585996], [17.172832, -7.493805], [17.148545, -7.472618], [17.151542, -7.451224], [17.1749, -7.441612], [17.176553, -7.428176], [17.132215, -7.409572], [17.118159, -7.425489], [17.103999, -7.416084], [17.093354, -7.352315], [17.022867, -7.306013], [16.996099, -7.297951], [16.989071, -7.254853], [16.945663, -7.204624], [16.947523, -7.151087], [16.927059, -7.085665], [16.929126, -7.060653], [16.961166, -7.069231], [16.973155, -7.014765], [16.955275, -6.981485], [16.928713, -6.968669], [16.934501, -6.945725], [16.926956, -6.888571], [16.914967, -6.864076], [16.890783, -6.847126], [16.855332, -6.842165], [16.832905, -6.827799], [16.823086, -6.785114], [16.768103, -6.708323], [16.730792, -6.56983], [16.747329, -6.521978], [16.721697, -6.491799], [16.727795, -6.465961], [16.706091, -6.465031], [16.720974, -6.42834], [16.718907, -6.415318], [16.700407, -6.411287], [16.692965, -6.398368], [16.693585, -6.359817], [16.697409, -6.349792], [16.720974, -6.342351], [16.714773, -6.231556], [16.726762, -6.189182], [16.695859, -6.140916], [16.660099, -6.123966], [16.630953, -6.09172], [16.61111, -6.089756], [16.632194, -6.065262], [16.62837, -6.05534], [16.604288, -6.061851], [16.601188, -6.050586], [16.595297, -5.978549], [16.580724, -5.955398], [16.597364, -5.924702], [16.552922, -5.902378], [16.497318, -5.882844], [16.396136, -5.894109], [16.341255, -5.859796], [16.315727, -5.854629], [14.703733, -5.881397], [14.576609, -5.904651], [14.482144, -5.885531], [14.436669, -5.893386], [14.241849, -5.889562], [14.140149, -5.863517], [14.02119, -5.872509], [13.943572, -5.841606], [13.641523, -5.865791], [13.562562, -5.857419], [13.522668, -5.867548], [13.493212, -5.858453], [13.380454, -5.856386], [13.342524, -5.890595], [13.26935, -5.863517], [13.170665, -5.849867], [13.122895, -5.862481], [13.067227, -5.862629], [12.940929, -5.819106], [12.896169, -5.814548], [12.822439, -5.829767], [12.76648, -5.86531], [12.71754, -5.931329], [12.722607, -5.979263], [12.671982, -6.000132], [12.607012, -5.998019], [12.556377, -6.025472], [12.449498, -6.051928], [12.435164, -6.050853], [12.431854, -6.034414], [12.457204, -6.013552], [12.457194, -5.981772], [12.414201, -5.97854], [12.396563, -6.005963], [12.376231, -5.958673], [12.355154, -5.945001], [12.249278, -5.82879], [12.210541, -5.763442], [12.258972, -5.736703], [12.344445, -5.724611], [12.508983, -5.726264], [12.530687, -5.162681], [12.524072, -5.129091], [12.444697, -5.093538], [12.43891, -5.073281], [12.444387, -5.055091], [12.550427, -5.024188], [12.587738, -5.000314], [12.606961, -4.94223], [12.678895, -4.924298], [12.696982, -4.875619], [12.766228, -4.825182], [12.774806, -4.7795], [12.802918, -4.739813], [12.833201, -4.722656], [13.065331, -4.663952], [13.073703, -4.635323], [13.071532, -4.60163], [13.087966, -4.579513], [13.112357, -4.576929], [13.18212, -4.686069], [13.274001, -4.755833], [13.334565, -4.777537], [13.35875, -4.794797], [13.39265, -4.885334], [13.430787, -4.843372], [13.493522, -4.799654], [13.496416, -4.792109], [13.482257, -4.77485], [13.526182, -4.754282], [13.570727, -4.785908], [13.591397, -4.779397], [13.613101, -4.739193], [13.633979, -4.725654], [13.67532, -4.731751], [13.681934, -4.695371], [13.705861, -4.694338], [13.712475, -4.685656], [13.699091, -4.642661], [13.721777, -4.561012], [13.714956, -4.453009], [13.78999, -4.424587], [13.810454, -4.426654], [13.832881, -4.441227], [13.867091, -4.489286], [13.944502, -4.498071], [13.989874, -4.45797], [14.021087, -4.415388], [14.058397, -4.400505], [14.146351, -4.38986], [14.184694, -4.377458], [14.222212, -4.359784], [14.279986, -4.312759], [14.387059, -4.277102], [14.395328, -4.289711], [14.385716, -4.332913], [14.392744, -4.352756], [14.428607, -4.400402], [14.469742, -4.429341], [14.466538, -4.448048], [14.424576, -4.502308], [14.37476, -4.530213], [14.350783, -4.559049], [14.365769, -4.627262], [14.406903, -4.676044], [14.410934, -4.701056], [14.399048, -4.737539], [14.412588, -4.778157], [14.396464, -4.855878], [14.400702, -4.886264], [14.437289, -4.880166], [14.481937, -4.845853], [14.519868, -4.841305], [14.532477, -4.856188], [14.562139, -4.855878], [14.575058, -4.873655], [14.623324, -4.899493], [14.672727, -4.899907], [14.831167, -4.815054], [14.931005, -4.646899], [15.00821, -4.571038], [15.022783, -4.54706], [15.076113, -4.520085], [15.09792, -4.499931], [15.20396, -4.339011], [15.458932, -4.21385], [15.490351, -4.175196], [15.52115, -4.076804], [15.533759, -4.057994], [15.566832, -4.038047], [15.711216, -3.992158], [15.844231, -3.965597], [15.882989, -3.945339], [15.912134, -3.917434], [15.930324, -3.858626], [15.974249, -3.786486], [15.991096, -3.738944], [16.005255, -3.724784], [16.053314, -3.619985], [16.115533, -3.544227], [16.225603, -3.313233], [16.227464, -3.289876], [16.198628, -3.25949], [16.193357, -3.238406], [16.199248, -3.171847], [16.185709, -3.136397], [16.188293, -2.976406], [16.177028, -2.882459], [16.204519, -2.782723], [16.225603, -2.635239], [16.192324, -2.39515], [16.191704, -2.346884], [16.174857, -2.303062], [16.189947, -2.241878], [16.187363, -2.204567], [16.194598, -2.182036], [16.231288, -2.129016], [16.382596, -2.002202], [16.470033, -1.912699], [16.513958, -1.887377], [16.522536, -1.861746], [16.604185, -1.754052], [16.617207, -1.728731], [16.623822, -1.6538], [16.636224, -1.62083], [16.725521, -1.47996], [16.833215, -1.269017], [16.909179, -1.211139], [17.022557, -1.097038], [17.308018, -1.014976], [17.330446, -0.986554], [17.364965, -0.967227], [17.411474, -0.918341], [17.60216, -0.688691], [17.650943, -0.646316], [17.664172, -0.612726], [17.749541, -0.523429], [17.740756, -0.346179], [17.716262, -0.246237], [17.716365, -0.195801], [17.757086, -0.009456], [17.854031, 0.241072], [17.945498, 0.377291], [17.949943, 0.491496], [17.933096, 0.527049], [17.91842, 0.535214], [17.893202, 0.607664], [17.907671, 0.740473], [17.877906, 0.867907], [17.878216, 0.947178], [17.86664, 1.016632], [17.892478, 1.077403], [17.956247, 1.171661], [17.966996, 1.253723], [18.012264, 1.421956], [18.071382, 1.551457], [18.066111, 1.858983], [18.081718, 1.942415], [18.076033, 1.988484], [18.080787, 2.084163], [18.072416, 2.160024], [18.111173, 2.265289], [18.146727, 2.315932], [18.16378, 2.321048], [18.199126, 2.389106], [18.233026, 2.502587], [18.313745, 2.575968], [18.393223, 2.713686], [18.425159, 2.822154], [18.471771, 2.909229], [18.528409, 3.064775], [18.541431, 3.08281], [18.613055, 3.128182], [18.631141, 3.17898], [18.642407, 3.323829], [18.634552, 3.449222], [18.593004, 3.709775]]], [[[12.99459, -5.868244], [12.969299, -5.888014], [12.884423, -5.907862], [12.839276, -5.92764], [12.807373, -5.95397], [12.761119, -5.958406], [12.745128, -5.940199], [12.828161, -5.871794], [12.99459, -5.868244]]]]}}, {"type": "Feature", "properties": {"name": "Central African Rep."}, "geometry": {"type": "Polygon", "coordinates": [[[19.890909, 5.002125], [19.850188, 5.073748], [19.82466, 5.096977], [19.71955, 5.135967], [19.605552, 5.138292], [19.568759, 5.15519], [19.517082, 5.135967], [19.408975, 5.130386], [19.373112, 5.087546], [19.236996, 5.010781], [19.195655, 4.950345], [19.133023, 4.946934], [19.08331, 4.90934], [19.057782, 4.867792], [19.044139, 4.82689], [19.019748, 4.8033], [19.011583, 4.765033], [18.962284, 4.724441], [18.928178, 4.666435], [18.897895, 4.650647], [18.886526, 4.621399], [18.85242, 4.594062], [18.828235, 4.559981], [18.776972, 4.433451], [18.753304, 4.400611], [18.721058, 4.377357], [18.654086, 4.357229], [18.614295, 4.359813], [18.576468, 4.372757], [18.541948, 4.327851], [18.53709, 4.306069], [18.545048, 4.289016], [18.57254, 4.265684], [18.619669, 4.169566], [18.646541, 4.045982], [18.64158, 3.958261], [18.613675, 3.901468], [18.612848, 3.833746], [18.593004, 3.709775], [18.626387, 3.476869], [18.582462, 3.477386], [18.570267, 3.489607], [18.513422, 3.592237], [18.472081, 3.632053], [18.459059, 3.631382], [18.429707, 3.600221], [18.392293, 3.595854], [18.379891, 3.574382], [18.355603, 3.581462], [18.248529, 3.574899], [18.220004, 3.503947], [18.181556, 3.477386], [18.159852, 3.480305], [18.146727, 3.494904], [18.134014, 3.534824], [18.116444, 3.552007], [18.082028, 3.563453], [18.047094, 3.563143], [17.969476, 3.537511], [17.919247, 3.565597], [17.875322, 3.542731], [17.842146, 3.540147], [17.821165, 3.593994], [17.793156, 3.617506], [17.755949, 3.614509], [17.733212, 3.632208], [17.627275, 3.626317], [17.586761, 3.632234], [17.550484, 3.648151], [17.508936, 3.681766], [17.494983, 3.683213], [17.481858, 3.704762], [17.458913, 3.708276], [17.375714, 3.663447], [17.334373, 3.618514], [17.298096, 3.615904], [17.259442, 3.625904], [17.197224, 3.58172], [17.142757, 3.580842], [17.102139, 3.566605], [17.061418, 3.56614], [17.009225, 3.538131], [16.968607, 3.533481], [16.942252, 3.553092], [16.904735, 3.550637], [16.867838, 3.561541], [16.853162, 3.560094], [16.852645, 3.532809], [16.833008, 3.522861], [16.709398, 3.543712], [16.639428, 3.528597], [16.598501, 3.501674], [16.567701, 3.464389], [16.551682, 3.419767], [16.542793, 3.336154], [16.517782, 3.273238], [16.511477, 3.227246], [16.465485, 3.156501], [16.464762, 3.1318], [16.490807, 3.067824], [16.484192, 3.031909], [16.445538, 2.95765], [16.448329, 2.913467], [16.483779, 2.860395], [16.479128, 2.836314], [16.196665, 2.236454], [16.179715, 2.246996], [16.186536, 2.277692], [16.165969, 2.294796], [16.159251, 2.332934], [16.120907, 2.389571], [16.107058, 2.474165], [16.090315, 2.510494], [16.091245, 2.532766], [16.111502, 2.5862], [16.090315, 2.661906], [16.110468, 2.701438], [16.062616, 2.703195], [16.059309, 2.711825], [16.059929, 2.786188], [16.086904, 2.813163], [16.095172, 2.836779], [16.092382, 2.863289], [16.055381, 2.93977], [16.026236, 2.978992], [15.977763, 2.980956], [15.950065, 3.061003], [15.913995, 3.097952], [15.897768, 3.103533], [15.854773, 3.098985], [15.834206, 3.108545], [15.813536, 3.098985], [15.78563, 3.107977], [15.171301, 3.758971], [15.084898, 3.885836], [15.025987, 4.026086], [15.091719, 4.015854], [15.111253, 4.019937], [15.192075, 4.052234], [15.189801, 4.063112], [15.177709, 4.071458], [15.14846, 4.073938], [15.132854, 4.108536], [15.102571, 4.112412], [15.091202, 4.121791], [15.082934, 4.205507], [15.063814, 4.293434], [15.013894, 4.364257], [14.993947, 4.413298], [14.938344, 4.435932], [14.779697, 4.545047], [14.74373, 4.57998], [14.717272, 4.622019], [14.69071, 4.762139], [14.701459, 4.814384], [14.686989, 4.908875], [14.672107, 4.940811], [14.674484, 4.967579], [14.659498, 4.997035], [14.667456, 5.052768], [14.658877, 5.164544], [14.640481, 5.208236], [14.624461, 5.224049], [14.539712, 5.261799], [14.519868, 5.290583], [14.539608, 5.303579], [14.579606, 5.395382], [14.592835, 5.400033], [14.599553, 5.456645], [14.617433, 5.495299], [14.617226, 5.53788], [14.596556, 5.577232], [14.590148, 5.608289], [14.631075, 5.738049], [14.617433, 5.864966], [14.584773, 5.923412], [14.530616, 5.90592], [14.482144, 5.90964], [14.465711, 5.920673], [14.446901, 5.970024], [14.397705, 6.019169], [14.387266, 6.039038], [14.397705, 6.053947], [14.412898, 6.047022], [14.422509, 6.051363], [14.433568, 6.073868], [14.430571, 6.088079], [14.467054, 6.122599], [14.482144, 6.127069], [14.534957, 6.190088], [14.576402, 6.189778], [14.719029, 6.257862], [14.772255, 6.318323], [14.784658, 6.347805], [14.782177, 6.393616], [14.807292, 6.4278], [14.932452, 6.710289], [14.962321, 6.736696], [15.034565, 6.776771], [15.113217, 6.964692], [15.136161, 7.045308], [15.147013, 7.061844], [15.187527, 7.088612], [15.186597, 7.166334], [15.223908, 7.247517], [15.385345, 7.358363], [15.403225, 7.386372], [15.432784, 7.389731], [15.434954, 7.402908], [15.415524, 7.42084], [15.419451, 7.43655], [15.481049, 7.523263], [15.55195, 7.509879], [15.624813, 7.519749], [15.668532, 7.516287], [15.720001, 7.468641], [15.758345, 7.455567], [15.92526, 7.488175], [15.975696, 7.515201], [16.026339, 7.574888], [16.042979, 7.583931], [16.162662, 7.611113], [16.207207, 7.613542], [16.282758, 7.660102], [16.370814, 7.672504], [16.387144, 7.694674], [16.392208, 7.783609], [16.407401, 7.796063], [16.450913, 7.792084], [16.475717, 7.835802], [16.491737, 7.849238], [16.548685, 7.870012], [16.549305, 7.794719], [16.576383, 7.767796], [16.613073, 7.74821], [16.61421, 7.679584], [16.709812, 7.627753], [16.782365, 7.541143], [16.805516, 7.543675], [16.836729, 7.567498], [16.853886, 7.567498], [16.847168, 7.591579], [16.854816, 7.611475], [16.880654, 7.632869], [16.919618, 7.644082], [16.98194, 7.648733], [16.997546, 7.666717], [17.038991, 7.662479], [17.045605, 7.6847], [17.059351, 7.696534], [17.101932, 7.677724], [17.188645, 7.764127], [17.211073, 7.768312], [17.220685, 7.798181], [17.250864, 7.822831], [17.385739, 7.870477], [17.419122, 7.898227], [17.466355, 7.884119], [17.503665, 7.926236], [17.580766, 7.940602], [17.59999, 7.950369], [17.62066, 7.978739], [17.639884, 7.985043], [17.858785, 7.960445], [18.070452, 8.019202], [18.508255, 8.030674], [18.589283, 8.047882], [18.617912, 8.090127], [18.618636, 8.138652], [18.638583, 8.177642], [18.672586, 8.20751], [18.773768, 8.248619], [18.813042, 8.276421], [18.8549, 8.339802], [18.901306, 8.388636], [18.920529, 8.432122], [19.020472, 8.545578], [19.061296, 8.625624], [19.124135, 8.675079], [19.057782, 8.729701], [19.048687, 8.745669], [18.929108, 8.796544], [18.917325, 8.805148], [18.902959, 8.84481], [18.886526, 8.835844], [18.869783, 8.849409], [18.86968, 8.864111], [18.892727, 8.897933], [18.917739, 8.898812], [18.922907, 8.918216], [18.971896, 8.938215], [19.021919, 8.985215], [19.10057, 9.015265], [19.168783, 9.002216], [19.192037, 9.020174], [19.253429, 9.027951], [19.295494, 9.009503], [19.304795, 9.020846], [19.333321, 9.006557], [19.369391, 9.000382], [19.420964, 9.017435], [19.52132, 9.008831], [19.613614, 9.031672], [19.640072, 9.013999], [19.656402, 9.021259], [19.700017, 9.020587], [19.738154, 9.039372], [19.784663, 9.048751], [19.889463, 9.046374], [19.914474, 9.069267], [19.928737, 9.062575], [19.969044, 9.082883], [19.993022, 9.084589], [20.0, 9.09750351498303], [20.0, 4.975450442415184], [19.890909, 5.002125]]]}}, {"type": "Feature", "properties": {"name": "Nigeria"}, "geometry": {"type": "MultiPolygon", "coordinates": [[[[13.246405, 9.973475], [13.242271, 9.949756], [13.211059, 9.892756], [13.212712, 9.870148], [13.262942, 9.801728], [13.241341, 9.745324], [13.223461, 9.613135], [13.195453, 9.542209], [13.13034, 9.516526], [13.051689, 9.504511], [12.982442, 9.474591], [12.929009, 9.416119], [12.855422, 9.378111], [12.848394, 9.359947], [12.88157, 9.352221], [12.891285, 9.33199], [12.898416, 9.262433], [12.888391, 9.226725], [12.822142, 9.09681], [12.82824, 9.019967], [12.805709, 8.831503], [12.794547, 8.788612], [12.772946, 8.759053], [12.708867, 8.750914], [12.678171, 8.678696], [12.660395, 8.659318], [12.557972, 8.605677], [12.527793, 8.604851], [12.482524, 8.623247], [12.42444, 8.599786], [12.368836, 8.609579], [12.400462, 8.538421], [12.403873, 8.496537], [12.365116, 8.466564], [12.331319, 8.424293], [12.271788, 8.427781], [12.249981, 8.418764], [12.227036, 8.386311], [12.219285, 8.343161], [12.236751, 8.196994], [12.188279, 8.117774], [12.182594, 8.093486], [12.197787, 7.975173], [12.192103, 7.960652], [12.154276, 7.921326], [12.054954, 7.783919], [12.018987, 7.718858], [12.009065, 7.676328], [12.024981, 7.596592], [12.021054, 7.576231], [11.844734, 7.396397], [11.782722, 7.304517], [11.736627, 7.263279], [11.780242, 7.241058], [11.868918, 7.127111], [11.881321, 7.102048], [11.872226, 7.079362], [11.833985, 7.08298], [11.80887, 7.071921], [11.75151, 7.023965], [11.741071, 6.997507], [11.692495, 6.991616], [11.681126, 6.96862], [11.623249, 6.932291], [11.561754, 6.876067], [11.543667, 6.850694], [11.538086, 6.8239], [11.566611, 6.784187], [11.568885, 6.739099], [11.533435, 6.645099], [11.509767, 6.612311], [11.482585, 6.597169], [11.443105, 6.593268], [11.41675, 6.572003], [11.401764, 6.538181], [11.389361, 6.473921], [11.369828, 6.455757], [11.319495, 6.437283], [11.27588, 6.444207], [11.255519, 6.42997], [11.231748, 6.439815], [11.140384, 6.43028], [11.113512, 6.434001], [11.097079, 6.449117], [11.077442, 6.496736], [11.060596, 6.573967], [11.055945, 6.700367], [11.036721, 6.740546], [11.002615, 6.767262], [10.909391, 6.784264], [10.877454, 6.816097], [10.831876, 6.94521], [10.799113, 6.967328], [10.620623, 7.043757], [10.602536, 7.058072], [10.597161, 7.107268], [10.578661, 7.130832], [10.55179, 7.06634], [10.537424, 6.952135], [10.521197, 6.942781], [10.500733, 6.912809], [10.495979, 6.874672], [10.238424, 6.871003], [10.210828, 6.879168], [10.189848, 6.895446], [10.179409, 6.914928], [10.165043, 6.988515], [10.156878, 7.004742], [10.142926, 7.007687], [9.874622, 6.787701], [9.851161, 6.777882], [9.788529, 6.794754], [9.769822, 6.773722], [9.693031, 6.531308], [9.680525, 6.521438], [9.60301, 6.515185], [9.548957, 6.443174], [9.453149, 6.397673], [9.422866, 6.339356], [9.394961, 6.322535], [9.354757, 6.321502], [9.341011, 6.313983], [9.273315, 6.202775], [9.136165, 6.092523], [9.009868, 5.952351], [8.993849, 5.944083], [8.982686, 5.895765], [8.921708, 5.904473], [8.891219, 5.871116], [8.855872, 5.847499], [8.845227, 5.831041], [8.847087, 5.810758], [8.866621, 5.777452], [8.862177, 5.752337], [8.819286, 5.703451], [8.832411, 5.678156], [8.8937, 5.621751], [8.903932, 5.595086], [8.899487, 5.570953], [8.850498, 5.514006], [8.844297, 5.492353], [8.849775, 5.432357], [8.815255, 5.343499], [8.825693, 5.295492], [8.798925, 5.159635], [8.79169, 5.146741], [8.748282, 5.12421], [8.728852, 5.094548], [8.698569, 5.017809], [8.638315, 4.916781], [8.602245, 4.881331], [8.612166, 4.831877], [8.595113, 4.815314], [8.576671, 4.827053], [8.549164, 4.804185], [8.531749, 4.758124], [8.539073, 4.733791], [8.529796, 4.708889], [8.518321, 4.704047], [8.469005, 4.711656], [8.48227, 4.738349], [8.480154, 4.752509], [8.438813, 4.738267], [8.40919, 4.749335], [8.4074, 4.776842], [8.421886, 4.84748], [8.415701, 4.84748], [8.409028, 4.813381], [8.386974, 4.795803], [8.358409, 4.797349], [8.332367, 4.820868], [8.339854, 4.834459], [8.312022, 4.84748], [8.31658, 4.860989], [8.30836, 4.872138], [8.256196, 4.906724], [8.232107, 4.953681], [8.208751, 4.962104], [8.181651, 4.991441], [8.175466, 4.985297], [8.230235, 4.933661], [8.269705, 4.86872], [8.273611, 4.845445], [8.257335, 4.834459], [8.273936, 4.804836], [8.304942, 4.77733], [8.332367, 4.71776], [8.320974, 4.689154], [8.323497, 4.665595], [8.353526, 4.648871], [8.356456, 4.625556], [8.321544, 4.59984], [8.29835, 4.55329], [8.288585, 4.54857], [8.031993, 4.558783], [7.97934, 4.539008], [7.764496, 4.519192], [7.742361, 4.526313], [7.722911, 4.511705], [7.757091, 4.504869], [7.703136, 4.497545], [7.673839, 4.502183], [7.646983, 4.51911], [7.558442, 4.525336], [7.572032, 4.539008], [7.539317, 4.541815], [7.537364, 4.55329], [7.558442, 4.579983], [7.537364, 4.607896], [7.54477, 4.621568], [7.529633, 4.638861], [7.551036, 4.711005], [7.54477, 4.711005], [7.517426, 4.679918], [7.522716, 4.64411], [7.514171, 4.625922], [7.531098, 4.601142], [7.501964, 4.572699], [7.479177, 4.565172], [7.462738, 4.573798], [7.454112, 4.553168], [7.432384, 4.555406], [7.397716, 4.573798], [7.34669, 4.580308], [7.324555, 4.590766], [7.312022, 4.607896], [7.281016, 4.601142], [7.263682, 4.579983], [7.277354, 4.566352], [7.271169, 4.560045], [7.333263, 4.529364], [7.325694, 4.511705], [7.281016, 4.504869], [7.19044, 4.61164], [7.178884, 4.66885], [7.133149, 4.663153], [7.099132, 4.697252], [7.071788, 4.758124], [7.057628, 4.730862], [7.060395, 4.720689], [7.078624, 4.711005], [7.097911, 4.661811], [7.147227, 4.640041], [7.169688, 4.605943], [7.17335, 4.572903], [7.147472, 4.560045], [7.184581, 4.519029], [7.150645, 4.470608], [7.133556, 4.463039], [7.112804, 4.471381], [7.112804, 4.450873], [7.080577, 4.470445], [7.074555, 4.485256], [7.078624, 4.504869], [7.065278, 4.492987], [7.062673, 4.476264], [7.078624, 4.443427], [7.043956, 4.436591], [7.02589, 4.484931], [7.023285, 4.535875], [7.002208, 4.579901], [7.017833, 4.595608], [7.023285, 4.648871], [7.043956, 4.642646], [7.017263, 4.676215], [7.003591, 4.71776], [6.978526, 4.692369], [6.962657, 4.730862], [6.955821, 4.683661], [6.989268, 4.607896], [6.971853, 4.609076], [6.962657, 4.621568], [6.948985, 4.614732], [6.900564, 4.683661], [6.907481, 4.653632], [6.933604, 4.612494], [6.921235, 4.585191], [6.928477, 4.573798], [6.938487, 4.58926], [6.957042, 4.594062], [6.974946, 4.589667], [6.983084, 4.57685], [6.975597, 4.484442], [7.023692, 4.398139], [7.016287, 4.378892], [7.006602, 4.374579], [6.964122, 4.389553], [6.969493, 4.374579], [6.903087, 4.396552], [6.880056, 4.38817], [6.868663, 4.399848], [6.859223, 4.433539], [6.866384, 4.450873], [6.849294, 4.459703], [6.833832, 4.485907], [6.818614, 4.542711], [6.820486, 4.560858], [6.844249, 4.59748], [6.84547, 4.628607], [6.803233, 4.649807], [6.785492, 4.683295], [6.770193, 4.745063], [6.767263, 4.76968], [6.787852, 4.808417], [6.78533, 4.817043], [6.763927, 4.806545], [6.749685, 4.834459], [6.732758, 4.828681], [6.715587, 4.834459], [6.726817, 4.785102], [6.748383, 4.771674], [6.755626, 4.753852], [6.772227, 4.663031], [6.793712, 4.648993], [6.82545, 4.601142], [6.802989, 4.581977], [6.796153, 4.559719], [6.816091, 4.461371], [6.839692, 4.416083], [6.837576, 4.39289], [6.870779, 4.360785], [6.845958, 4.347235], [6.774587, 4.338935], [6.737559, 4.342231], [6.715587, 4.354682], [6.716319, 4.428127], [6.722423, 4.440009], [6.708751, 4.457099], [6.708751, 4.491889], [6.734874, 4.567816], [6.736095, 4.607896], [6.717133, 4.584621], [6.701834, 4.542548], [6.695079, 4.422919], [6.682628, 4.459215], [6.674571, 4.532782], [6.654063, 4.511705], [6.664317, 4.434638], [6.694509, 4.359076], [6.687673, 4.336575], [6.6185, 4.330756], [6.612641, 4.336737], [6.601736, 4.369045], [6.595876, 4.482082], [6.580821, 4.50788], [6.550466, 4.504869], [6.57838, 4.482856], [6.58839, 4.447659], [6.569591, 4.334906], [6.519867, 4.323147], [6.461762, 4.328681], [6.434337, 4.347235], [6.407725, 4.34101], [6.415294, 4.322252], [6.398936, 4.315985], [6.270518, 4.292629], [6.246837, 4.320502], [6.2671, 4.362982], [6.33253, 4.436591], [6.297211, 4.436591], [6.263031, 4.395657], [6.258474, 4.44953], [6.242524, 4.498033], [6.236339, 4.498033], [6.23699, 4.452786], [6.24936, 4.409898], [6.2199, 4.439399], [6.201671, 4.443427], [6.230154, 4.388007], [6.222341, 4.341946], [6.21518, 4.327338], [6.194672, 4.314195], [6.194835, 4.300035], [6.222667, 4.300035], [6.217052, 4.290595], [6.188731, 4.280992], [6.126475, 4.285793], [6.112804, 4.272162], [6.09669, 4.278144], [6.084321, 4.302314], [6.089122, 4.337144], [6.105317, 4.374579], [6.084972, 4.368354], [6.088715, 4.411119], [6.055431, 4.419867], [6.043305, 4.416083], [6.040294, 4.405911], [6.050792, 4.368354], [6.04656, 4.355211], [6.064464, 4.316799], [6.061778, 4.295233], [5.996918, 4.319403], [5.995453, 4.354682], [6.003266, 4.359198], [5.988617, 4.382025], [5.988617, 4.416083], [5.982595, 4.416083], [5.975108, 4.382025], [5.9546, 4.395657], [5.97283, 4.344794], [5.961436, 4.333564], [5.9463, 4.335191], [5.889903, 4.368842], [5.867524, 4.387274], [5.855642, 4.411607], [5.865896, 4.436591], [5.847504, 4.434394], [5.845388, 4.416083], [5.839122, 4.416083], [5.7824, 4.455959], [5.770274, 4.471381], [5.797537, 4.457099], [5.789806, 4.469713], [5.749766, 4.484442], [5.5949, 4.636461], [5.566905, 4.675238], [5.557302, 4.71776], [5.571544, 4.711005], [5.571462, 4.72956], [5.52768, 4.756496], [5.475434, 4.84748], [5.509532, 4.827053], [5.500987, 4.850898], [5.469005, 4.886786], [5.432384, 5.010891], [5.385997, 5.125556], [5.39088, 5.137681], [5.402843, 5.142401], [5.433849, 5.136135], [5.475434, 5.09455], [5.454275, 5.149115], [5.49586, 5.14232], [5.450857, 5.190131], [5.444347, 5.163479], [5.413341, 5.156643], [5.365571, 5.163479], [5.361095, 5.253974], [5.34018, 5.34394], [5.345714, 5.357164], [5.454275, 5.368842], [5.468028, 5.340888], [5.489106, 5.368842], [5.529633, 5.386379], [5.56129, 5.388861], [5.577891, 5.381985], [5.536876, 5.430325], [5.533946, 5.476386], [5.553559, 5.496894], [5.614024, 5.50495], [5.639903, 5.540188], [5.596202, 5.514228], [5.577891, 5.519721], [5.564138, 5.505439], [5.541026, 5.510484], [5.5171, 5.498603], [5.503184, 5.476467], [5.509532, 5.450751], [5.484874, 5.411526], [5.468598, 5.407782], [5.447439, 5.416693], [5.436046, 5.434638], [5.423595, 5.43651], [5.421072, 5.417792], [5.433849, 5.395575], [5.375987, 5.39883], [5.263194, 5.43651], [5.250173, 5.458197], [5.198009, 5.501451], [5.191173, 5.55386], [5.22283, 5.581204], [5.328136, 5.578437], [5.392833, 5.560614], [5.427013, 5.622138], [5.439952, 5.627672], [5.4817, 5.615302], [5.492524, 5.581204], [5.509613, 5.590644], [5.502126, 5.617255], [5.447439, 5.656236], [5.428477, 5.655829], [5.406505, 5.615302], [5.379649, 5.597968], [5.344981, 5.594794], [5.32602, 5.605414], [5.318207, 5.636664], [5.336925, 5.691148], [5.337576, 5.724555], [5.331391, 5.724555], [5.304047, 5.650051], [5.280284, 5.617499], [5.228282, 5.605618], [5.179698, 5.582587], [5.129161, 5.628119], [5.088634, 5.708726], [5.087413, 5.752102], [5.102712, 5.793199], [5.115001, 5.80093], [5.153982, 5.779202], [5.15919, 5.78559], [5.153982, 5.814521], [5.185395, 5.842027], [5.267426, 5.871894], [5.290375, 5.910102], [5.269542, 5.906399], [5.235362, 5.875922], [5.195811, 5.864], [5.119965, 5.824164], [5.055024, 5.766588], [5.044688, 5.767483], [5.007335, 5.849189], [4.885916, 6.006537], [4.865489, 6.025621], [4.826182, 6.042548], [4.747813, 6.138861], [4.608735, 6.231757], [4.547374, 6.289049], [4.509044, 6.313544], [4.405528, 6.358873], [4.125824, 6.410346], [3.870291, 6.431627], [3.443614, 6.410346], [3.421153, 6.414008], [3.384939, 6.444525], [3.401052, 6.450995], [3.412852, 6.444525], [3.428477, 6.458726], [3.440196, 6.423407], [3.475352, 6.455552], [3.492442, 6.446479], [3.541352, 6.45482], [3.570567, 6.478705], [3.570811, 6.509345], [3.621349, 6.512844], [3.686778, 6.531073], [3.700206, 6.527086], [3.742686, 6.547797], [3.756847, 6.563788], [3.762218, 6.58515], [3.857921, 6.6022], [3.844005, 6.610826], [3.773692, 6.622382], [3.663829, 6.570217], [3.51531, 6.527086], [3.478526, 6.541449], [3.473318, 6.566636], [3.481212, 6.6022], [3.429942, 6.557807], [3.402354, 6.552151], [3.406016, 6.512844], [3.369802, 6.450019], [3.389496, 6.419989], [3.384532, 6.397691], [3.326182, 6.391425], [3.214203, 6.396715], [3.082367, 6.381496], [2.927745, 6.389106], [2.703841, 6.368352], [2.704258, 6.429299], [2.71542, 6.494488], [2.737331, 6.558025], [2.73113, 6.641844], [2.778569, 6.698765], [2.773298, 6.755041], [2.736298, 6.769846], [2.723585, 6.799715], [2.736918, 6.863303], [2.71511, 6.979833], [2.741052, 7.0158], [2.775778, 7.030528], [2.779706, 7.041328], [2.747666, 7.072231], [2.735264, 7.096002], [2.762136, 7.1622], [2.741155, 7.408179], [2.751284, 7.423631], [2.786527, 7.421254], [2.792315, 7.477633], [2.720588, 7.586566], [2.715317, 7.625789], [2.727203, 7.793324], [2.715524, 7.822056], [2.691546, 7.848669], [2.671082, 7.897917], [2.687102, 7.933522], [2.708392, 8.13798], [2.734437, 8.189966], [2.734954, 8.211903], [2.697127, 8.320708], [2.703741, 8.417885], [2.736918, 8.464523], [2.744773, 8.498294], [2.723172, 8.782928], [2.751077, 8.803417], [2.745909, 8.836516], [2.762549, 8.895686], [2.74777, 8.914806], [2.76472, 8.939766], [2.770197, 8.967154], [2.769164, 9.057045], [2.846265, 9.050767], [2.859701, 9.052627], [2.888433, 9.075364], [2.929878, 9.078362], [2.983104, 9.060611], [3.051421, 9.078207], [3.076019, 9.095157], [3.151363, 9.288633], [3.151466, 9.353565], [3.128625, 9.429581], [3.132553, 9.457279], [3.151776, 9.488156], [3.182575, 9.505338], [3.243554, 9.584403], [3.238179, 9.609053], [3.245724, 9.633702], [3.299054, 9.633961], [3.33161, 9.652022], [3.338638, 9.678222], [3.314867, 9.759095], [3.325926, 9.801728], [3.413982, 9.842837], [3.452946, 9.853095], [3.513098, 9.846609], [3.589476, 9.948825], [3.599604, 9.968695], [3.601876536085974, 10.0], [13.240415317162102, 10.0], [13.246405, 9.973475]]], [[[7.584483, 4.484605], [7.569998, 4.459418], [7.499034, 4.454495], [7.431814, 4.434801], [7.358165, 4.439276], [7.342784, 4.447089], [7.336925, 4.46015], [7.346202, 4.478176], [7.404552, 4.498033], [7.469574, 4.471381], [7.584483, 4.484605]]], [[[7.33253, 4.491889], [7.314301, 4.469143], [7.307791, 4.424506], [7.29835, 4.41474], [7.270681, 4.400377], [7.181651, 4.382025], [7.147716, 4.385077], [7.138031, 4.39704], [7.221446, 4.506659], [7.229503, 4.532782], [7.243175, 4.5244], [7.258556, 4.497545], [7.33253, 4.491889]]]]}}, {"type": "Feature", "properties": {"name": "Benin"}, "geometry": {"type": "Polygon", "coordinates": [[[3.599604, 9.968695], [3.589476, 9.948825], [3.513098, 9.846609], [3.452946, 9.853095], [3.413982, 9.842837], [3.325926, 9.801728], [3.314867, 9.759095], [3.338638, 9.678222], [3.33161, 9.652022], [3.299054, 9.633961], [3.245724, 9.633702], [3.238179, 9.609053], [3.243554, 9.584403], [3.182575, 9.505338], [3.151776, 9.488156], [3.132553, 9.457279], [3.128625, 9.429581], [3.151466, 9.353565], [3.151363, 9.288633], [3.076019, 9.095157], [3.051421, 9.078207], [2.983104, 9.060611], [2.929878, 9.078362], [2.888433, 9.075364], [2.859701, 9.052627], [2.846265, 9.050767], [2.769164, 9.057045], [2.770197, 8.967154], [2.76472, 8.939766], [2.74777, 8.914806], [2.762549, 8.895686], [2.745909, 8.836516], [2.751077, 8.803417], [2.723172, 8.782928], [2.744773, 8.498294], [2.736918, 8.464523], [2.703741, 8.417885], [2.697127, 8.320708], [2.734954, 8.211903], [2.734437, 8.189966], [2.708392, 8.13798], [2.687102, 7.933522], [2.671082, 7.897917], [2.691546, 7.848669], [2.715524, 7.822056], [2.727203, 7.793324], [2.715317, 7.625789], [2.720588, 7.586566], [2.792315, 7.477633], [2.786527, 7.421254], [2.751284, 7.423631], [2.741155, 7.408179], [2.762136, 7.1622], [2.735264, 7.096002], [2.747666, 7.072231], [2.779706, 7.041328], [2.775778, 7.030528], [2.741052, 7.0158], [2.71511, 6.979833], [2.736918, 6.863303], [2.723585, 6.799715], [2.736298, 6.769846], [2.773298, 6.755041], [2.778569, 6.698765], [2.73113, 6.641844], [2.737331, 6.558025], [2.71542, 6.494488], [2.704258, 6.429299], [2.703841, 6.368352], [2.306977, 6.331488], [2.226817, 6.313666], [1.884532, 6.274807], [1.61964, 6.213894], [1.612439, 6.234763], [1.633109, 6.245692], [1.782351, 6.277267], [1.74411, 6.425733], [1.718375, 6.466997], [1.681685, 6.489838], [1.680755, 6.530068], [1.657811, 6.552263], [1.653883, 6.570659], [1.627425, 6.573347], [1.597349, 6.600813], [1.596316, 6.636418], [1.566033, 6.678146], [1.60107, 6.746437], [1.58319, 6.808268], [1.590114, 6.867334], [1.588047, 6.881235], [1.551357, 6.920871], [1.531927, 6.991926], [1.625668, 6.996783], [1.625564, 8.270478], [1.614919, 8.356261], [1.60107, 8.371635], [1.607581, 8.421864], [1.644168, 8.493488], [1.614092, 8.535785], [1.607581, 8.558755], [1.601173, 9.049526], [1.587841, 9.100893], [1.567273, 9.13673], [1.425267, 9.284499], [1.401185, 9.321267], [1.386716, 9.361135], [1.379895, 9.462473], [1.368422, 9.490843], [1.351266, 9.482549], [1.326358, 9.521952], [1.323154, 9.542313], [1.351266, 9.595074], [1.35602, 9.647474], [1.348165, 9.694164], [1.343825, 9.962442], [1.331009, 9.996471], [1.325655460257458, 10.0], [3.601876536085974, 10.0], [3.599604, 9.968695]]]}}, {"type": "Feature", "properties": {"name": "Angola"}, "geometry": {"type": "MultiPolygon", "coordinates": [[[[13.065331, -4.663952], [12.833201, -4.722656], [12.802918, -4.739813], [12.774806, -4.7795], [12.766228, -4.825182], [12.696982, -4.875619], [12.678895, -4.924298], [12.606961, -4.94223], [12.587738, -5.000314], [12.550427, -5.024188], [12.444387, -5.055091], [12.43891, -5.073281], [12.444697, -5.093538], [12.524072, -5.129091], [12.530687, -5.162681], [12.508983, -5.726264], [12.344445, -5.724611], [12.258972, -5.736703], [12.210541, -5.763442], [12.161794, -5.681248], [12.147227, -5.617934], [12.170177, -5.55462], [12.228282, -5.523696], [12.229259, -5.466892], [12.171362, -5.329088], [12.172091, -5.302095], [12.132349, -5.232529], [12.124612, -5.184828], [12.069737, -5.119783], [12.023123, -5.045994], [12.023285, -5.035252], [12.067823, -5.046253], [12.080892, -5.075509], [12.100527, -5.080022], [12.127259, -5.053366], [12.128561, -5.039711], [12.137715, -5.034497], [12.137054, -5.014996], [12.132476, -5.005899], [12.112885, -5.00201], [12.097859, -5.054043], [12.079588, -5.020232], [12.056727, -5.027397], [12.009608, -5.019631], [12.130815, -4.912929], [12.15717, -4.870554], [12.187555, -4.768028], [12.204092, -4.763481], [12.213497, -4.769165], [12.235201, -4.803995], [12.258559, -4.790766], [12.321914, -4.778157], [12.374107, -4.683176], [12.377621, -4.619407], [12.387026, -4.605454], [12.429091, -4.607521], [12.497201, -4.5853], [12.623808, -4.559255], [12.670523, -4.491353], [12.718479, -4.451872], [12.737909, -4.40495], [12.761681, -4.391204], [12.814804, -4.412908], [12.854285, -4.403089], [12.869891, -4.411978], [12.902447, -4.480191], [12.921981, -4.502308], [12.961565, -4.533831], [13.027194, -4.612172], [13.073703, -4.635323], [13.065331, -4.663952]]], [[[13.317393, -9.976332], [13.335216, -9.92669], [13.327159, -9.886], [13.278005, -9.80169], [13.198578, -9.708673], [13.191173, -9.690037], [13.225352, -9.63128], [13.169932, -9.466404], [13.166515, -9.38714], [13.143403, -9.330255], [13.120616, -9.313084], [12.996349, -9.093845], [12.992361, -9.038018], [13.030284, -8.959568], [13.086436, -8.892348], [13.136567, -8.871026], [13.114757, -8.902927], [13.042817, -8.962498], [13.000173, -9.072035], [13.013031, -9.083754], [13.086925, -8.959731], [13.122895, -8.954197], [13.137462, -8.940851], [13.148285, -8.907973], [13.191173, -8.850518], [13.194591, -8.806085], [13.224132, -8.773858], [13.259532, -8.754815], [13.198009, -8.823175], [13.278005, -8.782485], [13.28712, -8.756036], [13.35613, -8.763604], [13.380138, -8.75506], [13.410899, -8.651951], [13.365408, -8.566827], [13.342052, -8.467462], [13.372569, -8.464451], [13.379893, -8.45379], [13.378917, -8.347101], [13.276866, -8.178888], [13.264903, -8.169692], [13.250824, -8.124444], [13.198009, -8.02158], [13.189301, -7.975763], [13.122895, -7.857354], [12.986308, -7.550661], [12.939283, -7.435969], [12.911473, -7.335111], [12.849963, -7.265919], [12.855192, -7.231279], [12.833263, -7.005792], [12.815196, -6.946954], [12.833507, -6.912286], [12.828787, -6.904555], [12.799571, -6.923272], [12.779633, -6.914727], [12.706879, -6.814223], [12.620425, -6.734823], [12.550632, -6.632639], [12.458181, -6.465753], [12.395576, -6.324453], [12.319149, -6.22014], [12.279447, -6.147705], [12.27506, -6.114769], [12.290294, -6.096612], [12.333648, -6.078436], [12.324781, -6.122353], [12.346873, -6.120113], [12.496928, -6.094594], [12.527768, -6.074826], [12.580642, -6.062695], [12.645518, -6.028985], [12.742538, -6.049356], [12.817431, -6.03175], [12.927569, -5.981218], [12.98588, -5.90114], [13.046372, -5.885679], [13.111827, -5.890232], [13.184911, -5.856386], [13.26935, -5.863517], [13.342524, -5.890595], [13.380454, -5.856386], [13.493212, -5.858453], [13.522668, -5.867548], [13.562562, -5.857419], [13.641523, -5.865791], [13.943572, -5.841606], [14.02119, -5.872509], [14.140149, -5.863517], [14.241849, -5.889562], [14.436669, -5.893386], [14.482144, -5.885531], [14.576609, -5.904651], [14.703733, -5.881397], [16.315727, -5.854629], [16.341255, -5.859796], [16.374328, -5.882844], [16.412465, -5.896797], [16.479335, -5.882224], [16.515095, -5.887081], [16.597364, -5.924702], [16.580724, -5.955398], [16.595297, -5.978549], [16.601188, -6.050586], [16.604288, -6.061851], [16.62837, -6.05534], [16.632194, -6.065262], [16.61111, -6.089756], [16.630953, -6.09172], [16.660099, -6.123966], [16.695859, -6.140916], [16.726762, -6.189182], [16.714773, -6.231556], [16.720974, -6.342351], [16.697409, -6.349792], [16.693585, -6.359817], [16.692965, -6.398368], [16.700407, -6.411287], [16.718907, -6.415318], [16.720974, -6.42834], [16.706091, -6.465031], [16.727795, -6.465961], [16.721697, -6.491799], [16.747329, -6.521978], [16.730792, -6.56983], [16.768103, -6.708323], [16.823086, -6.785114], [16.832905, -6.827799], [16.855332, -6.842165], [16.890783, -6.847126], [16.914967, -6.864076], [16.926956, -6.888571], [16.934501, -6.945725], [16.928713, -6.968669], [16.955275, -6.981485], [16.973155, -7.014765], [16.961166, -7.069231], [16.929126, -7.060653], [16.927059, -7.085665], [16.947523, -7.151087], [16.945663, -7.204624], [16.989071, -7.254853], [16.996099, -7.297951], [17.022867, -7.306013], [17.093354, -7.352315], [17.103999, -7.416084], [17.118159, -7.425489], [17.132215, -7.409572], [17.176553, -7.428176], [17.1749, -7.441612], [17.151542, -7.451224], [17.148545, -7.472618], [17.172832, -7.493805], [17.217791, -7.585996], [17.286417, -7.625167], [17.288898, -7.699477], [17.303781, -7.692449], [17.303781, -7.706712], [17.32042, -7.713637], [17.310602, -7.740818], [17.315976, -7.753634], [17.342435, -7.78402], [17.375404, -7.792288], [17.380985, -7.823191], [17.400002, -7.823397], [17.3907, -7.83921], [17.420569, -7.843861], [17.426357, -7.875487], [17.44093, -7.871146], [17.452402, -7.883962], [17.434109, -7.915795], [17.468318, -7.939463], [17.463047, -7.949798], [17.468318, -7.959926], [17.481858, -7.945664], [17.496224, -7.987212], [17.536531, -8.015117], [17.540045, -8.032067], [17.528366, -8.060592], [17.536531, -8.075992], [17.544283, -8.084777], [17.600197, -8.098523], [17.628412, -8.098006], [17.713265, -8.068344], [17.789539, -8.081779], [17.867984, -8.044469], [17.901367, -8.048086], [17.930822, -8.062142], [17.981879, -8.105344], [18.098151, -8.109271], [18.09288, -8.056355], [18.102181, -8.033307], [18.120372, -8.022455], [18.192719, -7.996927], [18.316225, -8.001681], [18.366558, -8.016771], [18.420508, -7.99827], [18.507635, -7.997547], [18.504327, -7.940703], [18.516523, -7.932228], [18.738525, -7.932331], [18.74731, -7.937809], [18.752064, -7.965921], [18.773768, -8.001991], [19.355542, -8.001991], [19.330944, -7.898638], [19.333838, -7.867322], [19.38138, -7.703921], [19.380966, -7.679737], [19.353681, -7.600258], [19.355645, -7.57411], [19.443908, -7.575247], [19.458274, -7.560261], [19.468713, -7.52109], [19.513155, -7.479439], [19.513775, -7.448433], [19.487213, -7.381977], [19.476361, -7.315935], [19.487213, -7.153877], [19.497032, -7.121735], [19.54261, -7.052282], [19.521836, -7.001949], [20.0, -7.001949], [20.0, -10.0], [13.332267327983814, -10.0], [13.317393, -9.976332]]]]}}, {"type": "Feature", "properties": {"name": "Chad"}, "geometry": {"type": "Polygon", "coordinates": [[[19.993022, 9.084589], [19.969044, 9.082883], [19.928737, 9.062575], [19.914474, 9.069267], [19.889463, 9.046374], [19.784663, 9.048751], [19.738154, 9.039372], [19.700017, 9.020587], [19.656402, 9.021259], [19.640072, 9.013999], [19.613614, 9.031672], [19.52132, 9.008831], [19.420964, 9.017435], [19.369391, 9.000382], [19.333321, 9.006557], [19.304795, 9.020846], [19.295494, 9.009503], [19.253429, 9.027951], [19.192037, 9.020174], [19.168783, 9.002216], [19.10057, 9.015265], [19.021919, 8.985215], [18.971896, 8.938215], [18.922907, 8.918216], [18.917739, 8.898812], [18.892727, 8.897933], [18.86968, 8.864111], [18.869783, 8.849409], [18.886526, 8.835844], [18.902959, 8.84481], [18.917325, 8.805148], [18.929108, 8.796544], [19.048687, 8.745669], [19.057782, 8.729701], [19.124135, 8.675079], [19.061296, 8.625624], [19.020472, 8.545578], [18.920529, 8.432122], [18.901306, 8.388636], [18.8549, 8.339802], [18.813042, 8.276421], [18.773768, 8.248619], [18.672586, 8.20751], [18.638583, 8.177642], [18.618636, 8.138652], [18.617912, 8.090127], [18.589283, 8.047882], [18.508255, 8.030674], [18.070452, 8.019202], [17.858785, 7.960445], [17.639884, 7.985043], [17.62066, 7.978739], [17.59999, 7.950369], [17.580766, 7.940602], [17.503665, 7.926236], [17.466355, 7.884119], [17.419122, 7.898227], [17.385739, 7.870477], [17.250864, 7.822831], [17.220685, 7.798181], [17.211073, 7.768312], [17.188645, 7.764127], [17.101932, 7.677724], [17.059351, 7.696534], [17.045605, 7.6847], [17.038991, 7.662479], [16.997546, 7.666717], [16.98194, 7.648733], [16.919618, 7.644082], [16.880654, 7.632869], [16.854816, 7.611475], [16.847168, 7.591579], [16.853886, 7.567498], [16.836729, 7.567498], [16.805516, 7.543675], [16.782365, 7.541143], [16.768619, 7.550238], [16.709812, 7.627753], [16.61421, 7.679584], [16.613073, 7.74821], [16.576383, 7.767796], [16.549305, 7.794719], [16.548685, 7.870012], [16.491737, 7.849238], [16.475717, 7.835802], [16.450913, 7.792084], [16.407401, 7.796063], [16.392208, 7.783609], [16.387144, 7.694674], [16.370814, 7.672504], [16.282758, 7.660102], [16.207207, 7.613542], [16.162662, 7.611113], [16.042979, 7.583931], [16.026339, 7.574888], [15.975696, 7.515201], [15.92526, 7.488175], [15.758345, 7.455567], [15.720001, 7.468641], [15.668532, 7.516287], [15.624813, 7.519749], [15.55195, 7.509879], [15.481049, 7.523263], [15.521977, 7.576076], [15.548952, 7.630801], [15.562181, 7.690178], [15.562905, 7.792445], [15.487871, 7.804951], [15.440742, 7.839419], [15.406532, 7.921585], [15.345347, 8.13599], [15.183703, 8.479148], [15.110736, 8.555138], [15.051928, 8.643789], [15.031258, 8.658749], [14.955087, 8.676216], [14.940101, 8.729649], [14.89938, 8.774323], [14.846049, 8.810988], [14.793856, 8.813623], [14.349542, 9.168356], [14.331145, 9.200215], [14.321327, 9.243158], [14.036486, 9.568771], [13.947603, 9.637759], [13.945949, 9.652642], [14.006721, 9.739277], [14.088473, 9.809635], [14.119789, 9.85201], [14.168365, 9.94774], [14.173532, 9.975025], [14.181697, 9.978178], [14.440493, 9.995308], [14.732465, 9.923814], [14.772566, 9.921747], [14.898139, 9.960478], [15.033015, 9.942857], [15.06123, 9.949239], [15.100711, 9.978901], [15.155488, 9.986523], [15.214916, 9.984095], [15.382968, 9.930196], [15.439398, 9.931695], [15.681244, 9.991278], [15.671478850694173, 10.0], [20.0, 10.0], [20.0, 9.09750351498303], [19.993022, 9.084589]]]}}, {"type": "Feature", "properties": {"name": "Cameroon"}, "geometry": {"type": "Polygon", "coordinates": [[[9.990997, 2.165605], [9.872141, 2.211236], [9.810853, 2.264876], [9.81106, 2.324872], [9.799571, 2.341742], [9.812185, 2.353583], [9.819184, 2.376939], [9.822927, 2.562934], [9.853201, 2.696967], [9.874278, 2.754543], [9.877778, 2.881415], [9.903331, 2.968329], [9.95574, 3.050482], [9.958018, 3.082221], [9.919688, 3.228095], [9.90211, 3.251695], [9.90211, 3.257961], [9.929454, 3.264797], [9.929454, 3.271552], [9.903087, 3.272895], [9.88795, 3.285224], [9.855317, 3.343573], [9.780935, 3.436754], [9.6421, 3.539049], [9.68865, 3.556098], [9.770763, 3.61872], [9.819591, 3.627875], [9.787608, 3.637112], [9.706879, 3.600531], [9.638438, 3.594387], [9.626231, 3.600002], [9.625987, 3.626451], [9.6421, 3.63467], [9.612559, 3.704983], [9.565115, 3.770901], [9.545909, 3.819648], [9.581554, 3.787828], [9.594249, 3.758205], [9.624278, 3.75019], [9.662608, 3.750718], [9.611013, 3.770575], [9.589203, 3.809638], [9.60377, 3.859036], [9.621104, 3.874823], [9.659028, 3.84101], [9.679698, 3.836086], [9.689789, 3.860582], [9.723481, 3.843817], [9.744477, 3.819648], [9.750499, 3.840766], [9.738292, 3.860582], [9.751964, 3.860582], [9.682872, 3.890448], [9.67628, 3.909003], [9.68922, 3.922431], [9.715017, 3.931342], [9.764415, 3.936347], [9.758149, 3.950019], [9.764415, 3.957465], [9.664806, 3.940375], [9.634613, 3.943183], [9.618907, 3.960354], [9.623709, 3.985785], [9.639903, 4.008775], [9.675629, 4.03384], [9.718923, 4.099555], [9.748302, 4.114447], [9.754568, 4.135688], [9.719493, 4.114936], [9.703461, 4.09394], [9.696625, 4.09394], [9.696625, 4.114447], [9.678884, 4.10102], [9.628429, 4.031928], [9.579356, 4.013007], [9.559337, 4.016791], [9.559581, 4.039374], [9.545909, 4.025702], [9.526622, 4.035793], [9.498546, 4.077216], [9.504242, 4.100775], [9.490082, 4.115871], [9.478526, 4.111396], [9.450369, 4.080308], [9.484386, 4.059882], [9.495616, 4.03148], [9.532481, 3.989447], [9.518565, 3.970445], [9.490082, 3.980658], [9.453868, 4.018622], [9.450369, 4.031928], [9.437999, 4.030463], [9.424083, 4.019477], [9.422374, 4.008368], [9.456554, 3.984076], [9.450369, 3.939765], [9.476899, 3.915839], [9.41212, 3.902167], [9.343516, 3.915839], [9.313731, 3.930854], [9.302582, 3.964993], [9.307628, 4.001939], [9.326182, 4.031928], [9.301443, 4.026353], [9.284353, 3.992255], [9.250336, 3.960842], [9.210704, 3.96426], [9.210623, 4.008124], [9.196462, 4.018866], [9.123383, 4.01789], [8.971202, 4.100775], [8.969412, 4.128974], [8.990977, 4.217475], [8.960297, 4.245917], [8.918956, 4.318061], [8.894786, 4.460517], [8.900076, 4.485093], [8.93572, 4.55329], [8.900564, 4.521633], [8.894786, 4.535875], [8.901622, 4.587388], [8.871918, 4.602484], [8.847016, 4.639716], [8.83961, 4.642646], [8.835704, 4.629625], [8.86671, 4.582709], [8.873709, 4.560045], [8.867849, 4.544582], [8.858735, 4.540839], [8.850597, 4.547431], [8.847016, 4.563218], [8.798595, 4.601142], [8.79949, 4.577786], [8.812836, 4.566352], [8.799571, 4.542182], [8.788422, 4.541449], [8.724132, 4.580471], [8.705903, 4.63467], [8.661306, 4.698798], [8.655121, 4.738267], [8.638682, 4.71308], [8.645356, 4.684068], [8.68572, 4.561225], [8.716563, 4.539008], [8.722667, 4.513129], [8.701671, 4.501288], [8.576671, 4.491889], [8.56544, 4.49726], [8.570323, 4.50967], [8.593761, 4.532782], [8.570567, 4.53856], [8.54835, 4.507799], [8.525564, 4.511705], [8.510265, 4.527045], [8.505056, 4.55093], [8.509939, 4.568834], [8.525564, 4.566352], [8.552094, 4.614732], [8.525727, 4.604438], [8.516124, 4.612982], [8.513682, 4.64232], [8.538585, 4.676215], [8.573253, 4.704088], [8.567638, 4.74022], [8.573253, 4.752509], [8.580089, 4.745063], [8.57838, 4.804674], [8.612166, 4.831877], [8.602245, 4.881331], [8.638315, 4.916781], [8.698569, 5.017809], [8.728852, 5.094548], [8.748282, 5.12421], [8.79169, 5.146741], [8.798925, 5.159635], [8.825693, 5.295492], [8.815255, 5.343499], [8.849775, 5.432357], [8.844297, 5.492353], [8.850498, 5.514006], [8.899487, 5.570953], [8.903932, 5.595086], [8.8937, 5.621751], [8.832411, 5.678156], [8.819286, 5.703451], [8.862177, 5.752337], [8.866621, 5.777452], [8.847087, 5.810758], [8.845227, 5.831041], [8.921708, 5.904473], [8.982686, 5.895765], [8.993849, 5.944083], [9.009868, 5.952351], [9.136165, 6.092523], [9.273315, 6.202775], [9.341011, 6.313983], [9.354757, 6.321502], [9.394961, 6.322535], [9.422866, 6.339356], [9.453149, 6.397673], [9.548957, 6.443174], [9.60301, 6.515185], [9.680525, 6.521438], [9.693031, 6.531308], [9.769822, 6.773722], [9.788529, 6.794754], [9.851161, 6.777882], [9.874622, 6.787701], [10.142926, 7.007687], [10.156878, 7.004742], [10.165043, 6.988515], [10.179409, 6.914928], [10.189848, 6.895446], [10.210828, 6.879168], [10.238424, 6.871003], [10.495979, 6.874672], [10.500733, 6.912809], [10.521197, 6.942781], [10.537424, 6.952135], [10.55179, 7.06634], [10.578661, 7.130832], [10.597161, 7.107268], [10.602536, 7.058072], [10.620623, 7.043757], [10.799113, 6.967328], [10.831876, 6.94521], [10.877454, 6.816097], [10.909391, 6.784264], [11.002615, 6.767262], [11.036721, 6.740546], [11.055945, 6.700367], [11.060596, 6.573967], [11.077442, 6.496736], [11.097079, 6.449117], [11.113512, 6.434001], [11.140384, 6.43028], [11.231748, 6.439815], [11.255519, 6.42997], [11.27588, 6.444207], [11.319495, 6.437283], [11.369828, 6.455757], [11.389361, 6.473921], [11.401764, 6.538181], [11.41675, 6.572003], [11.443105, 6.593268], [11.482585, 6.597169], [11.509767, 6.612311], [11.533435, 6.645099], [11.568885, 6.739099], [11.566611, 6.784187], [11.538086, 6.8239], [11.543667, 6.850694], [11.561754, 6.876067], [11.623249, 6.932291], [11.681126, 6.96862], [11.692495, 6.991616], [11.741071, 6.997507], [11.75151, 7.023965], [11.80887, 7.071921], [11.833985, 7.08298], [11.872226, 7.079362], [11.881321, 7.102048], [11.868918, 7.127111], [11.780242, 7.241058], [11.736627, 7.263279], [11.782722, 7.304517], [11.844734, 7.396397], [12.021054, 7.576231], [12.024981, 7.596592], [12.009065, 7.676328], [12.018987, 7.718858], [12.054954, 7.783919], [12.154276, 7.921326], [12.192103, 7.960652], [12.197787, 7.975173], [12.182594, 8.093486], [12.188279, 8.117774], [12.236751, 8.196994], [12.219285, 8.343161], [12.227036, 8.386311], [12.249981, 8.418764], [12.271788, 8.427781], [12.331319, 8.424293], [12.365116, 8.466564], [12.403873, 8.496537], [12.400462, 8.538421], [12.368836, 8.609579], [12.42444, 8.599786], [12.482524, 8.623247], [12.527793, 8.604851], [12.557972, 8.605677], [12.660395, 8.659318], [12.678171, 8.678696], [12.708867, 8.750914], [12.772946, 8.759053], [12.794547, 8.788612], [12.82824, 9.019967], [12.822142, 9.09681], [12.888391, 9.226725], [12.898416, 9.262433], [12.891285, 9.33199], [12.88157, 9.352221], [12.848394, 9.359947], [12.855422, 9.378111], [12.929009, 9.416119], [12.982442, 9.474591], [13.051689, 9.504511], [13.13034, 9.516526], [13.195453, 9.542209], [13.223461, 9.613135], [13.241341, 9.745324], [13.262942, 9.801728], [13.212712, 9.870148], [13.211059, 9.892756], [13.242271, 9.949756], [13.246405, 9.973475], [13.240415317162102, 10.0], [15.671478850694173, 10.0], [15.681244, 9.991278], [15.439398, 9.931695], [15.382968, 9.930196], [15.214916, 9.984095], [15.155488, 9.986523], [15.100711, 9.978901], [15.06123, 9.949239], [15.033015, 9.942857], [14.898139, 9.960478], [14.772566, 9.921747], [14.732465, 9.923814], [14.440493, 9.995308], [14.181697, 9.978178], [14.173532, 9.975025], [14.168365, 9.94774], [14.119789, 9.85201], [14.088473, 9.809635], [14.006721, 9.739277], [13.945949, 9.652642], [13.947603, 9.637759], [14.036486, 9.568771], [14.321327, 9.243158], [14.331145, 9.200215], [14.349542, 9.168356], [14.793856, 8.813623], [14.846049, 8.810988], [14.89938, 8.774323], [14.940101, 8.729649], [14.955087, 8.676216], [15.031258, 8.658749], [15.051928, 8.643789], [15.110736, 8.555138], [15.183703, 8.479148], [15.345347, 8.13599], [15.406532, 7.921585], [15.440742, 7.839419], [15.487871, 7.804951], [15.562905, 7.792445], [15.562181, 7.690178], [15.548952, 7.630801], [15.521977, 7.576076], [15.419451, 7.43655], [15.415524, 7.42084], [15.434954, 7.402908], [15.432784, 7.389731], [15.403225, 7.386372], [15.385345, 7.358363], [15.223908, 7.247517], [15.186597, 7.166334], [15.187527, 7.088612], [15.147013, 7.061844], [15.136161, 7.045308], [15.113217, 6.964692], [15.034565, 6.776771], [14.962321, 6.736696], [14.932452, 6.710289], [14.807292, 6.4278], [14.782177, 6.393616], [14.784658, 6.347805], [14.772255, 6.318323], [14.719029, 6.257862], [14.576402, 6.189778], [14.534957, 6.190088], [14.482144, 6.127069], [14.467054, 6.122599], [14.430571, 6.088079], [14.433568, 6.073868], [14.422509, 6.051363], [14.412898, 6.047022], [14.397705, 6.053947], [14.387266, 6.039038], [14.397705, 6.019169], [14.446901, 5.970024], [14.465711, 5.920673], [14.482144, 5.90964], [14.530616, 5.90592], [14.584773, 5.923412], [14.617433, 5.864966], [14.631075, 5.738049], [14.590148, 5.608289], [14.596556, 5.577232], [14.617226, 5.53788], [14.617433, 5.495299], [14.599553, 5.456645], [14.592835, 5.400033], [14.579606, 5.395382], [14.539608, 5.303579], [14.519868, 5.290583], [14.539712, 5.261799], [14.624461, 5.224049], [14.640481, 5.208236], [14.658877, 5.164544], [14.667456, 5.052768], [14.659498, 4.997035], [14.674484, 4.967579], [14.672107, 4.940811], [14.686989, 4.908875], [14.701459, 4.814384], [14.69071, 4.762139], [14.717272, 4.622019], [14.74373, 4.57998], [14.779697, 4.545047], [14.938344, 4.435932], [14.993947, 4.413298], [15.013894, 4.364257], [15.063814, 4.293434], [15.082934, 4.205507], [15.091202, 4.121791], [15.102571, 4.112412], [15.132854, 4.108536], [15.14846, 4.073938], [15.177709, 4.071458], [15.189801, 4.063112], [15.192075, 4.052234], [15.111253, 4.019937], [15.091719, 4.015854], [15.025987, 4.026086], [15.084898, 3.885836], [15.171301, 3.758971], [15.78563, 3.107977], [15.813536, 3.098985], [15.834206, 3.108545], [15.854773, 3.098985], [15.897768, 3.103533], [15.913995, 3.097952], [15.950065, 3.061003], [15.977763, 2.980956], [16.026236, 2.978992], [16.055381, 2.93977], [16.092382, 2.863289], [16.095172, 2.836779], [16.086904, 2.813163], [16.059929, 2.786188], [16.056208, 2.759833], [16.062616, 2.703195], [16.110468, 2.701438], [16.090315, 2.661906], [16.111502, 2.5862], [16.091245, 2.532766], [16.090315, 2.510494], [16.107058, 2.474165], [16.120907, 2.389571], [16.159251, 2.332934], [16.165969, 2.294796], [16.186536, 2.277692], [16.179715, 2.246996], [16.207723, 2.22307], [16.159251, 2.18209], [16.140647, 2.199815], [16.12039, 2.203329], [16.104371, 2.193562], [16.083493, 2.137752], [16.092485, 2.106901], [16.090315, 2.092742], [16.079669, 2.090261], [16.075535, 2.079952], [16.081736, 2.046827], [16.063753, 2.015873], [16.06489, 1.97895], [16.101373, 1.932803], [16.135066, 1.845315], [16.159044, 1.734805], [16.15584, 1.719069], [16.114809, 1.719069], [16.069851, 1.654551], [16.021998, 1.72279], [16.026339, 1.752297], [16.013833, 1.771314], [15.990786, 1.776172], [15.98045, 1.770591], [15.94376, 1.781624], [15.928981, 1.788962], [15.92588, 1.804749], [15.889913, 1.793277], [15.875651, 1.823766], [15.80289, 1.859965], [15.76465, 1.908722], [15.706772, 1.931976], [15.611791, 1.942544], [15.48291, 1.97585], [15.439192, 1.969829], [15.388135, 1.939547], [15.337389, 1.92146], [15.301629, 1.943578], [15.303283, 1.966419], [15.295428, 1.981534], [15.248092, 2.003341], [15.233726, 2.031298], [15.212642, 2.039618], [15.1836, 2.029335], [15.151664, 2.040988], [15.138538, 2.011506], [15.117764, 2.01701], [15.091616, 1.984428], [15.074873, 1.979364], [15.06309, 1.997166], [15.04366, 1.990862], [15.028261, 1.995306], [14.980718, 2.033107], [14.971003, 2.034451], [14.963045, 2.010421], [14.953846, 2.005822], [14.892455, 2.00639], [14.907338, 2.058894], [14.887804, 2.072252], [14.857005, 2.115944], [14.841192, 2.075921], [14.764814, 2.065456], [14.761403, 2.099589], [14.727297, 2.099589], [14.747864, 2.113205], [14.720889, 2.127597], [14.713654, 2.12398], [14.720476, 2.099589], [14.672003, 2.134341], [14.636346, 2.13832], [14.644821, 2.154185], [14.620947, 2.16483], [14.587874, 2.201727], [14.562139, 2.208807], [14.547773, 2.193666], [14.54705, 2.166536], [14.4592, 2.146537], [14.432948, 2.132119], [14.383649, 2.162091], [14.320293, 2.17067], [14.266963, 2.152428], [13.294568, 2.161058], [13.298392, 2.215835], [13.284646, 2.242242], [13.242891, 2.27149], [13.212299, 2.264049], [13.191732, 2.277692], [13.163827, 2.283169], [13.133337, 2.284513], [13.09303, 2.253455], [13.04094, 2.244205], [12.996912, 2.260018], [12.97221, 2.250355], [12.924771, 2.264049], [12.903171, 2.250355], [12.876402, 2.257176], [12.867824, 2.24498], [12.808189, 2.264049], [12.749898, 2.236712], [12.614609, 2.256918], [12.574819, 2.277692], [12.551461, 2.272266], [12.47839, 2.295882], [12.439943, 2.298517], [12.384856, 2.285908], [12.321604, 2.314072], [12.202645, 2.279552], [12.118826, 2.28782], [11.966174, 2.28875], [11.768149, 2.280172], [11.701384, 2.298724], [11.671204, 2.320996], [11.657252, 2.322495], [11.618598, 2.310403], [11.351637, 2.300584], [11.355978, 2.265186], [11.335928, 2.229167], [11.332414, 2.188033], [11.322078, 2.16576], [9.990997, 2.165605]]]}}, {"type": "Feature", "properties": {"name": "Gabon"}, "geometry": {"type": "MultiPolygon", "coordinates": [[[[13.291364, 2.068945], [13.281132, 2.044967], [13.206925, 1.993575], [13.210232, 1.956316], [13.178193, 1.907792], [13.162173, 1.899833], [13.188321, 1.85658], [13.191008, 1.828727], [13.173025, 1.776947], [13.150184, 1.756302], [13.157522, 1.739146], [13.143983, 1.681811], [13.149977, 1.636284], [13.146773, 1.612254], [13.129617, 1.592462], [13.164447, 1.53784], [13.171268, 1.545256], [13.182637, 1.536548], [13.190905, 1.511072], [13.184911, 1.496886], [13.205478, 1.48637], [13.223461, 1.438001], [13.239481, 1.427976], [13.239584, 1.356507], [13.251263, 1.337646], [13.23359, 1.30881], [13.188321, 1.291447], [13.169201, 1.258581], [13.150184, 1.256617], [13.18181, 1.236463], [13.184911, 1.22251], [13.25023, 1.221787], [13.289194, 1.233983], [13.307797, 1.25672], [13.342937, 1.263852], [13.357406, 1.28907], [13.37694, 1.294444], [13.41394, 1.295529], [13.479776, 1.277132], [13.543442, 1.283489], [13.579202, 1.323486], [13.642247, 1.357386], [13.699091, 1.362786], [13.724361, 1.377953], [13.744101, 1.370279], [13.75485, 1.374336], [13.780585, 1.431025], [13.794744, 1.434436], [14.00083, 1.413016], [14.049509, 1.376403], [14.070696, 1.375111], [14.12444, 1.393585], [14.14449, 1.391622], [14.183868, 1.380847], [14.252184, 1.330824], [14.273061, 1.257237], [14.274715, 1.155641], [14.28288, 1.130113], [14.298486, 1.109236], [14.346442, 1.087118], [14.400805, 0.970329], [14.436565, 0.933277], [14.468088, 0.913227], [14.466228, 0.899636], [14.437599, 0.875142], [14.447624, 0.81623], [14.367319, 0.735512], [14.33838, 0.693912], [14.328768, 0.621204], [14.231823, 0.542552], [14.125473, 0.546169], [14.075967, 0.539451], [14.045582, 0.497283], [14.063048, 0.455942], [14.059121, 0.435272], [14.040414, 0.413774], [13.966517, 0.373053], [13.945226, 0.350419], [13.909776, 0.270941], [13.875773, 0.220298], [13.871225, 0.196423], [13.890656, 0.115911], [13.894893, 0.043668], [13.925072, 0.034366], [13.932927, 0.022067], [13.91298, -0.016587], [13.921145, -0.052967], [13.8427, -0.152289], [13.832158, -0.177094], [13.831228, -0.205413], [13.883421, -0.264944], [13.903058, -0.258846], [13.921558, -0.237865], [13.967033, -0.245824], [13.98233, -0.262257], [14.01871, -0.252645], [14.058811, -0.258846], [14.095398, -0.276623], [14.121443, -0.302151], [14.138289, -0.336361], [14.159683, -0.455113], [14.193066, -0.440437], [14.244742, -0.451599], [14.292698, -0.436406], [14.320603, -0.444468], [14.39233, -0.482398], [14.414448, -0.512164], [14.454239, -0.539553], [14.489999, -0.600944], [14.498991, -0.630916], [14.492169, -0.663369], [14.44597, -0.775714], [14.457133, -0.856122], [14.412794, -0.921545], [14.402562, -0.987691], [14.39202, -1.008981], [14.434395, -1.135072], [14.428297, -1.169488], [14.465814, -1.224369], [14.46075, -1.278009], [14.426333, -1.331029], [14.447004, -1.365342], [14.482144, -1.388596], [14.487725, -1.40937], [14.456306, -1.440169], [14.438426, -1.502595], [14.462714, -1.5336], [14.463127, -1.54869], [14.430364, -1.554891], [14.413208, -1.585277], [14.364839, -1.612045], [14.390883, -1.630339], [14.402976, -1.670853], [14.448761, -1.686253], [14.413104, -1.713951], [14.406696, -1.735552], [14.396878, -1.849447], [14.404526, -1.893062], [14.397291, -1.906808], [14.37073, -1.921277], [14.252184, -1.967579], [14.240092, -1.982255], [14.233477, -2.018222], [14.251667, -2.037859], [14.233787, -2.134494], [14.204332, -2.152167], [14.209189, -2.187204], [14.195857, -2.201777], [14.148004, -2.224824], [14.151208, -2.259034], [14.226966, -2.323113], [14.234407, -2.354946], [14.182317, -2.363317], [14.14418, -2.390189], [14.131468, -2.408896], [14.131881, -2.435147], [14.106766, -2.460262], [14.090023, -2.498606], [14.045582, -2.4861], [13.985637, -2.5015], [13.967033, -2.470597], [13.930446, -2.485377], [13.884971, -2.488477], [13.8458, -2.466567], [13.847661, -2.423055], [13.875876, -2.403831], [13.890035, -2.373652], [13.906158, -2.359803], [13.863887, -2.321459], [13.86058, -2.293657], [13.823269, -2.246838], [13.800532, -2.200433], [13.782755, -2.138008], [13.743171, -2.09708], [13.709478, -2.153511], [13.701571, -2.194749], [13.617442, -2.279601], [13.603386, -2.320012], [13.557601, -2.340476], [13.482257, -2.408069], [13.469441, -2.435044], [13.458899, -2.441039], [13.438952, -2.425432], [13.361024, -2.428843], [13.176849, -2.361974], [13.135198, -2.37696], [13.025024, -2.338202], [12.982442, -2.371689], [12.969006, -2.372412], [12.966113, -2.366418], [12.987093, -2.340683], [12.996705, -2.304819], [13.010658, -2.287766], [13.008177, -2.276501], [12.990194, -2.268026], [12.982442, -2.232989], [12.945649, -2.18245], [12.907098, -2.195369], [12.902034, -2.167257], [12.882707, -2.140798], [12.895109, -2.109793], [12.876299, -2.104935], [12.872992, -2.065868], [12.847153, -2.037239], [12.804572, -1.919107], [12.745454, -1.893888], [12.674967, -1.842832], [12.632386, -1.825159], [12.58319, -1.826502], [12.523452, -1.863296], [12.506296, -1.888204], [12.499474, -1.917866], [12.486555, -1.924894], [12.468985, -1.919417], [12.438083, -1.886654], [12.426921, -1.88407], [12.431468, -2.005406], [12.440046, -2.045817], [12.46082, -2.077857], [12.499784, -2.09553], [12.470225, -2.156301], [12.475496, -2.212422], [12.447901, -2.30792], [12.45927, -2.329934], [12.062292, -2.414994], [12.031286, -2.411583], [12.000693, -2.390602], [11.966794, -2.348538], [11.938372, -2.329107], [11.806597, -2.374169], [11.756057, -2.415097], [11.721331, -2.404142], [11.655908, -2.345644], [11.605369, -2.330348], [11.566198, -2.329727], [11.55824, -2.349365], [11.583355, -2.42967], [11.576533, -2.502533], [11.619011, -2.586456], [11.624386, -2.632758], [11.61033, -2.678853], [11.537466, -2.797709], [11.52558, -2.843288], [11.530748, -2.866749], [11.547905, -2.863855], [11.588419, -2.835433], [11.616841, -2.826751], [11.636788, -2.833263], [11.778381, -3.005655], [11.778381, -3.027153], [11.75368, -3.042345], [11.706448, -3.04989], [11.688258, -3.092265], [11.687534, -3.17102], [11.781585, -3.221663], [11.821893, -3.254839], [11.944366, -3.303208], [11.954908, -3.335454], [11.941472, -3.356952], [11.898374, -3.389198], [11.884835, -3.413279], [11.827784, -3.548051], [11.824994, -3.571202], [11.834915, -3.592079], [11.898477, -3.622362], [11.905505, -3.643549], [11.879977, -3.687164], [11.838326, -3.710935], [11.742105, -3.691712], [11.687638, -3.69874], [11.665933, -3.691401], [11.64919, -3.673315], [11.569815, -3.54495], [11.532712, -3.516528], [11.482585, -3.509294], [11.45499, -3.528207], [11.413959, -3.587635], [11.334688, -3.608616], [11.212524, -3.697293], [11.114016, -3.936856], [11.070161, -3.908806], [11.021289, -3.857816], [10.989757, -3.75742], [10.98463, -3.714614], [10.96378, -3.691489], [10.80766, -3.562935], [10.646434, -3.451914], [10.638357, -3.406915], [10.648936, -3.351739], [10.635427, -3.313653], [10.553011, -3.258689], [10.549107, -3.239092], [10.452594, -3.133279], [10.346979, -3.044488], [9.902438, -2.700431], [9.725108, -2.481378], [9.703461, -2.443048], [9.750255, -2.487237], [9.794932, -2.500909], [9.840099, -2.45672], [9.830089, -2.492771], [9.833263, -2.505141], [9.847504, -2.491469], [9.850271, -2.528416], [9.858735, -2.538832], [9.874278, -2.532485], [9.917817, -2.549981], [9.93629, -2.594496], [9.943126, -2.594496], [9.948578, -2.580255], [9.963634, -2.587091], [9.97047, -2.580255], [9.977306, -2.628676], [10.001231, -2.614353], [10.011404, -2.615004], [10.011974, -2.63242], [10.020763, -2.628513], [10.039561, -2.613214], [10.052989, -2.587091], [10.067393, -2.581801], [10.156586, -2.572931], [10.162283, -2.560317], [10.135509, -2.546157], [10.137462, -2.527439], [10.073497, -2.491469], [10.094005, -2.560317], [10.079845, -2.558201], [10.04363, -2.51629], [10.008311, -2.505141], [10.005219, -2.525079], [9.984141, -2.560317], [9.957367, -2.546157], [9.955333, -2.515232], [9.957367, -2.505141], [9.988129, -2.499933], [9.991547, -2.491469], [9.954112, -2.47324], [9.908946, -2.470392], [9.884776, -2.416436], [9.874522, -2.409356], [9.847504, -2.429457], [9.822032, -2.424249], [9.775401, -2.464044], [9.751964, -2.470392], [9.726736, -2.444513], [9.723969, -2.43255], [9.747081, -2.413344], [9.723969, -2.402114], [9.723969, -2.379083], [9.698416, -2.377537], [9.712657, -2.422947], [9.703461, -2.435724], [9.687673, -2.428888], [9.628429, -2.367364], [9.668793, -2.422621], [9.646495, -2.407647], [9.597016, -2.352227], [9.579112, -2.298028], [9.573253, -2.207208], [9.565766, -2.19256], [9.395193, -2.032322], [9.402029, -2.018487], [9.380382, -2.012628], [9.354177, -1.957127], [9.271251, -1.876642], [9.280935, -1.860447], [9.292735, -1.882582], [9.311046, -1.896742], [9.354177, -1.901788], [9.34669, -1.909356], [9.359711, -1.914727], [9.380707, -1.888279], [9.388194, -1.909356], [9.375499, -1.918634], [9.37794, -1.931817], [9.388194, -1.915623], [9.467296, -1.922459], [9.481293, -1.939142], [9.47877, -1.959568], [9.456554, -1.977634], [9.474946, -1.996026], [9.508067, -2.00156], [9.511892, -2.032322], [9.532237, -2.045831], [9.543224, -2.070896], [9.549083, -2.058201], [9.566417, -2.049574], [9.563731, -2.031671], [9.548513, -1.997735], [9.539073, -1.998142], [9.498057, -1.957127], [9.517751, -1.926446], [9.466645, -1.851332], [9.456554, -1.860935], [9.436046, -1.847263], [9.436046, -1.888279], [9.417328, -1.872979], [9.391938, -1.826349], [9.374522, -1.819268], [9.357188, -1.854099], [9.342133, -1.86533], [9.340505, -1.888279], [9.325531, -1.876153], [9.305675, -1.873956], [9.317231, -1.854099], [9.314952, -1.842869], [9.292166, -1.826104], [9.270193, -1.840427], [9.255382, -1.835219], [9.244314, -1.785821], [9.250336, -1.706964], [9.236827, -1.662286], [9.236827, -1.62127], [9.220063, -1.579767], [9.141856, -1.490981], [9.016612, -1.315851], [8.983572, -1.23089], [9.019379, -1.304783], [9.038748, -1.32643], [9.05421, -1.324884], [9.082286, -1.34352], [9.09254, -1.375095], [9.15919, -1.468032], [9.226817, -1.522068], [9.264659, -1.535333], [9.280284, -1.675063], [9.292166, -1.669692], [9.295095, -1.659438], [9.285981, -1.645766], [9.297537, -1.634535], [9.312511, -1.65545], [9.350922, -1.62477], [9.402029, -1.614435], [9.39503, -1.646905], [9.400645, -1.661391], [9.415538, -1.669692], [9.422618, -1.635919], [9.415538, -1.607599], [9.446788, -1.603285], [9.529552, -1.614435], [9.559581, -1.607599], [9.502452, -1.579848], [9.481293, -1.522556], [9.484386, -1.484145], [9.456554, -1.470473], [9.432302, -1.473077], [9.434581, -1.504571], [9.402029, -1.546482], [9.37908, -1.562921], [9.299815, -1.577407], [9.286632, -1.566095], [9.278331, -1.507989], [9.250336, -1.497735], [9.248546, -1.482029], [9.256602, -1.471449], [9.29713, -1.457696], [9.298839, -1.444106], [9.28533, -1.415785], [9.326182, -1.40838], [9.334158, -1.398614], [9.354503, -1.350518], [9.333018, -1.298517], [9.33546, -1.28338], [9.326182, -1.278009], [9.333018, -1.350193], [9.322927, -1.370864], [9.302257, -1.381117], [9.278331, -1.36061], [9.262055, -1.366143], [9.233653, -1.401625], [9.18572, -1.410577], [9.169119, -1.40838], [9.15797, -1.395196], [9.15919, -1.346368], [9.146495, -1.332289], [9.119884, -1.348565], [9.107107, -1.346368], [9.03004, -1.299086], [9.021251, -1.282485], [9.025727, -1.24391], [9.018321, -1.23089], [9.037771, -1.216729], [9.033051, -1.193455], [8.997244, -1.155206], [9.009776, -1.185317], [9.000499, -1.221368], [8.994151, -1.220392], [8.983572, -1.14837], [8.966645, -1.104425], [8.867442, -0.976983], [8.907725, -1.008559], [8.922699, -1.003676], [8.908458, -0.997491], [8.93572, -0.963474], [8.924001, -0.958266], [8.894705, -0.978123], [8.877452, -0.973728], [8.856944, -0.915948], [8.83961, -0.922459], [8.825857, -0.874607], [8.76295, -0.752618], [8.749685, -0.699965], [8.718923, -0.660252], [8.695567, -0.586602], [8.709158, -0.565606], [8.716563, -0.572931], [8.707693, -0.592218], [8.750824, -0.60711], [8.745453, -0.622247], [8.750824, -0.633884], [8.772309, -0.633233], [8.787364, -0.657647], [8.806, -0.748305], [8.837413, -0.77158], [8.844412, -0.800226], [8.860688, -0.805108], [8.852875, -0.771254], [8.866059, -0.719496], [8.914561, -0.72324], [8.887706, -0.693292], [8.88795, -0.681573], [8.904959, -0.675877], [8.929047, -0.68727], [8.957042, -0.753513], [9.004649, -0.805108], [8.99822, -0.860447], [9.011485, -0.874607], [9.018321, -0.79518], [9.023774, -0.7763], [9.047618, -0.750177], [9.052013, -0.710626], [9.087169, -0.68963], [9.089122, -0.659926], [9.100841, -0.65488], [9.114513, -0.681573], [9.112478, -0.658298], [9.09254, -0.625665], [9.100841, -0.599705], [9.160004, -0.546808], [9.177989, -0.510837], [9.267426, -0.412367], [9.292166, -0.373712], [9.306488, -0.332289], [9.305675, -0.203058], [9.340505, -0.11712], [9.34669, -0.072686], [9.334158, -0.025405], [9.355317, 0.016181], [9.298839, 0.283515], [9.309093, 0.32453], [9.345388, 0.35578], [9.365896, 0.351549], [9.378673, 0.307563], [9.367035, 0.250067], [9.373871, 0.219184], [9.358409, 0.211656], [9.360199, 0.181098], [9.380382, 0.20539], [9.424327, 0.208197], [9.460785, 0.16649], [9.473481, 0.109198], [9.488048, 0.098334], [9.494965, 0.098456], [9.498057, 0.109198], [9.493663, 0.169989], [9.504242, 0.187974], [9.566417, 0.167467], [9.586762, 0.112291], [9.628429, 0.153795], [9.652354, 0.146877], [9.662608, 0.126532], [9.712413, 0.134833], [9.748871, 0.097846], [9.779552, 0.049465], [9.812185, 0.023505], [9.761241, 0.109198], [9.758556, 0.125556], [9.778087, 0.134467], [9.803884, 0.133246], [9.819591, 0.119086], [9.861176, 0.161282], [9.908946, 0.187974], [9.97047, 0.173651], [10.025645, 0.187974], [10.025645, 0.195461], [9.955821, 0.200019], [9.93629, 0.215969], [9.88266, 0.190416], [9.792247, 0.181098], [9.747244, 0.196438], [9.711436, 0.223212], [9.668956, 0.22724], [9.586436, 0.283637], [9.572113, 0.298326], [9.566417, 0.318305], [9.548188, 0.302558], [9.498057, 0.290961], [9.484141, 0.33808], [9.459321, 0.359931], [9.398692, 0.488715], [9.37086, 0.520087], [9.352224, 0.529242], [9.319021, 0.528632], [9.305675, 0.544257], [9.308849, 0.614], [9.315929, 0.626166], [9.360199, 0.633043], [9.402029, 0.65351], [9.446544, 0.647284], [9.52003, 0.683539], [9.539073, 0.681464], [9.555431, 0.665229], [9.562836, 0.642157], [9.559255, 0.621527], [9.542491, 0.612494], [9.477794, 0.619086], [9.464041, 0.598863], [9.516449, 0.604153], [9.539887, 0.591254], [9.545909, 0.564765], [9.56658, 0.575507], [9.573253, 0.598863], [9.585297, 0.582831], [9.587087, 0.553697], [9.573253, 0.510077], [9.582774, 0.481635], [9.607921, 0.469184], [9.603689, 0.505357], [9.623871, 0.539496], [9.6421, 0.598863], [9.625011, 0.639309], [9.628429, 0.6883], [9.618175, 0.806789], [9.582774, 0.900702], [9.575531, 0.940823], [9.561534, 0.962795], [9.578949, 1.004381], [9.592052, 1.01435], [9.642426, 1.022284], [9.668793, 1.058173], [9.745128, 1.059719], [9.761241, 1.054755], [9.774669, 1.032864], [9.792247, 0.968817], [9.804371, 0.998354], [9.834107, 0.994927], [9.866147, 0.977564], [9.908625, 0.935086], [9.944075, 0.924854], [9.971773, 0.93984], [9.980765, 0.997201], [10.029444, 1.003506], [11.336341, 0.999165], [11.329727, 2.127442], [11.322078, 2.16576], [11.332414, 2.188033], [11.335928, 2.229167], [11.355978, 2.265186], [11.351637, 2.300584], [11.618598, 2.310403], [11.657252, 2.322495], [11.671204, 2.320996], [11.701384, 2.298724], [11.768149, 2.280172], [11.966174, 2.28875], [12.118826, 2.28782], [12.202645, 2.279552], [12.321604, 2.314072], [12.384856, 2.285908], [12.439943, 2.298517], [12.47839, 2.295882], [12.551461, 2.272266], [12.574819, 2.277692], [12.614609, 2.256918], [12.749898, 2.236712], [12.808189, 2.264049], [12.867824, 2.24498], [12.876402, 2.257176], [12.903171, 2.250355], [12.924771, 2.264049], [12.97221, 2.250355], [12.996912, 2.260018], [13.04094, 2.244205], [13.09303, 2.253455], [13.133337, 2.284513], [13.163827, 2.283169], [13.191732, 2.277692], [13.212299, 2.264049], [13.242891, 2.27149], [13.284646, 2.242242], [13.298392, 2.215835], [13.291364, 2.068945]]], [[[9.033458, -0.635431], [9.041515, -0.669854], [9.038748, -0.743748], [9.006602, -0.76214], [8.992931, -0.761163], [8.968516, -0.7374], [8.971202, -0.695896], [8.949474, -0.661716], [8.963145, -0.627618], [9.004649, -0.592869], [9.010427, -0.611017], [8.997244, -0.627618], [9.033458, -0.635431]]], [[[9.384086, 0.809629], [9.379643, 0.806971], [9.376786, 0.809986], [9.384086, 0.809629]]]]}}, {"type": "Feature", "properties": {"name": "Togo"}, "geometry": {"type": "Polygon", "coordinates": [[[1.331009, 9.996471], [1.343825, 9.962442], [1.348165, 9.694164], [1.35602, 9.647474], [1.351266, 9.595074], [1.323154, 9.542313], [1.326358, 9.521952], [1.351266, 9.482549], [1.368422, 9.490843], [1.379895, 9.462473], [1.386716, 9.361135], [1.401185, 9.321267], [1.425267, 9.284499], [1.567273, 9.13673], [1.595799, 9.076811], [1.607581, 8.558755], [1.614092, 8.535785], [1.644168, 8.493488], [1.607581, 8.421864], [1.60107, 8.371635], [1.614919, 8.356261], [1.625564, 8.270478], [1.625668, 6.996783], [1.531927, 6.991926], [1.551357, 6.920871], [1.588047, 6.881235], [1.590114, 6.867334], [1.58319, 6.808268], [1.60107, 6.746437], [1.566033, 6.678146], [1.596316, 6.636418], [1.597349, 6.600813], [1.627425, 6.573347], [1.653883, 6.570659], [1.657811, 6.552263], [1.680755, 6.530068], [1.681685, 6.489838], [1.718375, 6.466997], [1.74411, 6.425733], [1.782351, 6.277267], [1.633109, 6.245692], [1.612439, 6.234763], [1.61964, 6.213894], [1.429535, 6.181952], [1.185395, 6.100491], [1.187968, 6.135647], [1.176186, 6.151512], [1.093401, 6.160917], [1.079655, 6.167919], [1.048132, 6.20939], [1.025188, 6.222334], [1.009685, 6.244452], [0.983536, 6.324602], [0.886798, 6.33039], [0.841323, 6.379224], [0.766805, 6.419351], [0.745721, 6.4409], [0.711718, 6.513376], [0.713475, 6.53999], [0.727428, 6.571435], [0.714612, 6.583914], [0.668207, 6.585827], [0.63224, 6.62399], [0.626659, 6.644893], [0.635341, 6.695381], [0.625832, 6.727756], [0.593793, 6.751114], [0.576636, 6.754731], [0.541083, 6.817182], [0.519275, 6.832246], [0.522789, 6.862838], [0.54625, 6.914773], [0.534468, 6.935909], [0.494574, 6.973116], [0.57891, 6.996783], [0.59803, 7.0312], [0.59772, 7.158892], [0.621801, 7.218837], [0.645676, 7.323585], [0.623042, 7.397896], [0.566404, 7.380791], [0.548214, 7.383271], [0.516692, 7.411022], [0.500568, 7.45505], [0.495608, 7.504298], [0.499432, 7.562382], [0.50925, 7.585378], [0.562063, 7.612301], [0.570538, 7.683925], [0.583354, 7.704285], [0.612293, 7.699428], [0.593173, 8.015739], [0.574983, 8.124621], [0.593276, 8.150666], [0.572709, 8.191], [0.573846, 8.203945], [0.645056, 8.253425], [0.705207, 8.282751], [0.712752, 8.29797], [0.708825, 8.322568], [0.689187, 8.331301], [0.685053, 8.382564], [0.646709, 8.414165], [0.616324, 8.488759], [0.550798, 8.519326], [0.443518, 8.606866], [0.403727, 8.662082], [0.374426, 8.724766], [0.365874, 8.774272], [0.385278, 8.78608], [0.397112, 8.781532], [0.407809, 8.759053], [0.424966, 8.78732], [0.419592, 8.791247], [0.47349, 8.793547], [0.483515, 8.834811], [0.505633, 8.866333], [0.493127, 8.915219], [0.43127, 9.02759], [0.458478, 9.08924], [0.463646, 9.137092], [0.504703, 9.187166], [0.49292, 9.258609], [0.522479, 9.285067], [0.526613, 9.297651], [0.537569, 9.377646], [0.531368, 9.401107], [0.513281, 9.416791], [0.482792, 9.427875], [0.49168, 9.451285], [0.483515, 9.470017], [0.411659, 9.492238], [0.333783, 9.479474], [0.32182, 9.442836], [0.26849, 9.420641], [0.23136, 9.418961], [0.226813, 9.432345], [0.234977, 9.443766], [0.228053, 9.473971], [0.28531, 9.488363], [0.301924, 9.507457], [0.293139, 9.518283], [0.253503, 9.514252], [0.225908, 9.531926], [0.230197, 9.575747], [0.30456, 9.571562], [0.32244, 9.583137], [0.354608, 9.571096], [0.370809, 9.575644], [0.377734, 9.589416], [0.369155, 9.610138], [0.349363, 9.61391], [0.308797, 9.603678], [0.277636, 9.606986], [0.261694, 9.627941], [0.260971, 9.657164], [0.275285, 9.685586], [0.318719, 9.648611], [0.336651, 9.650833], [0.347089, 9.663158], [0.347606, 9.698841], [0.323887, 9.742068], [0.32244, 9.760671], [0.343886, 9.838393], [0.341715, 9.903789], [0.369569, 9.938826], [0.349777, 9.997169], [0.35054839459806497, 10.0], [1.325655460257458, 10.0], [1.331009, 9.996471]]]}}, {"type": "Feature", "properties": {"name": "Ghana"}, "geometry": {"type": "Polygon", "coordinates": [[[0.349777, 9.997169], [0.369569, 9.938826], [0.341715, 9.903789], [0.343886, 9.838393], [0.32244, 9.760671], [0.323887, 9.742068], [0.347606, 9.698841], [0.347089, 9.663158], [0.336651, 9.650833], [0.318719, 9.648611], [0.275285, 9.685586], [0.260971, 9.657164], [0.261694, 9.627941], [0.277636, 9.606986], [0.308797, 9.603678], [0.349363, 9.61391], [0.369155, 9.610138], [0.377734, 9.589416], [0.370809, 9.575644], [0.354608, 9.571096], [0.32244, 9.583137], [0.30456, 9.571562], [0.230197, 9.575747], [0.225908, 9.531926], [0.253503, 9.514252], [0.293139, 9.518283], [0.301924, 9.507457], [0.28531, 9.488363], [0.228053, 9.473971], [0.234977, 9.443766], [0.226813, 9.432345], [0.23136, 9.418961], [0.26849, 9.420641], [0.32182, 9.442836], [0.333783, 9.479474], [0.411659, 9.492238], [0.483515, 9.470017], [0.49168, 9.451285], [0.482792, 9.427875], [0.513281, 9.416791], [0.531368, 9.401107], [0.537569, 9.377646], [0.526613, 9.297651], [0.522479, 9.285067], [0.49292, 9.258609], [0.504703, 9.187166], [0.463646, 9.137092], [0.458478, 9.08924], [0.43127, 9.02759], [0.493127, 8.915219], [0.505633, 8.866333], [0.483515, 8.834811], [0.47349, 8.793547], [0.419592, 8.791247], [0.424966, 8.78732], [0.407809, 8.759053], [0.397112, 8.781532], [0.385278, 8.78608], [0.365874, 8.774272], [0.374426, 8.724766], [0.403727, 8.662082], [0.443518, 8.606866], [0.550798, 8.519326], [0.616324, 8.488759], [0.646709, 8.414165], [0.685053, 8.382564], [0.689187, 8.331301], [0.708825, 8.322568], [0.712752, 8.29797], [0.705207, 8.282751], [0.645056, 8.253425], [0.573846, 8.203945], [0.572709, 8.191], [0.593276, 8.150666], [0.574983, 8.124621], [0.593173, 8.015739], [0.612293, 7.699428], [0.583354, 7.704285], [0.570538, 7.683925], [0.562063, 7.612301], [0.50925, 7.585378], [0.499432, 7.562382], [0.495608, 7.504298], [0.500568, 7.45505], [0.516692, 7.411022], [0.548214, 7.383271], [0.566404, 7.380791], [0.623042, 7.397896], [0.645676, 7.323585], [0.621801, 7.218837], [0.59772, 7.158892], [0.59803, 7.0312], [0.57891, 6.996783], [0.494574, 6.973116], [0.534468, 6.935909], [0.54625, 6.914773], [0.516071, 6.841806], [0.541083, 6.817182], [0.576636, 6.754731], [0.593793, 6.751114], [0.625832, 6.727756], [0.635341, 6.695381], [0.626659, 6.644893], [0.63224, 6.62399], [0.668207, 6.585827], [0.714612, 6.583914], [0.727428, 6.571435], [0.713475, 6.53999], [0.711718, 6.513376], [0.745721, 6.4409], [0.766805, 6.419351], [0.841323, 6.379224], [0.886798, 6.33039], [0.983536, 6.324602], [1.009685, 6.244452], [1.025188, 6.222334], [1.048132, 6.20939], [1.079655, 6.167919], [1.093401, 6.160917], [1.176186, 6.151512], [1.187968, 6.135647], [1.185395, 6.100491], [1.098806, 6.047024], [1.048025, 5.992662], [1.011729, 5.926256], [0.995291, 5.839342], [0.986583, 5.820746], [0.954845, 5.791083], [0.914399, 5.777086], [0.723481, 5.755439], [0.364919, 5.78148], [0.321951, 5.779202], [0.27589, 5.760159], [0.243337, 5.756171], [0.224376, 5.742621], [0.1574, 5.724555], [0.114594, 5.688666], [0.075694, 5.677558], [0.034516, 5.628363], [0.0, 5.61676365584734], [0.0, 10.0], [0.35054839459806497, 10.0], [0.349777, 9.997169]]]}}, {"type": "Feature", "properties": {"name": "Eq. Guinea"}, "geometry": {"type": "MultiPolygon", "coordinates": [[[[9.81106, 2.324872], [9.810853, 2.264876], [9.823669, 2.249011], [9.872141, 2.211236], [9.990997, 2.165605], [11.322078, 2.16576], [11.329727, 2.127442], [11.336341, 0.999165], [10.029444, 1.003506], [9.980765, 0.997201], [9.971773, 0.93984], [9.944075, 0.924854], [9.908625, 0.935086], [9.84961, 0.989243], [9.804371, 0.998354], [9.799083, 1.058173], [9.847504, 1.072455], [9.755138, 1.105943], [9.703461, 1.099799], [9.703787, 1.120592], [9.717784, 1.133287], [9.676443, 1.105414], [9.6421, 1.061591], [9.584321, 1.042955], [9.551606, 1.115424], [9.52475, 1.133287], [9.506521, 1.1376], [9.420421, 1.109198], [9.396495, 1.111477], [9.360199, 1.146959], [9.35963, 1.164862], [9.34669, 1.181708], [9.374034, 1.199897], [9.407563, 1.28384], [9.434255, 1.29975], [9.448253, 1.319078], [9.464041, 1.359849], [9.465343, 1.414537], [9.492849, 1.426581], [9.532237, 1.462307], [9.56422, 1.503404], [9.594249, 1.57217], [9.614757, 1.588039], [9.65919, 1.565334], [9.685883, 1.568834], [9.744477, 1.600043], [9.724294, 1.599026], [9.683442, 1.571357], [9.665701, 1.575588], [9.622325, 1.616767], [9.60727, 1.644436], [9.617524, 1.671454], [9.71811, 1.771796], [9.743012, 1.815741], [9.746755, 1.839911], [9.799083, 1.901109], [9.809744, 1.934963], [9.805837, 1.976386], [9.764415, 2.09634], [9.778087, 2.123969], [9.786388, 2.248114], [9.766938, 2.310492], [9.799571, 2.341742], [9.81106, 2.324872]]], [[[5.618663, -1.433038], [5.633067, -1.415785], [5.646251, -1.438409], [5.642751, -1.462823], [5.628917, -1.475681], [5.61199, -1.463637], [5.626231, -1.456231], [5.618663, -1.433038]]], [[[8.959158, 3.700832], [8.961599, 3.660468], [8.951182, 3.627427], [8.906993, 3.582099], [8.896739, 3.554429], [8.860688, 3.511786], [8.81365, 3.412177], [8.784923, 3.395087], [8.774669, 3.316555], [8.729747, 3.264797], [8.686209, 3.197333], [8.599864, 3.238023], [8.559581, 3.230618], [8.52768, 3.248847], [8.469412, 3.257961], [8.450206, 3.272935], [8.422048, 3.339301], [8.442149, 3.421332], [8.473888, 3.46308], [8.562755, 3.456529], [8.5796, 3.463324], [8.585134, 3.479315], [8.573253, 3.511786], [8.60141, 3.529731], [8.621104, 3.555854], [8.62794, 3.648342], [8.667166, 3.726264], [8.702403, 3.760932], [8.743419, 3.772406], [8.737153, 3.758205], [8.76824, 3.751695], [8.791759, 3.758205], [8.84669, 3.746405], [8.880626, 3.747301], [8.908458, 3.758205], [8.922699, 3.750718], [8.959158, 3.700832]]]]}}, {"type": "Feature", "properties": {"name": "S\u00e3o Tom\u00e9 and Principe"}, "geometry": {"type": "MultiPolygon", "coordinates": [[[[6.703868, 0.391832], [6.746104, 0.33808], [6.760916, 0.284166], [6.756521, 0.250067], [6.674571, 0.133368], [6.653331, 0.124579], [6.660004, 0.107327], [6.633637, 0.098578], [6.616222, 0.078111], [6.57838, 0.078111], [6.557302, 0.028266], [6.5442, 0.043931], [6.536957, 0.026435], [6.526622, 0.024115], [6.510102, 0.051418], [6.513682, 0.088284], [6.502696, 0.098578], [6.461681, 0.222154], [6.470876, 0.26789], [6.497813, 0.31269], [6.533051, 0.348131], [6.578298, 0.364569], [6.641856, 0.410793], [6.681407, 0.407131], [6.703868, 0.391832]]], [[[7.428722, 1.647854], [7.461762, 1.630805], [7.438243, 1.623928], [7.430512, 1.57274], [7.425548, 1.56273], [7.405772, 1.556464], [7.401378, 1.531195], [7.394054, 1.545396], [7.381033, 1.537991], [7.372244, 1.554145], [7.33253, 1.565334], [7.330089, 1.614651], [7.355968, 1.620022], [7.364024, 1.629381], [7.371837, 1.677191], [7.385265, 1.692328], [7.403005, 1.699774], [7.448741, 1.693183], [7.459727, 1.6883], [7.462738, 1.674547], [7.428722, 1.647854]]]]}}]}