{"type": "FeatureCollection", "features": [{"type": "Feature", "properties": {"name": "Antarctica"}, "geometry": {"type": "MultiPolygon", "coordinates": [[[[0.015554, -71.490411], [0.078746, -71.42018], [0.232188, -71.349867], [0.437755, -71.319757], [0.54713, -71.261814], [0.635509, -71.255548], [0.710948, -71.218194], [0.796397, -71.212823], [0.933767, -71.179376], [1.451915, -71.118259], [1.484141, -71.092218], [1.531912, -71.090997], [1.567393, -71.069513], [1.638845, -71.060724], [1.726736, -71.03338], [1.868826, -71.018162], [1.948578, -70.991143], [2.150157, -70.978285], [2.198741, -70.95436], [2.458344, -70.920343], [2.519705, -70.900567], [2.562022, -70.911228], [2.632579, -70.893487], [2.691254, -70.896254], [2.755382, -70.885349], [2.823253, -70.890558], [2.978282, -70.88421], [3.074067, -70.894627], [3.222667, -70.859552], [3.260916, -70.866469], [3.327159, -70.856541], [3.574718, -70.852146], [3.692231, -70.837335], [3.775645, -70.816013], [3.821544, -70.817478], [3.808279, -70.802016], [3.827891, -70.798435], [3.9074, -70.803806], [4.010753, -70.782892], [4.096528, -70.77516], [4.223969, -70.783787], [4.319021, -70.762465], [4.357595, -70.733819], [4.39975, -70.727472], [4.397634, -70.71087], [4.46339, -70.724054], [4.507823, -70.71795], [4.624766, -70.720798], [4.853038, -70.684666], [4.962901, -70.688653], [4.991873, -70.675388], [5.006114, -70.642673], [5.020763, -70.636977], [5.073741, -70.633722], [5.209727, -70.65016], [5.234874, -70.642348], [5.314708, -70.649672], [5.441742, -70.629815], [5.587738, -70.649184], [5.679861, -70.61297], [5.73585, -70.613051], [5.770763, -70.632013], [5.801117, -70.633559], [5.974457, -70.609959], [6.060395, -70.625258], [6.113292, -70.608657], [6.18336, -70.617283], [6.203136, -70.627048], [6.188324, -70.602797], [6.224132, -70.601983], [6.297374, -70.62005], [6.334972, -70.615492], [6.364919, -70.589044], [6.429047, -70.581231], [6.483897, -70.588311], [6.536388, -70.575291], [6.645681, -70.602146], [6.705333, -70.593683], [6.78061, -70.599379], [6.807872, -70.583103], [6.795909, -70.557875], [6.810232, -70.539809], [6.837657, -70.533787], [6.898774, -70.560479], [6.985199, -70.522556], [7.10963, -70.546808], [7.145274, -70.560968], [7.172211, -70.541925], [7.242442, -70.544122], [7.250499, -70.534601], [7.250255, -70.516209], [7.33546, -70.526462], [7.403005, -70.510349], [7.448904, -70.521742], [7.514415, -70.520929], [7.553722, -70.528497], [7.611827, -70.486017], [7.668305, -70.518162], [7.666189, -70.487888], [7.656993, -70.473565], [7.475108, -70.376886], [7.43922, -70.337498], [7.427501, -70.312188], [7.414236, -70.221449], [7.423513, -70.20436], [7.479015, -70.189874], [7.835297, -70.16367], [7.893565, -70.177423], [7.917003, -70.194024], [7.925141, -70.217055], [7.921886, -70.24391], [7.895763, -70.309991], [7.877289, -70.325372], [7.836925, -70.339939], [7.834158, -70.366143], [7.844981, -70.398207], [7.87908, -70.447686], [7.930431, -70.472345], [8.105235, -70.475274], [8.225271, -70.494399], [8.254731, -70.492608], [8.328787, -70.467869], [8.443126, -70.482354], [8.549653, -70.472345], [8.654552, -70.448012], [8.693858, -70.421075], [8.784679, -70.417576], [8.812755, -70.40488], [8.832042, -70.383477], [8.837169, -70.353936], [8.971853, -70.372491], [9.037771, -70.356866], [9.136729, -70.375421], [9.157481, -70.359552], [9.168712, -70.334161], [9.167817, -70.308038], [9.151378, -70.290297], [9.101329, -70.276544], [9.019786, -70.270766], [8.938243, -70.246759], [8.887462, -70.215509], [8.898448, -70.185479], [9.080577, -70.089288], [9.128754, -70.075942], [9.182628, -70.070896], [9.294281, -70.07879], [9.415375, -70.109145], [9.450531, -70.156508], [9.531016, -70.186212], [9.592947, -70.228936], [9.655772, -70.247817], [9.671886, -70.267836], [9.656505, -70.343032], [9.71339, -70.338962], [9.764985, -70.348565], [9.867198, -70.392022], [9.979259, -70.453546], [10.322765, -70.536798], [10.392833, -70.539646], [10.476817, -70.572198], [10.53297, -70.578302], [10.599946, -70.604669], [10.656749, -70.611505], [10.722667, -70.636895], [10.809581, -70.64658], [10.968923, -70.688735], [11.067393, -70.701267], [11.1067, -70.697035], [11.158539, -70.728774], [11.237559, -70.757013], [11.351573, -70.736586], [11.641368, -70.773207], [11.853526, -70.781508], [11.894379, -70.744399], [11.993663, -70.725356], [12.014985, -70.712986], [12.032074, -70.685805], [12.081716, -70.674005], [12.074474, -70.651462], [12.091319, -70.603204], [12.087738, -70.545343], [12.107758, -70.530043], [12.167817, -70.514418], [12.142345, -70.485447], [12.184337, -70.461847], [12.252126, -70.446059], [12.288585, -70.394789], [12.322032, -70.370294], [12.380219, -70.358575], [12.530772, -70.351658], [12.608572, -70.320571], [12.648936, -70.314874], [12.736583, -70.320001], [12.824962, -70.295017], [12.837901, -70.26393], [12.897146, -70.248224], [13.018321, -70.241795], [13.041026, -70.23447], [13.029552, -70.217706], [12.969493, -70.172947], [12.939789, -70.164972], [12.483084, -70.126886], [12.435883, -70.105157], [12.426524, -70.085382], [12.444591, -70.070245], [12.497813, -70.055271], [12.559337, -70.053806], [12.735118, -70.071466], [12.969249, -70.046157], [13.026215, -70.051039], [13.084972, -70.075128], [13.164806, -70.150649], [13.236176, -70.187758], [13.292328, -70.247328], [13.342784, -70.272719], [13.399669, -70.286228], [13.570323, -70.289972], [13.650401, -70.323419], [13.848806, -70.347833], [14.080577, -70.345961], [14.135265, -70.326267], [14.204926, -70.327895], [14.227794, -70.301446], [14.247569, -70.295017], [14.340099, -70.306085], [14.355968, -70.28753], [14.386404, -70.285903], [14.441173, -70.29697], [14.510509, -70.283868], [14.585134, -70.292576], [14.618663, -70.309503], [14.683116, -70.303806], [14.78004, -70.329848], [14.865001, -70.322849], [14.89796, -70.298761], [15.036876, -70.290948], [15.144867, -70.310235], [15.534841, -70.33766], [15.63087, -70.333754], [15.702485, -70.365004], [15.766856, -70.378351], [15.826915, -70.377618], [15.857107, -70.353611], [15.862641, -70.323989], [15.845388, -70.293227], [15.857921, -70.260024], [15.90504, -70.216404], [15.962576, -70.18963], [16.129568, -70.17254], [16.174978, -70.141209], [16.284434, -70.149021], [16.519867, -70.126723], [16.577322, -70.131443], [16.638438, -70.161554], [16.653331, -70.185968], [16.650157, -70.220798], [16.643321, -70.231052], [16.610606, -70.243341], [16.62615, -70.311212], [16.619314, -70.34295], [16.574718, -70.396254], [16.514415, -70.435479], [16.48463, -70.446059], [16.505138, -70.454197], [16.871104, -70.439386], [16.925955, -70.463637], [16.910004, -70.476983], [16.927013, -70.48447], [17.126801, -70.48089], [17.21697, -70.463962], [17.75115, -70.49391], [17.789399, -70.510837], [17.908376, -70.514093], [18.093761, -70.542413], [18.329845, -70.540134], [18.339122, -70.520196], [18.375824, -70.507501], [18.49822, -70.502537], [18.310313, -70.373712], [18.295909, -70.350193], [18.252778, -70.325942], [18.316173, -70.324395], [18.447032, -70.300063], [18.573009, -70.26393], [18.71461, -70.259861], [18.78297, -70.238946], [18.838878, -70.181329], [18.871837, -70.172133], [18.941661, -70.170994], [19.153494, -70.203546], [19.290538, -70.248142], [19.215017, -70.249444], [19.173513, -70.273858], [19.296641, -70.368097], [19.281505, -70.381606], [19.232921, -70.398858], [19.221853, -70.420587], [19.170177, -70.438084], [19.137218, -70.49505], [19.016287, -70.596775], [18.915212, -70.634047], [18.931814, -70.678318], [18.930919, -70.736017], [18.945486, -70.752374], [18.995616, -70.748956], [19.028494, -70.761407], [19.057791, -70.781183], [19.111583, -70.847101], [19.130544, -70.860121], [19.289236, -70.914321], [19.567393, -70.946059], [19.628184, -70.940851], [19.732758, -70.892673], [20.0, -70.91960370937434], [20.0, -90.0], [0.0, -90.0], [0.0, -71.49886677908398], [0.015554, -71.490411]]], [[[1.99936, -70.597426], [2.065278, -70.601007], [2.122813, -70.617608], [2.145193, -70.650079], [2.115571, -70.675551], [2.054047, -70.673517], [1.989431, -70.654474], [1.95045, -70.629002], [1.951345, -70.604262], [1.99936, -70.597426]]], [[[3.26238, -70.437595], [3.252615, -70.486749], [3.210948, -70.531345], [3.157888, -70.562758], [3.063243, -70.593438], [2.957856, -70.613458], [2.743663, -70.629327], [2.682384, -70.622979], [2.631602, -70.602716], [2.596039, -70.569513], [2.580821, -70.524347], [2.648448, -70.493748], [3.049815, -70.385431], [3.139171, -70.373956], [3.2199, -70.392348], [3.26238, -70.437595]]], [[[4.13266, -70.256036], [4.297211, -70.237237], [4.468761, -70.244561], [4.574392, -70.276137], [4.621755, -70.352716], [4.604747, -70.420587], [4.545584, -70.472589], [4.466807, -70.501235], [4.331391, -70.50449], [4.204845, -70.469496], [4.104666, -70.400811], [4.048839, -70.302992], [4.13266, -70.256036]]], [[[5.560069, -70.229262], [5.654633, -70.225681], [5.744802, -70.248793], [5.825857, -70.303969], [5.747325, -70.340916], [5.642914, -70.329522], [5.539887, -70.293145], [5.465587, -70.255304], [5.560069, -70.229262]]], [[[6.343272, -70.122979], [6.451671, -70.136977], [6.536469, -70.164972], [6.536469, -70.207208], [6.503673, -70.222589], [6.432465, -70.214532], [6.329112, -70.169203], [6.294607, -70.147638], [6.272716, -70.122735], [6.343272, -70.122979]]], [[[1.435395, -70.064386], [1.465017, -70.150486], [1.369884, -70.20322], [1.275727, -70.273858], [1.223481, -70.379164], [1.197765, -70.406427], [1.163829, -70.417087], [1.119314, -70.317478], [1.060395, -70.268731], [1.001638, -70.236586], [0.956798, -70.191664], [0.939708, -70.104913], [0.979503, -70.065606], [1.042491, -70.045994], [1.299571, -70.02337], [1.36085, -70.025079], [1.410981, -70.040216], [1.435395, -70.064386]]], [[[11.000824, -70.07643], [10.921886, -70.08294], [10.812022, -70.07586], [10.576182, -70.031508], [10.539806, -70.011489], [10.634613, -70.004571], [10.894216, -70.017836], [10.988048, -70.045994], [11.000824, -70.07643]]], [[[16.17156, -70.072931], [16.122244, -70.0735], [15.925698080359387, -70.0], [16.225375756473365, -70.0], [16.17156, -70.072931]]]]}}]}