{"type": "FeatureCollection", "features": [{"type": "Feature", "properties": {"name": "United States of America"}, "geometry": {"type": "MultiPolygon", "coordinates": [[[[-100.0, 48.99264289124664], [-100.0, 30.0], [-104.68677896626849, 30.0], [-104.701589, 30.055324], [-104.680479, 30.134131], [-104.681564, 30.192939], [-104.715231, 30.243995], [-104.74939, 30.264459], [-104.788767, 30.335927], [-104.8129, 30.350707], [-104.818274, 30.380524], [-104.853259, 30.41215], [-104.852432, 30.438867], [-104.866695, 30.473025], [-104.859254, 30.497261], [-104.879718, 30.510852], [-104.886591, 30.551883], [-104.93434, 30.610536], [-104.98276, 30.620716], [-104.995783, 30.661747], [-105.008495, 30.676992], [-105.087043, 30.709806], [-105.133604, 30.757917], [-105.140425, 30.750476], [-105.160889, 30.764118], [-105.167297, 30.781171], [-105.195306, 30.787941], [-105.204917, 30.80241], [-105.229257, 30.810214], [-105.249049, 30.798845], [-105.277006, 30.819412], [-105.363771, 30.850366], [-105.41555, 30.902456], [-105.496682, 30.95651], [-105.530789, 30.991701], [-105.555955, 31.002605], [-105.59094, 31.071438], [-105.643805, 31.103684], [-105.668042, 31.127869], [-105.76819, 31.18001], [-105.78483, 31.211016], [-105.861983, 31.288376], [-105.928052, 31.326461], [-105.961202, 31.371006], [-106.004739, 31.396948], [-106.046261, 31.404648], [-106.164316, 31.447797], [-106.209249, 31.477305], [-106.232658, 31.519938], [-106.286298, 31.580141], [-106.331309, 31.68215], [-106.39177, 31.745919], [-106.428951, 31.758476], [-106.492797, 31.759044], [-106.517189, 31.773824], [-108.215121, 31.777751], [-108.214811, 31.327443], [-111.006269, 31.327185], [-111.067118, 31.333644], [-114.822108, 32.50024], [-114.809447, 32.511324], [-114.795546, 32.552226], [-114.802678, 32.594497], [-114.781542, 32.628061], [-114.739477, 32.669066], [-114.724285, 32.712836], [-117.125121, 32.531669], [-117.137007, 32.615761], [-117.14981, 32.646308], [-117.166371, 32.669501], [-117.188385, 32.682685], [-117.223975, 32.684714], [-117.226186, 32.697207], [-117.205814, 32.713403], [-117.190956, 32.713699], [-117.168058, 32.698805], [-117.115089, 32.600262], [-117.103384, 32.60681], [-117.102311, 32.620468], [-117.119892, 32.652634], [-117.119017, 32.67061], [-117.133209, 32.689846], [-117.177343, 32.715031], [-117.174638, 32.726732], [-117.209858, 32.725284], [-117.237834, 32.707223], [-117.236562, 32.669623], [-117.255279, 32.691392], [-117.257556, 32.784245], [-117.283597, 32.837654], [-117.273789, 32.851146], [-117.266039, 32.847035], [-117.259874, 32.854067], [-117.253641, 32.885081], [-117.27477, 32.993476], [-117.298075, 33.035904], [-117.322161, 33.108501], [-117.361914, 33.165943], [-117.508844, 33.335205], [-117.596303, 33.390448], [-117.654368, 33.441962], [-117.735219, 33.484768], [-117.776519, 33.529364], [-117.824574, 33.561672], [-117.978505, 33.635972], [-118.090536, 33.730977], [-118.117387, 33.743607], [-118.152581, 33.758765], [-118.20721, 33.763834], [-118.186618, 33.741484], [-118.185189, 33.732372], [-118.192863, 33.731729], [-118.202745, 33.746575], [-118.209735, 33.742287], [-118.221506, 33.770901], [-118.254552, 33.765401], [-118.269514, 33.753597], [-118.27677, 33.756616], [-118.272206, 33.715277], [-118.282441, 33.716237], [-118.276084, 33.707712], [-118.291307, 33.703208], [-118.354817, 33.726265], [-118.362286, 33.735687], [-118.412041, 33.741678], [-118.427569, 33.773731], [-118.395715, 33.805654], [-118.391388, 33.835941], [-118.444651, 33.949408], [-118.482655, 33.99901], [-118.514068, 34.022162], [-118.544057, 34.038886], [-118.666589, 34.038945], [-118.680137, 34.03033], [-118.748392, 34.031889], [-118.78793, 34.019664], [-118.806969, 33.999406], [-118.852604, 34.033657], [-118.936807, 34.0432], [-119.089698, 34.100484], [-119.119779, 34.106132], [-119.100652, 34.098963], [-119.106482, 34.094466], [-119.128653, 34.100547], [-119.208323, 34.152322], [-119.217087, 34.145502], [-119.260194, 34.217124], [-119.258859, 34.233353], [-119.281158, 34.268704], [-119.338596, 34.29048], [-119.370859, 34.319675], [-119.391482, 34.318445], [-119.460229, 34.37404], [-119.477798, 34.372579], [-119.516806, 34.386938], [-119.563175, 34.414795], [-119.61716, 34.420527], [-119.678061, 34.414385], [-119.707879, 34.395441], [-119.787649, 34.417211], [-119.832035, 34.416264], [-119.844385, 34.403892], [-119.878636, 34.406613], [-119.921528, 34.433401], [-119.957072, 34.435892], [-120.0, 34.456278255293405], [-120.0, 48.99253047428968], [-100.0, 48.99264289124664]]], [[[-118.350942, 32.818671], [-118.384181, 32.824391], [-118.429043, 32.802873], [-118.438367, 32.816922], [-118.49915, 32.850628], [-118.508595, 32.876469], [-118.546918, 32.91875], [-118.551702, 32.945411], [-118.575546, 32.969004], [-118.593759, 33.013946], [-118.608245, 33.014377], [-118.607215, 33.030856], [-118.577165, 33.032456], [-118.564367, 33.023762], [-118.56018, 33.006331], [-118.504424, 32.941329], [-118.350942, 32.818671]]], [[[-119.443391, 33.24217], [-119.434337, 33.224012], [-119.472942, 33.215324], [-119.544188, 33.23132], [-119.566909, 33.247472], [-119.578926, 33.276097], [-119.562448, 33.271741], [-119.532103, 33.286278], [-119.443391, 33.24217]]], [[[-118.572851, 33.437907], [-118.603913, 33.476589], [-118.535861, 33.477278], [-118.499706, 33.451813], [-118.49877, 33.442666], [-118.476901, 33.447445], [-118.444791, 33.428584], [-118.42112, 33.427948], [-118.369206, 33.408393], [-118.368289, 33.389003], [-118.331757, 33.359113], [-118.326344, 33.344608], [-118.308665, 33.33642], [-118.304344, 33.319269], [-118.310584, 33.314231], [-118.30434, 33.30904], [-118.326035, 33.298633], [-118.374796, 33.319512], [-118.422664, 33.316634], [-118.463586, 33.323514], [-118.489582, 33.358499], [-118.474872, 33.382371], [-118.487232, 33.402812], [-118.486346, 33.415968], [-118.572851, 33.437907]]], [[[-119.980407, 33.983467], [-119.96883, 33.941117], [-119.999628, 33.941479], [-120.0, 33.94128060495406], [-120.0, 33.980352323308274], [-119.980407, 33.983467]]], [[[-119.542666, 34.020164], [-119.559521, 33.994309], [-119.657683, 33.986062], [-119.719512, 33.959134], [-119.817205, 33.959338], [-119.874109, 33.980047], [-119.887069, 34.008777], [-119.877222, 34.032483], [-119.899179, 34.049601], [-119.933019, 34.060229], [-119.917225, 34.07882], [-119.856412, 34.070552], [-119.806996, 34.051947], [-119.759263, 34.055809], [-119.711836, 34.042255], [-119.68536, 34.019871], [-119.633183, 34.013635], [-119.615639, 34.019543], [-119.610079, 34.039646], [-119.564931, 34.055325], [-119.521494, 34.034291], [-119.542666, 34.020164]]], [[[-118.226578, 33.76545], [-118.223919, 33.756067], [-118.243878, 33.750844], [-118.236346, 33.728046], [-118.250134, 33.723618], [-118.245571, 33.714879], [-118.257629, 33.716554], [-118.259126, 33.729407], [-118.24432, 33.734291], [-118.248994, 33.749427], [-118.251107, 33.736269], [-118.268615, 33.728931], [-118.267506, 33.747029], [-118.226578, 33.76545]]]]}}, {"type": "Feature", "properties": {"name": "Canada"}, "geometry": {"type": "Polygon", "coordinates": [[[-120.0, 48.99253047428968], [-120.0, 50.0], [-100.0, 50.0], [-100.0, 48.99264289124664], [-120.0, 48.99253047428968]]]}}, {"type": "Feature", "properties": {"name": "Mexico"}, "geometry": {"type": "MultiPolygon", "coordinates": [[[[-112.730458, 30.013373], [-112.758815, 30.059181], [-112.753236, 30.185883], [-112.764293, 30.21152], [-112.808949, 30.258583], [-112.828784, 30.269181], [-112.846263, 30.271594], [-112.854915, 30.262756], [-112.86079, 30.268999], [-112.848594, 30.28853], [-112.847743, 30.361345], [-112.870676, 30.428534], [-112.986543, 30.532352], [-113.079895, 30.670441], [-113.128841, 30.81244], [-113.110908, 30.843333], [-113.097359, 30.946008], [-113.099921, 30.979241], [-113.130961, 31.06499], [-113.122915, 31.066933], [-113.116193, 31.056936], [-113.083187, 30.989408], [-113.055898, 31.030707], [-113.048723, 31.156692], [-113.091744, 31.202152], [-113.116869, 31.217645], [-113.145496, 31.219293], [-113.143942, 31.209907], [-113.116677, 31.197589], [-113.120994, 31.190026], [-113.197046, 31.225188], [-113.2329, 31.288031], [-113.27599, 31.278266], [-113.264312, 31.262844], [-113.229349, 31.245096], [-113.241444, 31.24124], [-113.548948, 31.2957], [-113.558464, 31.315613], [-113.622269, 31.325584], [-113.643492, 31.341775], [-113.609306, 31.352915], [-113.635832, 31.434851], [-113.634676, 31.465627], [-113.659577, 31.49754], [-113.774582, 31.563314], [-113.803987, 31.564353], [-113.875722, 31.596747], [-113.884877, 31.614691], [-113.939524, 31.600409], [-113.957834, 31.615953], [-113.962514, 31.655219], [-113.977691, 31.663072], [-113.981068, 31.586737], [-113.974029, 31.579088], [-113.960032, 31.579901], [-113.950999, 31.56802], [-113.979669, 31.545206], [-113.982767, 31.532285], [-114.005303, 31.52551], [-114.028942, 31.491539], [-114.159013, 31.494509], [-114.208888, 31.512283], [-114.23195, 31.530488], [-114.287845, 31.55243], [-114.324664, 31.582552], [-114.32748, 31.594665], [-114.448136, 31.64891], [-114.461229, 31.667259], [-114.494263, 31.677366], [-114.584712, 31.760755], [-114.686838, 31.76553], [-114.746978, 31.810004], [-114.803538, 31.819525], [-114.8426, 31.861518], [-114.875722, 31.872952], [-114.933827, 31.908881], [-115.012074, 31.936835], [-115.021067, 31.965562], [-115.029449, 31.970933], [-115.034739, 31.954739], [-115.011952, 31.91474], [-114.951324, 31.894477], [-114.913401, 31.86107], [-114.888958, 31.85635], [-114.849436, 31.806098], [-114.835032, 31.801907], [-114.815989, 31.719143], [-114.780629, 31.655829], [-114.788645, 31.636176], [-114.823964, 31.600409], [-114.85291, 31.526606], [-114.85231, 31.38943], [-114.875199, 31.328702], [-114.872627, 31.272667], [-114.888678, 31.162892], [-114.884043, 31.120715], [-114.863904, 31.089673], [-114.813471, 31.049986], [-114.832916, 31.027411], [-114.832387, 31.006659], [-114.821767, 30.988959], [-114.720259, 30.941098], [-114.710452, 30.918416], [-114.709197, 30.844058], [-114.696859, 30.819985], [-114.700582, 30.774816], [-114.687242, 30.744994], [-114.705468, 30.711719], [-114.691891, 30.671], [-114.698474, 30.637212], [-114.649646, 30.554561], [-114.645253, 30.524115], [-114.630599, 30.494874], [-114.638055, 30.463268], [-114.62952, 30.424803], [-114.640602, 30.375215], [-114.635314, 30.364562], [-114.652699, 30.288275], [-114.640116, 30.263757], [-114.665733, 30.199568], [-114.630686, 30.144517], [-114.624601, 30.117495], [-114.604533, 30.110741], [-114.580378, 30.072605], [-114.581434, 30.051117], [-114.55174574597793, 30.0], [-115.80402067026654, 30.0], [-115.783272, 30.092638], [-115.804067, 30.151435], [-115.797231, 30.195787], [-115.807281, 30.284125], [-115.837303, 30.346467], [-115.898327, 30.386662], [-115.932932, 30.400214], [-115.975413, 30.401272], [-115.937001, 30.435126], [-115.933827, 30.449652], [-115.954701, 30.47956], [-115.989084, 30.497463], [-115.963287, 30.458686], [-115.961741, 30.442206], [-115.982998, 30.43199], [-116.002675, 30.449652], [-116.015126, 30.434475], [-115.996449, 30.410549], [-115.979785, 30.359356], [-116.004549, 30.359165], [-116.028981, 30.441271], [-116.049254, 30.479593], [-116.031117, 30.627143], [-116.036855, 30.730211], [-116.057932, 30.802476], [-116.068023, 30.813178], [-116.105644, 30.818814], [-116.152076, 30.857816], [-116.175774, 30.860147], [-116.249745, 30.956773], [-116.268178, 30.963813], [-116.307313, 30.954091], [-116.335446, 30.95634], [-116.340363, 30.98926], [-116.32612, 31.027449], [-116.309438, 31.148505], [-116.341542, 31.21955], [-116.45414, 31.338544], [-116.508209, 31.419338], [-116.53893, 31.447252], [-116.595937, 31.477851], [-116.60912, 31.50141], [-116.675608, 31.552639], [-116.68106, 31.577297], [-116.644521, 31.579535], [-116.664174, 31.601142], [-116.648061, 31.659166], [-116.668528, 31.697008], [-116.715323, 31.710984], [-116.750381, 31.75236], [-116.708811, 31.744208], [-116.661285, 31.723375], [-116.643625, 31.73428], [-116.619627, 31.771738], [-116.611819, 31.84288], [-116.6197, 31.857571], [-116.676383, 31.868765], [-116.694725, 31.89004], [-116.754768, 31.909641], [-116.757924, 31.965033], [-116.769887, 31.977769], [-116.842275, 31.986518], [-116.865387, 32.013007], [-116.875315, 32.034491], [-116.886871, 32.132025], [-116.922678, 32.219387], [-116.948313, 32.247016], [-117.009877, 32.265082], [-117.024973, 32.276923], [-117.118398, 32.454535], [-117.125121, 32.531669], [-114.724285, 32.712836], [-114.739477, 32.669066], [-114.781542, 32.628061], [-114.802678, 32.594497], [-114.795546, 32.552226], [-114.809447, 32.511324], [-114.822108, 32.50024], [-111.067118, 31.333644], [-111.006269, 31.327185], [-108.214811, 31.327443], [-108.215121, 31.777751], [-106.517189, 31.773824], [-106.473135, 31.755065], [-106.428951, 31.758476], [-106.39177, 31.745919], [-106.35849, 31.717548], [-106.312292, 31.648612], [-106.286298, 31.580141], [-106.232658, 31.519938], [-106.209249, 31.477305], [-106.164316, 31.447797], [-106.046261, 31.404648], [-106.004739, 31.396948], [-105.961202, 31.371006], [-105.928052, 31.326461], [-105.861983, 31.288376], [-105.78483, 31.211016], [-105.76819, 31.18001], [-105.668042, 31.127869], [-105.643805, 31.103684], [-105.59094, 31.071438], [-105.555955, 31.002605], [-105.530789, 30.991701], [-105.496682, 30.95651], [-105.41555, 30.902456], [-105.363771, 30.850366], [-105.277006, 30.819412], [-105.249049, 30.798845], [-105.229257, 30.810214], [-105.204917, 30.80241], [-105.195306, 30.787941], [-105.167297, 30.781171], [-105.160889, 30.764118], [-105.140425, 30.750476], [-105.133604, 30.757917], [-105.087043, 30.709806], [-105.008495, 30.676992], [-104.995783, 30.661747], [-104.98276, 30.620716], [-104.93434, 30.610536], [-104.886591, 30.551883], [-104.879718, 30.510852], [-104.859254, 30.497261], [-104.866695, 30.473025], [-104.852432, 30.438867], [-104.853259, 30.41215], [-104.818274, 30.380524], [-104.8129, 30.350707], [-104.788767, 30.335927], [-104.74939, 30.264459], [-104.715231, 30.243995], [-104.681564, 30.192939], [-104.680479, 30.134131], [-104.701589, 30.055324], [-104.68677896626849, 30.0], [-112.73389810249358, 30.0], [-112.730458, 30.013373]]], [[[-114.755238, 31.797797], [-114.710072, 31.763739], [-114.669545, 31.720933], [-114.652699, 31.689765], [-114.677968, 31.694403], [-114.693674, 31.710273], [-114.715566, 31.695217], [-114.762563, 31.715644], [-114.798207, 31.756659], [-114.786122, 31.803046], [-114.755238, 31.797797]]], [[[-116.109612, 30.495347], [-116.104175, 30.482589], [-116.122767, 30.485167], [-116.109612, 30.495347]]], [[[-117.245032, 32.414627], [-117.239321, 32.389118], [-117.243205, 32.388743], [-117.253693, 32.420802], [-117.245032, 32.414627]]]]}}]}