{"type": "FeatureCollection", "features": [{"type": "Feature", "properties": {"name": "Kazakhstan"}, "geometry": {"type": "Polygon", "coordinates": [[[60.021276, 50.854055], [60.083288, 50.857155], [60.136205, 50.844495], [60.152121, 50.807701], [60.154808, 50.770907], [60.176719, 50.742175], [60.245449, 50.701971], [60.300433, 50.684659], [60.718495, 50.652672], [60.818334, 50.662904], [61.372098, 50.782483], [61.404034, 50.802585], [61.426875, 50.833074], [61.441758, 50.874984], [61.456744, 50.965004], [61.513175, 51.159514], [61.534156, 51.206075], [61.567332, 51.233876], [61.663657, 51.258397], [61.59317, 51.277827], [61.562991, 51.295526], [61.538703, 51.323173], [61.498396, 51.400533], [61.473798, 51.425803], [61.356182, 51.459651], [61.304919, 51.452881], [61.232985, 51.470555], [61.164049, 51.467144], [61.02938, 51.482673], [60.970986, 51.515616], [60.944631, 51.544374], [60.934399, 51.56582], [60.937396, 51.611166], [60.515096, 51.61791], [60.505795, 51.61977], [60.495356, 51.646254], [60.484711, 51.651034], [60.37588, 51.662532], [60.355106, 51.671421], [60.356036, 51.692272], [60.371539, 51.705166], [60.437375, 51.728394], [60.440166, 51.753948], [60.475512, 51.776195], [60.47975, 51.784256], [60.452051, 51.805469], [60.274491, 51.832832], [60.171965, 51.880374], [60.138065, 51.888875], [60.117808, 51.863554], [60.09228, 51.854769], [60.060757, 51.85867], [60.040087, 51.871202], [60.0, 51.930988880288425], [60.0, 51.98776878645474], [60.00319, 51.992512], [60.202764, 51.992745], [60.347665, 52.089612], [60.4258, 52.129584], [60.506518, 52.15165], [60.672193, 52.144338], [60.722836, 52.169582], [60.78123, 52.220612], [60.896675, 52.254693], [60.947422, 52.289729], [61.039922, 52.334998], [60.961374, 52.401971], [60.951452, 52.461088], [60.936466, 52.48858], [60.814923, 52.521912], [60.813476, 52.605498], [60.803141, 52.627745], [60.724489, 52.62622], [60.672606, 52.672161], [60.673536, 52.693865], [60.696171, 52.734922], [60.829082, 52.771638], [60.884893, 52.825252], [61.058422, 52.922171], [60.974603, 52.971238], [61.088602, 52.978059], [61.155781, 53.009685], [61.190301, 53.013148], [61.287349, 52.985165], [61.349361, 52.984907], [61.448269, 53.021416], [61.478035, 53.012347], [61.574257, 52.955839], [61.605573, 52.94832], [61.675336, 52.973615], [61.717814, 52.969946], [61.819823, 52.97824], [61.856513, 52.970153], [61.922556, 52.938165], [61.959246, 52.934935], [62.034849, 52.952712], [62.072676, 52.969584], [62.094173, 52.992477], [62.116032, 53.064592], [62.108023, 53.088569], [62.083218, 53.113297], [62.050662, 53.124769], [61.835119, 53.151124], [61.764219, 53.169469], [61.705101, 53.203498], [61.664277, 53.238896], [61.64309, 53.24334], [61.547282, 53.211456], [61.514312, 53.208665], [61.478035, 53.215125], [61.37985, 53.261866], [61.344813, 53.270109], [61.20291, 53.276439], [61.162706, 53.299151], [61.133663, 53.34814], [61.137177, 53.373126], [61.200946, 53.436223], [61.214279, 53.461854], [61.218206, 53.492653], [61.235259, 53.50304], [61.287659, 53.503195], [61.353495, 53.449814], [61.381607, 53.436119], [61.412303, 53.435758], [61.514725, 53.492498], [61.555343, 53.505727], [61.528368, 53.571667], [61.516792, 53.585723], [61.503047, 53.588978], [61.361246, 53.58257], [61.316081, 53.545208], [61.280734, 53.542418], [61.140381, 53.562727], [61.121468, 53.569806], [61.096353, 53.59921], [61.04664, 53.60846], [60.907321, 53.613628], [60.880242, 53.6328], [60.904737, 53.657088], [61.007573, 53.635745], [61.042713, 53.654246], [61.04478, 53.691401], [61.052221, 53.703286], [61.106895, 53.712433], [61.127462, 53.74716], [61.199086, 53.797131], [61.20198, 53.81961], [61.114957, 53.852321], [61.084984, 53.875317], [60.978014, 53.882604], [60.971813, 53.915832], [60.996101, 53.941411], [61.063797, 53.955312], [61.145239, 53.950145], [61.176245, 53.916503], [61.210765, 53.907667], [61.227301, 53.925909], [61.230505, 53.943065], [61.193505, 54.018254], [61.249832, 54.020735], [61.274843, 54.028538], [61.311534, 54.059854], [61.337682, 54.063161], [61.417677, 54.055978], [61.478552, 54.002906], [61.552759, 53.992519], [61.55617, 53.960945], [61.581801, 53.947664], [61.61105, 53.95955], [61.619939, 53.992571], [61.715333, 53.992571], [61.742102, 53.981564], [61.791298, 54.000788], [61.820547, 53.992571], [61.836153, 53.951127], [61.85641, 53.942703], [62.003636, 53.932006], [62.002603, 54.017376], [62.412707, 54.026626], [62.433481, 54.024662], [62.446141, 54.014534], [62.444023, 53.992313], [62.399581, 53.974484], [62.38661, 53.961307], [62.389969, 53.941566], [62.408159, 53.92472], [62.456683, 53.909217], [62.498903, 53.877798], [62.525258, 53.871855], [62.545102, 53.883689], [62.531769, 53.930353], [62.586546, 53.969833], [62.563189, 53.992519], [62.550579, 54.026833], [62.580965, 54.053601], [62.629128, 54.071171], [62.757182, 54.081093], [62.812062, 54.094994], [62.902393, 54.078457], [62.985488, 54.092875], [63.084655, 54.08564], [63.112199, 54.093702], [63.127443, 54.110445], [63.110029, 54.157987], [63.123774, 54.17411], [63.156744, 54.180053], [63.368307, 54.162845], [63.477551, 54.203979], [63.544937, 54.20646], [63.708648, 54.250437], [63.743995, 54.248731], [63.85603, 54.201861], [63.897474, 54.194161], [63.908016, 54.207493], [64.007855, 54.228681], [64.025425, 54.255242], [63.978968, 54.29648], [64.004496, 54.319735], [64.03514, 54.303973], [64.059531, 54.303715], [64.093741, 54.324179], [64.17663, 54.32051], [64.294039, 54.353376], [64.33383, 54.344643], [64.432532, 54.351516], [64.467052, 54.371979], [64.51139, 54.365107], [64.578518, 54.38557], [64.652673, 54.347123], [64.720163, 54.333842], [64.910642, 54.402727], [64.977718, 54.386604], [65.085412, 54.308572], [65.117451, 54.306402], [65.143703, 54.317616], [65.184217, 54.310433], [65.212949, 54.343041], [65.181323, 54.449132], [65.202252, 54.472542], [65.19817, 54.516157], [65.214293, 54.527887], [65.341572, 54.561477], [65.449007, 54.556619], [65.45619, 54.577858], [65.444873, 54.614187], [65.449782, 54.627468], [65.477378, 54.632687], [65.574581, 54.625452], [65.71297, 54.597185], [65.743976, 54.600854], [65.826969, 54.672685], [65.932802, 54.702554], [65.951871, 54.693665], [65.960656, 54.627985], [65.97745, 54.611706], [66.446517, 54.710925], [66.7003, 54.719245], [66.781794, 54.758209], [66.977338, 54.763687], [67.098519, 54.792006], [67.213344, 54.797173], [67.283934, 54.853294], [67.311322, 54.859908], [67.377933, 54.849056], [67.442994, 54.857014], [67.622725, 54.853862], [67.698482, 54.867918], [67.75791, 54.897839], [67.817338, 54.952151], [67.882244, 54.970444], [67.913146, 54.969152], [68.009678, 54.943004], [68.166051, 54.95613], [68.183621, 54.967137], [68.190907, 54.992562], [68.22181, 55.007755], [68.23478, 55.038502], [68.304233, 55.05261], [68.308161, 55.072815], [68.228114, 55.101599], [68.190545, 55.12537], [68.206978, 55.154154], [68.177109, 55.170535], [68.262376, 55.194048], [68.305784, 55.181387], [68.376787, 55.195082], [68.477349, 55.182834], [68.544115, 55.19689], [68.6053, 55.195598], [68.618219, 55.215442], [68.613672, 55.243089], [68.676407, 55.273216], [68.683693, 55.288616], [68.68235, 55.327167], [68.700592, 55.360498], [68.846009, 55.336778], [68.9228, 55.276369], [68.945641, 55.270374], [68.970601, 55.278642], [68.983262, 55.308563], [68.977267, 55.3467], [68.917839, 55.370937], [68.90244, 55.412484], [68.911121, 55.427367], [68.943161, 55.43455], [69.122581, 55.39786], [69.1478, 55.378223], [69.186143, 55.325771], [69.226244, 55.333575], [69.31027, 55.381479], [69.334558, 55.385148], [69.477288, 55.349439], [69.673866, 55.33404], [69.802282, 55.292078], [69.911681, 55.211618], [69.940309, 55.200249], [70.058648, 55.18702], [70.213678, 55.131985], [70.284629, 55.183196], [70.382453, 55.206244], [70.388086, 55.230273], [70.441157, 55.283345], [70.460071, 55.287427], [70.561253, 55.269599], [70.606522, 55.280503], [70.665743, 55.309183], [70.721244, 55.313111], [70.820359, 55.294145], [70.78894, 55.265465], [70.782118, 55.248463], [70.793177, 55.233167], [70.960092, 55.105578], [70.977145, 55.077983], [70.973321, 55.018452], [70.956991, 54.973493], [70.974458, 54.946931], [70.955131, 54.923264], [70.945933, 54.887917], [70.953271, 54.873499], [70.989961, 54.848643], [71.005981, 54.774229], [71.047012, 54.749062], [71.097241, 54.733043], [71.200697, 54.723999], [71.252787, 54.6824], [71.264673, 54.661729], [71.26488, 54.639198], [71.252322, 54.625349], [71.179045, 54.608709], [71.147574, 54.591449], [71.141218, 54.563751], [71.145197, 54.480603], [71.171035, 54.450993], [71.165919, 54.417041], [71.19801, 54.399523], [71.190621, 54.318184], [71.116258, 54.311725], [71.039467, 54.332085], [71.003397, 54.333119], [70.980039, 54.325057], [70.970841, 54.305007], [70.977145, 54.270125], [71.052076, 54.263201], [71.056365, 54.22341], [71.043963, 54.185944], [71.097448, 54.165067], [71.161268, 54.10197], [71.182301, 54.101557], [71.218061, 54.116284], [71.296299, 54.188993], [71.320587, 54.201034], [71.453137, 54.181345], [71.46833, 54.158401], [71.477115, 54.10967], [71.573543, 54.129204], [71.614987, 54.109515], [71.647234, 54.108585], [71.708728, 54.132201], [71.717307, 54.146464], [71.715446, 54.210749], [71.741388, 54.242427], [71.762472, 54.247646], [71.983647, 54.231575], [72.018684, 54.214986], [72.099506, 54.131891], [72.128858, 54.126051], [72.17764, 54.135973], [72.190456, 54.151993], [72.187356, 54.179433], [72.169992, 54.196848], [72.066743, 54.222376], [72.072117, 54.262735], [72.10302, 54.31157], [72.027055, 54.35534], [72.024678, 54.370946], [72.043178, 54.378026], [72.151802, 54.368259], [72.184772, 54.356838], [72.252778, 54.303457], [72.27872, 54.262735], [72.324401, 54.253485], [72.337114, 54.236536], [72.33298, 54.223771], [72.298563, 54.1784], [72.482945, 54.135611], [72.466718, 54.109928], [72.423207, 54.108688], [72.407911, 54.089568], [72.358405, 54.092978], [72.363572, 54.059544], [72.418659, 54.016032], [72.372771, 53.936244], [72.372977, 53.920069], [72.392201, 53.908235], [72.455556, 53.905341], [72.476744, 53.913403], [72.556842, 53.977223], [72.673734, 53.950506], [72.700193, 53.957638], [72.694818, 53.992571], [72.656164, 54.042542], [72.631773, 54.053911], [72.509403, 54.043576], [72.503099, 54.050862], [72.527387, 54.100058], [72.573068, 54.128687], [72.624228, 54.134991], [72.885504, 54.117318], [72.942038, 54.121762], [72.968393, 54.104141], [72.976765, 54.04771], [73.023687, 54.033964], [73.044358, 53.992313], [73.062754, 53.979084], [73.360307, 53.938414], [73.37395, 53.940946], [73.384285, 53.970299], [73.39276, 53.974019], [73.433481, 53.97066], [73.481644, 53.945391], [73.518024, 53.956036], [73.528256, 54.01071], [73.586857, 54.019443], [73.604427, 54.034687], [73.58851, 54.066158], [73.601533, 54.071223], [73.670469, 54.075925], [73.674913, 54.051586], [73.684939, 54.048433], [73.740646, 54.057942], [73.697134, 53.900845], [73.682872, 53.874129], [73.661684, 53.860848], [73.634296, 53.857437], [73.485261, 53.874852], [73.431827, 53.865447], [73.39121, 53.82824], [73.437822, 53.8085], [73.347388, 53.787622], [73.331162, 53.775168], [73.306564, 53.685665], [73.263776, 53.681014], [73.229669, 53.66241], [73.220367, 53.643083], [73.224915, 53.629854], [73.258815, 53.60629], [73.230599, 53.572338], [73.39121, 53.520249], [73.347181, 53.459374], [73.41095, 53.430021], [73.546549, 53.506916], [73.582516, 53.558644], [73.640704, 53.563243], [73.652899, 53.609184], [73.736512, 53.609752], [73.787775, 53.595076], [73.90415, 53.639156], [74.058042, 53.624583], [74.062797, 53.573217], [74.076853, 53.566189], [74.118711, 53.569548], [74.147959, 53.598022], [74.223304, 53.594611], [74.250485, 53.556784], [74.270329, 53.553218], [74.263095, 53.530222], [74.269606, 53.515236], [74.358903, 53.466143], [74.388358, 53.462216], [74.409132, 53.477564], [74.456881, 53.569755], [74.420811, 53.603086], [74.438484, 53.673417], [74.453471, 53.684993], [74.616458, 53.680704], [74.626793, 53.687318], [74.654492, 53.7484], [74.7349, 53.765195], [74.772004, 53.830876], [74.806214, 53.837697], [74.888483, 53.836353], [75.000827, 53.806484], [75.027906, 53.807931], [75.433979, 53.986525], [75.360702, 54.059544], [75.429225, 54.090085], [75.499815, 54.102332], [75.603168, 54.094529], [75.640375, 54.09887], [76.183804, 54.251573], [76.169748, 54.291364], [76.177086, 54.306764], [76.21481, 54.342214], [76.23424, 54.347433], [76.433091, 54.316582], [76.476499, 54.323145], [76.561869, 54.35627], [76.623054, 54.355908], [76.640934, 54.366502], [76.651786, 54.422312], [76.672767, 54.436472], [76.782114, 54.439469], [76.852394, 54.461173], [76.895905, 54.46386], [76.910478, 54.45461], [76.903554, 54.432596], [76.885673, 54.422777], [76.804748, 54.410117], [76.764647, 54.390531], [76.752968, 54.376682], [76.766094, 54.36459], [76.834204, 54.345676], [76.843195, 54.322318], [76.837718, 54.296894], [76.782321, 54.242375], [76.762477, 54.202636], [76.664602, 54.134061], [76.60383, 54.135353], [76.476499, 54.164034], [76.412627, 54.165687], [76.376661, 54.154267], [76.374387, 54.147755], [76.476499, 54.042025], [76.495206, 53.992313], [76.525695, 53.961307], [77.612761, 53.442786], [77.866802, 53.272331], [77.976356, 53.168513], [78.476481, 52.637925], [79.042958, 51.992512], [79.469805, 51.492595], [79.926935, 50.878498], [79.966519, 50.810181], [80.0, 50.783712569381315], [80.0, 50.0], [60.0, 50.0], [60.0, 50.84899024723965], [60.021276, 50.854055]]]}}, {"type": "Feature", "properties": {"name": "Russia"}, "geometry": {"type": "MultiPolygon", "coordinates": [[[[79.966519, 50.810181], [79.926935, 50.878498], [79.469805, 51.492595], [79.042958, 51.992512], [78.476481, 52.637925], [77.976356, 53.168513], [77.866802, 53.272331], [77.612761, 53.442786], [76.525695, 53.961307], [76.495206, 53.992313], [76.476499, 54.042025], [76.374387, 54.147755], [76.376661, 54.154267], [76.412627, 54.165687], [76.476499, 54.164034], [76.60383, 54.135353], [76.664602, 54.134061], [76.762477, 54.202636], [76.782321, 54.242375], [76.837718, 54.296894], [76.843195, 54.322318], [76.834204, 54.345676], [76.766094, 54.36459], [76.752968, 54.376682], [76.764647, 54.390531], [76.804748, 54.410117], [76.885673, 54.422777], [76.903554, 54.432596], [76.910478, 54.45461], [76.895905, 54.46386], [76.852394, 54.461173], [76.782114, 54.439469], [76.672767, 54.436472], [76.651786, 54.422312], [76.640934, 54.366502], [76.623054, 54.355908], [76.561869, 54.35627], [76.476499, 54.323145], [76.433091, 54.316582], [76.23424, 54.347433], [76.21481, 54.342214], [76.177086, 54.306764], [76.169748, 54.291364], [76.183804, 54.251573], [75.640375, 54.09887], [75.603168, 54.094529], [75.499815, 54.102332], [75.429225, 54.090085], [75.360702, 54.059544], [75.433979, 53.986525], [75.027906, 53.807931], [75.000827, 53.806484], [74.888483, 53.836353], [74.806214, 53.837697], [74.772004, 53.830876], [74.7349, 53.765195], [74.654492, 53.7484], [74.626793, 53.687318], [74.616458, 53.680704], [74.453471, 53.684993], [74.438484, 53.673417], [74.420811, 53.603086], [74.456881, 53.569755], [74.409132, 53.477564], [74.388358, 53.462216], [74.358903, 53.466143], [74.269606, 53.515236], [74.263095, 53.530222], [74.270329, 53.553218], [74.250485, 53.556784], [74.223304, 53.594611], [74.147959, 53.598022], [74.118711, 53.569548], [74.076853, 53.566189], [74.062797, 53.573217], [74.058042, 53.624583], [73.90415, 53.639156], [73.787775, 53.595076], [73.736512, 53.609752], [73.652899, 53.609184], [73.640704, 53.563243], [73.582516, 53.558644], [73.546549, 53.506916], [73.41095, 53.430021], [73.347181, 53.459374], [73.39121, 53.520249], [73.230599, 53.572338], [73.258815, 53.60629], [73.224915, 53.629854], [73.220367, 53.643083], [73.229669, 53.66241], [73.263776, 53.681014], [73.306564, 53.685665], [73.331162, 53.775168], [73.347388, 53.787622], [73.437822, 53.8085], [73.39121, 53.82824], [73.431827, 53.865447], [73.485261, 53.874852], [73.634296, 53.857437], [73.661684, 53.860848], [73.682872, 53.874129], [73.697134, 53.900845], [73.740646, 54.057942], [73.684939, 54.048433], [73.674913, 54.051586], [73.670469, 54.075925], [73.601533, 54.071223], [73.58851, 54.066158], [73.604427, 54.034687], [73.586857, 54.019443], [73.528256, 54.01071], [73.518024, 53.956036], [73.481644, 53.945391], [73.433481, 53.97066], [73.39276, 53.974019], [73.384285, 53.970299], [73.37395, 53.940946], [73.360307, 53.938414], [73.062754, 53.979084], [73.044358, 53.992313], [73.023687, 54.033964], [72.976765, 54.04771], [72.968393, 54.104141], [72.942038, 54.121762], [72.885504, 54.117318], [72.624228, 54.134991], [72.573068, 54.128687], [72.527387, 54.100058], [72.503099, 54.050862], [72.509403, 54.043576], [72.631773, 54.053911], [72.656164, 54.042542], [72.694818, 53.992571], [72.700193, 53.957638], [72.673734, 53.950506], [72.556842, 53.977223], [72.476744, 53.913403], [72.455556, 53.905341], [72.392201, 53.908235], [72.372977, 53.920069], [72.372771, 53.936244], [72.418659, 54.016032], [72.363572, 54.059544], [72.358405, 54.092978], [72.407911, 54.089568], [72.423207, 54.108688], [72.466718, 54.109928], [72.482945, 54.135611], [72.298563, 54.1784], [72.33298, 54.223771], [72.337114, 54.236536], [72.324401, 54.253485], [72.27872, 54.262735], [72.252778, 54.303457], [72.184772, 54.356838], [72.151802, 54.368259], [72.043178, 54.378026], [72.024678, 54.370946], [72.027055, 54.35534], [72.10302, 54.31157], [72.072117, 54.262735], [72.066743, 54.222376], [72.169992, 54.196848], [72.187356, 54.179433], [72.190456, 54.151993], [72.17764, 54.135973], [72.128858, 54.126051], [72.099506, 54.131891], [72.018684, 54.214986], [71.983647, 54.231575], [71.762472, 54.247646], [71.741388, 54.242427], [71.715446, 54.210749], [71.717307, 54.146464], [71.708728, 54.132201], [71.647234, 54.108585], [71.614987, 54.109515], [71.573543, 54.129204], [71.477115, 54.10967], [71.46833, 54.158401], [71.453137, 54.181345], [71.320587, 54.201034], [71.296299, 54.188993], [71.218061, 54.116284], [71.182301, 54.101557], [71.161268, 54.10197], [71.097448, 54.165067], [71.043963, 54.185944], [71.056365, 54.22341], [71.052076, 54.263201], [70.977145, 54.270125], [70.970841, 54.305007], [70.980039, 54.325057], [71.003397, 54.333119], [71.039467, 54.332085], [71.116258, 54.311725], [71.190621, 54.318184], [71.19801, 54.399523], [71.165919, 54.417041], [71.171035, 54.450993], [71.145197, 54.480603], [71.141218, 54.563751], [71.147574, 54.591449], [71.179045, 54.608709], [71.252322, 54.625349], [71.26488, 54.639198], [71.264673, 54.661729], [71.252787, 54.6824], [71.200697, 54.723999], [71.097241, 54.733043], [71.047012, 54.749062], [71.005981, 54.774229], [70.989961, 54.848643], [70.953271, 54.873499], [70.945933, 54.887917], [70.955131, 54.923264], [70.974458, 54.946931], [70.956991, 54.973493], [70.973321, 55.018452], [70.977145, 55.077983], [70.960092, 55.105578], [70.793177, 55.233167], [70.782118, 55.248463], [70.78894, 55.265465], [70.820359, 55.294145], [70.721244, 55.313111], [70.665743, 55.309183], [70.606522, 55.280503], [70.561253, 55.269599], [70.460071, 55.287427], [70.441157, 55.283345], [70.388086, 55.230273], [70.382453, 55.206244], [70.284629, 55.183196], [70.213678, 55.131985], [70.058648, 55.18702], [69.940309, 55.200249], [69.911681, 55.211618], [69.802282, 55.292078], [69.673866, 55.33404], [69.477288, 55.349439], [69.334558, 55.385148], [69.31027, 55.381479], [69.226244, 55.333575], [69.186143, 55.325771], [69.1478, 55.378223], [69.122581, 55.39786], [68.927296, 55.433723], [68.911121, 55.427367], [68.90244, 55.412484], [68.917839, 55.370937], [68.977267, 55.3467], [68.983262, 55.308563], [68.970601, 55.278642], [68.945641, 55.270374], [68.9228, 55.276369], [68.846009, 55.336778], [68.700592, 55.360498], [68.68235, 55.327167], [68.683693, 55.288616], [68.676407, 55.273216], [68.613672, 55.243089], [68.618219, 55.215442], [68.6053, 55.195598], [68.544115, 55.19689], [68.477349, 55.182834], [68.376787, 55.195082], [68.305784, 55.181387], [68.262376, 55.194048], [68.177109, 55.170535], [68.206978, 55.154154], [68.190545, 55.12537], [68.228114, 55.101599], [68.308161, 55.072815], [68.304233, 55.05261], [68.23478, 55.038502], [68.22181, 55.007755], [68.190907, 54.992562], [68.183621, 54.967137], [68.166051, 54.95613], [68.009678, 54.943004], [67.913146, 54.969152], [67.882244, 54.970444], [67.817338, 54.952151], [67.75791, 54.897839], [67.698482, 54.867918], [67.622725, 54.853862], [67.442994, 54.857014], [67.377933, 54.849056], [67.311322, 54.859908], [67.283934, 54.853294], [67.213344, 54.797173], [67.098519, 54.792006], [66.977338, 54.763687], [66.781794, 54.758209], [66.7003, 54.719245], [66.446517, 54.710925], [65.97745, 54.611706], [65.960656, 54.627985], [65.951871, 54.693665], [65.932802, 54.702554], [65.826969, 54.672685], [65.743976, 54.600854], [65.71297, 54.597185], [65.574581, 54.625452], [65.477378, 54.632687], [65.449782, 54.627468], [65.444873, 54.614187], [65.45619, 54.577858], [65.449007, 54.556619], [65.341572, 54.561477], [65.214293, 54.527887], [65.19817, 54.516157], [65.202252, 54.472542], [65.181323, 54.449132], [65.212949, 54.343041], [65.184217, 54.310433], [65.143703, 54.317616], [65.117451, 54.306402], [65.085412, 54.308572], [64.977718, 54.386604], [64.910642, 54.402727], [64.720163, 54.333842], [64.652673, 54.347123], [64.578518, 54.38557], [64.51139, 54.365107], [64.467052, 54.371979], [64.432532, 54.351516], [64.33383, 54.344643], [64.294039, 54.353376], [64.17663, 54.32051], [64.093741, 54.324179], [64.059531, 54.303715], [64.03514, 54.303973], [64.004496, 54.319735], [63.978968, 54.29648], [64.025425, 54.255242], [64.007855, 54.228681], [63.908016, 54.207493], [63.897474, 54.194161], [63.85603, 54.201861], [63.743995, 54.248731], [63.708648, 54.250437], [63.544937, 54.20646], [63.477551, 54.203979], [63.368307, 54.162845], [63.156744, 54.180053], [63.123774, 54.17411], [63.110029, 54.157987], [63.127443, 54.110445], [63.112199, 54.093702], [63.084655, 54.08564], [62.985488, 54.092875], [62.902393, 54.078457], [62.812062, 54.094994], [62.757182, 54.081093], [62.629128, 54.071171], [62.580965, 54.053601], [62.550579, 54.026833], [62.563189, 53.992519], [62.586546, 53.969833], [62.531769, 53.930353], [62.545102, 53.883689], [62.525258, 53.871855], [62.498903, 53.877798], [62.456683, 53.909217], [62.408159, 53.92472], [62.389969, 53.941566], [62.38661, 53.961307], [62.399581, 53.974484], [62.444023, 53.992313], [62.446141, 54.014534], [62.433481, 54.024662], [62.412707, 54.026626], [62.002603, 54.017376], [62.003636, 53.932006], [61.85641, 53.942703], [61.836153, 53.951127], [61.820547, 53.992571], [61.791298, 54.000788], [61.742102, 53.981564], [61.715333, 53.992571], [61.619939, 53.992571], [61.61105, 53.95955], [61.581801, 53.947664], [61.55617, 53.960945], [61.552759, 53.992519], [61.478552, 54.002906], [61.417677, 54.055978], [61.337682, 54.063161], [61.311534, 54.059854], [61.274843, 54.028538], [61.249832, 54.020735], [61.193505, 54.018254], [61.230505, 53.943065], [61.227301, 53.925909], [61.210765, 53.907667], [61.176245, 53.916503], [61.145239, 53.950145], [61.063797, 53.955312], [60.996101, 53.941411], [60.971813, 53.915832], [60.978014, 53.882604], [61.084984, 53.875317], [61.114957, 53.852321], [61.20198, 53.81961], [61.199086, 53.797131], [61.127462, 53.74716], [61.106895, 53.712433], [61.052221, 53.703286], [61.04478, 53.691401], [61.042713, 53.654246], [61.007573, 53.635745], [60.904737, 53.657088], [60.880242, 53.6328], [60.907321, 53.613628], [61.04664, 53.60846], [61.096353, 53.59921], [61.121468, 53.569806], [61.140381, 53.562727], [61.280734, 53.542418], [61.316081, 53.545208], [61.361246, 53.58257], [61.503047, 53.588978], [61.516792, 53.585723], [61.528368, 53.571667], [61.555343, 53.505727], [61.514725, 53.492498], [61.412303, 53.435758], [61.381607, 53.436119], [61.353495, 53.449814], [61.287659, 53.503195], [61.235259, 53.50304], [61.218206, 53.492653], [61.214279, 53.461854], [61.200946, 53.436223], [61.137177, 53.373126], [61.133663, 53.34814], [61.162706, 53.299151], [61.20291, 53.276439], [61.344813, 53.270109], [61.37985, 53.261866], [61.478035, 53.215125], [61.514312, 53.208665], [61.547282, 53.211456], [61.64309, 53.24334], [61.664277, 53.238896], [61.705101, 53.203498], [61.764219, 53.169469], [61.835119, 53.151124], [62.050662, 53.124769], [62.083218, 53.113297], [62.108023, 53.088569], [62.116032, 53.064592], [62.094173, 52.992477], [62.072676, 52.969584], [62.034849, 52.952712], [61.959246, 52.934935], [61.922556, 52.938165], [61.856513, 52.970153], [61.819823, 52.97824], [61.717814, 52.969946], [61.675336, 52.973615], [61.605573, 52.94832], [61.574257, 52.955839], [61.478035, 53.012347], [61.448269, 53.021416], [61.349361, 52.984907], [61.287349, 52.985165], [61.190301, 53.013148], [61.155781, 53.009685], [61.088602, 52.978059], [60.974603, 52.971238], [61.058422, 52.922171], [60.884893, 52.825252], [60.829082, 52.771638], [60.696171, 52.734922], [60.673536, 52.693865], [60.672606, 52.672161], [60.724489, 52.62622], [60.803141, 52.627745], [60.813476, 52.605498], [60.814923, 52.521912], [60.936466, 52.48858], [60.951452, 52.461088], [60.961374, 52.401971], [61.039922, 52.334998], [60.947422, 52.289729], [60.896675, 52.254693], [60.78123, 52.220612], [60.722836, 52.169582], [60.672193, 52.144338], [60.506518, 52.15165], [60.4258, 52.129584], [60.347665, 52.089612], [60.202764, 51.992745], [60.00319, 51.992512], [60.0, 51.98776878645474], [60.0, 68.70328516557389], [60.084239, 68.687201], [60.466645, 68.722317], [60.556326, 68.744696], [60.701508, 68.815009], [60.755219, 68.8664], [60.818858, 68.894355], [60.866384, 68.90351], [60.968761, 68.906928], [60.907237, 68.927395], [60.938324, 68.963284], [60.948253, 69.003119], [60.93393, 69.040676], [60.93393, 69.078192], [60.90268, 69.12226], [60.843761, 69.157538], [60.776703, 69.177191], [60.72169, 69.174465], [60.728852, 69.153551], [60.72169, 69.132799], [60.742198, 69.119208], [60.710948, 69.106269], [60.665782, 69.106431], [60.621104, 69.1164], [60.591319, 69.132799], [60.582286, 69.149644], [60.589692, 69.256415], [60.542491, 69.315579], [60.519216, 69.332099], [60.434337, 69.366197], [60.430675, 69.392971], [60.414236, 69.407904], [60.311371, 69.454332], [60.26295, 69.499213], [60.21461, 69.530707], [60.222016, 69.548082], [60.214854, 69.554592], [60.138845, 69.577867], [60.155772, 69.601264], [60.152599, 69.626288], [60.185557, 69.650458], [60.232595, 69.664781], [60.653575, 69.672756], [60.667328, 69.678168], [60.667003, 69.694525], [60.633474, 69.724921], [60.64796, 69.734198], [60.708832, 69.729397], [60.72169, 69.742987], [60.703298, 69.748969], [60.684093, 69.783881], [60.687511, 69.804389], [60.705577, 69.823676], [60.770274, 69.849107], [60.926606, 69.867499], [61.043793, 69.845404], [61.105235, 69.865871], [61.139415, 69.838568], [61.158702, 69.832913], [61.301931, 69.825426], [61.409353, 69.791246], [61.770518, 69.76203], [62.161143, 69.746161], [62.631196, 69.742133], [63.214122, 69.683051], [63.410492, 69.671291], [63.823253, 69.59162], [64.127615, 69.550116], [64.378917, 69.48432], [64.548025, 69.451728], [64.724457, 69.383287], [64.914073, 69.336982], [65.004405, 69.304145], [64.988943, 69.290107], [64.962413, 69.283108], [64.831065, 69.29442], [64.833751, 69.276801], [64.792654, 69.252387], [64.785981, 69.237209], [64.806407, 69.222154], [64.765636, 69.183092], [64.761729, 69.162991], [64.785899, 69.147121], [64.809418, 69.146715], [64.874766, 69.180609], [64.931814, 69.197089], [64.942882, 69.208564], [64.941091, 69.219957], [64.91627, 69.242662], [64.923188, 69.260688], [64.941091, 69.267971], [65.068207, 69.268052], [65.419444, 69.177069], [65.817231, 69.142646], [65.864919, 69.132514], [65.902599, 69.112982], [65.882986, 69.10578], [65.753673, 69.106635], [65.734223, 69.112698], [65.744884, 69.126654], [65.676606, 69.119208], [65.646169, 69.130601], [65.63502, 69.126654], [65.689708, 69.085028], [66.114268, 69.037258], [66.328787, 68.963813], [66.678477, 68.895941], [66.990571, 68.876288], [67.090099, 68.855658], [67.12908, 68.838609], [67.046153, 68.818305], [67.039724, 68.797065], [67.055512, 68.78144], [67.143321, 68.756049], [67.1963, 68.707343], [67.330333, 68.696763], [67.381033, 68.670315], [67.583507, 68.603339], [67.808116, 68.502875], [67.705089, 68.515855], [67.793224, 68.478583], [67.904633, 68.470364], [68.061534, 68.43183], [68.134939, 68.423407], [68.177419, 68.389228], [68.246349, 68.355129], [68.258637, 68.333889], [68.203136, 68.294745], [68.205333, 68.269477], [68.184255, 68.242133], [68.262543, 68.249091], [68.280447, 68.235907], [68.282237, 68.224189], [68.259939, 68.201158], [68.288097, 68.1883], [68.382823, 68.228461], [68.480642, 68.249498], [68.48585, 68.269477], [68.547862, 68.304185], [68.595714, 68.317857], [68.65089, 68.317857], [68.589366, 68.332343], [68.564789, 68.349799], [68.561046, 68.372504], [68.615571, 68.405992], [68.690603, 68.467027], [68.76002, 68.504381], [68.923513, 68.637274], [68.952159, 68.694403], [68.985362, 68.727362], [69.009776, 68.766588], [69.01295, 68.806464], [69.019705, 68.814399], [69.069347, 68.823065], [69.10906, 68.878974], [68.999766, 68.878974], [68.946056, 68.893256], [68.951427, 68.903225], [68.993988, 68.915351], [69.087576, 68.916449], [69.130707, 68.927395], [69.06129, 68.927395], [69.097423, 68.941067], [69.218923, 68.962144], [69.012869, 68.947903], [69.02711, 68.962144], [68.99879, 68.964911], [68.913259, 68.954047], [68.788422, 68.915676], [68.686046, 68.918443], [68.487153, 68.97016], [68.458018, 68.984565], [68.375662, 69.067694], [68.125336, 69.222357], [68.059744, 69.277533], [68.026215, 69.319403], [68.019786, 69.33515], [68.039724, 69.359442], [68.104991, 69.39704], [68.087901, 69.420844], [68.09547, 69.42829], [68.088145, 69.441799], [68.102224, 69.482245], [68.09547, 69.527004], [68.106619, 69.548733], [68.061778, 69.553697], [68.03061, 69.540595], [68.014008, 69.514228], [68.040212, 69.489691], [67.969086, 69.491278], [67.824392, 69.510728], [67.68336, 69.560289], [67.62908, 69.590766], [67.560232, 69.599189], [67.458832, 69.627143], [67.314952, 69.630357], [67.101817, 69.692776], [67.017263, 69.70307], [66.971365, 69.68773], [67.001638, 69.673651], [66.999685, 69.653225], [66.934093, 69.640123], [66.855235, 69.636868], [66.868175, 69.612738], [66.957693, 69.536851], [66.928884, 69.527574], [66.886892, 69.537258], [66.795746, 69.586168], [66.784353, 69.622748], [66.795177, 69.711371], [66.771007, 69.740668], [66.768809, 69.761623], [66.799653, 69.815741], [66.87921250400215, 70.0], [66.96684091376817, 70.0], [66.965099, 69.996243], [66.985037, 69.96955], [67.020274, 69.964586], [67.053966, 69.975735], [67.143321, 69.98314], [67.197032, 69.995795], [67.20607462671542, 70.0], [72.52265616747125, 70.0], [72.525238, 69.986274], [72.648774, 69.904853], [72.677908, 69.872992], [72.691661, 69.836859], [72.649587, 69.748114], [72.559581, 69.688625], [72.563731, 69.674058], [72.553233, 69.663886], [72.50172, 69.646715], [72.535411, 69.629218], [72.56186, 69.604071], [72.627289, 69.511298], [72.638357, 69.441352], [72.589854, 69.422512], [72.505138, 69.42121], [72.488048, 69.414008], [72.613292, 69.359361], [72.647716, 69.292222], [72.608572, 69.264106], [72.528494, 69.235256], [72.489268, 69.199164], [72.477875, 69.176947], [72.473806, 69.150539], [72.480154, 69.12995], [72.528494, 69.072008], [72.543468, 69.003241], [72.577403, 68.940375], [72.692393, 68.863511], [72.851817, 68.797756], [73.074555, 68.747301], [73.539073, 68.581], [73.634613, 68.517035], [73.644379, 68.501899], [73.646251, 68.457831], [73.639415, 68.443752], [73.604991, 68.432196], [73.590994, 68.440823], [73.58961, 68.452379], [73.604666, 68.482367], [73.578868, 68.493354], [73.533702, 68.481513], [73.453868, 68.444159], [73.436209, 68.425686], [73.417003, 68.3758], [73.397716, 68.3605], [73.317882, 68.328111], [73.166515, 68.245836], [73.090831, 68.21426], [73.137055, 68.166246], [73.131684, 68.145941], [73.081065, 68.119778], [73.071544, 68.104967], [73.072765, 68.090399], [73.104991, 68.070868], [73.19044, 67.992011], [73.204438, 67.957221], [73.2046, 67.865871], [73.195486, 67.849514], [73.166515, 67.83808], [73.094737, 67.830146], [73.071544, 67.815579], [73.083995, 67.782864], [73.13795, 67.748969], [73.151378, 67.731879], [73.135427, 67.704006], [73.114268, 67.690375], [73.083995, 67.721991], [73.039399, 67.728583], [72.892345, 67.684556], [72.885753, 67.674628], [72.898936, 67.659369], [72.852061, 67.635321], [72.790863, 67.625678], [72.581309, 67.620185], [72.547048, 67.591457], [72.542735, 67.556871], [72.552745, 67.537177], [72.532888, 67.520087], [72.405935, 67.479967], [72.391856, 67.467475], [72.454275, 67.400621], [72.426036, 67.347724], [72.402599, 67.32807], [72.349376, 67.315497], [72.254649, 67.310492], [72.190603, 67.333319], [72.125499, 67.3133], [72.04835, 67.302883], [72.051768, 67.267524], [72.214203, 67.223782], [72.231293, 67.169176], [72.225922, 67.159491], [72.206309, 67.152818], [72.175304, 67.161566], [72.153819, 67.196112], [72.12794, 67.206773], [72.118175, 67.200629], [72.118663, 67.190904], [72.13852, 67.159654], [71.913259, 67.13231], [71.938243, 67.124579], [71.992442, 67.124213], [72.014985, 67.111274], [71.994395, 67.107001], [72.007172, 67.07685], [71.99464, 67.055976], [71.944347, 67.043402], [71.872813, 66.991278], [71.795258, 66.974066], [71.747569, 66.916083], [71.722016, 66.915269], [71.624766, 66.946112], [71.521658, 66.91942], [71.495616, 66.926825], [71.425466, 66.967841], [71.393891, 66.975287], [71.362071, 66.974189], [71.301931, 66.953559], [71.428477, 66.926947], [71.45338, 66.905748], [71.391368, 66.905748], [71.514903, 66.878485], [71.48878, 66.857245], [71.480724, 66.826972], [71.489757, 66.81037], [71.549571, 66.782294], [71.518321, 66.763088], [71.584239, 66.731635], [71.596528, 66.697211], [71.555837, 66.679877], [71.576915, 66.658759], [71.530284, 66.645453], [71.459646, 66.638739], [71.39088, 66.642035], [71.34962, 66.658759], [71.385102, 66.686713], [71.358084, 66.679267], [71.319347, 66.645941], [71.295421, 66.638251], [71.194998, 66.648871], [71.165375, 66.658759], [71.233653, 66.62523], [71.083507, 66.632066], [71.056814, 66.62519], [71.044932, 66.617011], [71.042491, 66.604804], [71.12379, 66.584296], [71.079845, 66.569037], [70.939464, 66.584296], [70.993988, 66.556342], [70.979991, 66.547268], [70.980317, 66.535875], [70.68865, 66.515367], [70.413259, 66.563178], [70.319021, 66.593695], [70.295177, 66.638251], [70.312755, 66.650702], [70.410818, 66.656317], [70.466482, 66.679877], [70.59962, 66.693183], [70.635916, 66.720608], [70.679942, 66.71601], [70.741059, 66.757758], [70.723399, 66.761786], [70.57545, 66.759996], [70.534679, 66.741929], [70.61671, 66.741929], [70.466482, 66.720852], [70.541515, 66.707221], [70.541515, 66.700385], [70.315684, 66.679877], [70.172537, 66.707099], [70.153982, 66.715969], [70.15268, 66.727281], [70.178477, 66.741929], [70.067068, 66.759833], [69.993175, 66.799709], [69.936209, 66.863023], [69.897797, 66.871649], [69.881521, 66.861233], [69.884044, 66.837388], [69.836599, 66.816311], [69.739594, 66.809556], [69.60255, 66.837551], [69.577485, 66.829576], [69.637218, 66.796576], [69.597992, 66.789049], [69.397716, 66.830227], [69.302013, 66.817084], [69.130707, 66.830715], [68.965017, 66.809556], [68.997325, 66.787055], [69.083751, 66.779486], [69.10377, 66.771308], [69.116466, 66.75434], [69.1185, 66.733222], [69.102794, 66.669338], [69.112641, 66.618842], [69.205577, 66.569403], [69.386485, 66.513373], [69.488617, 66.498765], [69.626638, 66.497748], [69.675059, 66.484565], [69.72934, 66.484076], [69.819835, 66.455146], [69.902843, 66.415473], [70.269705, 66.362128], [70.362641, 66.334418], [71.145518, 66.365627], [71.428884, 66.355943], [71.525238, 66.33633], [71.678722, 66.323635], [71.715587, 66.311591], [71.79184, 66.251614], [71.832856, 66.234524], [71.9192, 66.251044], [71.959809, 66.244778], [71.990082, 66.23078], [72.021821, 66.234198], [72.042735, 66.246894], [72.075694, 66.235826], [72.097016, 66.248481], [72.261485, 66.29564], [72.306326, 66.28852], [72.347341, 66.306383], [72.376231, 66.341254], [72.398204, 66.413479], [72.375011, 66.441474], [72.36671, 66.471177], [72.379731, 66.489203], [72.412364, 66.508531], [72.382335, 66.516913], [72.288829, 66.501125], [72.317556, 66.527533], [72.410899, 66.549262], [72.450206, 66.566881], [72.473806, 66.610989], [72.493663, 66.618801], [72.804942, 66.639146], [72.871918, 66.655341], [72.942393, 66.656684], [72.958832, 66.682034], [72.995128, 66.707221], [72.988292, 66.727688], [73.003103, 66.739447], [73.11964, 66.751776], [73.178559, 66.777737], [73.492361, 66.823432], [73.528982, 66.837551], [73.556, 66.871243], [73.657074, 66.941962], [73.754649, 66.952216], [73.79713, 66.964097], [73.869151, 67.00141], [73.865977, 67.039862], [73.874034, 67.053046], [73.910167, 67.065416], [73.919932, 67.077704], [73.8921, 67.11872], [73.950857, 67.210598], [73.952891, 67.230943], [73.899587, 67.29621], [74.098318, 67.431871], [74.730317, 67.686265], [74.776541, 67.75552], [74.792247, 67.797187], [74.807384, 67.88703], [74.824962, 67.926825], [74.817556, 67.934272], [74.824962, 67.940497], [74.797048, 68.00259], [74.756684, 68.057196], [74.725434, 68.152411], [74.701427, 68.180732], [74.580333, 68.261908], [74.370128, 68.351264], [74.331554, 68.385565], [74.457774, 68.506293], [74.468272, 68.535386], [74.413422, 68.619534], [74.431326, 68.633775], [74.454356, 68.693996], [74.48113, 68.720526], [74.514008, 68.735989], [74.62794, 68.774604], [74.92628, 68.818305], [75.190684, 68.874823], [75.494965, 68.901557], [75.621104, 68.899644], [75.819591, 68.944159], [76.019705, 68.95893], [76.113129, 68.977729], [76.375743, 68.993964], [76.582367, 68.975165], [76.60906, 68.96601], [76.660411, 68.899482], [76.690603, 68.873277], [76.6963, 68.857733], [76.640961, 68.82807], [76.618826, 68.805365], [76.632335, 68.782213], [76.662608, 68.762641], [76.864757, 68.701728], [76.91977, 68.672268], [77.006684, 68.653144], [77.041759, 68.629136], [77.085704, 68.578762], [77.11378, 68.567125], [77.148204, 68.578559], [77.099864, 68.591539], [77.127452, 68.605862], [77.174164, 68.595893], [77.325694, 68.523342], [77.319102, 68.508979], [77.263682, 68.482367], [77.247813, 68.456936], [77.285411, 68.42772], [77.297699, 68.402899], [77.295095, 68.381741], [77.245779, 68.338935], [77.178477, 68.320461], [77.161876, 68.293647], [77.167003, 68.281806], [77.19516, 68.266995], [77.330577, 68.246649], [77.356619, 68.232896], [77.34962, 68.217963], [77.312836, 68.186469], [77.316661, 68.175238], [77.293956, 68.150092], [77.216563, 68.104967], [77.217052, 68.091742], [77.243175, 68.070868], [77.241222, 68.044013], [77.192556, 67.985175], [77.250011, 67.940497], [77.299001, 67.925442], [77.305186, 67.910102], [77.269054, 67.864814], [77.216563, 67.831244], [77.190929, 67.828599], [77.141124, 67.851142], [77.083263, 67.833075], [77.072439, 67.824408], [77.079845, 67.790351], [77.120291, 67.768541], [77.675548, 67.617174], [77.703136, 67.597886], [77.684581, 67.563666], [77.682628, 67.553168], [77.693044, 67.545315], [77.760997, 67.563707], [77.860118, 67.577338], [77.903575, 67.558336], [77.957286, 67.568264], [77.990245, 67.550198], [78.047048, 67.543524], [78.233572, 67.584662], [78.366466, 67.555406], [78.497325, 67.556871], [78.603282, 67.586493], [78.676443, 67.584215], [78.740733, 67.591946], [78.959972, 67.556871], [79.052501, 67.570543], [79.018809, 67.597235], [78.980479, 67.610663], [78.850352, 67.612128], [78.806, 67.62519], [78.812348, 67.633979], [78.868012, 67.653144], [78.751475, 67.653144], [78.72462, 67.648627], [78.669607, 67.618354], [78.622569, 67.605129], [78.564708, 67.604071], [78.50766, 67.613756], [78.46339, 67.632636], [78.489268, 67.640123], [78.573253, 67.632636], [78.615733, 67.650377], [78.610362, 67.662543], [78.580089, 67.67357], [78.507986, 67.663031], [78.483897, 67.666734], [78.438487, 67.702541], [78.421723, 67.700263], [78.425792, 67.689276], [78.400157, 67.637397], [78.326834, 67.679755], [78.25172, 67.659369], [78.184906, 67.669379], [78.113455, 67.656968], [78.012218, 67.694485], [77.874278, 67.685289], [77.860118, 67.690619], [77.872244, 67.704576], [77.948904, 67.728217], [77.851573, 67.731024], [77.825938, 67.738471], [77.775727, 67.778388], [77.75766, 67.776028], [77.738048, 67.739814], [77.618663, 67.73371], [77.494151, 67.751288], [77.459483, 67.786282], [77.472667, 67.809638], [77.469737, 67.879096], [77.47877, 67.907294], [77.503754, 67.926825], [77.572765, 67.935533], [77.586436, 67.947943], [77.525157, 67.945299], [77.493419, 67.963324], [77.469737, 67.995103], [77.504242, 68.027899], [77.503754, 68.08511], [77.536957, 68.128607], [77.586436, 68.163316], [77.708507, 68.221869], [77.902599, 68.229438], [77.998546, 68.24608], [78.103282, 68.248358], [78.153575, 68.257554], [78.172618, 68.274359], [78.111827, 68.312323], [78.092784, 68.334662], [78.090099, 68.360012], [77.99171, 68.381171], [77.958507, 68.398383], [77.908539, 68.468695], [77.93686, 68.475531], [77.956309, 68.495429], [77.927908, 68.519029], [77.894867, 68.528876], [77.786876, 68.514594], [77.774099, 68.534247], [77.768321, 68.571112], [77.72755, 68.597602], [77.715099, 68.621039], [77.720063, 68.642483], [77.744151, 68.676907], [77.743988, 68.715074], [77.727712, 68.76081], [77.692231, 68.817084], [77.682628, 68.88581], [77.646983, 68.911119], [77.600841, 68.921088], [77.409434, 68.926011], [77.358653, 68.937161], [77.285818, 68.978705], [77.232921, 68.989936], [76.929047, 69.009345], [76.862966, 69.047187], [76.828868, 69.085028], [76.731212, 69.131252], [76.660411, 69.139635], [76.621593, 69.154039], [76.548188, 69.130113], [76.427582, 69.144273], [76.237804, 69.189887], [76.161306, 69.198961], [76.093028, 69.229071], [76.042003, 69.239081], [75.801117, 69.233832], [75.508556, 69.26142], [75.45338, 69.251288], [75.310802, 69.198879], [75.17335, 69.172593], [75.129242, 69.157294], [75.09197, 69.132799], [75.153982, 69.119208], [75.107107, 69.103949], [74.940929, 69.105536], [74.772797, 69.081244], [74.715099, 69.085028], [74.508962, 69.132799], [74.313731, 69.146389], [74.247406, 69.141913], [74.029796, 69.091864], [73.961274, 69.083808], [73.896658, 69.093207], [73.835216, 69.117377], [73.7588, 69.169379], [73.751801, 69.183539], [73.756602, 69.199042], [73.793305, 69.252916], [73.84962, 69.315131], [73.899587, 69.420844], [73.858572, 69.482245], [73.755382, 69.564765], [73.632579, 69.633124], [73.563243, 69.683743], [73.53004, 69.716213], [73.515961, 69.746405], [73.535004, 69.776068], [73.627452, 69.830064], [73.659923, 69.859687], [73.653087, 69.87519], [73.656261, 69.893256], [73.705251, 69.955308], [73.70959449497172, 70.0], [80.0, 70.0], [80.0, 50.783712569381315], [79.966519, 50.810181]]], [[[60.040087, 51.871202], [60.060757, 51.85867], [60.09228, 51.854769], [60.117808, 51.863554], [60.138065, 51.888875], [60.171965, 51.880374], [60.274491, 51.832832], [60.452051, 51.805469], [60.47975, 51.784256], [60.475512, 51.776195], [60.440166, 51.753948], [60.437375, 51.728394], [60.371539, 51.705166], [60.356036, 51.692272], [60.355106, 51.671421], [60.37588, 51.662532], [60.484711, 51.651034], [60.495356, 51.646254], [60.505795, 51.61977], [60.515096, 51.61791], [60.937396, 51.611166], [60.934399, 51.56582], [60.944631, 51.544374], [60.970986, 51.515616], [61.02938, 51.482673], [61.164049, 51.467144], [61.232985, 51.470555], [61.304919, 51.452881], [61.356182, 51.459651], [61.473798, 51.425803], [61.498396, 51.400533], [61.538703, 51.323173], [61.562991, 51.295526], [61.59317, 51.277827], [61.663657, 51.258397], [61.567332, 51.233876], [61.534156, 51.206075], [61.513175, 51.159514], [61.456744, 50.965004], [61.441758, 50.874984], [61.426875, 50.833074], [61.404034, 50.802585], [61.372098, 50.782483], [60.818334, 50.662904], [60.718495, 50.652672], [60.300433, 50.684659], [60.245449, 50.701971], [60.176719, 50.742175], [60.154808, 50.770907], [60.152121, 50.807701], [60.136205, 50.844495], [60.083288, 50.857155], [60.021276, 50.854055], [60.0, 50.84899024723965], [60.0, 51.930988880288425], [60.040087, 51.871202]]], [[[70.061534, 66.562079], [70.04127, 66.550116], [70.086681, 66.548529], [70.09669, 66.538967], [70.089122, 66.522203], [70.04363, 66.501288], [69.897797, 66.49494], [69.879649, 66.476955], [69.870616, 66.477851], [69.747081, 66.528469], [69.545421, 66.59101], [69.537608, 66.601386], [69.575206, 66.610989], [69.575206, 66.638251], [69.545665, 66.659247], [69.503103, 66.708645], [69.424571, 66.768378], [69.374034, 66.778144], [69.281016, 66.761786], [69.294607, 66.748114], [69.257091, 66.746283], [69.15089, 66.775377], [69.130707, 66.796576], [69.146251, 66.80976], [69.177582, 66.811428], [69.279796, 66.794501], [69.425466, 66.806708], [69.472992, 66.797675], [69.500255, 66.752143], [69.516775, 66.738959], [69.574392, 66.70893], [69.635509, 66.693834], [69.664561, 66.693549], [69.575206, 66.731391], [69.544688, 66.752387], [69.540375, 66.763658], [69.727387, 66.76557], [69.755626, 66.762152], [69.781261, 66.748114], [69.753917, 66.741929], [69.774669, 66.735256], [69.891124, 66.727688], [69.925304, 66.707221], [70.049815, 66.70893], [70.085704, 66.690131], [70.07545, 66.651923], [70.079845, 66.639106], [70.07545, 66.632066], [70.036143, 66.632025], [70.02711, 66.62523], [70.039236, 66.607896], [70.130626, 66.556342], [70.061534, 66.562079]]], [[[60.547699, 69.815375], [60.538341, 69.80093], [60.49822, 69.792304], [60.448497, 69.765937], [60.443696, 69.750434], [60.475922, 69.72248], [60.373709, 69.730902], [60.351736, 69.72248], [60.358572, 69.715033], [60.25408, 69.689439], [60.20102, 69.685126], [60.0949, 69.715522], [60.032725, 69.72248], [60.0, 69.71684232251958], [60.0, 70.0], [60.249290435403466, 70.0], [60.324474, 69.96955], [60.328461, 69.957261], [60.413829, 69.962714], [60.475922, 69.920478], [60.454438, 69.89704], [60.461599, 69.865871], [60.515636, 69.845404], [60.547699, 69.815375]]], [[[67.308279, 69.43769], [67.306488, 69.427924], [67.184255, 69.388617], [67.132172, 69.363918], [66.995372, 69.388861], [66.954356, 69.412055], [66.93865, 69.439399], [66.95338, 69.45661], [66.968435, 69.459418], [67.013194, 69.436347], [67.217296, 69.420559], [67.308279, 69.43769]]], [[[67.345063, 69.548651], [67.344981, 69.522121], [67.279063, 69.450263], [67.258962, 69.438625], [67.214366, 69.432929], [67.05893, 69.450507], [67.021821, 69.476955], [67.037934, 69.497952], [67.188243, 69.57099], [67.299653, 69.584459], [67.318207, 69.583075], [67.345063, 69.548651]]], [[[67.4074, 68.775784], [67.393077, 68.75731], [67.350027, 68.766181], [67.333263, 68.75849], [67.207205, 68.80154], [67.158214, 68.787543], [67.115815, 68.798367], [67.235606, 68.82038], [67.33782, 68.808946], [67.4074, 68.775784]]]]}}]}