{"type": "FeatureCollection", "features": [{"type": "Feature", "properties": {"name": "United States of America"}, "geometry": {"type": "MultiPolygon", "coordinates": [[[[-141.001156, 60.321074], [-140.994929, 60.304382], [-140.979555, 60.295804], [-140.533743, 60.218548], [-140.518705, 60.22387], [-140.462791, 60.289138], [-140.424111, 60.293168], [-140.01579, 60.187387], [-140.0, 60.18770981514792], [-140.0, 59.77869628648394], [-140.254221, 59.71015], [-140.322743, 59.701239], [-140.617014, 59.708482], [-140.762685, 59.728339], [-140.863149, 59.745551], [-141.009836, 59.790432], [-141.45401, 59.882066], [-141.46817, 59.903062], [-141.457631, 59.916734], [-141.412424, 59.929877], [-141.45401, 59.902533], [-141.4381, 59.896186], [-141.413197, 59.89997], [-141.338735, 59.928412], [-141.284088, 59.939765], [-141.267323, 59.955552], [-141.260121, 59.994208], [-141.267893, 60.029039], [-141.310048, 60.066474], [-141.282094, 60.066474], [-141.305043, 60.08633], [-141.379547, 60.113918], [-141.377675, 60.142157], [-141.474721, 60.126125], [-141.47761, 60.11107], [-141.455068, 60.078437], [-141.399403, 60.052802], [-141.385894, 60.034817], [-141.392934, 60.02204], [-141.673492, 59.961127], [-141.732655, 59.963121], [-141.969106, 60.028144], [-142.104156, 60.035305], [-142.197743, 60.052802], [-142.487416, 60.075914], [-142.639638, 60.102444], [-142.798492, 60.112372], [-143.19579, 60.067694], [-143.609609, 60.049465], [-143.863189, 60.000393], [-143.918609, 59.997016], [-144.042388, 60.027981], [-144.249623, 60.032294], [-144.002553, 60.03974], [-144.02009, 60.061428], [-144.050771, 60.079657], [-144.205474, 60.145168], [-144.252553, 60.154608], [-144.190541, 60.186591], [-144.196441, 60.205634], [-144.246571, 60.18891], [-144.347564, 60.201117], [-144.38679, 60.196763], [-144.373118, 60.183743], [-144.448557, 60.176337], [-144.478831, 60.186713], [-144.485829, 60.19595], [-144.475494, 60.20425], [-144.490712, 60.216254], [-144.571116, 60.190619], [-144.688385, 60.224677], [-144.640004, 60.217231], [-144.660512, 60.245185], [-144.694651, 60.272528], [-144.769887, 60.30268], [-144.784047, 60.305976], [-144.808909, 60.29442], [-144.828765, 60.303127], [-144.865102, 60.304389], [-144.905263, 60.293199], [-144.94164, 60.306627], [-144.887034, 60.355048], [-144.889963, 60.363267], [-144.90689, 60.368109], [-144.912465, 60.38703], [-144.886545, 60.401557], [-144.838002, 60.402167], [-144.838002, 60.409654], [-144.860707, 60.418524], [-144.790842, 60.464911], [-144.798411, 60.499213], [-144.853179, 60.469875], [-144.873118, 60.471177], [-144.887034, 60.485419], [-144.831776, 60.525784], [-144.832346, 60.544176], [-144.817535, 60.551825], [-144.81607, 60.595038], [-144.768463, 60.625149], [-144.756093, 60.643052], [-144.76061, 60.672756], [-144.746449, 60.676581], [-144.661204, 60.660102], [-144.617909, 60.680365], [-144.61266, 60.697699], [-144.622792, 60.717027], [-144.705393, 60.703803], [-144.756093, 60.684027], [-144.803293, 60.635321], [-144.855865, 60.622056], [-144.893219, 60.567328], [-145.019521, 60.526435], [-145.114003, 60.429429], [-145.163482, 60.417141], [-145.235911, 60.368109], [-145.269521, 60.357082], [-145.402659, 60.366278], [-145.436838, 60.38642], [-145.482289, 60.395982], [-145.504018, 60.430813], [-145.572581, 60.451117], [-145.731616, 60.465277], [-145.866064, 60.447662], [-145.938754, 60.456066], [-145.941558, 60.471137], [-145.880035, 60.487698], [-145.771799, 60.542426], [-145.681304, 60.6081], [-145.666371, 60.635321], [-145.62914, 60.652737], [-145.620025, 60.662909], [-145.629018, 60.679145], [-145.691762, 60.656684], [-145.844594, 60.621039], [-145.880198, 60.62873], [-145.838002, 60.639838], [-145.805043, 60.662909], [-145.861399, 60.65648], [-145.880198, 60.662909], [-145.85554, 60.676581], [-145.839182, 60.697699], [-145.904652, 60.67357], [-145.925771, 60.645209], [-146.003651, 60.635647], [-145.914296, 60.703925], [-145.938791, 60.708197], [-146.017323, 60.676581], [-146.197743, 60.636542], [-146.238759, 60.634711], [-146.263173, 60.653713], [-146.261301, 60.662584], [-146.117299, 60.721381], [-146.070302, 60.730658], [-146.05309, 60.752631], [-146.026112, 60.744818], [-146.017934, 60.752346], [-146.03775, 60.779608], [-146.031117, 60.794745], [-146.043446, 60.801011], [-146.056386, 60.799302], [-146.069325, 60.778388], [-146.093495, 60.762885], [-146.140859, 60.744818], [-146.1822, 60.744045], [-146.181874, 60.753119], [-146.161285, 60.766547], [-146.208567, 60.760728], [-146.264027, 60.725002], [-146.295562, 60.726304], [-146.312123, 60.744818], [-146.309967, 60.758246], [-146.28425, 60.779608], [-146.3131, 60.771674], [-146.352528, 60.73371], [-146.438385, 60.69599], [-146.482289, 60.686957], [-146.549916, 60.701402], [-146.644195, 60.697699], [-146.652089, 60.700019], [-146.654775, 60.718166], [-146.695709, 60.744818], [-146.678578, 60.752753], [-146.660512, 60.749986], [-146.627431, 60.731147], [-146.607004, 60.766547], [-146.562611, 60.750963], [-146.534535, 60.759223], [-146.506703, 60.744371], [-146.493723, 60.748603], [-146.491526, 60.760891], [-146.538075, 60.772773], [-146.515696, 60.780097], [-146.426625, 60.774888], [-146.195465, 60.820543], [-146.195465, 60.827379], [-146.227895, 60.831692], [-146.237538, 60.84101], [-146.226145, 60.850409], [-146.195465, 60.854682], [-146.093088, 60.84101], [-146.223459, 60.892646], [-146.253774, 60.885728], [-146.31725, 60.836737], [-146.358306, 60.822333], [-146.401519, 60.820543], [-146.387278, 60.847886], [-146.511464, 60.81859], [-146.558583, 60.827379], [-146.554596, 60.845445], [-146.566803, 60.853664], [-146.586049, 60.852973], [-146.628285, 60.827297], [-146.627431, 60.854682], [-146.607004, 60.868354], [-146.611399, 60.877143], [-146.641103, 60.889472], [-146.683502, 60.879828], [-146.703196, 60.889472], [-146.753285, 60.955024], [-146.753163, 60.964301], [-146.729848, 60.964545], [-146.691274, 60.947252], [-146.60497, 60.937161], [-146.585846, 60.944729], [-146.699818, 60.976874], [-146.692291, 61.002427], [-146.662221, 61.040269], [-146.570465, 61.030707], [-146.565419, 61.046536], [-146.632924, 61.059556], [-146.647939, 61.073798], [-146.556874, 61.085924], [-146.283762, 61.081448], [-146.23644, 61.094306], [-146.277984, 61.122748], [-146.325795, 61.136461], [-146.431956, 61.139472], [-146.609446, 61.130764], [-146.72057, 61.064887], [-146.815541, 61.031806], [-146.89094, 60.972073], [-146.976715, 60.945787], [-147.031565, 60.957709], [-146.993967, 60.983385], [-146.978831, 60.998725], [-146.983754, 61.005561], [-147.011057, 61.005561], [-147.034169, 60.981635], [-147.058827, 60.978217], [-147.042592, 61.002916], [-147.047231, 61.009833], [-147.100657, 61.015286], [-147.148264, 60.991889], [-147.145863, 60.954291], [-147.165273, 60.950873], [-147.199127, 60.961982], [-147.209625, 60.995592], [-147.205149, 61.014594], [-147.264272, 60.991889], [-147.287913, 61.007025], [-147.292226, 60.995592], [-147.258127, 60.957709], [-147.257314, 60.937893], [-147.26891, 60.930243], [-147.312734, 60.930406], [-147.305816, 60.923], [-147.364613, 60.891262], [-147.382965, 60.913967], [-147.449859, 60.902533], [-147.437896, 60.926907], [-147.380971, 60.985663], [-147.400258, 60.990953], [-147.449574, 60.957709], [-147.460032, 60.965766], [-147.451731, 60.98371], [-147.422597, 61.012356], [-147.451731, 61.010932], [-147.468861, 61.000474], [-147.494252, 60.967963], [-147.522694, 60.907538], [-147.542063, 60.913316], [-147.545481, 60.985663], [-147.525502, 61.030585], [-147.53246, 61.053941], [-147.483998, 61.073798], [-147.485911, 61.083726], [-147.511342, 61.094306], [-147.527252, 61.124742], [-147.525258, 61.13939], [-147.511342, 61.149563], [-147.561147, 61.155911], [-147.578847, 61.136298], [-147.559722, 61.11164], [-147.581858, 61.059231], [-147.601796, 61.0362], [-147.665273, 61.014594], [-147.620758, 61.013983], [-147.607411, 61.003363], [-147.634185, 60.974799], [-147.630483, 60.966702], [-147.603831, 60.961168], [-147.599029, 60.869086], [-147.610666, 60.861558], [-147.664662, 60.858303], [-147.681956, 60.864691], [-147.666086, 60.900458], [-147.730458, 60.889472], [-147.727203, 60.918158], [-147.703114, 60.950873], [-147.769439, 60.929145], [-147.785715, 60.930406], [-147.79247, 60.916815], [-147.770131, 60.911444], [-147.812978, 60.8758], [-147.771392, 60.864936], [-147.754628, 60.84101], [-147.795562, 60.827379], [-147.870188, 60.837714], [-147.898793, 60.855943], [-147.9381, 60.908759], [-148.050404, 60.950141], [-147.997914, 60.98192], [-147.997914, 60.999335], [-147.956939, 61.012356], [-147.915395, 61.067572], [-147.935902, 61.073798], [-147.91808, 61.094306], [-147.845937, 61.14057], [-147.804758, 61.155219], [-147.757721, 61.191107], [-147.716176, 61.20185], [-147.702138, 61.213202], [-147.710561, 61.232082], [-147.736969, 61.215562], [-147.765207, 61.218451], [-147.713368, 61.273098], [-147.730458, 61.279853], [-147.762196, 61.26496], [-147.833485, 61.197577], [-147.908681, 61.160142], [-147.963775, 61.114732], [-148.020985, 61.037421], [-148.049428, 61.026597], [-148.072011, 61.0244], [-148.086252, 61.031399], [-148.131907, 61.088324], [-148.148752, 61.094306], [-148.139963, 61.11286], [-148.145945, 61.117906], [-148.258616, 61.094306], [-148.305165, 61.077094], [-148.409495, 61.060126], [-148.361073, 61.046536], [-148.407908, 61.010932], [-148.449818, 60.999335], [-148.449818, 60.991889], [-148.410349, 60.986396], [-148.3756, 60.999213], [-148.313832, 61.040269], [-148.227651, 61.07099], [-148.177724, 61.076606], [-148.148752, 61.060126], [-148.163808, 61.055813], [-148.172353, 61.023261], [-148.207143, 60.98192], [-148.251943, 60.954739], [-148.281728, 60.953681], [-148.333119, 60.971381], [-148.281199, 60.9206], [-148.306467, 60.895697], [-148.3072, 60.852729], [-148.320424, 60.847886], [-148.395823, 60.861558], [-148.332875, 60.819403], [-148.354237, 60.813137], [-148.457265, 60.84101], [-148.523427, 60.840399], [-148.586374, 60.830471], [-148.703684, 60.79267], [-148.670115, 60.785468], [-148.566477, 60.813137], [-148.546335, 60.800116], [-148.476308, 60.814276], [-148.460154, 60.812405], [-148.449818, 60.800116], [-148.578359, 60.781724], [-148.611195, 60.762885], [-148.650868, 60.737372], [-148.677724, 60.700344], [-148.703684, 60.684027], [-148.703684, 60.676581], [-148.66747, 60.674506], [-148.589589, 60.704739], [-148.578928, 60.735785], [-148.52953, 60.757025], [-148.453074, 60.768622], [-148.433054, 60.779608], [-148.374705, 60.779608], [-148.388376, 60.766547], [-148.370961, 60.759752], [-148.361073, 60.744818], [-148.385487, 60.739691], [-148.401967, 60.725002], [-148.39509, 60.689521], [-148.42634, 60.679511], [-148.434519, 60.667426], [-148.429921, 60.62873], [-148.395823, 60.656684], [-148.347401, 60.676581], [-148.342519, 60.703315], [-148.30842, 60.734565], [-148.230702, 60.772773], [-148.256215, 60.737982], [-148.254954, 60.718573], [-148.244985, 60.697699], [-148.210194, 60.662909], [-148.196604, 60.62873], [-148.219187, 60.614081], [-148.248118, 60.608303], [-148.315256, 60.549709], [-148.336985, 60.540595], [-148.361073, 60.54682], [-148.363515, 60.562323], [-148.416453, 60.559231], [-148.439687, 60.587063], [-148.488474, 60.582221], [-148.655873, 60.49844], [-148.684763, 60.472113], [-148.68989, 60.457221], [-148.672597, 60.450629], [-148.651479, 60.45718], [-148.615305, 60.485745], [-148.470204, 60.54621], [-148.429921, 60.539374], [-148.427073, 60.528876], [-148.367869, 60.518948], [-148.38154, 60.505845], [-148.341542, 60.506659], [-148.358835, 60.483791], [-148.348378, 60.480658], [-148.276601, 60.49494], [-148.263783, 60.451077], [-148.237538, 60.457465], [-148.223622, 60.478339], [-148.238352, 60.515204], [-148.23412, 60.522366], [-148.18456, 60.557807], [-148.173655, 60.539984], [-148.189768, 60.505845], [-148.166371, 60.501614], [-148.141306, 60.58039], [-148.083608, 60.604885], [-148.060007, 60.57803], [-148.045766, 60.574164], [-148.066843, 60.539374], [-148.025258, 60.553046], [-148.01179, 60.547797], [-147.997914, 60.525784], [-147.959828, 60.512763], [-147.96227, 60.491889], [-147.997914, 60.477973], [-147.984731, 60.462226], [-147.944407, 60.468899], [-147.935902, 60.461168], [-147.941884, 60.443061], [-147.957021, 60.436103], [-147.997914, 60.436957], [-147.995351, 60.421536], [-148.036855, 60.404283], [-148.056264, 60.402167], [-148.097035, 60.419379], [-148.087351, 60.395982], [-148.182322, 60.41649], [-148.135081, 60.37934], [-148.128285, 60.368109], [-148.142445, 60.355211], [-148.198557, 60.356391], [-148.21703, 60.361274], [-148.216176, 60.379706], [-148.23351, 60.384752], [-148.254587, 60.378974], [-148.264841, 60.364691], [-148.259755, 60.348538], [-148.231679, 60.353095], [-148.21703, 60.347602], [-148.215159, 60.321926], [-148.240915, 60.297675], [-148.330027, 60.258857], [-148.361073, 60.2862], [-148.379709, 60.287421], [-148.390859, 60.277411], [-148.393056, 60.26496], [-148.367543, 60.253892], [-148.370798, 60.228461], [-148.38154, 60.217231], [-148.430898, 60.197659], [-148.442983, 60.183743], [-148.343373, 60.203315], [-148.258127, 60.251776], [-148.225819, 60.260403], [-148.189768, 60.25141], [-148.189768, 60.245185], [-148.264841, 60.232164], [-148.189768, 60.211086], [-148.185618, 60.196519], [-148.210194, 60.155829], [-148.187611, 60.165513], [-148.141306, 60.232164], [-148.118845, 60.234524], [-148.100331, 60.220933], [-148.108347, 60.201117], [-148.188832, 60.134752], [-148.278635, 60.127265], [-148.298573, 60.136461], [-148.285959, 60.162665], [-148.333119, 60.170111], [-148.367869, 60.118232], [-148.373036, 60.086737], [-148.387929, 60.058498], [-148.41161, 60.03856], [-148.442983, 60.032294], [-148.442983, 60.025458], [-148.401967, 60.01553], [-148.407582, 59.999579], [-148.401967, 59.99136], [-148.435374, 59.959296], [-148.451365, 59.955024], [-148.470937, 59.970893], [-148.499013, 60.013251], [-148.518056, 60.02851], [-148.54601, 60.032294], [-148.534413, 60.013129], [-148.535512, 59.997016], [-148.566477, 59.977688], [-148.547841, 59.969631], [-148.561757, 59.957099], [-148.645579, 59.923163], [-148.665761, 59.931138], [-148.649648, 59.950995], [-148.665232, 59.955797], [-148.71052, 59.950995], [-148.758901, 59.964057], [-148.844187, 59.937201], [-148.874989, 59.937323], [-148.926015, 59.971503], [-148.950673, 59.977688], [-149.023183, 59.967678], [-149.018992, 59.984524], [-149.074778, 59.969468], [-149.106882, 59.96898], [-149.121409, 59.99136], [-149.038808, 60.052802], [-149.070139, 60.06094], [-149.103098, 60.058092], [-149.134755, 60.047512], [-149.200185, 60.008368], [-149.218617, 59.955308], [-149.244496, 59.926093], [-149.231272, 59.915595], [-149.257883, 59.888251], [-149.285878, 59.874661], [-149.29308, 59.887641], [-149.290598, 59.924994], [-149.299509, 59.97427], [-149.326039, 59.98432], [-149.327463, 59.997504], [-149.293324, 60.011786], [-149.30016, 60.023139], [-149.341135, 60.022406], [-149.362864, 60.111274], [-149.383656, 60.122382], [-149.408681, 60.123725], [-149.42988, 60.114814], [-149.444407, 60.062893], [-149.423044, 60.022406], [-149.388905, 59.997504], [-149.444163, 59.977688], [-149.457834, 59.937323], [-149.472157, 59.931586], [-149.512441, 59.937323], [-149.563669, 59.90941], [-149.60615, 59.845526], [-149.627878, 59.828315], [-149.580678, 59.786526], [-149.539744, 59.786526], [-149.548329, 59.758979], [-149.522654, 59.727973], [-149.526723, 59.717597], [-149.537546, 59.716498], [-149.588083, 59.742255], [-149.635935, 59.74494], [-149.59496, 59.772203], [-149.601877, 59.782701], [-149.649607, 59.786526], [-149.644968, 59.801947], [-149.671986, 59.817084], [-149.642161, 59.885484], [-149.650095, 59.912258], [-149.670277, 59.939846], [-149.69697, 59.959784], [-149.724721, 59.964057], [-149.740834, 59.948472], [-149.738596, 59.890855], [-149.76594, 59.839667], [-149.776967, 59.835354], [-149.846995, 59.858344], [-149.868113, 59.847968], [-149.769114, 59.786526], [-149.746083, 59.667182], [-149.75654, 59.662055], [-149.789866, 59.673245], [-149.813954, 59.69302], [-149.80724, 59.717597], [-149.871816, 59.741523], [-149.919911, 59.779039], [-150.031687, 59.799262], [-150.040639, 59.775621], [-149.977976, 59.751776], [-149.951975, 59.72309], [-149.916493, 59.717597], [-149.957468, 59.669827], [-150.012685, 59.628241], [-150.031199, 59.637112], [-150.060496, 59.676663], [-150.119252, 59.700344], [-150.128774, 59.693427], [-150.120676, 59.680976], [-150.093129, 59.662055], [-150.107126, 59.614936], [-150.087839, 59.594672], [-150.13561, 59.572984], [-150.177195, 59.594672], [-150.198354, 59.586982], [-150.199452, 59.568834], [-150.177195, 59.53205], [-150.236887, 59.53384], [-150.256785, 59.526109], [-150.245473, 59.49787], [-150.279734, 59.496405], [-150.347971, 59.469957], [-150.389475, 59.477444], [-150.361521, 59.484809], [-150.383249, 59.49787], [-150.343332, 59.508857], [-150.334828, 59.518378], [-150.357493, 59.525702], [-150.355336, 59.546291], [-150.303456, 59.569892], [-150.290476, 59.611151], [-150.266347, 59.635932], [-150.273386, 59.649359], [-150.229075, 59.695502], [-150.224355, 59.715399], [-150.252268, 59.71015], [-150.278798, 59.692084], [-150.35436, 59.602281], [-150.393178, 59.576728], [-150.424265, 59.53205], [-150.465199, 59.494452], [-150.479482, 59.467353], [-150.492747, 59.465766], [-150.506174, 59.477444], [-150.501576, 59.494289], [-150.541941, 59.515286], [-150.553334, 59.535712], [-150.492502, 59.600898], [-150.5301, 59.601874], [-150.656972, 59.552476], [-150.656972, 59.546291], [-150.614329, 59.528754], [-150.581248, 59.49787], [-150.580515, 59.48192], [-150.636464, 59.463121], [-150.636464, 59.456977], [-150.604726, 59.445014], [-150.609324, 59.438666], [-150.653066, 59.423896], [-150.728627, 59.422187], [-150.754628, 59.382392], [-150.863881, 59.335517], [-150.917673, 59.326565], [-150.886342, 59.275051], [-150.891957, 59.257514], [-150.965891, 59.234442], [-150.958608, 59.203681], [-151.011545, 59.241645], [-150.998036, 59.27265], [-151.02009, 59.278754], [-151.042551, 59.297187], [-151.092478, 59.285102], [-151.243479, 59.318427], [-151.273305, 59.312934], [-151.257639, 59.298407], [-151.213124, 59.296942], [-151.099355, 59.248969], [-151.097239, 59.232611], [-151.110341, 59.21894], [-151.16161, 59.207709], [-151.211863, 59.223293], [-151.294423, 59.224189], [-151.409617, 59.260077], [-151.519765, 59.224189], [-151.472605, 59.216702], [-151.489084, 59.199652], [-151.575307, 59.203681], [-151.613962, 59.197496], [-151.615956, 59.189399], [-151.603831, 59.182034], [-151.576283, 59.188218], [-151.568105, 59.175767], [-151.68281, 59.163031], [-151.741526, 59.167141], [-151.766794, 59.193101], [-151.758616, 59.219713], [-151.763376, 59.224189], [-151.867909, 59.21369], [-151.893137, 59.220649], [-151.910756, 59.23786], [-151.886667, 59.241604], [-151.897084, 59.258287], [-151.944936, 59.265082], [-151.977162, 59.279364], [-151.986684, 59.292792], [-151.985829, 59.312934], [-151.959462, 59.337348], [-151.925038, 59.353909], [-151.896596, 59.359565], [-151.815175, 59.353909], [-151.900217, 59.398871], [-151.894032, 59.412828], [-151.807729, 59.443834], [-151.718251, 59.450873], [-151.689076, 59.480292], [-151.651845, 59.485907], [-151.46821, 59.478095], [-151.400624, 59.445136], [-151.382192, 59.44477], [-151.376332, 59.456977], [-151.390004, 59.473782], [-151.440419, 59.493638], [-151.451487, 59.508124], [-151.441477, 59.532213], [-151.41747, 59.546291], [-151.362742, 59.559963], [-151.273305, 59.559963], [-151.25886, 59.596137], [-151.174143, 59.600084], [-151.174021, 59.611151], [-151.200266, 59.631781], [-151.201365, 59.641181], [-151.18456, 59.655504], [-151.129954, 59.676663], [-151.098948, 59.720689], [-151.075144, 59.737698], [-150.992787, 59.779039], [-151.023508, 59.795559], [-151.066274, 59.79678], [-151.10912, 59.786526], [-151.15449, 59.759955], [-151.212514, 59.74494], [-151.381337, 59.674954], [-151.430979, 59.666205], [-151.472605, 59.635688], [-151.46467, 59.625922], [-151.410512, 59.607733], [-151.780832, 59.692206], [-151.83137, 59.716213], [-151.871775, 59.749457], [-151.882883, 59.786526], [-151.848704, 59.820014], [-151.739125, 59.988227], [-151.724965, 60.024888], [-151.429636, 60.216376], [-151.403269, 60.252427], [-151.390614, 60.299791], [-151.390248, 60.359442], [-151.362009, 60.377753], [-151.305979, 60.386949], [-151.282948, 60.48786], [-151.282786, 60.537055], [-151.289499, 60.550767], [-151.321767, 60.574164], [-151.35497, 60.639635], [-151.411733, 60.702094], [-151.417307, 60.718166], [-151.396921, 60.738023], [-151.323801, 60.739081], [-151.253, 60.775336], [-151.071482, 60.785346], [-150.763254, 60.926703], [-150.452504, 61.034247], [-150.387034, 61.047268], [-150.334828, 61.032864], [-150.293894, 60.967271], [-150.22529, 60.937242], [-150.043772, 60.916815], [-149.977854, 60.938788], [-149.930776, 60.944729], [-149.850168, 60.973863], [-149.752919, 60.973822], [-149.638661, 60.939643], [-149.526112, 60.937242], [-149.467275, 60.919908], [-149.126088, 60.883612], [-149.059031, 60.85635], [-149.025828, 60.854682], [-149.060862, 60.897284], [-149.111643, 60.928616], [-149.169301, 60.946967], [-149.225046, 60.950873], [-149.334055, 60.930325], [-149.3579, 60.933824], [-149.378041, 60.946967], [-149.483713, 60.982408], [-149.617991, 60.994615], [-149.783152, 61.045356], [-149.829172, 61.073432], [-149.909047, 61.094306], [-150.067332, 61.155748], [-150.038197, 61.193061], [-150.015614, 61.206366], [-149.975942, 61.198472], [-149.895985, 61.232082], [-149.868886, 61.282538], [-149.810658, 61.331366], [-149.73058, 61.351874], [-149.68342, 61.399359], [-149.320017, 61.479153], [-149.27953, 61.481635], [-149.245554, 61.498969], [-149.278554, 61.506537], [-149.41686, 61.498969], [-149.403188, 61.505805], [-149.428171, 61.51317], [-149.648671, 61.488186], [-149.757395, 61.453355], [-149.795603, 61.424506], [-149.861887, 61.395941], [-149.89741, 61.371283], [-149.911, 61.352688], [-149.919749, 61.31037], [-149.938914, 61.271226], [-149.983754, 61.246324], [-150.280507, 61.259955], [-150.314402, 61.281643], [-150.327992, 61.273098], [-150.324086, 61.258694], [-150.334584, 61.250922], [-150.450551, 61.25259], [-150.499623, 61.261664], [-150.541737, 61.286566], [-150.560658, 61.323676], [-150.540273, 61.369289], [-150.587107, 61.351996], [-150.600535, 61.332424], [-150.58495, 61.294623], [-150.633616, 61.298651], [-150.656972, 61.314032], [-150.691274, 61.277533], [-150.730906, 61.253974], [-150.89155, 61.214301], [-150.947743, 61.211005], [-150.97529, 61.194241], [-151.039906, 61.177436], [-151.154775, 61.064439], [-151.177113, 61.053941], [-151.310862, 61.032864], [-151.362375, 61.012356], [-151.476145, 61.017035], [-151.566762, 60.994534], [-151.681223, 60.928656], [-151.746938, 60.916815], [-151.752146, 60.898139], [-151.795277, 60.868964], [-151.807729, 60.847886], [-151.801015, 60.828315], [-151.717763, 60.743069], [-151.711374, 60.725735], [-151.746287, 60.718166], [-151.779734, 60.724066], [-151.869822, 60.759101], [-151.862375, 60.738674], [-151.931508, 60.725287], [-152.013051, 60.680732], [-152.051381, 60.673163], [-152.109364, 60.608303], [-152.232901, 60.559881], [-152.329579, 60.492499], [-152.343373, 60.457424], [-152.335927, 60.436957], [-152.317576, 60.420559], [-152.24592, 60.402167], [-152.24592, 60.395982], [-152.368113, 60.357856], [-152.39741, 60.33393], [-152.40392, 60.309801], [-152.415964, 60.297756], [-152.512644, 60.274604], [-152.596303, 60.228461], [-152.61616, 60.22427], [-152.671742, 60.245185], [-152.805531, 60.235093], [-152.849843, 60.245185], [-152.840891, 60.256049], [-152.787831, 60.25141], [-152.787831, 60.258857], [-152.839548, 60.268378], [-152.863596, 60.265815], [-152.890818, 60.25141], [-152.905588, 60.308539], [-152.938588, 60.313463], [-153.012196, 60.313463], [-153.082631, 60.299791], [-153.105458, 60.28559], [-153.103627, 60.277086], [-153.086985, 60.27733], [-153.037953, 60.299384], [-152.956614, 60.293891], [-152.931833, 60.278713], [-152.931833, 60.245185], [-152.922719, 60.237209], [-152.86266, 60.207709], [-152.767323, 60.190619], [-152.732533, 60.170111], [-152.683054, 60.162828], [-152.676625, 60.157945], [-152.686269, 60.151597], [-152.677805, 60.133368], [-152.590281, 60.092231], [-152.578562, 60.081204], [-152.578603, 60.070136], [-152.597971, 60.04267], [-152.630116, 60.032294], [-152.617136, 60.019273], [-152.677927, 59.984524], [-152.704579, 59.93065], [-152.737904, 59.908393], [-152.856679, 59.882066], [-152.905466, 59.886217], [-152.934804, 59.879625], [-153.021189, 59.888902], [-153.243357, 59.862454], [-153.288075, 59.820014], [-153.196401, 59.832709], [-153.150828, 59.819648], [-153.059275, 59.833645], [-153.013865, 59.832343], [-153.000071, 59.813178], [-153.019236, 59.762844], [-153.055287, 59.71015], [-153.139475, 59.686916], [-153.166249, 59.664008], [-153.236643, 59.647895], [-153.260813, 59.649359], [-153.27831, 59.676907], [-153.307444, 59.68183], [-153.314809, 59.660875], [-153.301015, 59.652411], [-153.317209, 59.638821], [-153.425242, 59.649359], [-153.358957, 59.720771], [-153.345408, 59.725531], [-153.322214, 59.717597], [-153.336374, 59.730536], [-153.381459, 59.7414], [-153.452585, 59.79267], [-153.453928, 59.746894], [-153.442616, 59.727484], [-153.445424, 59.716783], [-153.473012, 59.66234], [-153.490712, 59.650092], [-153.559031, 59.635688], [-153.610829, 59.682847], [-153.596547, 59.689683], [-153.596547, 59.69717], [-153.62267, 59.695217], [-153.623891, 59.655504], [-153.695627, 59.64468], [-153.70641, 59.631985], [-153.620432, 59.628241], [-153.566029, 59.60928], [-153.586415, 59.56745], [-153.621938, 59.555243], [-153.791819, 59.542914], [-153.833608, 59.559638], [-153.877146, 59.546291], [-153.811513, 59.538275], [-153.741078, 59.497748], [-153.725779, 59.482245], [-153.724721, 59.466051], [-153.751454, 59.440253], [-153.843577, 59.429633], [-153.896596, 59.432196], [-153.921498, 59.424262], [-153.945994, 59.402289], [-154.027943, 59.388617], [-154.055857, 59.395453], [-154.076365, 59.381171], [-154.094716, 59.378852], [-154.145253, 59.381171], [-154.111643, 59.360053], [-154.066233, 59.348334], [-154.022654, 59.351467], [-153.994456, 59.374945], [-153.95344, 59.36815], [-153.95344, 59.361314], [-154.027211, 59.341702], [-154.127756, 59.294176], [-154.140207, 59.281684], [-154.149892, 59.235338], [-154.144358, 59.224066], [-154.123525, 59.224189], [-154.130849, 59.208157], [-154.186228, 59.203681], [-154.179433, 59.183539], [-154.197499, 59.173163], [-154.24767, 59.168891], [-154.220326, 59.161444], [-154.261301, 59.148424], [-154.252878, 59.13052], [-154.177317, 59.129788], [-154.171946, 59.118598], [-154.176991, 59.107123], [-154.192454, 59.101264], [-154.178782, 59.086982], [-154.198354, 59.076972], [-154.199818, 59.055854], [-154.187327, 59.03498], [-154.16511, 59.02558], [-154.14037, 59.031155], [-154.08259, 59.07331], [-154.021962, 59.08393], [-153.894765, 59.065619], [-153.808095, 59.073798], [-153.711537, 59.070746], [-153.668691, 59.05268], [-153.623891, 59.011298], [-153.560902, 58.990709], [-153.522328, 58.990709], [-153.497426, 59.003485], [-153.427235, 58.981187], [-153.380686, 58.94066], [-153.331614, 58.933783], [-153.335886, 58.915717], [-153.322621, 58.894477], [-153.294911, 58.888373], [-153.294911, 58.881537], [-153.309071, 58.877346], [-153.363149, 58.874091], [-153.334299, 58.866116], [-153.270823, 58.871405], [-153.25947, 58.868883], [-153.26415, 58.857367], [-153.289133, 58.844143], [-153.338368, 58.855048], [-153.363149, 58.847398], [-153.395212, 58.782172], [-153.424672, 58.744371], [-153.527659, 58.696601], [-153.576121, 58.690863], [-153.590281, 58.658596], [-153.608754, 58.644436], [-153.690663, 58.621568], [-153.795522, 58.614], [-153.899403, 58.616685], [-153.912465, 58.600328], [-153.89977, 58.586249], [-153.930857, 58.535631], [-153.973337, 58.53205], [-153.925526, 58.518459], [-153.942372, 58.502916], [-153.967112, 58.491116], [-154.081654, 58.495185], [-154.110463, 58.477484], [-154.096425, 58.467719], [-154.068918, 58.422187], [-154.069203, 58.409857], [-154.031687, 58.408596], [-154.000234, 58.385565], [-154.088572, 58.360745], [-154.190053, 58.360745], [-154.194814, 58.346584], [-154.206654, 58.339667], [-154.30012, 58.32038], [-154.318715, 58.310736], [-154.322743, 58.298733], [-154.364369, 58.285102], [-154.351389, 58.271389], [-154.364369, 58.257758], [-154.353098, 58.255439], [-154.322743, 58.271389], [-154.268137, 58.278266], [-154.271962, 58.29564], [-154.206654, 58.298733], [-154.19404, 58.314846], [-154.171376, 58.321763], [-154.121327, 58.279731], [-154.24767, 58.257758], [-154.187611, 58.250678], [-154.165395, 58.239407], [-154.16572, 58.216783], [-154.188059, 58.198188], [-154.221181, 58.191392], [-154.281809, 58.203111], [-154.302317, 58.196275], [-154.235789, 58.155341], [-154.227162, 58.141059], [-154.246775, 58.12641], [-154.280344, 58.133043], [-154.337026, 58.162095], [-154.34911, 58.145087], [-154.329579, 58.106879], [-154.336008, 58.085395], [-154.352773, 58.082221], [-154.370066, 58.090644], [-154.386464, 58.117621], [-154.443186, 58.144477], [-154.458363, 58.18773], [-154.494089, 58.203111], [-154.460398, 58.115058], [-154.469838, 58.08983], [-154.499135, 58.087795], [-154.577016, 58.125718], [-154.610789, 58.120551], [-154.545644, 58.071112], [-154.566274, 58.033515], [-154.583119, 58.02497], [-154.644765, 58.035468], [-154.651723, 58.065985], [-154.669911, 58.072333], [-154.715688, 58.058905], [-154.734242, 58.045478], [-154.747304, 58.017524], [-154.778879, 58.005072], [-154.881052, 58.031195], [-155.023142, 58.02558], [-155.040151, 58.017239], [-155.028513, 58.003892], [-155.044993, 57.976386], [-155.063466, 57.962388], [-155.125315, 57.956732], [-155.076731, 57.916164], [-155.068674, 57.897366], [-155.097401, 57.880316], [-155.137929, 57.873114], [-155.255076, 57.880316], [-155.224436, 57.85814], [-155.220286, 57.850287], [-155.227244, 57.842108], [-155.275217, 57.833197], [-155.32551, 57.839545], [-155.336985, 57.833197], [-155.309682, 57.798407], [-155.345652, 57.805325], [-155.358103, 57.805243], [-155.358103, 57.798407], [-155.312082, 57.775214], [-155.299143, 57.756822], [-155.310292, 57.740424], [-155.394399, 57.725735], [-155.43342, 57.745795], [-155.529368, 57.772366], [-155.574778, 57.798814], [-155.605092, 57.792222], [-155.628163, 57.762885], [-155.638621, 57.726467], [-155.627919, 57.708157], [-155.588612, 57.689643], [-155.59081, 57.675523], [-155.703196, 57.648261], [-155.771433, 57.644721], [-155.734202, 57.627143], [-155.741648, 57.607327], [-155.734202, 57.558824], [-155.741648, 57.552069], [-155.805735, 57.547919], [-155.816151, 57.572496], [-155.831532, 57.579576], [-155.847768, 57.562567], [-155.904042, 57.556545], [-155.924184, 57.531399], [-155.950063, 57.534369], [-156.020457, 57.576809], [-156.034047, 57.571438], [-156.034006, 57.555609], [-156.01537, 57.531562], [-156.082143, 57.537177], [-156.104726, 57.531562], [-156.091257, 57.519436], [-156.051137, 57.51789], [-156.042714, 57.50731], [-156.041493, 57.47484], [-156.022206, 57.456448], [-156.060658, 57.430243], [-156.167592, 57.473619], [-156.214589, 57.476264], [-156.228261, 57.442206], [-156.238759, 57.436957], [-156.338857, 57.415432], [-156.471628, 57.339789], [-156.544626, 57.322699], [-156.55724, 57.305609], [-156.554636, 57.281684], [-156.536488, 57.27912], [-156.391957, 57.314846], [-156.34435, 57.311835], [-156.348337, 57.300482], [-156.339955, 57.285305], [-156.34435, 57.270901], [-156.351186, 57.277655], [-156.357371, 57.252143], [-156.447377, 57.229926], [-156.447377, 57.22309], [-156.393259, 57.210639], [-156.380971, 57.193671], [-156.351186, 57.1883], [-156.346018, 57.177802], [-156.375925, 57.143256], [-156.488352, 57.113837], [-156.453603, 57.086493], [-156.470815, 57.079169], [-156.495188, 57.099555], [-156.50886, 57.051744], [-156.523061, 57.045844], [-156.577097, 57.051744], [-156.625478, 57.079047], [-156.631703, 57.072821], [-156.625478, 57.05858], [-156.645375, 57.05858], [-156.565378, 57.004543], [-156.549794, 56.982856], [-156.678334, 57.00019], [-156.704335, 57.031236], [-156.724436, 57.042792], [-156.784779, 57.04914], [-156.79308, 57.027533], [-156.767527, 57.011786], [-156.763417, 56.992011], [-156.783193, 56.97663], [-156.789988, 56.941881], [-156.809438, 56.906684], [-156.824452, 56.897284], [-156.841501, 56.903998], [-156.90453, 56.961819], [-156.961293, 56.97663], [-156.946726, 56.954576], [-156.954457, 56.935045], [-156.940867, 56.914537], [-156.996083, 56.907701], [-157.040151, 56.887274], [-157.091664, 56.825832], [-157.169789, 56.854641], [-157.190989, 56.849677], [-157.147817, 56.815131], [-157.159983, 56.791083], [-157.189402, 56.776272], [-157.286855, 56.801703], [-157.365427, 56.851467], [-157.419667, 56.867377], [-157.459665, 56.846422], [-157.468455, 56.828925], [-157.463816, 56.815823], [-157.417551, 56.79678], [-157.404246, 56.773749], [-157.406321, 56.763739], [-157.427113, 56.775295], [-157.447336, 56.756903], [-157.509104, 56.763739], [-157.573435, 56.71662], [-157.598744, 56.729641], [-157.60558, 56.722154], [-157.586537, 56.712348], [-157.578236, 56.695461], [-157.57079, 56.702338], [-157.557851, 56.685533], [-157.485789, 56.674994], [-157.45519, 56.643215], [-157.482655, 56.620347], [-157.583811, 56.631293], [-157.633778, 56.611151], [-157.664662, 56.611396], [-157.715443, 56.633979], [-157.750803, 56.674262], [-157.772898, 56.684394], [-157.861562, 56.652289], [-157.913442, 56.653876], [-157.965525, 56.612372], [-158.038808, 56.596991], [-158.055124, 56.578559], [-158.105214, 56.572211], [-158.118764, 56.562893], [-158.133168, 56.530341], [-158.075022, 56.538316], [-157.963612, 56.569973], [-157.868967, 56.569037], [-157.849924, 56.555569], [-157.836903, 56.516506], [-157.877146, 56.478217], [-157.956532, 56.482611], [-158.067983, 56.511908], [-158.126332, 56.516669], [-158.152903, 56.513251], [-158.167917, 56.496894], [-158.158681, 56.489203], [-158.131907, 56.496161], [-158.126332, 56.48664], [-158.138295, 56.465522], [-158.261586, 56.457994], [-158.282053, 56.469957], [-158.338694, 56.475409], [-158.43102, 56.438056], [-158.523549, 56.365912], [-158.509958, 56.345404], [-158.541086, 56.342475], [-158.609812, 56.31391], [-158.632802, 56.298245], [-158.646433, 56.270657], [-158.620107, 56.256171], [-158.537221, 56.249823], [-158.561269, 56.275458], [-158.560496, 56.299302], [-158.472971, 56.34276], [-158.448191, 56.340522], [-158.44164, 56.311916], [-158.423695, 56.320624], [-158.406931, 56.318752], [-158.414377, 56.298245], [-158.345448, 56.325588], [-158.314768, 56.311916], [-158.227284, 56.296332], [-158.208241, 56.283922], [-158.272288, 56.246527], [-158.348866, 56.229315], [-158.400706, 56.236151], [-158.394765, 56.228176], [-158.414377, 56.202053], [-158.369211, 56.217475], [-158.326405, 56.200385], [-158.32311, 56.193549], [-158.345448, 56.181545], [-158.318308, 56.174709], [-158.147328, 56.245795], [-158.119496, 56.236151], [-158.160756, 56.225898], [-158.221913, 56.181545], [-158.257192, 56.182278], [-158.270334, 56.174709], [-158.262888, 56.167914], [-158.35204, 56.150702], [-158.359731, 56.126899], [-158.382395, 56.135932], [-158.393259, 56.181545], [-158.409657, 56.180813], [-158.423289, 56.147203], [-158.414377, 56.133124], [-158.44164, 56.133124], [-158.407582, 56.078437], [-158.427968, 56.064846], [-158.445749, 56.094957], [-158.44164, 56.106431], [-158.503245, 56.10163], [-158.469594, 56.071682], [-158.487009, 56.059638], [-158.484609, 56.042914], [-158.469309, 56.03205], [-158.454172, 56.040676], [-158.462148, 56.051215], [-158.434071, 56.042914], [-158.4228, 56.023993], [-158.427561, 56.006537], [-158.447865, 56.002753], [-158.496287, 56.037543], [-158.511057, 56.03384], [-158.512074, 56.022935], [-158.496287, 55.996568], [-158.512563, 55.995998], [-158.571401, 56.030707], [-158.509958, 56.051215], [-158.509958, 56.058051], [-158.585642, 56.040676], [-158.600942, 56.040432], [-158.604685, 56.052314], [-158.597239, 56.066107], [-158.578847, 56.071682], [-158.578847, 56.078518], [-158.601918, 56.086737], [-158.601552, 56.100572], [-158.58552, 56.113674], [-158.561147, 56.119452], [-158.544057, 56.153632], [-158.511301, 56.153225], [-158.509958, 56.167914], [-158.478871, 56.183824], [-158.479237, 56.191474], [-158.639638, 56.202053], [-158.627675, 56.185858], [-158.564565, 56.167914], [-158.634592, 56.120063], [-158.667592, 56.112616], [-158.661448, 56.13109], [-158.668202, 56.145941], [-158.683339, 56.152777], [-158.702341, 56.147406], [-158.688832, 56.125637], [-158.702341, 56.106431], [-158.660634, 56.092353], [-158.666331, 56.061713], [-158.732249, 56.045396], [-158.715403, 56.030707], [-158.65807, 56.028957], [-158.647084, 56.017035], [-158.647084, 55.999945], [-158.657541, 55.99079], [-158.688059, 55.982327], [-158.688059, 55.976142], [-158.667592, 55.969306], [-158.682932, 55.958401], [-158.712026, 55.954047], [-158.763783, 55.961859], [-158.728993, 55.976142], [-158.75654, 56.00788], [-158.780507, 56.010199], [-158.801015, 55.989732], [-158.82311, 55.996405], [-158.835805, 56.013617], [-158.859446, 56.012926], [-158.888254, 55.983832], [-158.928293, 55.920844], [-158.956776, 55.936225], [-159.006296, 55.931789], [-159.023752, 55.916938], [-159.010203, 55.907172], [-159.010243, 55.897203], [-159.027577, 55.89289], [-159.071482, 55.9206], [-159.099314, 55.92829], [-159.172434, 55.911282], [-159.187001, 55.896308], [-159.266713, 55.889228], [-159.29426, 55.87934], [-159.318674, 55.859442], [-159.332834, 55.877387], [-159.355906, 55.879462], [-159.400624, 55.859442], [-159.411082, 55.842515], [-159.421702, 55.790473], [-159.439076, 55.789211], [-159.455556, 55.801337], [-159.475697, 55.831488], [-159.478831, 55.863593], [-159.469553, 55.900336], [-159.544993, 55.889635], [-159.558909, 55.879869], [-159.555287, 55.865668], [-159.525258, 55.836575], [-159.503651, 55.766913], [-159.564443, 55.704291], [-159.544626, 55.694892], [-159.549428, 55.664984], [-159.565134, 55.646552], [-159.585561, 55.639716], [-159.619862, 55.611151], [-159.630686, 55.593573], [-159.626536, 55.578274], [-159.721059, 55.567084], [-159.743235, 55.572008], [-159.695424, 55.605536], [-159.756907, 55.5987], [-159.741689, 55.613267], [-159.711293, 55.61933], [-159.679799, 55.616685], [-159.661326, 55.605536], [-159.640818, 55.612982], [-159.632924, 55.631171], [-159.617014, 55.635199], [-159.709706, 55.667629], [-159.633372, 55.701117], [-159.65803, 55.718329], [-159.66454, 55.735053], [-159.681752, 55.742743], [-159.625234, 55.81269], [-159.657053, 55.832343], [-159.701853, 55.843817], [-159.845774, 55.851223], [-159.860544, 55.818427], [-159.851389, 55.794745], [-159.856801, 55.790473], [-159.904612, 55.783026], [-159.955271, 55.81566], [-159.976633, 55.818427], [-159.967112, 55.801703], [-159.973134, 55.777493], [-160.0, 55.78570739916232], [-160.0, 56.453724112608164], [-159.928049, 56.488959], [-159.847727, 56.540513], [-159.745717, 56.579332], [-159.483144, 56.64704], [-159.558909, 56.620347], [-159.547597, 56.613186], [-159.45637, 56.62934], [-159.288767, 56.692084], [-159.208852, 56.695461], [-159.263417, 56.702338], [-159.263417, 56.708564], [-159.175282, 56.763739], [-159.086374, 56.785793], [-158.943918, 56.869859], [-158.889231, 56.889594], [-158.8662, 56.89411], [-158.893788, 56.874457], [-158.959421, 56.853461], [-159.025136, 56.816718], [-159.03071, 56.808783], [-159.024892, 56.796576], [-158.976064, 56.784857], [-158.979197, 56.805732], [-158.971059, 56.827541], [-158.957712, 56.842475], [-158.945017, 56.842922], [-158.911, 56.817694], [-158.848948, 56.789374], [-158.780751, 56.777533], [-158.698598, 56.791083], [-158.639638, 56.763739], [-158.65392, 56.805365], [-158.652821, 56.836249], [-158.689076, 56.884508], [-158.694407, 56.979804], [-158.682118, 57.02204], [-158.6079, 57.100979], [-158.312449, 57.314887], [-158.182688, 57.362006], [-158.058095, 57.367092], [-158.073476, 57.381537], [-158.09907, 57.380764], [-158.017079, 57.428534], [-157.961293, 57.484198], [-157.940745, 57.497463], [-157.872792, 57.513617], [-157.757761, 57.564276], [-157.735951, 57.558824], [-157.680653, 57.572496], [-157.69164, 57.557929], [-157.652781, 57.503607], [-157.666615, 57.489203], [-157.656728, 57.483588], [-157.509389, 57.476264], [-157.516225, 57.462633], [-157.478953, 57.4831], [-157.413808, 57.489936], [-157.395579, 57.502427], [-157.395131, 57.512763], [-157.427439, 57.531562], [-157.392079, 57.566311], [-157.454783, 57.552069], [-157.413808, 57.497463], [-157.513905, 57.509752], [-157.569569, 57.491197], [-157.595408, 57.493232], [-157.58727, 57.563178], [-157.602162, 57.62401], [-157.638987, 57.640448], [-157.643137, 57.630561], [-157.626088, 57.613471], [-157.671946, 57.618109], [-157.704579, 57.637641], [-157.70991, 57.652533], [-157.701161, 57.709662], [-157.708811, 57.729926], [-157.644602, 57.878241], [-157.60554, 58.105211], [-157.543528, 58.175849], [-157.519765, 58.167385], [-157.45165, 58.168769], [-157.427439, 58.175849], [-157.384226, 58.207099], [-157.194325, 58.193915], [-157.155385, 58.169501], [-157.139475, 58.168402], [-157.187082, 58.204901], [-157.347524, 58.239203], [-157.433542, 58.22191], [-157.457468, 58.220893], [-157.482655, 58.230414], [-157.529042, 58.256008], [-157.5454, 58.273586], [-157.537302, 58.291897], [-157.568471, 58.320746], [-157.562082, 58.363674], [-157.502675, 58.46369], [-157.436147, 58.521633], [-157.358591, 58.546373], [-157.267283, 58.620266], [-157.115224, 58.699652], [-156.940867, 58.737535], [-156.940867, 58.744371], [-157.023671, 58.726508], [-157.061879, 58.726223], [-157.077992, 58.757392], [-157.068796, 58.778469], [-157.002268, 58.839993], [-157.025502, 58.863471], [-156.988596, 58.895209], [-156.976308, 58.953518], [-156.860341, 58.993883], [-156.842885, 59.103217], [-156.783193, 59.155219], [-156.865102, 59.111233], [-156.88683, 59.067939], [-156.878774, 59.032375], [-156.889719, 59.012519], [-156.935414, 58.987494], [-157.015818, 58.974066], [-157.034901, 58.959418], [-157.084462, 58.886664], [-157.254465, 58.840481], [-157.373118, 58.824774], [-157.424021, 58.803046], [-157.475209, 58.799628], [-157.568179, 58.747893], [-157.65746, 58.736187], [-157.978098, 58.647528], [-158.153676, 58.614], [-158.203359, 58.612982], [-158.26301, 58.623521], [-158.315867, 58.646552], [-158.345448, 58.682929], [-158.335805, 58.701483], [-158.345286, 58.724066], [-158.380198, 58.757392], [-158.557729, 58.806464], [-158.565663, 58.830634], [-158.519968, 58.867336], [-158.48884, 58.922512], [-158.499257, 58.948798], [-158.477488, 58.963202], [-158.421132, 58.977118], [-158.439402, 58.983547], [-158.44164, 58.998236], [-158.475779, 58.983954], [-158.497507, 58.993964], [-158.443552, 59.025336], [-158.38329, 59.03856], [-158.1728, 59.013007], [-158.137156, 58.999457], [-158.078562, 58.956692], [-158.06428, 58.908271], [-158.030141, 58.879055], [-158.017079, 58.874091], [-158.013865, 58.895697], [-157.995351, 58.902045], [-157.995351, 58.908271], [-158.041331, 58.911444], [-158.050608, 58.922512], [-158.034169, 58.942816], [-158.052317, 58.97134], [-158.102122, 59.014716], [-158.140248, 59.0362], [-158.233835, 59.039211], [-158.44164, 59.086982], [-158.489329, 59.117825], [-158.498891, 59.143866], [-158.523549, 59.148424], [-158.544057, 59.175767], [-158.547475, 59.144843], [-158.516103, 59.134752], [-158.516713, 59.111518], [-158.457265, 59.075873], [-158.462148, 59.052802], [-158.521189, 59.03734], [-158.540517, 59.020575], [-158.547312, 58.993476], [-158.608998, 58.933173], [-158.729482, 58.873603], [-158.746409, 58.877834], [-158.753367, 58.890448], [-158.728993, 58.928697], [-158.790476, 58.963446], [-158.739735, 58.979885], [-158.746409, 58.994818], [-158.825266, 58.977118], [-158.769968, 58.911078], [-158.793894, 58.816352], [-158.783559, 58.799506], [-158.787953, 58.769761], [-158.827952, 58.736274], [-158.869944, 58.730699], [-158.891306, 58.743354], [-158.890085, 58.763617], [-158.804311, 58.794664], [-158.807851, 58.809516], [-158.827138, 58.819403], [-158.87324, 58.813178], [-158.887318, 58.799628], [-158.86144, 58.799465], [-158.914622, 58.775377], [-158.908437, 58.741197], [-158.889396, 58.706293], [-158.851595, 58.677091], [-158.793894, 58.569322], [-158.772654, 58.558783], [-158.770009, 58.518459], [-158.758494, 58.50727], [-158.722849, 58.504828], [-158.708689, 58.492255], [-158.739695, 58.474189], [-158.759755, 58.447089], [-158.825266, 58.429023], [-158.825266, 58.422187], [-158.797312, 58.422187], [-158.829661, 58.404771], [-158.881734, 58.39962], [-158.939761, 58.398071], [-159.051259, 58.424709], [-159.071645, 58.442694], [-159.046335, 58.4383], [-159.03071, 58.456366], [-159.074696, 58.458726], [-159.083689, 58.469062], [-159.078481, 58.491116], [-159.114613, 58.490058], [-159.15099, 58.518785], [-159.208852, 58.586737], [-159.384954, 58.755824], [-159.482737, 58.816067], [-159.517934, 58.826321], [-159.551462, 58.847398], [-159.579294, 58.846177], [-159.594065, 58.831711], [-159.660918, 58.839443], [-159.630243, 58.852715], [-159.586941, 58.907463], [-159.617487, 58.931324], [-159.651335, 58.935554], [-159.738127, 58.928247], [-159.725177, 58.910439], [-159.734625, 58.892692], [-159.768229, 58.865531], [-159.743329, 58.854477], [-159.752924, 58.840826], [-159.765973, 58.831369], [-159.776927, 58.848779], [-159.7985, 58.849833], [-159.805978, 58.837465], [-159.786181, 58.817039], [-159.794851, 58.800277], [-159.839955, 58.79267], [-159.90613, 58.765406], [-159.990224, 58.839993], [-159.983303, 58.860807], [-159.997141, 58.874091], [-160.0, 58.87459021192012], [-160.0, 70.0], [-145.30060409036145, 70.0], [-145.301381, 69.999661], [-145.274892, 69.993069], [-145.1911300687313, 70.0], [-145.1278759229666, 70.0], [-144.941558, 69.977973], [-144.871571, 69.997992], [-144.825103, 69.986477], [-144.706451, 69.97602], [-144.590159, 69.982815], [-144.55273964549124, 70.0], [-144.06857221585048, 70.0], [-144.071441, 69.989407], [-144.05984249708354, 70.0], [-142.59824756866854, 70.0], [-142.611643, 69.975735], [-142.581776, 69.969916], [-142.538482, 69.985012], [-142.518178, 69.981879], [-142.481272, 69.96955], [-142.522817, 69.96955], [-142.496897, 69.953843], [-142.437815, 69.948961], [-142.412953, 69.93476], [-142.426015, 69.920478], [-142.371409, 69.914252], [-142.376129, 69.899156], [-142.32429, 69.88524], [-142.270904, 69.856024], [-142.10733, 69.848944], [-142.049469, 69.834866], [-142.042388, 69.804389], [-142.015126, 69.796291], [-141.963694, 69.795722], [-141.920562, 69.815375], [-141.837026, 69.790758], [-141.65331, 69.762152], [-141.50121, 69.708808], [-141.440338, 69.661078], [-141.412913, 69.650377], [-141.291086, 69.634019], [-141.220611, 69.674058], [-141.316233, 69.68773], [-141.316233, 69.694525], [-141.005564, 69.650946], [-141.001156, 60.321074]]], [[[-155.635325, 55.905748], [-155.599969, 55.914814], [-155.556101, 55.914618], [-155.570383, 55.851996], [-155.55724, 55.800482], [-155.597264, 55.760431], [-155.663693, 55.774463], [-155.718693, 55.774851], [-155.728017, 55.804755], [-155.749849, 55.81768], [-155.741648, 55.831488], [-155.663419, 55.856008], [-155.652333, 55.886664], [-155.635325, 55.905748]]], [[[-154.04365, 56.547593], [-154.020457, 56.555487], [-153.877146, 56.565131], [-153.877146, 56.552069], [-153.893503, 56.535224], [-153.965688, 56.504625], [-154.005971, 56.513007], [-154.100331, 56.502387], [-154.137807, 56.510484], [-154.093129, 56.536689], [-154.06904, 56.541409], [-154.055816, 56.530341], [-154.04365, 56.547593]]], [[[-156.99238, 56.555162], [-156.978261, 56.536526], [-157.006296, 56.533433], [-157.02595, 56.549954], [-157.04894, 56.552924], [-157.139475, 56.552069], [-157.159983, 56.530341], [-157.187734, 56.538642], [-157.205434, 56.530178], [-157.308705, 56.530666], [-157.331248, 56.524156], [-157.307118, 56.560207], [-157.259267, 56.583401], [-157.202626, 56.582099], [-157.098582, 56.59398], [-156.99238, 56.555162]]], [[[-154.407908, 56.579006], [-154.398508, 56.558295], [-154.410634, 56.547593], [-154.446645, 56.538642], [-154.424794, 56.548041], [-154.419016, 56.558295], [-154.45995, 56.544664], [-154.44282, 56.581204], [-154.474843, 56.59809], [-154.516713, 56.590155], [-154.528879, 56.552069], [-154.487538, 56.516791], [-154.610789, 56.483222], [-154.73823, 56.398261], [-154.767812, 56.400621], [-154.791249, 56.430854], [-154.770497, 56.470852], [-154.700144, 56.530341], [-154.536326, 56.597602], [-154.461415, 56.605373], [-154.407908, 56.579006]]], [[[-154.210072, 56.503648], [-154.322133, 56.515082], [-154.333811, 56.519599], [-154.350087, 56.544664], [-154.337758, 56.56391], [-154.279001, 56.597805], [-154.226186, 56.608344], [-154.124094, 56.612616], [-154.08259, 56.606106], [-154.049062, 56.558295], [-154.080759, 56.57685], [-154.103993, 56.574897], [-154.08259, 56.552069], [-154.210072, 56.503648]]], [[[-152.888743, 57.15884], [-152.884511, 57.14997], [-152.926137, 57.125963], [-153.006907, 57.113837], [-153.03425, 57.127427], [-153.110789, 57.088813], [-153.159535, 57.097113], [-153.209218, 57.079047], [-153.219797, 57.034654], [-153.235585, 57.009833], [-153.272165, 56.998521], [-153.342722, 57.003974], [-153.322214, 57.02383], [-153.342722, 57.038072], [-153.341379, 57.052924], [-153.316029, 57.072821], [-153.329091, 57.080024], [-153.391835, 57.060736], [-153.41161, 57.079047], [-153.338328, 57.101752], [-153.353586, 57.113837], [-153.391103, 57.106391], [-153.244374, 57.211005], [-153.22114, 57.203518], [-153.226023, 57.1883], [-153.187327, 57.185004], [-153.180857, 57.174994], [-153.212351, 57.133694], [-153.154408, 57.164537], [-153.089467, 57.181464], [-153.05842, 57.168443], [-152.979237, 57.176418], [-152.95226, 57.174628], [-152.920277, 57.157945], [-152.907867, 57.16474], [-152.888743, 57.15884]]], [[[-153.335886, 57.839423], [-153.316029, 57.846869], [-153.325266, 57.858629], [-153.396921, 57.863837], [-153.541941, 57.935614], [-153.506663, 57.969794], [-153.482249, 57.977769], [-153.32665, 57.926581], [-153.260813, 57.887844], [-153.212961, 57.830308], [-153.212351, 57.81269], [-153.281239, 57.818915], [-153.301747, 57.833197], [-153.335886, 57.839423]]], [[[-152.147084, 57.622626], [-152.155466, 57.61286], [-152.249705, 57.54149], [-152.308909, 57.509019], [-152.322255, 57.489936], [-152.338694, 57.433173], [-152.362986, 57.428534], [-152.440541, 57.442816], [-152.486155, 57.428534], [-152.459706, 57.450629], [-152.45226, 57.46369], [-152.46227, 57.469428], [-152.501332, 57.469428], [-152.513417, 57.444322], [-152.530832, 57.442206], [-152.562489, 57.456448], [-152.591013, 57.450914], [-152.60558, 57.473944], [-152.623972, 57.4831], [-152.664296, 57.469428], [-152.684519, 57.471625], [-152.753651, 57.511054], [-152.801747, 57.503607], [-152.842397, 57.51789], [-152.890818, 57.511054], [-152.953969, 57.524359], [-152.973378, 57.51789], [-152.917226, 57.500881], [-152.910715, 57.489936], [-152.92866, 57.482367], [-153.028025, 57.476264], [-153.014353, 57.462633], [-153.044871, 57.436713], [-153.041697, 57.428534], [-153.028635, 57.429511], [-152.990183, 57.456448], [-152.832468, 57.476264], [-152.800649, 57.470771], [-152.726389, 57.428534], [-152.634104, 57.405748], [-152.596018, 57.373928], [-152.644399, 57.339789], [-152.6433, 57.320502], [-152.692209, 57.283271], [-152.718861, 57.277655], [-152.71227, 57.302802], [-152.731679, 57.30744], [-152.798695, 57.291571], [-152.837473, 57.270738], [-152.863515, 57.277655], [-152.858469, 57.295071], [-152.891916, 57.304023], [-152.9051, 57.319281], [-152.880686, 57.337592], [-152.882151, 57.352484], [-152.914418, 57.339789], [-152.976511, 57.332343], [-153.023874, 57.342231], [-153.057322, 57.326321], [-153.120798, 57.315741], [-153.144032, 57.319281], [-153.15864, 57.346625], [-153.174753, 57.351386], [-153.171376, 57.319281], [-153.183542, 57.311265], [-153.172922, 57.30508], [-153.07372, 57.289293], [-153.032582, 57.304918], [-153.003, 57.294989], [-152.959096, 57.257148], [-153.096303, 57.218248], [-153.195261, 57.229926], [-153.216379, 57.222968], [-153.253285, 57.236721], [-153.307322, 57.211982], [-153.335886, 57.1883], [-153.391103, 57.209418], [-153.373728, 57.178046], [-153.455271, 57.116848], [-153.473012, 57.127427], [-153.486073, 57.175727], [-153.507192, 57.181464], [-153.54186, 57.175849], [-153.54426, 57.164455], [-153.500356, 57.168443], [-153.526845, 57.126695], [-153.500356, 57.099555], [-153.498158, 57.074286], [-153.513173, 57.069729], [-153.559031, 57.079047], [-153.711374, 57.067043], [-153.761057, 57.051744], [-153.761057, 57.044908], [-153.591257, 57.048163], [-153.590443, 57.039984], [-153.610829, 57.02383], [-153.65807, 57.019843], [-153.67162, 57.010199], [-153.576121, 57.003974], [-153.555124, 56.998725], [-153.559763, 56.986518], [-153.589101, 56.962958], [-153.603383, 56.962958], [-153.603383, 56.948717], [-153.62678, 56.936184], [-153.666941, 56.93769], [-153.678456, 56.97663], [-153.713612, 56.914537], [-153.738881, 56.889146], [-153.767893, 56.900336], [-153.778879, 56.877021], [-153.702707, 56.887274], [-153.694163, 56.883002], [-153.701405, 56.864203], [-153.767893, 56.853095], [-153.780873, 56.839504], [-153.79662, 56.845893], [-153.837717, 56.844184], [-153.850168, 56.814521], [-153.8662, 56.801703], [-153.962514, 56.748236], [-153.987253, 56.743842], [-154.055002, 56.762519], [-154.122629, 56.741197], [-154.149526, 56.750922], [-154.130116, 56.786526], [-154.063791, 56.847398], [-154.0006, 56.872992], [-153.968088, 56.905504], [-153.888987, 56.930365], [-153.774729, 56.997138], [-153.780873, 57.003974], [-153.849802, 56.969184], [-153.855662, 56.97602], [-153.832021, 57.001532], [-153.83613, 57.017564], [-153.852406, 57.023627], [-153.877146, 56.97663], [-153.896921, 56.965888], [-153.973337, 56.962958], [-153.953928, 57.008612], [-153.898183, 57.072821], [-153.810496, 57.102118], [-153.776723, 57.124091], [-153.739939, 57.127427], [-153.739939, 57.133694], [-153.805735, 57.154202], [-153.832468, 57.126654], [-153.973582, 57.061916], [-154.075063, 56.975572], [-154.099558, 56.96483], [-154.137807, 57.003974], [-154.110463, 57.038072], [-154.080027, 57.066596], [-153.959665, 57.120063], [-154.083201, 57.127427], [-154.120432, 57.147935], [-154.240834, 57.154771], [-154.360666, 57.147935], [-154.41157, 57.127427], [-154.468251, 57.124457], [-154.494944, 57.113593], [-154.48412, 57.089586], [-154.460764, 57.071112], [-154.412953, 57.050198], [-154.361318, 57.059068], [-154.31904, 57.096137], [-154.27241, 57.117377], [-154.121205, 57.123725], [-154.103708, 57.113837], [-154.111928, 57.076728], [-154.158315, 57.010199], [-154.158315, 56.969184], [-154.172475, 56.952623], [-154.193837, 56.944566], [-154.24767, 56.941881], [-154.221791, 56.92536], [-154.237986, 56.899563], [-154.261586, 56.907701], [-154.281809, 56.887274], [-154.277577, 56.905951], [-154.296091, 56.914537], [-154.299184, 56.866848], [-154.240834, 56.887274], [-154.240834, 56.879828], [-154.304921, 56.85578], [-154.305002, 56.902289], [-154.328318, 56.929674], [-154.41161, 56.972968], [-154.48412, 56.989691], [-154.528554, 56.991645], [-154.516347, 57.077582], [-154.533396, 57.112047], [-154.535024, 57.174628], [-154.588694, 57.231106], [-154.601511, 57.258938], [-154.6256, 57.269965], [-154.681345, 57.272895], [-154.685862, 57.284491], [-154.783152, 57.272935], [-154.802561, 57.291327], [-154.7683, 57.294989], [-154.755116, 57.302639], [-154.758168, 57.315579], [-154.810007, 57.346584], [-154.787546, 57.357733], [-154.70698, 57.339789], [-154.717112, 57.353827], [-154.734242, 57.360256], [-154.734242, 57.367092], [-154.714711, 57.378119], [-154.708445, 57.395697], [-154.726877, 57.428534], [-154.644276, 57.466742], [-154.658559, 57.476264], [-154.650217, 57.496039], [-154.614735, 57.526557], [-154.549306, 57.544582], [-154.521433, 57.51789], [-154.509755, 57.528388], [-154.523427, 57.570014], [-154.514882, 57.579291], [-154.398508, 57.566311], [-154.446889, 57.586127], [-154.364369, 57.627143], [-154.356923, 57.648261], [-154.281809, 57.648261], [-154.239329, 57.673285], [-154.220326, 57.675523], [-154.151438, 57.655097], [-154.055857, 57.655097], [-154.018625, 57.647203], [-154.000559, 57.629706], [-153.973337, 57.572496], [-153.999949, 57.55565], [-154.110463, 57.544582], [-154.068349, 57.537055], [-153.974802, 57.549954], [-153.935496, 57.53498], [-153.920277, 57.507229], [-153.906931, 57.434963], [-153.890736, 57.408026], [-153.825632, 57.377265], [-153.777821, 57.322333], [-153.747304, 57.303412], [-153.630686, 57.270901], [-153.669138, 57.297309], [-153.743764, 57.318915], [-153.767893, 57.380764], [-153.81135, 57.41234], [-153.819773, 57.484931], [-153.818349, 57.506293], [-153.808827, 57.51789], [-153.849802, 57.558824], [-153.850819, 57.577297], [-153.842519, 57.581977], [-153.792429, 57.555976], [-153.749623, 57.544379], [-153.70637, 57.539049], [-153.678456, 57.544582], [-153.705149, 57.557929], [-153.753977, 57.561957], [-153.868723, 57.628607], [-153.884592, 57.648261], [-153.852773, 57.658677], [-153.810902, 57.659003], [-153.667592, 57.641832], [-153.641103, 57.629218], [-153.630686, 57.599799], [-153.591013, 57.601386], [-153.582875, 57.607327], [-153.584584, 57.617092], [-153.604685, 57.6376], [-153.698964, 57.682359], [-153.876414, 57.701117], [-153.905751, 57.711249], [-153.925526, 57.72956], [-153.938222, 57.775621], [-153.924631, 57.810492], [-153.83613, 57.874172], [-153.808827, 57.874172], [-153.764475, 57.89468], [-153.723826, 57.902086], [-153.692576, 57.88703], [-153.665476, 57.89468], [-153.64509, 57.883694], [-153.627797, 57.853176], [-153.574412, 57.839545], [-153.564565, 57.821601], [-153.558298, 57.738349], [-153.546946, 57.69892], [-153.507192, 57.627143], [-153.498158, 57.642564], [-153.527659, 57.723334], [-153.452341, 57.694566], [-153.439524, 57.699408], [-153.448435, 57.716132], [-153.469553, 57.728949], [-153.514027, 57.743842], [-153.499135, 57.760891], [-153.446238, 57.777411], [-153.421824, 57.767401], [-153.384389, 57.718573], [-153.363149, 57.709662], [-153.333567, 57.713853], [-153.321278, 57.730902], [-153.325795, 57.749416], [-153.360341, 57.761176], [-153.401357, 57.792222], [-153.432078, 57.792222], [-153.458811, 57.802802], [-153.476674, 57.821357], [-153.47643, 57.839016], [-153.449167, 57.846869], [-153.350168, 57.81269], [-153.211049, 57.78559], [-153.212351, 57.72956], [-153.19933, 57.714545], [-153.178822, 57.709662], [-153.195261, 57.727118], [-153.191884, 57.805243], [-153.198679, 57.857123], [-153.240305, 57.902086], [-153.186838, 57.893541], [-153.061513, 57.825751], [-153.048451, 57.833197], [-153.096913, 57.8605], [-153.109486, 57.883368], [-153.156077, 57.907864], [-153.202463, 57.946194], [-153.262807, 57.96601], [-153.295155, 57.986396], [-153.301747, 58.0008], [-153.28425, 58.010443], [-153.229563, 57.997992], [-153.166941, 57.970038], [-153.012766, 57.929104], [-152.993235, 57.928778], [-153.004709, 57.948554], [-152.982655, 57.951483], [-152.862294, 57.934516], [-152.808298, 57.908271], [-152.877634, 57.886176], [-152.890818, 57.874172], [-152.856679, 57.880316], [-152.856679, 57.874172], [-152.893503, 57.860419], [-152.904856, 57.811591], [-152.925242, 57.768256], [-152.885569, 57.728705], [-152.856679, 57.740424], [-152.863515, 57.774237], [-152.858713, 57.814399], [-152.843699, 57.845282], [-152.817983, 57.860419], [-152.780995, 57.853705], [-152.741811, 57.82689], [-152.726389, 57.833197], [-152.685374, 57.887844], [-152.635569, 57.871568], [-152.623972, 57.8605], [-152.612742, 57.874905], [-152.615712, 57.890448], [-152.636952, 57.915107], [-152.624582, 57.932847], [-152.590403, 57.9289], [-152.558909, 57.903225], [-152.532704, 57.914455], [-152.486318, 57.910712], [-152.428334, 57.868069], [-152.4228, 57.85928], [-152.438344, 57.833197], [-152.421132, 57.821967], [-152.402211, 57.823472], [-152.363271, 57.846869], [-152.348256, 57.831692], [-152.329091, 57.825751], [-152.357289, 57.799018], [-152.458974, 57.768134], [-152.551137, 57.703315], [-152.541371, 57.69599], [-152.473093, 57.72602], [-152.463083, 57.722886], [-152.468984, 57.678697], [-152.493601, 57.655097], [-152.467763, 57.657172], [-152.39741, 57.688544], [-152.428293, 57.655951], [-152.438344, 57.617174], [-152.42634, 57.613511], [-152.342763, 57.633979], [-152.147084, 57.622626]]], [[[-153.322214, 58.127387], [-153.329661, 58.134833], [-153.277781, 58.146796], [-153.202707, 58.098822], [-153.181956, 58.093248], [-153.11677, 58.100084], [-153.047597, 58.037055], [-153.000071, 58.031195], [-152.890818, 57.997707], [-152.903513, 57.990668], [-152.945424, 57.997707], [-153.000071, 57.984036], [-153.16865, 58.032701], [-153.202707, 58.029771], [-153.216054, 58.034898], [-153.262644, 58.085354], [-153.288075, 58.086412], [-153.253285, 58.052314], [-153.379587, 58.049506], [-153.418365, 58.065985], [-153.322214, 58.127387]]], [[[-151.809885, 58.262926], [-151.793446, 58.244696], [-151.815053, 58.196112], [-151.846181, 58.175198], [-151.888661, 58.17886], [-151.897084, 58.192857], [-151.866078, 58.257758], [-151.809885, 58.262926]]], [[[-151.965891, 58.320746], [-151.985829, 58.291897], [-151.968821, 58.284125], [-151.980906, 58.253974], [-151.972239, 58.23725], [-152.031361, 58.209662], [-152.047922, 58.196275], [-152.057485, 58.173529], [-152.116811, 58.147895], [-152.129994, 58.166164], [-152.196401, 58.185981], [-152.219228, 58.203111], [-152.246165, 58.268256], [-152.260203, 58.257758], [-152.27656, 58.264228], [-152.287546, 58.250922], [-152.304392, 58.257554], [-152.316477, 58.249172], [-152.329091, 58.216783], [-152.309682, 58.214911], [-152.294626, 58.197333], [-152.308054, 58.189439], [-152.353831, 58.205308], [-152.370066, 58.203111], [-152.354319, 58.189032], [-152.329091, 58.189439], [-152.331125, 58.165025], [-152.273874, 58.134833], [-152.309519, 58.135199], [-152.342763, 58.106879], [-152.36974, 58.127387], [-152.410715, 58.125678], [-152.455068, 58.137356], [-152.489369, 58.128363], [-152.548207, 58.086412], [-152.562245, 58.111965], [-152.562937, 58.178778], [-152.555043, 58.209947], [-152.57665, 58.206692], [-152.588246, 58.197333], [-152.603139, 58.132636], [-152.644399, 58.07217], [-152.679555, 58.066799], [-152.708079, 58.052069], [-152.733266, 58.053371], [-152.755849, 58.063381], [-152.767323, 58.079576], [-152.775014, 58.0633], [-152.765818, 58.022854], [-152.777537, 58.0008], [-152.804921, 57.991523], [-152.926829, 58.014879], [-153.014353, 58.045478], [-153.058298, 58.078599], [-153.066355, 58.097113], [-153.048451, 58.106879], [-153.16747, 58.111151], [-153.229604, 58.168891], [-153.229563, 58.182563], [-153.188466, 58.219875], [-153.028025, 58.196275], [-153.01061, 58.175849], [-152.993235, 58.189439], [-152.9051, 58.168402], [-152.9051, 58.175849], [-153.006907, 58.213365], [-153.027048, 58.229804], [-153.071034, 58.240139], [-153.109934, 58.271389], [-153.059153, 58.298814], [-153.01948, 58.307278], [-152.902333, 58.279853], [-152.795359, 58.287258], [-152.767323, 58.257758], [-152.75182, 58.27265], [-152.769114, 58.332017], [-152.801462, 58.353949], [-152.760487, 58.360175], [-152.86738, 58.394355], [-152.883372, 58.408596], [-152.773508, 58.417711], [-152.74767, 58.451565], [-152.734242, 58.454047], [-152.712717, 58.44953], [-152.692983, 58.432115], [-152.674143, 58.450832], [-152.664784, 58.475287], [-152.650624, 58.483629], [-152.617421, 58.478746], [-152.603464, 58.456366], [-152.581654, 58.46662], [-152.499827, 58.463202], [-152.527089, 58.414781], [-152.493764, 58.414049], [-152.465647, 58.401109], [-152.481313, 58.388983], [-152.48469, 58.37344], [-152.476877, 58.361477], [-152.458852, 58.360175], [-152.438669, 58.376695], [-152.405588, 58.363227], [-152.401601, 58.354438], [-152.419667, 58.322943], [-152.375111, 58.344957], [-152.379994, 58.353949], [-152.3579, 58.399604], [-152.363271, 58.414781], [-152.349355, 58.421129], [-152.323435, 58.414211], [-152.286448, 58.425767], [-152.260203, 58.414781], [-152.267039, 58.401109], [-152.24592, 58.394965], [-152.267039, 58.388129], [-152.256785, 58.372016], [-152.211903, 58.353502], [-152.191274, 58.353949], [-152.151682, 58.385932], [-152.116811, 58.401109], [-152.083201, 58.373521], [-152.095082, 58.367621], [-152.136098, 58.302965], [-152.154164, 58.261542], [-152.143544, 58.233832], [-152.131947, 58.237982], [-152.12092, 58.255439], [-152.099924, 58.311916], [-152.080759, 58.316555], [-152.065623, 58.306342], [-152.06843, 58.278266], [-152.031321, 58.306708], [-152.000803, 58.351874], [-151.966013, 58.332831], [-151.965891, 58.320746]]], [[[-152.643015, 58.537299], [-152.664296, 58.546373], [-152.591868, 58.555243], [-152.572621, 58.580227], [-152.507273, 58.600328], [-152.453684, 58.62816], [-152.369578, 58.638088], [-152.348988, 58.628323], [-152.342763, 58.600328], [-152.374867, 58.563788], [-152.363271, 58.551947], [-152.502024, 58.473456], [-152.630605, 58.50788], [-152.644399, 58.518459], [-152.643015, 58.537299]]], [[[-152.334218, 58.911933], [-152.363271, 58.915717], [-152.363271, 58.922512], [-152.340159, 58.924791], [-152.327219, 58.935045], [-152.329091, 58.970893], [-152.253123, 58.956692], [-152.157786, 58.956692], [-152.164011, 58.94302], [-152.212392, 58.94302], [-152.249705, 58.922512], [-152.334218, 58.911933]]], [[[-150.653798, 59.407213], [-150.626902, 59.399848], [-150.608591, 59.381171], [-150.6551, 59.332994], [-150.67748, 59.31977], [-150.731638, 59.31151], [-150.76183, 59.316799], [-150.779856, 59.334052], [-150.723582, 59.366034], [-150.704172, 59.395453], [-150.653798, 59.407213]]], [[[-153.552683, 59.343085], [-153.55016, 59.366889], [-153.476755, 59.405422], [-153.397939, 59.408515], [-153.357411, 59.378119], [-153.354604, 59.36518], [-153.37682, 59.347724], [-153.405873, 59.338568], [-153.498891, 59.325426], [-153.552683, 59.343085]]], [[[-150.294626, 59.464586], [-150.293894, 59.456977], [-150.302195, 59.449164], [-150.3037, 59.430487], [-150.314402, 59.422187], [-150.33141, 59.436428], [-150.379099, 59.431383], [-150.426991, 59.401679], [-150.443471, 59.402289], [-150.410512, 59.446275], [-150.294626, 59.464586]]], [[[-144.208608, 60.011786], [-144.220815, 59.995795], [-144.403717, 59.927191], [-144.427724, 59.902533], [-144.554596, 59.827094], [-144.605295, 59.813178], [-144.552358, 59.873236], [-144.509348, 59.888983], [-144.442006, 59.937323], [-144.341786, 59.984524], [-144.208608, 60.011786]]], [[[-147.993072, 60.044582], [-147.995025, 60.03266], [-148.081166, 59.971666], [-148.155955, 59.943549], [-148.244985, 59.943549], [-148.196238, 59.953355], [-148.182322, 59.964057], [-148.210194, 59.964057], [-148.189768, 59.984524], [-148.223256, 59.984524], [-148.223256, 59.99136], [-148.186838, 59.99315], [-148.144846, 59.972398], [-148.032094, 60.025458], [-148.005035, 60.046576], [-147.993072, 60.044582]]], [[[-147.843251, 60.030463], [-147.895172, 59.990424], [-147.98176, 59.959052], [-148.046376, 59.957099], [-148.007517, 59.996243], [-147.876576, 60.076361], [-147.829701, 60.077867], [-147.819976, 60.068915], [-147.843251, 60.030463]]], [[[-148.044423, 60.070299], [-148.059397, 60.052802], [-148.032094, 60.052802], [-148.124867, 60.004136], [-148.141306, 60.011786], [-148.109568, 60.056301], [-148.080556, 60.078192], [-148.001332, 60.114814], [-147.966461, 60.156562], [-147.953236, 60.121649], [-147.914784, 60.125474], [-147.881256, 60.107367], [-147.918365, 60.086005], [-147.963775, 60.07392], [-148.044423, 60.070299]]], [[[-148.258616, 60.023139], [-148.313832, 60.032294], [-148.287343, 60.04267], [-148.21996, 60.039781], [-148.189768, 60.046576], [-148.213246, 60.054267], [-148.299631, 60.052802], [-148.299631, 60.060248], [-148.21581, 60.073676], [-148.189768, 60.087551], [-148.285959, 60.094387], [-148.140818, 60.147895], [-148.118723, 60.150295], [-148.114003, 60.129096], [-148.077463, 60.15998], [-148.069325, 60.186957], [-148.049998, 60.195705], [-148.040964, 60.186591], [-148.081248, 60.134996], [-148.099233, 60.083482], [-148.159373, 60.043158], [-148.258616, 60.023139]]], [[[-147.0808, 60.280341], [-146.922271, 60.313463], [-146.97057, 60.259182], [-147.010487, 60.23371], [-147.233795, 60.133124], [-147.328196, 60.070258], [-147.376617, 60.01553], [-147.353668, 59.99136], [-147.367014, 59.972846], [-147.427235, 59.97663], [-147.487416, 59.943549], [-147.490305, 59.939195], [-147.456125, 59.915595], [-147.453603, 59.895901], [-147.49234, 59.861802], [-147.518788, 59.854193], [-147.601145, 59.866767], [-147.643707, 59.862616], [-147.668772, 59.819281], [-147.716786, 59.820014], [-147.86144, 59.782457], [-147.915395, 59.79267], [-147.898793, 59.810207], [-147.886138, 59.857611], [-147.793772, 59.877753], [-147.737213, 59.902533], [-147.790679, 59.910956], [-147.804921, 59.920356], [-147.778798, 59.943549], [-147.752431, 59.953843], [-147.668935, 59.970893], [-147.703114, 59.997504], [-147.533111, 60.05858], [-147.424631, 60.111233], [-147.380198, 60.139594], [-147.387807, 60.162665], [-147.329742, 60.187201], [-147.295644, 60.232164], [-147.254709, 60.224677], [-147.201161, 60.242174], [-147.197011, 60.251207], [-147.20759, 60.294989], [-147.175526, 60.327094], [-147.20287, 60.341376], [-147.189605, 60.362209], [-147.155141, 60.376451], [-147.115549, 60.381659], [-147.086781, 60.375556], [-147.120269, 60.347602], [-147.011057, 60.347602], [-147.026519, 60.330756], [-147.107249, 60.2862], [-147.0808, 60.280341]]], [[[-148.00475, 60.344468], [-148.018422, 60.299791], [-148.042226, 60.286566], [-148.073313, 60.285142], [-148.128285, 60.306627], [-148.135121, 60.299791], [-148.127065, 60.334947], [-148.075632, 60.369371], [-148.014394, 60.387926], [-147.977447, 60.375556], [-148.00475, 60.344468]]], [[[-145.095082, 60.416327], [-145.092519, 60.402167], [-145.119781, 60.355048], [-145.12328, 60.311754], [-145.136586, 60.306627], [-145.181956, 60.31977], [-145.211985, 60.313463], [-145.284291, 60.33393], [-145.284291, 60.341376], [-145.095082, 60.416327]]], [[[-146.093658, 60.410346], [-146.078765, 60.402167], [-146.188629, 60.382392], [-146.195465, 60.361274], [-146.223988, 60.351386], [-146.333608, 60.35224], [-146.493276, 60.303778], [-146.553944, 60.261217], [-146.600168, 60.245185], [-146.64859, 60.25788], [-146.67219, 60.270941], [-146.682037, 60.2862], [-146.655629, 60.306789], [-146.490305, 60.361274], [-146.504791, 60.370429], [-146.567698, 60.363227], [-146.593332, 60.368109], [-146.57901, 60.375556], [-146.59911, 60.375474], [-146.647939, 60.355048], [-146.61384, 60.355048], [-146.655588, 60.340644], [-146.700551, 60.354804], [-146.722646, 60.386217], [-146.695709, 60.423326], [-146.660308, 60.430162], [-146.634348, 60.464911], [-146.588124, 60.484036], [-146.530629, 60.485419], [-146.544911, 60.464911], [-146.445627, 60.464911], [-146.379018, 60.47606], [-146.353098, 60.471137], [-146.36677, 60.409654], [-146.151357, 60.438788], [-146.129628, 60.436225], [-146.120351, 60.427069], [-146.188629, 60.402167], [-146.093658, 60.410346]]], [[[-147.84024, 60.395982], [-147.812489, 60.446234], [-147.771392, 60.485419], [-147.772532, 60.453925], [-147.785715, 60.430813], [-147.72997, 60.441392], [-147.710113, 60.452582], [-147.723785, 60.492906], [-147.70816, 60.506781], [-147.68928, 60.50373], [-147.682607, 60.471137], [-147.634511, 60.481676], [-147.62857, 60.466986], [-147.641672, 60.450629], [-147.614369, 60.436957], [-147.634185, 60.423326], [-147.662424, 60.42121], [-147.737213, 60.395982], [-147.715443, 60.383287], [-147.648508, 60.395982], [-147.625356, 60.389594], [-147.631012, 60.374823], [-147.738759, 60.259833], [-147.738759, 60.249986], [-147.710561, 60.25141], [-147.741282, 60.19359], [-147.765614, 60.174384], [-147.798695, 60.170111], [-147.796213, 60.188056], [-147.8308, 60.186916], [-147.84024, 60.193671], [-147.79247, 60.238349], [-147.798695, 60.245185], [-147.851715, 60.227932], [-147.908559, 60.238349], [-147.895985, 60.260321], [-147.867584, 60.272528], [-147.908559, 60.292955], [-147.822825, 60.29914], [-147.780385, 60.314846], [-147.757721, 60.341376], [-147.860748, 60.327094], [-147.874989, 60.333401], [-147.860748, 60.344468], [-147.806142, 60.347602], [-147.860585, 60.377387], [-147.80134, 60.385891], [-147.771392, 60.409654], [-147.84024, 60.395982]]], [[[-151.897084, 60.450629], [-151.96349, 60.426174], [-151.978627, 60.408271], [-151.982167, 60.389472], [-151.966013, 60.375556], [-152.038564, 60.350409], [-152.061594, 60.347602], [-152.08967, 60.359117], [-152.027455, 60.368109], [-152.020619, 60.402167], [-151.990224, 60.419094], [-151.971059, 60.452094], [-151.967478, 60.465806], [-151.979685, 60.485419], [-151.953196, 60.50849], [-151.884023, 60.505683], [-151.85615, 60.485419], [-151.869822, 60.485419], [-151.897084, 60.450629]]], [[[-145.749827, 60.621324], [-145.77774, 60.608303], [-145.749827, 60.601467], [-145.773101, 60.582953], [-145.871734, 60.543891], [-146.014638, 60.508938], [-146.0631, 60.488267], [-146.29426, 60.454779], [-146.332631, 60.464911], [-146.305735, 60.510159], [-146.286448, 60.51732], [-146.120107, 60.519477], [-146.093088, 60.525784], [-146.120351, 60.539374], [-145.949045, 60.567328], [-145.969553, 60.587836], [-145.858754, 60.595608], [-145.805735, 60.606187], [-145.757232, 60.62873], [-145.749827, 60.621324]]], [[[-147.449859, 60.669745], [-147.455393, 60.687812], [-147.477162, 60.690172], [-147.428782, 60.711371], [-147.374338, 60.664862], [-147.312734, 60.684027], [-147.325022, 60.657172], [-147.339711, 60.645575], [-147.402943, 60.648383], [-147.477162, 60.635647], [-147.449859, 60.662909], [-147.49767, 60.656684], [-147.449859, 60.669745]]], [[[-147.919504, 60.741645], [-147.90982, 60.744818], [-147.865468, 60.72012], [-147.847076, 60.693996], [-147.857533, 60.687201], [-147.922231, 60.684027], [-147.935902, 60.662909], [-147.966908, 60.680325], [-148.012196, 60.725002], [-147.994618, 60.73135], [-147.949534, 60.711371], [-147.96935, 60.746649], [-147.960357, 60.752346], [-147.94933, 60.748725], [-147.929067, 60.718166], [-147.919504, 60.741645]]], [[[-148.222239, 60.706122], [-148.230092, 60.729722], [-148.196604, 60.744818], [-148.21703, 60.759101], [-148.158681, 60.764716], [-148.124094, 60.751125], [-148.111155, 60.738105], [-148.110056, 60.725328], [-148.128285, 60.718166], [-148.128285, 60.711371], [-148.108022, 60.709703], [-148.098744, 60.696845], [-148.107777, 60.662909], [-148.140492, 60.648668], [-148.222239, 60.706122]]], [[[-148.116038, 60.797553], [-148.135121, 60.813137], [-148.128285, 60.8581], [-148.069895, 60.904242], [-148.107777, 60.916815], [-148.107777, 60.923], [-148.032094, 60.930406], [-147.967641, 60.905585], [-147.9405, 60.88581], [-147.943267, 60.861558], [-147.912343, 60.825426], [-147.915395, 60.813137], [-147.929189, 60.806342], [-147.966908, 60.827379], [-148.023793, 60.791205], [-148.116038, 60.797553]]], [[[-141.385121, 69.694525], [-141.472564, 69.720771], [-141.584218, 69.766425], [-141.898427, 69.824897], [-141.809234, 69.821926], [-141.528635, 69.760321], [-141.423085, 69.721869], [-141.385121, 69.694525]]], [[[-159.512644, 54.77851], [-159.527089, 54.759467], [-159.569325, 54.754584], [-159.589304, 54.75967], [-159.604197, 54.812323], [-159.585154, 54.824205], [-159.571278, 54.822252], [-159.521474, 54.792222], [-159.512644, 54.77851]]], [[[-159.289052, 55.778998], [-159.289622, 55.76789], [-159.302113, 55.759223], [-159.328603, 55.778388], [-159.362294, 55.786282], [-159.359853, 55.798163], [-159.332834, 55.812445], [-159.312734, 55.811225], [-159.289052, 55.778998]]], [[[-156.680043, 56.016669], [-156.694936, 56.009345], [-156.746165, 56.034898], [-156.744944, 56.04092], [-156.716868, 56.044501], [-156.701283, 56.066148], [-156.678904, 56.045966], [-156.680043, 56.016669]]], [[[-156.766672, 56.178534], [-156.76655, 56.16767], [-156.774526, 56.153225], [-156.792063, 56.153022], [-156.805287, 56.164781], [-156.809316, 56.190131], [-156.792592, 56.220689], [-156.77831, 56.226711], [-156.779897, 56.189643], [-156.766672, 56.178534]]], [[[-157.80602, 56.328803], [-157.833323, 56.313666], [-157.898386, 56.339057], [-157.89741, 56.347398], [-157.856557, 56.362128], [-157.811391, 56.356147], [-157.80602, 56.328803]]], [[[-153.829294, 57.451077], [-153.843577, 57.436225], [-153.867787, 57.452582], [-153.881459, 57.476142], [-153.887807, 57.508979], [-153.867909, 57.543362], [-153.84675, 57.540595], [-153.831492, 57.525702], [-153.829294, 57.451077]]], [[[-152.325388, 57.916002], [-152.330149, 57.907457], [-152.369374, 57.88642], [-152.485951, 57.914537], [-152.504832, 57.925727], [-152.483144, 57.948472], [-152.492747, 57.961575], [-152.46345, 57.95954], [-152.432322, 57.969184], [-152.4228, 57.96426], [-152.416982, 57.93887], [-152.422963, 57.934312], [-152.417104, 57.930365], [-152.325388, 57.916002]]], [[[-152.730092, 57.982245], [-152.729197, 57.973863], [-152.739003, 57.968573], [-152.747996, 57.939154], [-152.764109, 57.93008], [-152.809885, 57.929104], [-152.852244, 57.944078], [-152.860707, 57.954657], [-152.853627, 57.967434], [-152.833079, 57.974595], [-152.730092, 57.982245]]], [[[-152.902699, 58.307685], [-152.930613, 58.328559], [-152.924672, 58.338324], [-152.906239, 58.34219], [-152.846059, 58.337592], [-152.799875, 58.316596], [-152.782419, 58.288642], [-152.902699, 58.307685]]], [[[-150.184519, 61.174262], [-150.177724, 61.161363], [-150.196238, 61.141303], [-150.227528, 61.127183], [-150.276438, 61.127387], [-150.259999, 61.133124], [-150.224355, 61.170396], [-150.184519, 61.174262]]], [[[-159.268992, 54.929633], [-159.212595, 54.931138], [-159.208811, 54.918524], [-159.246409, 54.889594], [-159.28661, 54.871731], [-159.31782, 54.884711], [-159.326161, 54.907864], [-159.298207, 54.920315], [-159.317738, 54.933783], [-159.339182, 54.934556], [-159.292348, 54.951728], [-159.277089, 54.948188], [-159.284535, 54.940823], [-159.268992, 54.929633]]], [[[-159.339182, 54.975531], [-159.434316, 54.94184], [-159.462717, 54.948188], [-159.451487, 54.956488], [-159.455271, 54.981757], [-159.40807, 54.981757], [-159.424794, 55.030219], [-159.483144, 55.016547], [-159.454294, 55.04975], [-159.462717, 55.064276], [-159.345408, 55.050686], [-159.355051, 55.037299], [-159.383168, 55.034369], [-159.394724, 55.025377], [-159.339182, 54.975531]]], [[[-159.494456, 55.063137], [-159.493642, 55.047593], [-159.504465, 55.042467], [-159.527537, 55.047268], [-159.562978, 55.085435], [-159.578725, 55.092231], [-159.578725, 55.050686], [-159.633372, 55.058051], [-159.647776, 55.04328], [-159.65925, 55.065131], [-159.612904, 55.092231], [-159.613271, 55.102973], [-159.645375, 55.112698], [-159.65038, 55.12637], [-159.640248, 55.133938], [-159.5926, 55.110175], [-159.577138, 55.112006], [-159.57726, 55.121731], [-159.599843, 55.133205], [-159.585764, 55.140937], [-159.551381, 55.142157], [-159.544626, 55.150295], [-159.552602, 55.158922], [-159.606068, 55.167914], [-159.582509, 55.177151], [-159.589223, 55.208401], [-159.557118, 55.217027], [-159.53364, 55.251044], [-159.517934, 55.242418], [-159.520985, 55.226386], [-159.544626, 55.198065], [-159.538319, 55.183539], [-159.507069, 55.171088], [-159.524159, 55.119534], [-159.524159, 55.071112], [-159.494456, 55.063137]]], [[[-159.857533, 55.190253], [-159.825795, 55.180976], [-159.846262, 55.133205], [-159.874216, 55.125718], [-159.87975, 55.105292], [-159.89741, 55.104885], [-159.935007, 55.133205], [-159.949452, 55.128892], [-159.982859, 55.099066], [-159.946116, 55.069648], [-159.959543, 55.064276], [-160.0, 55.06813345441866], [-160.0, 55.18648948935809], [-159.953603, 55.175849], [-159.976633, 55.208319], [-159.943349, 55.210761], [-159.93163, 55.218573], [-159.948679, 55.252387], [-159.887278, 55.297065], [-159.874216, 55.284003], [-159.86498, 55.251166], [-159.875111, 55.238837], [-159.921986, 55.22191], [-159.904408, 55.207465], [-159.916941, 55.156928], [-159.901479, 55.140082], [-159.857533, 55.190253]]], [[[-158.811228, 55.859524], [-158.858388, 55.862982], [-158.887318, 55.831488], [-158.851145, 55.821438], [-158.845774, 55.810981], [-158.883778, 55.805243], [-158.897654, 55.811347], [-158.908681, 55.841295], [-158.897328, 55.860582], [-158.900339, 55.873725], [-158.828114, 55.896715], [-158.791737, 55.890286], [-158.760365, 55.866278], [-158.730092, 55.85517], [-158.708567, 55.831488], [-158.811228, 55.859524]]], [[[-152.255922, 57.384243], [-152.298183, 57.363155], [-152.315124, 57.363121], [-152.299935, 57.374118], [-152.288189, 57.396985], [-152.255922, 57.384243]]], [[[-152.013132, 58.939846], [-152.042511, 58.929755], [-152.055165, 58.914293], [-152.074656, 58.914293], [-152.062489, 58.942776], [-152.035227, 58.951687], [-152.013132, 58.939846]]], [[[-151.670166, 59.11808], [-151.64372, 59.115749], [-151.646924, 59.103936], [-151.699838, 59.097939], [-151.713647, 59.105835], [-151.721582, 59.121897], [-151.708514, 59.13072], [-151.687859, 59.129656], [-151.670166, 59.11808]]], [[[-151.433561, 59.135292], [-151.438209, 59.127182], [-151.428281, 59.117302], [-151.438933, 59.107286], [-151.459556, 59.109014], [-151.508501, 59.128566], [-151.500251, 59.137327], [-151.433561, 59.135292]]], [[[-151.816822, 59.170664], [-151.788782, 59.153053], [-151.800758, 59.138893], [-151.89319, 59.144364], [-151.888676, 59.157183], [-151.816822, 59.170664]]], [[[-146.3131, 59.455756], [-146.308217, 59.447089], [-146.322418, 59.425849], [-146.340688, 59.411444], [-146.358551, 59.410102], [-146.358632, 59.422431], [-146.3131, 59.455756]]], [[[-152.558217, 60.108344], [-152.580149, 60.107245], [-152.628285, 60.148627], [-152.638132, 60.167304], [-152.620473, 60.179267], [-152.604604, 60.178616], [-152.586171, 60.172065], [-152.563181, 60.14997], [-152.558217, 60.108344]]], [[[-147.343414, 60.298733], [-147.347808, 60.273586], [-147.491811, 60.228827], [-147.492258, 60.25259], [-147.500966, 60.258368], [-147.493886, 60.263129], [-147.438954, 60.273342], [-147.360422, 60.300727], [-147.343414, 60.298733]]], [[[-146.80643, 60.854186], [-146.77531, 60.857095], [-146.761376, 60.868211], [-146.76162, 60.87925], [-146.712851, 60.853252], [-146.704063, 60.839486], [-146.734711, 60.81452], [-146.76558, 60.801956], [-146.796809, 60.805939], [-146.811255, 60.818283], [-146.820306, 60.841694], [-146.80643, 60.854186]]], [[[-147.078236, 60.892768], [-147.08316, 60.878485], [-147.139638, 60.855618], [-147.182688, 60.858222], [-147.190297, 60.862982], [-147.182851, 60.875718], [-147.189443, 60.877509], [-147.216379, 60.877102], [-147.229644, 60.867825], [-147.318918, 60.877265], [-147.226918, 60.906806], [-147.21524, 60.907294], [-147.21467, 60.892483], [-147.194407, 60.904242], [-147.16804, 60.892524], [-147.142323, 60.909166], [-147.135894, 60.901313], [-147.119211, 60.905666], [-147.131947, 60.887681], [-147.158193, 60.875474], [-147.152699, 60.873521], [-147.112294, 60.884426], [-147.094146, 60.897935], [-147.078236, 60.892768]]]]}}, {"type": "Feature", "properties": {"name": "Canada"}, "geometry": {"type": "Polygon", "coordinates": [[[-140.01579, 60.187387], [-140.424111, 60.293168], [-140.462791, 60.289138], [-140.518705, 60.22387], [-140.533743, 60.218548], [-140.979555, 60.295804], [-140.994929, 60.304382], [-141.001156, 60.321074], [-141.005564, 69.650946], [-140.898508, 69.64057], [-140.905914, 69.633124], [-140.873036, 69.625434], [-140.837026, 69.626288], [-140.843251, 69.633124], [-140.819244, 69.638129], [-140.643544, 69.61636], [-140.405141, 69.601467], [-140.222727, 69.599107], [-140.152699, 69.618801], [-140.0, 69.62044221127967], [-140.0, 60.18770981514792], [-140.01579, 60.187387]]]}}]}