{"type": "FeatureCollection", "features": [{"type": "Feature", "properties": {"name": "Greenland"}, "geometry": {"type": "MultiPolygon", "coordinates": [[[[-39.924306, 82.38642], [-39.93106, 82.372748], [-39.804107, 82.361762], [-39.769399, 82.375881], [-39.755971, 82.395941], [-39.762603, 82.410305], [-39.781972, 82.420233], [-39.859486, 82.43537], [-39.877675, 82.44599], [-39.875885, 82.468329], [-39.855946, 82.482611], [-39.759145, 82.502427], [-39.779897, 82.512397], [-39.862172, 82.51675], [-39.963735, 82.538886], [-40.0, 82.55842074244144], [-40.0, 82.57925790175763], [-39.976918, 82.591132], [-39.901845, 82.60456], [-39.869008, 82.619127], [-39.869985, 82.631415], [-39.903798, 82.660102], [-39.912099, 82.677151], [-39.953114, 82.693061], [-40.0, 82.69790779896181], [-40.0, 82.97290752969619], [-39.437611, 82.961819], [-39.005686, 82.900336], [-39.033599, 82.886054], [-39.004506, 82.855699], [-38.960805, 82.836086], [-38.868764, 82.812893], [-38.679555, 82.792629], [-38.642568, 82.769965], [-38.65217, 82.76439], [-38.644032, 82.753363], [-38.615102, 82.745998], [-38.546376, 82.756334], [-38.601633, 82.77619], [-38.480336, 82.821519], [-38.477406, 82.831448], [-38.642568, 82.824612], [-38.743316, 82.834174], [-38.779124, 82.851955], [-38.786529, 82.866197], [-38.783315, 82.899075], [-38.824859, 82.916571], [-38.916331, 82.934475], [-38.909495, 82.934475], [-38.937245, 82.94538], [-39.009267, 82.948391], [-39.149648, 82.982245], [-39.09968, 83.00373], [-37.272084, 83.009589], [-37.595082, 83.041409], [-38.759185, 83.046576], [-38.800893, 83.05801], [-38.783274, 83.067776], [-36.934316, 83.141181], [-36.881012, 83.153551], [-36.902089, 83.160224], [-37.628326, 83.153551], [-37.525299, 83.167873], [-37.588368, 83.178371], [-37.908925, 83.18769], [-37.997426, 83.180732], [-38.026194, 83.18769], [-37.943674, 83.201972], [-38.519032, 83.201972], [-38.68342, 83.208401], [-38.732167, 83.231757], [-38.861684, 83.256659], [-38.795522, 83.275621], [-38.724477, 83.277086], [-38.759267, 83.304389], [-38.697133, 83.311835], [-38.697133, 83.318061], [-38.765614, 83.325019], [-38.827504, 83.352851], [-38.786122, 83.37995], [-38.738149, 83.393744], [-38.868479, 83.427314], [-38.839101, 83.436265], [-38.757192, 83.438463], [-38.690297, 83.425482], [-37.813059, 83.359524], [-37.738189, 83.372707], [-37.811635, 83.40351], [-37.982818, 83.413398], [-38.059682, 83.43476], [-37.916371, 83.455227], [-37.935129, 83.47606], [-37.964182, 83.48192], [-37.915679, 83.498928], [-37.585439, 83.508043], [-36.81371, 83.434638], [-36.704335, 83.392646], [-36.449778, 83.361762], [-36.401845, 83.372707], [-36.599843, 83.393744], [-36.609202, 83.404934], [-36.63683, 83.411566], [-36.696116, 83.414252], [-36.647694, 83.428412], [-36.483754, 83.43476], [-36.535471, 83.451158], [-36.857086, 83.480536], [-36.901479, 83.496161], [-36.785634, 83.49433], [-36.750722, 83.503607], [-36.813385, 83.509833], [-36.787343, 83.528022], [-36.738596, 83.538031], [-35.243601, 83.537177], [-34.702463, 83.606024], [-34.628529, 83.59162], [-34.564361, 83.551459], [-34.52123, 83.542182], [-34.477651, 83.549018], [-34.461578, 83.558295], [-34.441965, 83.589097], [-34.422109, 83.597317], [-34.362904, 83.602932], [-34.308258, 83.588609], [-34.295033, 83.554836], [-34.208485, 83.528306], [-33.945058, 83.485053], [-33.936147, 83.466295], [-33.924062, 83.462063], [-33.830474, 83.461982], [-33.784332, 83.469672], [-33.742787, 83.489407], [-34.007436, 83.529364], [-34.04955, 83.54206], [-34.085439, 83.56509], [-34.011464, 83.587592], [-32.490712, 83.634101], [-32.407582, 83.618964], [-32.207875, 83.613471], [-32.207875, 83.606024], [-32.303456, 83.591783], [-32.282948, 83.585517], [-32.303456, 83.571275], [-31.749989, 83.60871], [-31.633412, 83.58983], [-30.758778, 83.582994], [-30.647125, 83.601752], [-29.266225, 83.53384], [-29.213043, 83.524115], [-29.261464, 83.509833], [-29.213857, 83.487616], [-29.148305, 83.477525], [-29.081044, 83.478461], [-29.028717, 83.489407], [-29.055409, 83.509833], [-28.630116, 83.521959], [-28.555776, 83.514879], [-28.51415, 83.489407], [-28.674143, 83.475287], [-28.825673, 83.486762], [-28.92512, 83.475735], [-28.884633, 83.463446], [-28.562571, 83.420478], [-28.150461, 83.43476], [-28.445221, 83.455227], [-28.384633, 83.471259], [-25.649648, 83.297553], [-25.679351, 83.279853], [-25.719594, 83.269477], [-25.835927, 83.259182], [-26.075429, 83.208482], [-30.73644, 83.137112], [-30.891713, 83.105699], [-32.161733, 83.060981], [-32.237416, 83.077135], [-32.346344, 83.082953], [-32.446116, 83.105699], [-33.439809, 83.159613], [-33.482818, 83.146145], [-33.341868, 83.13996], [-33.238271, 83.116441], [-33.134429, 83.133775], [-32.50475, 83.065823], [-32.480458, 83.044257], [-32.490549, 83.038153], [-32.953847, 83.022284], [-33.051747, 83.002509], [-35.569447, 82.920233], [-35.620432, 82.907172], [-35.541331, 82.894232], [-35.372874, 82.901435], [-35.298248, 82.89289], [-35.420888, 82.868232], [-35.433217, 82.847154], [-35.449086, 82.838284], [-35.400706, 82.824612], [-35.400706, 82.818427], [-35.484283, 82.804104], [-35.530995, 82.787543], [-35.551503, 82.766547], [-35.526845, 82.750556], [-35.471018, 82.746161], [-35.374013, 82.749498], [-35.419545, 82.773017], [-35.424794, 82.783637], [-35.394439, 82.797919], [-35.293935, 82.812567], [-35.26415, 82.824612], [-35.312571, 82.845038], [-35.289418, 82.85456], [-34.951039, 82.904853], [-34.024281, 82.919623], [-33.843129, 82.886298], [-33.815663, 82.869615], [-33.804351, 82.841702], [-33.820912, 82.822699], [-33.934641, 82.797919], [-33.884633, 82.794501], [-33.72289, 82.817532], [-33.688222, 82.834866], [-33.735992, 82.907172], [-33.709788, 82.924628], [-33.602651, 82.94538], [-33.127797, 82.966742], [-33.04894, 82.982001], [-31.82665, 82.994574], [-31.738393, 82.978583], [-31.713287, 82.959133], [-31.728098, 82.948147], [-31.721425, 82.942328], [-31.665598, 82.931708], [-31.596669, 82.943183], [-31.584096, 82.968573], [-31.548818, 82.992743], [-31.391998, 83.020697], [-30.253651, 83.097235], [-30.096913, 83.126207], [-28.260894, 83.084662], [-28.251698, 83.060858], [-28.202301, 83.049872], [-28.142812, 83.047919], [-27.94811, 83.081773], [-27.492177, 83.07746], [-27.380971, 83.060614], [-26.618153, 83.067328], [-26.547841, 83.084662], [-25.221425, 83.167873], [-25.026763, 83.155951], [-24.840932, 83.112616], [-24.945668, 83.103461], [-24.971262, 83.092108], [-24.979807, 83.07803], [-24.907094, 83.04328], [-24.769439, 83.024807], [-24.755238, 83.010932], [-24.753651, 82.998277], [-24.894358, 82.955715], [-25.093251, 82.91177], [-25.12975, 82.892239], [-25.130605, 82.88109], [-25.108469, 82.872382], [-25.149281, 82.852851], [-25.587636, 82.790473], [-25.903554, 82.783637], [-25.872711, 82.774359], [-25.767201, 82.7685], [-25.686635, 82.775946], [-25.583404, 82.769355], [-25.516265, 82.786689], [-24.478017, 82.900336], [-24.252187, 82.886054], [-24.061757, 82.903876], [-23.996978, 82.917222], [-23.933095, 82.916409], [-23.872548, 82.908108], [-23.840403, 82.89289], [-24.025299, 82.872382], [-24.00178, 82.848212], [-23.911936, 82.822008], [-23.881337, 82.797919], [-23.912994, 82.779364], [-24.025299, 82.763129], [-23.799672, 82.774359], [-23.737945, 82.797919], [-23.748525, 82.813463], [-23.724965, 82.825914], [-23.662221, 82.838284], [-23.384185, 82.85224], [-23.209584, 82.837958], [-23.17634, 82.825995], [-23.176259, 82.803534], [-23.102162, 82.792304], [-22.935292, 82.798651], [-22.842275, 82.758857], [-22.751047, 82.771877], [-22.664906, 82.7744], [-22.646881, 82.785956], [-22.64859, 82.803534], [-22.565419, 82.796536], [-22.401723, 82.763861], [-22.191803, 82.747382], [-22.050893, 82.715074], [-21.81664, 82.701483], [-21.786733, 82.696682], [-21.784657, 82.680609], [-21.62328, 82.672309], [-21.477773, 82.640692], [-21.339508, 82.626288], [-21.32311, 82.618354], [-21.318512, 82.605536], [-21.325917, 82.598456], [-21.402821, 82.555243], [-21.538238, 82.543402], [-21.838857, 82.484809], [-22.140981, 82.461493], [-22.30602, 82.427395], [-22.217641, 82.406399], [-22.196156, 82.392564], [-22.225006, 82.37934], [-22.437327, 82.339993], [-23.837758, 82.293158], [-23.886708, 82.278876], [-29.852284, 82.13935], [-29.929677, 82.167304], [-30.223622, 82.170844], [-30.394846, 82.195258], [-31.582102, 82.22012], [-31.62564, 82.208238], [-30.287424, 82.169908], [-30.205434, 82.15648], [-30.08967, 82.152086], [-30.033518, 82.141099], [-29.973378, 82.112698], [-29.905141, 82.098375], [-29.943186, 82.085395], [-31.065256, 82.006537], [-31.139027, 81.995347], [-31.172597, 81.975531], [-31.225575, 81.967922], [-31.774037, 81.961371], [-31.839182, 81.939032], [-31.912343, 81.939114], [-31.987294, 81.923163], [-32.076039, 81.931057], [-32.562856, 81.883287], [-32.679189, 81.852688], [-32.779408, 81.841132], [-32.798451, 81.828925], [-32.813303, 81.794379], [-32.808502, 81.760728], [-32.785634, 81.7508], [-32.708119, 81.74494], [-32.70287, 81.719062], [-32.717681, 81.69184], [-32.667144, 81.676988], [-32.611806, 81.673733], [-32.503896, 81.684231], [-32.147939, 81.681301], [-32.144643, 81.705552], [-32.111887, 81.736233], [-31.934967, 81.792792], [-31.680165, 81.834784], [-30.803334, 81.865302], [-30.698964, 81.882473], [-30.591705, 81.881496], [-30.486195, 81.902981], [-30.112945, 81.919664], [-30.064198, 81.931057], [-29.788442, 81.948228], [-29.749664, 81.937567], [-29.570668, 81.943101], [-29.569936, 81.910061], [-29.564605, 81.896959], [-29.549672, 81.890041], [-29.341624, 81.903225], [-29.301747, 81.926459], [-29.282216, 81.967841], [-29.038564, 81.999905], [-28.785227, 81.999986], [-28.669545, 82.013902], [-28.554067, 82.00845], [-28.395253, 82.031806], [-28.246246, 82.022895], [-28.194325, 82.028551], [-27.937815, 82.025051], [-27.818959, 82.056138], [-27.761952, 82.062445], [-24.619862, 81.987494], [-24.698313, 81.924994], [-24.656239, 81.909898], [-24.625396, 81.879299], [-24.61677, 81.841498], [-24.641103, 81.804999], [-24.706207, 81.781195], [-26.314809, 81.616848], [-26.462392, 81.574042], [-26.607004, 81.560777], [-26.723012, 81.53148], [-26.47704, 81.511908], [-26.467437, 81.503323], [-26.470326, 81.490912], [-26.505605, 81.458075], [-26.444936, 81.434394], [-26.387196, 81.42772], [-25.616933, 81.560981], [-25.478871, 81.556383], [-24.529042, 81.646145], [-24.434641, 81.632758], [-24.313222, 81.675605], [-23.766347, 81.746039], [-23.475738, 81.714667], [-23.40392, 81.718817], [-23.355295, 81.740953], [-23.307729, 81.792548], [-23.32726, 81.799262], [-23.32136, 81.812445], [-23.336985, 81.836249], [-23.329701, 81.852037], [-23.361684, 81.873725], [-23.360463, 81.882392], [-23.288442, 81.90176], [-23.266225, 81.918891], [-23.272572, 81.934394], [-23.312123, 81.965033], [-23.234446, 81.990139], [-23.226226, 82.011176], [-23.195424, 82.022284], [-23.085683, 82.022691], [-23.124257, 82.003241], [-23.054677, 82.009589], [-22.95519, 82.04149], [-21.388417, 82.083441], [-21.327626, 82.076565], [-21.290639, 82.064114], [-21.120513, 81.978013], [-21.090688, 81.95775], [-21.056996, 81.913031], [-21.054921, 81.901435], [-21.089915, 81.857978], [-21.088206, 81.842841], [-21.056549, 81.821194], [-21.025624, 81.771633], [-21.03303, 81.744778], [-21.042104, 81.73192], [-21.078236, 81.724555], [-21.103993, 81.671576], [-21.123606, 81.652655], [-21.151357, 81.643622], [-21.145375, 81.636298], [-21.197621, 81.573635], [-21.256825, 81.517483], [-21.812652, 81.310452], [-22.057118, 81.278022], [-22.091054, 81.267727], [-22.097564, 81.219672], [-22.1822, 81.20482], [-22.255849, 81.202379], [-22.273305, 81.185248], [-22.271148, 81.150377], [-22.443471, 81.124335], [-22.560374, 81.120185], [-22.578684, 81.107489], [-22.584584, 81.080308], [-22.598297, 81.075019], [-22.66275, 81.064927], [-23.107004, 80.922187], [-23.177846, 80.918891], [-23.266754, 80.896308], [-23.275014, 80.88935], [-23.269643, 80.877346], [-23.21642, 80.849107], [-23.216054, 80.834662], [-23.22643, 80.823147], [-23.268951, 80.801337], [-23.36144, 80.77383], [-23.50178, 80.751166], [-23.457997, 80.730373], [-23.458974, 80.715522], [-23.474029, 80.707343], [-23.608754, 80.68358], [-23.715647, 80.67772], [-23.850413, 80.636298], [-23.884389, 80.61872], [-23.897084, 80.600653], [-23.88561, 80.586575], [-23.864735, 80.583564], [-23.246897, 80.712104], [-23.149037, 80.716864], [-23.093251, 80.727973], [-23.075795, 80.751207], [-23.124094, 80.762926], [-23.101959, 80.783637], [-22.914133, 80.824408], [-22.910634, 80.840033], [-22.922597, 80.851223], [-22.980133, 80.872504], [-22.971913, 80.880439], [-22.747548, 80.931464], [-22.305409, 80.96308], [-22.276479, 80.975084], [-22.23766, 81.016547], [-22.203765, 81.024807], [-22.085439, 81.010403], [-21.958974, 81.021389], [-21.938303, 81.034898], [-21.922719, 81.064032], [-21.896108, 81.07685], [-21.800526, 81.088202], [-21.460846, 81.167629], [-21.362782, 81.200385], [-20.951283, 81.235745], [-20.859609, 81.279486], [-20.754709, 81.290025], [-20.724192, 81.30386], [-20.705474, 81.351955], [-20.691762, 81.359605], [-20.0, 81.51046131811758], [-20.0, 80.59571295059503], [-20.222808, 80.566311], [-20.845448, 80.557359], [-20.800038, 80.540269], [-20.379791, 80.535061], [-20.360219, 80.525539], [-20.352406, 80.511542], [-20.352651, 80.460598], [-20.297515, 80.467108], [-20.222727, 80.496527], [-20.0, 80.538454914161], [-20.0, 80.12268632722552], [-20.171213, 80.104315], [-20.171742, 80.096991], [-20.0, 80.08548497788397], [-20.0, 80.06720080694686], [-20.05309, 80.041815], [-20.193959, 80.034125], [-20.228261, 80.023993], [-20.150543, 80.0126], [-20.077016, 79.989732], [-20.353383, 79.886054], [-20.423085, 79.839586], [-20.352406, 79.820136], [-20.101389, 79.82095], [-20.082143, 79.804145], [-20.06843, 79.763902], [-20.04601, 79.750312], [-20.0, 79.74789958428437], [-20.0, 78.82818878486216], [-20.238433, 78.826606], [-20.44164, 78.860785], [-20.650502, 78.830512], [-20.58023, 78.795478], [-20.56786, 78.776557], [-20.685943, 78.767239], [-20.948842, 78.783026], [-20.970815, 78.778876], [-20.978993, 78.766832], [-20.84203, 78.715277], [-20.861318, 78.704413], [-21.095815, 78.673041], [-21.192983, 78.644477], [-21.207753, 78.63288], [-20.890859, 78.627143], [-20.863271, 78.622016], [-20.842437, 78.608547], [-20.848215, 78.592597], [-20.88976, 78.564399], [-21.046864, 78.504543], [-21.064524, 78.489814], [-21.086415, 78.436469], [-21.109975, 78.415473], [-21.226064, 78.360745], [-21.295033, 78.299994], [-21.304351, 78.284084], [-21.299713, 78.269843], [-21.262929, 78.232123], [-21.23998, 78.184394], [-21.266672, 78.160631], [-21.366444, 78.144273], [-21.324371, 78.113105], [-21.316396, 78.097886], [-21.322336, 78.076809], [-21.629994, 77.998114], [-21.647125, 77.987454], [-21.640859, 77.978339], [-21.56314, 77.946926], [-21.547231, 77.932074], [-21.545318, 77.911933], [-21.557444, 77.898505], [-21.620839, 77.8758], [-21.814849, 77.850409], [-21.816762, 77.835028], [-21.794911, 77.810492], [-21.847035, 77.781317], [-21.876454, 77.739163], [-21.952219, 77.702786], [-21.967275, 77.679185], [-21.650502, 77.658637], [-21.49352, 77.673529], [-21.446767, 77.662584], [-21.604604, 77.550238], [-21.562367, 77.553168], [-21.51887, 77.583726], [-21.354563, 77.66413], [-21.292714, 77.674547], [-21.378326, 77.689276], [-21.408925, 77.712551], [-21.401479, 77.75019], [-21.373891, 77.776801], [-20.962148, 77.970364], [-20.937408, 77.9737], [-20.760569, 77.970608], [-20.029368, 77.813788], [-20.0, 77.8039813391457], [-20.0, 77.68742039402984], [-20.020375, 77.692532], [-20.092152, 77.701361], [-20.259755, 77.689195], [-20.355295, 77.659247], [-20.821523, 77.65351], [-20.809316, 77.631293], [-20.77477, 77.617011], [-20.343984, 77.554877], [-20.277333, 77.529527], [-20.27831, 77.518988], [-20.470326, 77.518622], [-20.481597, 77.514106], [-20.447336, 77.502265], [-20.441029, 77.49018], [-20.468007, 77.474433], [-20.538971, 77.478705], [-20.817616, 77.528266], [-20.892201, 77.530015], [-20.926259, 77.522406], [-20.91926, 77.509101], [-20.819325, 77.487535], [-20.203277, 77.421536], [-20.179799, 77.415595], [-20.16804, 77.40412], [-20.182281, 77.397284], [-20.465403, 77.382799], [-20.49177, 77.375312], [-20.502309, 77.362128], [-20.230133, 77.372504], [-20.0, 77.3581358585024], [-20.0, 76.92719231338195], [-20.223622, 76.931098], [-20.317616, 76.916815], [-20.513417, 76.945705], [-20.591217, 76.940985], [-20.582387, 76.929348], [-20.591298, 76.914862], [-20.746693, 76.887681], [-20.791656, 76.870063], [-20.879954, 76.88703], [-21.036204, 76.902411], [-21.350901, 76.887193], [-21.504262, 76.903469], [-21.730051, 76.890815], [-21.71288, 76.877631], [-21.681467, 76.873969], [-21.588124, 76.87519], [-21.435658, 76.859076], [-21.069203, 76.873603], [-21.01065, 76.869086], [-20.924957, 76.845364], [-20.805247, 76.850775], [-20.777333, 76.842353], [-20.944325, 76.826972], [-21.042958, 76.794013], [-21.09317, 76.787177], [-21.181386, 76.808295], [-21.285715, 76.80801], [-21.312327, 76.793931], [-21.284901, 76.785956], [-21.221913, 76.78913], [-21.194936, 76.780341], [-21.301015, 76.766262], [-21.329945, 76.746405], [-21.496327, 76.695217], [-21.667958, 76.684149], [-21.599721, 76.657416], [-21.623647, 76.64643], [-21.730051, 76.657416], [-21.819447, 76.695014], [-21.853505, 76.725084], [-21.926259, 76.764228], [-22.094594, 76.804755], [-22.15331, 76.844428], [-22.196156, 76.856676], [-22.265859, 76.859361], [-22.469879, 76.835598], [-22.469879, 76.828762], [-22.396352, 76.819973], [-22.382558, 76.812649], [-22.381174, 76.793931], [-22.30602, 76.753079], [-22.358022, 76.74079], [-22.532216, 76.753079], [-22.645619, 76.745836], [-22.702016, 76.729682], [-22.744211, 76.698432], [-22.722401, 76.682278], [-22.662587, 76.665961], [-22.515004, 76.665676], [-22.487294, 76.653998], [-22.463694, 76.638983], [-22.512441, 76.621568], [-22.5183, 76.616441], [-22.509104, 76.603664], [-22.436391, 76.568061], [-22.442494, 76.556952], [-22.432607, 76.550238], [-22.322865, 76.515041], [-22.292063, 76.515692], [-22.285227, 76.528062], [-22.324086, 76.552558], [-22.326527, 76.559556], [-22.312164, 76.568061], [-22.339508, 76.588568], [-22.265981, 76.604153], [-22.186025, 76.639879], [-22.145009, 76.645819], [-22.065785, 76.636949], [-22.093088, 76.630072], [-22.068105, 76.616116], [-21.935455, 76.622707], [-21.867177, 76.610541], [-21.805165, 76.588568], [-21.831899, 76.57685], [-22.003977, 76.557034], [-22.086293, 76.554999], [-22.00357, 76.530992], [-21.958241, 76.530219], [-21.935455, 76.547553], [-21.882069, 76.565375], [-21.810862, 76.561347], [-21.674794, 76.527086], [-22.01183, 76.482327], [-22.038482, 76.465644], [-21.831654, 76.476223], [-21.72289, 76.499742], [-21.68106, 76.490627], [-21.699941, 76.470201], [-21.792104, 76.43769], [-22.145253, 76.438544], [-22.228261, 76.449368], [-22.346995, 76.499742], [-22.436391, 76.499742], [-22.353261, 76.465644], [-22.382883, 76.449937], [-22.504018, 76.451361], [-22.41218, 76.42536], [-22.280751, 76.434638], [-22.190297, 76.411444], [-21.585439, 76.443061], [-21.577545, 76.437079], [-21.606516, 76.417222], [-21.571278, 76.397284], [-21.56725, 76.384711], [-21.643788, 76.336493], [-21.68224, 76.273261], [-21.704498, 76.255601], [-21.652089, 76.237738], [-21.546254, 76.223944], [-21.407948, 76.245917], [-21.407948, 76.253363], [-21.455719, 76.259589], [-21.437489, 76.281317], [-21.400136, 76.292792], [-21.358022, 76.294501], [-21.325917, 76.286851], [-21.407948, 76.273261], [-21.358022, 76.263332], [-21.120513, 76.284613], [-20.919097, 76.221869], [-20.796946, 76.210191], [-20.698842, 76.167873], [-20.613881, 76.164374], [-20.558217, 76.149726], [-20.674916, 76.136054], [-20.655141, 76.124091], [-20.485829, 76.1435], [-20.42101, 76.136054], [-20.42101, 76.1435], [-20.455881, 76.144965], [-20.558217, 76.170844], [-20.636627, 76.17768], [-20.678212, 76.198147], [-20.871693, 76.230862], [-20.908274, 76.264472], [-21.01065, 76.259589], [-21.085683, 76.294338], [-21.062978, 76.311103], [-21.024403, 76.317328], [-20.894439, 76.307929], [-20.690745, 76.258124], [-20.586578, 76.246649], [-20.489125, 76.223578], [-20.306304, 76.227769], [-20.229237, 76.245917], [-20.0, 76.25538836196883], [-20.0, 76.06214643967037], [-20.269399, 75.992336], [-21.565297, 75.985541], [-21.654897, 75.971625], [-21.805531, 75.992906], [-21.838979, 76.004625], [-21.897328, 76.042141], [-21.92394, 76.048163], [-21.955922, 76.040473], [-21.941721, 76.020657], [-21.983876, 75.992662], [-21.908193, 75.985826], [-21.915028, 75.985826], [-21.880849, 75.965399], [-21.844838, 75.957831], [-21.300079, 75.965399], [-20.574086, 75.962388], [-20.444692, 75.947984], [-20.332265, 75.923774], [-20.0, 75.93234870474303], [-20.0, 75.3022728494307], [-20.06432, 75.310777], [-20.140248, 75.336086], [-20.307037, 75.336249], [-20.40392, 75.31273], [-20.667836, 75.293158], [-20.713694, 75.299465], [-20.852773, 75.346625], [-21.025014, 75.368801], [-21.161488, 75.404934], [-21.199941, 75.421576], [-21.236887, 75.477484], [-21.284739, 75.495429], [-21.669057, 75.592678], [-22.263092, 75.669501], [-22.281158, 75.65998], [-22.259104, 75.644599], [-21.592356, 75.522895], [-21.407948, 75.458319], [-21.443349, 75.449612], [-22.399322, 75.51557], [-22.461334, 75.534573], [-22.476715, 75.560696], [-22.504628, 75.551337], [-22.5065, 75.539537], [-22.497792, 75.527167], [-22.461415, 75.509467], [-21.429189, 75.43183], [-21.385732, 75.415473], [-21.352651, 75.382514], [-21.313873, 75.363715], [-20.977895, 75.315009], [-20.833404, 75.250556], [-20.651275, 75.224799], [-20.559926, 75.197252], [-20.517201, 75.14232], [-20.6905, 75.125474], [-20.996978, 75.14232], [-21.07311, 75.12519], [-21.181996, 75.121894], [-21.579091, 75.004381], [-21.760732, 74.985297], [-21.858388, 75.01557], [-21.867177, 75.043362], [-21.885243, 75.066962], [-21.926869, 75.08275], [-22.346791, 75.168524], [-22.436391, 75.170233], [-22.410268, 75.154608], [-22.143951, 75.108059], [-21.941721, 75.054185], [-21.953236, 75.036933], [-22.018056, 75.018866], [-21.928619, 75.005805], [-21.867177, 74.978461], [-21.769114, 74.960191], [-21.667958, 74.957994], [-21.509389, 74.980211], [-21.115956, 75.090888], [-20.838735, 75.067288], [-20.676625, 75.074408], [-20.626373, 75.06037], [-20.640736, 75.054185], [-20.641835, 75.023749], [-20.713979, 74.98017], [-20.719553, 74.961412], [-20.686635, 74.928046], [-20.68224, 74.898179], [-20.690175, 74.887397], [-20.762318, 74.857245], [-20.764231, 74.840725], [-20.723256, 74.807196], [-20.616689, 74.752509], [-20.609731, 74.734849], [-20.7919, 74.665961], [-21.097646, 74.673163], [-21.119944, 74.666897], [-21.095815, 74.654283], [-21.041005, 74.64704], [-20.700754, 74.647773], [-20.642445, 74.665432], [-20.521108, 74.684312], [-20.349355, 74.6706], [-20.154693, 74.676825], [-20.071523, 74.663153], [-20.0, 74.63208596494846], [-20.0, 74.26537841984229], [-20.200673, 74.279771], [-20.222401, 74.296332], [-20.214915, 74.320543], [-20.236073, 74.334215], [-20.242828, 74.3758], [-20.372914, 74.448432], [-20.448883, 74.437242], [-20.46939, 74.457099], [-20.498158, 74.459621], [-20.58552, 74.450873], [-20.655995, 74.464301], [-20.829213, 74.45246], [-21.255035, 74.474189], [-21.628896, 74.446763], [-21.805531, 74.478949], [-21.822499, 74.488105], [-21.850087, 74.529446], [-21.875885, 74.546942], [-22.046539, 74.600084], [-22.081776, 74.602973], [-22.114247, 74.594224], [-22.07844, 74.575995], [-21.938873, 74.532294], [-21.874013, 74.474799], [-21.771637, 74.438707], [-21.768788, 74.415269], [-21.792226, 74.406073], [-21.828114, 74.374945], [-21.963775, 74.334866], [-22.051584, 74.320543], [-22.206858, 74.321967], [-22.302073, 74.30329], [-22.436391, 74.320543], [-22.471018, 74.313666], [-22.346995, 74.286444], [-22.166493, 74.300116], [-22.069081, 74.294257], [-22.038482, 74.251654], [-22.058909, 74.231879], [-22.13915, 74.201809], [-22.24059, 74.179755], [-22.304107, 74.175605], [-22.339508, 74.162909], [-22.310129, 74.156684], [-22.209828, 74.169745], [-22.155181, 74.12873], [-22.176015, 74.112616], [-22.333363, 74.09398], [-22.416249, 74.101752], [-22.487945, 74.080959], [-22.454213, 74.064521], [-22.347157, 74.057359], [-22.284291, 74.039374], [-22.088287, 74.025092], [-21.988678, 73.998725], [-22.004384, 73.970445], [-21.985422, 73.961371], [-21.996938, 73.943183], [-21.859731, 73.902248], [-21.867177, 73.895413], [-21.812652, 73.847602], [-21.840484, 73.817206], [-21.833079, 73.792385], [-21.853505, 73.772528], [-21.851064, 73.747626], [-21.832428, 73.715399], [-21.833079, 73.693671], [-21.847239, 73.666409], [-21.827138, 73.651679], [-21.801503, 73.663275], [-21.769154, 73.65644], [-21.702748, 73.696723], [-21.72411, 73.727851], [-21.757314, 73.75137], [-21.743642, 73.758857], [-21.754547, 73.77025], [-21.76415, 73.806586], [-21.749867, 73.823676], [-21.765492, 73.848538], [-21.758127, 73.866441], [-21.812652, 73.915839], [-21.86852, 73.918931], [-21.884267, 73.926418], [-21.886708, 73.935736], [-21.867584, 73.950141], [-21.870595, 73.960883], [-21.915028, 73.977932], [-21.900746, 73.992174], [-21.908559, 74.015815], [-21.870229, 74.034247], [-21.784657, 74.053046], [-21.590077, 74.057685], [-20.688588, 73.886461], [-20.365793, 73.895413], [-20.319163, 73.891669], [-20.277577, 73.875474], [-20.265492, 73.844794], [-20.249664, 73.841376], [-20.279652, 73.82274], [-20.287709, 73.797919], [-20.297678, 73.790595], [-20.449127, 73.775336], [-20.483022, 73.758857], [-20.45759, 73.742825], [-20.427846, 73.737738], [-20.427846, 73.731513], [-20.520497, 73.728949], [-20.530873, 73.710395], [-20.499827, 73.686835], [-20.462554, 73.635321], [-20.482981, 73.619452], [-20.481313, 73.597724], [-20.521596, 73.571438], [-20.520579, 73.556464], [-20.488759, 73.544013], [-20.411285, 73.545722], [-20.383697, 73.536038], [-20.382476, 73.51789], [-20.400543, 73.496527], [-20.449778, 73.465766], [-20.543284, 73.449042], [-21.280914, 73.45718], [-21.453725, 73.48664], [-21.543202, 73.490424], [-21.620188, 73.45718], [-21.60497, 73.455797], [-21.555328, 73.424384], [-21.549875, 73.408596], [-21.572418, 73.395087], [-21.653554, 73.392157], [-21.777821, 73.374661], [-21.963368, 73.333686], [-22.106801, 73.279039], [-22.208363, 73.253974], [-22.314076, 73.250434], [-23.095815, 73.350165], [-23.223459, 73.400458], [-23.449941, 73.436103], [-23.587148, 73.49136], [-23.820221, 73.546698], [-23.917307, 73.582953], [-23.968495, 73.588568], [-23.987782, 73.597398], [-24.015736, 73.631578], [-24.032826, 73.696723], [-24.015696, 73.718899], [-23.982981, 73.724351], [-23.916086, 73.717231], [-23.766957, 73.723131], [-23.688466, 73.710273], [-23.571685, 73.716498], [-23.516754, 73.710679], [-23.344106, 73.658189], [-23.127065, 73.63227], [-22.843129, 73.560777], [-22.662221, 73.548651], [-22.613393, 73.562567], [-22.492747, 73.572414], [-22.367502, 73.607367], [-22.175038, 73.627875], [-22.208852, 73.632636], [-22.328236, 73.626125], [-22.374908, 73.614814], [-22.436391, 73.614814], [-22.609731, 73.573065], [-22.799469, 73.567613], [-22.866567, 73.579413], [-22.938791, 73.617743], [-23.168813, 73.655748], [-23.162587, 73.655748], [-23.552968, 73.735745], [-23.82608, 73.737738], [-23.86384, 73.744086], [-24.005116, 73.812323], [-24.060048, 73.820258], [-24.168528, 73.802558], [-24.248402, 73.780422], [-24.340566, 73.778713], [-24.333363, 73.752916], [-24.409535, 73.727769], [-24.433461, 73.711615], [-24.471588, 73.655748], [-24.375396, 73.559556], [-24.397532, 73.546373], [-24.456858, 73.541449], [-24.941518, 73.612494], [-24.984771, 73.628485], [-24.995188, 73.645209], [-24.968739, 73.685207], [-24.973785, 73.702338], [-24.998606, 73.717231], [-25.178212, 73.749742], [-25.344635, 73.820868], [-25.430287, 73.823676], [-25.518666, 73.915839], [-25.690663, 73.957465], [-25.720937, 73.949408], [-25.739084, 73.929511], [-25.726308, 73.91828], [-25.590077, 73.866848], [-25.563385, 73.845526], [-25.574574, 73.827094], [-25.550893, 73.811225], [-25.458485, 73.786119], [-25.386708, 73.755194], [-25.293528, 73.744289], [-25.087961, 73.696723], [-25.087961, 73.662665], [-25.111562, 73.637152], [-25.05663, 73.60163], [-25.007436, 73.586575], [-24.851186, 73.567043], [-24.834584, 73.555487], [-24.679596, 73.524644], [-24.686676, 73.508694], [-24.719106, 73.492499], [-25.292226, 73.473538], [-25.498891, 73.402533], [-25.47997, 73.395697], [-25.440785, 73.402045], [-25.423736, 73.395087], [-25.439809, 73.383857], [-25.436757, 73.354153], [-25.452626, 73.345771], [-25.570872, 73.326972], [-25.704945, 73.272203], [-25.762563, 73.259833], [-25.879506, 73.255316], [-25.965403, 73.241889], [-26.150624, 73.240871], [-26.324941, 73.316311], [-26.405995, 73.339545], [-26.485707, 73.347317], [-26.564565, 73.326239], [-26.643666, 73.325141], [-26.825551, 73.342678], [-27.170766, 73.445624], [-27.229604, 73.488227], [-27.261708, 73.497016], [-27.332387, 73.498114], [-27.450103, 73.457221], [-27.459055, 73.443549], [-27.341217, 73.443101], [-27.287465, 73.410712], [-27.128774, 73.354193], [-26.905873, 73.324449], [-26.855702, 73.306342], [-26.759429, 73.306342], [-26.447255, 73.280341], [-26.401601, 73.263495], [-26.396962, 73.238023], [-26.53661, 73.227729], [-26.581939, 73.216986], [-26.607818, 73.202786], [-26.615468, 73.179389], [-26.713368, 73.134711], [-26.86441, 73.151516], [-26.915517, 73.166409], [-27.089345, 73.190375], [-27.198232, 73.182196], [-27.232411, 73.189643], [-27.39981, 73.162543], [-27.604156, 73.166571], [-27.671132, 73.159166], [-27.725901, 73.134426], [-27.675608, 73.122626], [-27.473378, 73.133287], [-27.431752, 73.126939], [-27.403554, 73.110663], [-27.411285, 73.079779], [-27.403798, 73.072943], [-27.411285, 73.066107], [-27.363759, 73.003485], [-27.381744, 72.983059], [-27.438466, 72.956855], [-27.507395, 72.947089], [-27.527903, 72.936428], [-27.483062, 72.925686], [-27.400787, 72.954495], [-27.327626, 72.968329], [-27.317535, 72.981594], [-27.321848, 73.029242], [-27.293365, 73.074164], [-27.31432, 73.097154], [-27.297841, 73.114163], [-27.260121, 73.127183], [-27.150299, 73.147528], [-26.706532, 73.102118], [-26.651682, 73.103217], [-26.602122, 73.117987], [-26.492543, 73.182807], [-26.444488, 73.196682], [-25.999013, 73.202582], [-25.887278, 73.190863], [-25.720611, 73.138129], [-25.052561, 73.08393], [-25.03954, 73.052476], [-24.984283, 73.025784], [-25.006459, 72.997748], [-25.074941, 72.976955], [-25.13561, 72.939765], [-25.262196, 72.918891], [-25.320709, 72.893012], [-25.696156, 72.902737], [-25.739858, 72.896308], [-25.871571, 72.830878], [-25.988678, 72.79682], [-26.082631, 72.782416], [-26.177642, 72.778022], [-26.265981, 72.78559], [-26.599965, 72.862372], [-26.782786, 72.872138], [-27.102691, 72.825995], [-27.149078, 72.825751], [-27.272084, 72.859117], [-27.317372, 72.863227], [-27.355946, 72.860663], [-27.387563, 72.846381], [-27.36266, 72.833157], [-27.149526, 72.804185], [-26.944447, 72.828925], [-26.700307, 72.832506], [-26.396962, 72.771308], [-26.540435, 72.746527], [-26.669504, 72.740709], [-26.780588, 72.716702], [-26.719716, 72.704088], [-26.349477, 72.74494], [-26.306996, 72.730373], [-26.362172, 72.648424], [-26.388092, 72.627387], [-26.452952, 72.600043], [-26.479563, 72.579535], [-26.468984, 72.576972], [-26.405873, 72.586819], [-26.233062, 72.690904], [-26.208323, 72.713324], [-26.177642, 72.725898], [-26.092926, 72.715725], [-25.882558, 72.741034], [-25.609446, 72.831488], [-25.522776, 72.840237], [-25.341542, 72.79857], [-25.256215, 72.811184], [-25.231313, 72.806098], [-25.201894, 72.765367], [-25.186594, 72.759426], [-25.149403, 72.752021], [-25.067494, 72.752021], [-24.998891, 72.730373], [-24.848378, 72.724107], [-24.793121, 72.70303], [-24.716786, 72.686428], [-24.696889, 72.675727], [-24.742665, 72.646633], [-24.715321, 72.611396], [-24.724233, 72.586982], [-24.692128, 72.584906], [-24.663401, 72.57331], [-24.690053, 72.552191], [-24.668284, 72.544623], [-24.623769, 72.55622], [-24.601308, 72.552191], [-24.610178, 72.53266], [-24.702545, 72.507514], [-24.887359, 72.468451], [-25.132314, 72.436184], [-25.909739, 72.422512], [-25.909739, 72.415676], [-25.734853, 72.391791], [-25.423573, 72.405585], [-25.28893, 72.39057], [-25.300771, 72.373928], [-25.495839, 72.230658], [-25.495473, 72.204006], [-25.464752, 72.162421], [-25.526194, 72.127631], [-25.507314, 72.123765], [-25.458485, 72.129096], [-25.402821, 72.148627], [-25.395823, 72.175442], [-25.408681, 72.20185], [-25.403188, 72.217027], [-25.36852, 72.248765], [-25.375356, 72.264228], [-25.180979, 72.365383], [-25.019683, 72.381537], [-24.923451, 72.402004], [-24.82787, 72.436184], [-24.738189, 72.408189], [-24.683258, 72.422512], [-24.628651, 72.415676], [-24.546376, 72.423407], [-24.518788, 72.415676], [-24.45051, 72.370673], [-24.34203, 72.331732], [-24.277903, 72.319159], [-24.23762, 72.326321], [-24.265492, 72.340522], [-24.233795, 72.336737], [-24.045806, 72.271674], [-23.943227, 72.270982], [-23.900461, 72.259182], [-23.81664, 72.253607], [-23.806793, 72.230658], [-23.843373, 72.227037], [-23.874501, 72.236884], [-23.895009, 72.230658], [-23.871816, 72.217434], [-23.794423, 72.217027], [-23.77595, 72.222642], [-23.77953, 72.236884], [-23.76122, 72.244452], [-23.710683, 72.217027], [-23.717519, 72.203355], [-23.711252, 72.181952], [-23.809071, 72.134752], [-23.820546, 72.113959], [-23.789703, 72.112738], [-23.691721, 72.148424], [-23.620269, 72.15644], [-23.086822, 72.058783], [-23.105824, 72.040676], [-23.196685, 72.017768], [-23.142812, 72.000678], [-23.114329, 71.995795], [-23.059682, 72.011176], [-23.005686, 72.011135], [-22.932688, 71.992662], [-22.681386, 71.958319], [-22.61852, 71.936021], [-22.554351, 71.924872], [-22.503407, 71.900784], [-22.503407, 71.889472], [-22.544911, 71.874457], [-22.665273, 71.86107], [-22.728749, 71.84516], [-22.736806, 71.81977], [-22.783315, 71.791409], [-22.961985, 71.748969], [-23.059967, 71.712104], [-23.107818, 71.685777], [-23.135325, 71.655341], [-23.123199, 71.631903], [-23.011708, 71.641059], [-22.91218, 71.672675], [-22.867421, 71.696275], [-22.572621, 71.767727], [-22.415761, 71.796536], [-22.408437, 71.771389], [-22.427113, 71.753241], [-22.533559, 71.714179], [-22.55248, 71.696275], [-22.654856, 71.668362], [-22.655507, 71.65058], [-22.632476, 71.610541], [-22.634429, 71.581366], [-22.59553, 71.574123], [-22.577504, 71.597357], [-22.600209, 71.606879], [-22.600209, 71.613105], [-22.478993, 71.641059], [-22.422353, 71.626532], [-22.394154, 71.627387], [-22.401601, 71.641059], [-22.384185, 71.658108], [-22.342275, 71.670356], [-22.305084, 71.697211], [-22.30602, 71.729804], [-22.214426, 71.756496], [-22.16039, 71.75727], [-22.140981, 71.743476], [-22.160512, 71.722357], [-22.13915, 71.716376], [-21.894521, 71.743476], [-21.941721, 71.722968], [-21.946848, 71.711005], [-22.024892, 71.703111], [-21.990102, 71.688788], [-22.012929, 71.674709], [-22.078765, 71.670722], [-22.190541, 71.648627], [-22.216664, 71.634833], [-22.099965, 71.613105], [-22.148305, 71.590155], [-22.276112, 71.596177], [-22.425445, 71.586412], [-22.507436, 71.552232], [-22.535756, 71.474677], [-22.493153, 71.412258], [-22.497792, 71.367336], [-22.449371, 71.339342], [-22.4676, 71.318345], [-22.469879, 71.298407], [-22.45523, 71.287746], [-22.476715, 71.264309], [-22.3933, 71.256822], [-22.355377, 71.269843], [-22.333974, 71.329169], [-22.358022, 71.336249], [-22.359934, 71.343492], [-22.30602, 71.415107], [-22.286, 71.430854], [-22.132395, 71.490912], [-22.05602, 71.496894], [-22.004384, 71.49018], [-21.941314, 71.463528], [-21.921783, 71.469713], [-21.955922, 71.497016], [-21.881459, 71.493232], [-21.894521, 71.517524], [-21.869862, 71.514228], [-21.841705, 71.490912], [-21.818756, 71.49018], [-21.798818, 71.514106], [-21.784657, 71.517524], [-21.764638, 71.508002], [-21.749867, 71.49018], [-21.874013, 71.448635], [-21.836578, 71.440985], [-21.755605, 71.449164], [-21.715728, 71.442369], [-21.818756, 71.428778], [-21.818756, 71.421332], [-21.695668, 71.41649], [-21.667958, 71.401435], [-21.838612, 71.369818], [-21.853505, 71.3605], [-21.856191, 71.348619], [-21.790395, 71.362738], [-21.715728, 71.3605], [-21.818756, 71.318915], [-21.730051, 71.333197], [-21.606516, 71.333197], [-21.606516, 71.325751], [-21.963368, 71.270453], [-21.887685, 71.257473], [-21.887685, 71.250637], [-21.915028, 71.243801], [-21.889516, 71.236965], [-21.862375, 71.240383], [-21.796498, 71.271145], [-21.738515, 71.254462], [-21.723215, 71.243801], [-21.749867, 71.237006], [-21.749867, 71.229478], [-21.703114, 71.218736], [-21.661122, 71.188544], [-21.712799, 71.137885], [-21.743642, 71.144192], [-21.810862, 71.19359], [-21.846669, 71.19538], [-21.820383, 71.157904], [-21.833079, 71.14761], [-21.802235, 71.146064], [-21.715728, 71.119696], [-21.751047, 71.110297], [-22.161529, 71.067694], [-22.333363, 71.059475], [-22.296051, 71.041571], [-21.969879, 71.06566], [-21.886342, 71.056871], [-21.867177, 71.06566], [-21.874013, 71.072455], [-21.784983, 71.086127], [-21.696848, 71.078925], [-21.674794, 71.06566], [-21.677073, 71.031155], [-21.661122, 71.024115], [-21.772369, 70.998033], [-21.833079, 70.995307], [-21.888173, 70.979071], [-21.990102, 70.976264], [-21.990102, 70.968817], [-21.915028, 70.962592], [-21.723948, 70.992743], [-21.695302, 70.9831], [-21.798655, 70.944729], [-21.792104, 70.927883], [-21.697255, 70.962592], [-21.667958, 70.955797], [-21.702748, 70.942125], [-21.667104, 70.937974], [-21.60025, 70.964789], [-21.572418, 70.955797], [-21.612172, 70.929429], [-21.714833, 70.890611], [-21.757314, 70.8664], [-21.700429, 70.836412], [-21.744293, 70.800279], [-21.826934, 70.798896], [-21.887278, 70.8133], [-21.928619, 70.812445], [-21.912831, 70.796332], [-21.882436, 70.785305], [-21.822825, 70.777045], [-21.665842, 70.802232], [-21.63915, 70.800605], [-21.633778, 70.795071], [-21.642242, 70.774237], [-21.717681, 70.752672], [-21.76773, 70.750963], [-21.792104, 70.736029], [-21.723378, 70.743394], [-21.702748, 70.736029], [-21.666249, 70.747301], [-21.617747, 70.743557], [-21.572499, 70.729397], [-21.545725, 70.709377], [-21.76415, 70.709377], [-21.76415, 70.702582], [-21.74352, 70.696845], [-21.630442, 70.691352], [-21.579213, 70.674628], [-21.654286, 70.667792], [-21.620188, 70.64053], [-21.64566, 70.633694], [-21.757314, 70.633694], [-21.737416, 70.613186], [-21.762766, 70.605129], [-21.771148, 70.590074], [-21.760854, 70.57807], [-21.730051, 70.579047], [-21.653188, 70.599311], [-21.620188, 70.592719], [-21.620188, 70.585273], [-21.674794, 70.571601], [-21.651031, 70.563463], [-21.565541, 70.558539], [-21.539906, 70.542914], [-21.516347, 70.553127], [-21.476796, 70.544867], [-21.538238, 70.497056], [-21.663726, 70.435533], [-21.751698, 70.426947], [-21.79308, 70.440375], [-21.840688, 70.432359], [-21.940053, 70.390326], [-21.990387, 70.397447], [-21.999827, 70.411363], [-21.955922, 70.448717], [-21.943715, 70.470364], [-22.022857, 70.499498], [-22.076283, 70.501899], [-22.129547, 70.493232], [-22.284169, 70.446275], [-22.341379, 70.43891], [-22.381174, 70.448717], [-22.402008, 70.465277], [-22.415883, 70.49726], [-22.417714, 70.534125], [-22.408437, 70.565375], [-22.415883, 70.571601], [-22.408437, 70.579047], [-22.439931, 70.639228], [-22.472524, 70.665107], [-22.464955, 70.711615], [-22.429189, 70.811184], [-22.428863, 70.845933], [-22.479156, 70.855414], [-22.531321, 70.845933], [-22.572906, 70.825426], [-22.608062, 70.770006], [-22.586008, 70.743557], [-22.64859, 70.723049], [-22.641184, 70.715562], [-22.648305, 70.701728], [-22.634674, 70.684068], [-22.64859, 70.664374], [-22.641103, 70.650214], [-22.589752, 70.623114], [-22.56607, 70.571601], [-22.600413, 70.475531], [-22.632558, 70.445461], [-22.660878, 70.438463], [-23.017201, 70.440375], [-23.097157, 70.426337], [-23.345448, 70.440579], [-23.682729, 70.544867], [-23.809397, 70.568996], [-23.929799, 70.613186], [-24.066274, 70.689683], [-24.080556, 70.715562], [-24.0985, 70.723863], [-24.112375, 70.751776], [-24.182973, 70.804999], [-24.207509, 70.861314], [-24.227854, 70.931627], [-24.223988, 70.955797], [-24.195627, 71.012274], [-24.264882, 71.081366], [-24.42748, 71.164008], [-24.569651, 71.217719], [-24.583323, 71.228339], [-24.585317, 71.242418], [-24.573394, 71.264309], [-24.669423, 71.271959], [-24.683258, 71.28852], [-24.673818, 71.30093], [-24.61498, 71.339342], [-24.63801, 71.361762], [-24.744985, 71.333197], [-24.799916, 71.333197], [-24.847727, 71.307318], [-24.891469, 71.306383], [-24.911855, 71.317328], [-24.964467, 71.318915], [-25.036122, 71.305243], [-25.096059, 71.304836], [-25.121978, 71.31151], [-25.17219, 71.347073], [-25.265492, 71.374172], [-25.307688, 71.40766], [-25.377268, 71.445787], [-25.438466, 71.449368], [-25.526601, 71.483385], [-25.575592, 71.520413], [-25.621734, 71.538642], [-25.759511, 71.545478], [-25.859731, 71.571723], [-25.992909, 71.566962], [-26.076039, 71.586371], [-26.190907, 71.57217], [-26.275502, 71.570502], [-26.319447, 71.578315], [-26.35261, 71.596666], [-26.401479, 71.642483], [-26.424306, 71.641059], [-26.453847, 71.623847], [-26.468658, 71.575873], [-26.500356, 71.559719], [-26.597646, 71.547431], [-26.785146, 71.546536], [-26.814687, 71.558498], [-26.935618, 71.580797], [-27.157948, 71.668362], [-27.211985, 71.722968], [-27.204498, 71.729804], [-27.222727, 71.745063], [-27.325917, 71.780504], [-27.382395, 71.786363], [-27.420522, 71.80386], [-27.464345, 71.810492], [-27.614613, 71.866929], [-27.622222, 71.881171], [-27.602366, 71.901679], [-27.881744, 71.978827], [-27.931386, 72.010484], [-27.966054, 71.983629], [-28.005198, 71.975328], [-28.069203, 71.977362], [-28.206288, 71.997952], [-28.329213, 72.052558], [-28.460072, 72.081732], [-28.558339, 72.123481], [-28.620269, 72.134467], [-28.632802, 72.131008], [-28.651357, 72.107815], [-28.705963, 72.093492], [-28.705963, 72.086086], [-28.674143, 72.081], [-28.607289, 72.088813], [-28.460113, 72.062445], [-28.360422, 72.007148], [-28.402496, 71.990668], [-28.468739, 71.978339], [-28.490224, 71.959418], [-28.456939, 71.939399], [-27.861806, 71.908026], [-27.824086, 71.897284], [-27.801625, 71.874457], [-27.993398, 71.901679], [-28.034088, 71.878567], [-27.968007, 71.871161], [-27.33137, 71.718817], [-27.379262, 71.65648], [-27.40803, 71.642483], [-27.63268, 71.652493], [-27.684926, 71.647895], [-27.811025, 71.612006], [-27.85436, 71.606879], [-27.9829, 71.630845], [-28.007069, 71.613105], [-27.931956, 71.600043], [-27.96227, 71.589423], [-28.391225, 71.57217], [-28.474273, 71.585395], [-28.493642, 71.579535], [-28.487782, 71.57217], [-28.493642, 71.565904], [-28.419911, 71.54975], [-27.908111, 71.57038], [-27.80012, 71.595852], [-27.650787, 71.613105], [-27.122548, 71.57217], [-27.138295, 71.555813], [-27.168691, 71.544257], [-27.250803, 71.528266], [-27.306549, 71.526313], [-27.328603, 71.517524], [-27.219594, 71.481391], [-27.204742, 71.482123], [-27.175526, 71.509263], [-27.034413, 71.531195], [-26.814687, 71.503852], [-26.741607, 71.503974], [-26.687082, 71.481594], [-26.522328, 71.488918], [-26.446889, 71.510077], [-26.321278, 71.497016], [-26.266103, 71.509101], [-26.156117, 71.49018], [-26.108266, 71.489488], [-26.013295, 71.50316], [-25.805043, 71.490668], [-25.727366, 71.474433], [-25.55602, 71.386949], [-25.444203, 71.380316], [-25.410064, 71.353664], [-25.4169, 71.284735], [-25.504506, 71.235541], [-25.512522, 71.215888], [-25.544057, 71.21601], [-25.709096, 71.261217], [-25.749379, 71.264716], [-25.780019, 71.257473], [-25.739247, 71.235785], [-25.5808, 71.188544], [-25.601918, 71.169582], [-25.680247, 71.156236], [-25.7235, 71.135321], [-25.93692, 71.094957], [-26.002065, 71.062201], [-26.095326, 71.059475], [-26.170481, 71.045152], [-26.253041, 71.041246], [-26.300771, 71.006659], [-26.33849, 71.005316], [-26.425608, 70.974555], [-26.828359, 70.935289], [-27.154205, 70.949612], [-27.252919, 70.935289], [-27.506174, 70.942125], [-27.575063, 71.011054], [-27.740468, 71.102973], [-27.771352, 71.146715], [-27.806386, 71.156562], [-27.848785, 71.140774], [-27.90746, 71.140326], [-27.92512, 71.133979], [-27.912343, 71.115465], [-27.869862, 71.089179], [-27.811879, 71.035956], [-27.789662, 71.022528], [-27.731801, 71.013983], [-27.665598, 70.992133], [-27.637766, 70.976264], [-27.618153, 70.953803], [-27.635732, 70.943996], [-27.705393, 70.942125], [-27.8426, 70.976264], [-27.9558, 70.976264], [-28.017242, 70.996772], [-28.183013, 70.974311], [-28.246693, 70.979438], [-28.291331, 70.996772], [-28.397613, 70.981269], [-28.411122, 70.968817], [-28.107004, 70.939276], [-28.067738, 70.922431], [-28.061635, 70.894355], [-27.993642, 70.899115], [-27.920888, 70.881293], [-27.920888, 70.868069], [-27.974233, 70.816718], [-28.010487, 70.739814], [-28.041575, 70.712388], [-28.150461, 70.647935], [-28.190175, 70.633246], [-28.240142, 70.626776], [-28.336049, 70.626207], [-28.315297, 70.608588], [-28.239817, 70.599514], [-28.239817, 70.592719], [-28.310292, 70.56387], [-28.416656, 70.541246], [-28.541493, 70.538072], [-28.596425, 70.517646], [-28.716176, 70.52383], [-29.036, 70.479722], [-29.076487, 70.462958], [-29.198638, 70.468655], [-29.222483, 70.461615], [-29.23412, 70.448065], [-29.23351, 70.44184], [-29.179555, 70.421373], [-29.206207, 70.39411], [-29.110585, 70.39411], [-28.97936, 70.419908], [-28.936391, 70.443345], [-28.787913, 70.469794], [-28.573598, 70.474433], [-28.542104, 70.478909], [-28.493642, 70.504828], [-28.281361, 70.510728], [-28.29894, 70.497219], [-28.321685, 70.497056], [-28.301259, 70.47663], [-28.348785, 70.433987], [-28.325103, 70.40705], [-28.2329, 70.372016], [-27.183583, 70.456692], [-27.063791, 70.442165], [-26.905588, 70.454576], [-26.80012, 70.480129], [-26.743316, 70.484117], [-26.529205, 70.474189], [-26.483754, 70.461615], [-26.321278, 70.379788], [-26.363393, 70.359809], [-26.445872, 70.351467], [-26.455963, 70.345404], [-26.451568, 70.331977], [-26.698638, 70.290432], [-26.853749, 70.301011], [-26.935048, 70.326117], [-26.971791, 70.328681], [-27.019032, 70.30744], [-27.081614, 70.297838], [-27.138661, 70.271918], [-27.295074, 70.250067], [-27.435292, 70.176011], [-27.703521, 70.135443], [-27.818715, 70.098944], [-27.903961, 70.092434], [-28.1079, 70.143704], [-28.25414, 70.14525], [-28.315419, 70.135647], [-28.424875, 70.093207], [-28.480051, 70.085598], [-28.57372, 70.099677], [-28.589915, 70.092434], [-28.582387, 70.075385], [-28.560292, 70.059719], [-28.51415, 70.044013], [-28.363352, 70.051459], [-28.226796, 70.071357], [-28.102651, 70.071357], [-28.032582, 70.03148], [-27.966054, 70.010484], [-27.86266, 70.021186], [-27.804067, 70.039008], [-27.553334, 70.059719], [-27.524159, 70.047756], [-27.519602, 70.037543], [-27.527903, 70.003079], [-27.527452291828247, 70.0], [-40.0, 70.0], [-40.0, 82.4012898833654], [-39.924306, 82.38642]]], [[[-20.050649, 81.587348], [-20.010894, 81.604682], [-20.0, 81.60612801936118], [-20.0, 81.57995003809809], [-20.050649, 81.587348]]], [[[-20.002553, 75.185777], [-20.003285, 75.205024], [-20.051015, 75.225531], [-20.023427, 75.232408], [-20.020009, 75.255927], [-20.006418, 75.265692], [-20.0, 75.26721162194725], [-20.0, 75.18502895573549], [-20.002553, 75.185777]]], [[[-27.188385, 70.089016], [-27.179921, 70.102932], [-27.198313, 70.126614], [-27.177113, 70.154446], [-27.185292, 70.167548], [-27.074818, 70.208482], [-27.004994, 70.20067], [-26.883616, 70.256903], [-26.635243, 70.250922], [-26.536448, 70.212226], [-26.326161, 70.19831], [-26.235748, 70.22663], [-25.982411, 70.277818], [-25.905914, 70.30744], [-25.466054, 70.37934], [-25.436838, 70.391262], [-25.305287, 70.413235], [-25.213246, 70.40884], [-25.203521, 70.398342], [-25.238759, 70.379788], [-25.359527, 70.371649], [-25.395823, 70.35932], [-25.272939, 70.35932], [-25.326405, 70.337958], [-25.348256, 70.314439], [-25.35497, 70.303168], [-25.341176, 70.284247], [-25.324941, 70.278266], [-25.219309, 70.279853], [-25.183827, 70.313178], [-25.058705, 70.361396], [-25.000885, 70.365627], [-24.924794, 70.34512], [-24.888905, 70.29914], [-24.86205, 70.3015], [-24.855214, 70.318345], [-24.819244, 70.324652], [-24.612416, 70.269599], [-24.48469, 70.247016], [-24.471588, 70.222113], [-24.217763, 70.208482], [-24.178212, 70.19717], [-24.034332, 70.185126], [-23.98644, 70.159125], [-23.923085, 70.152777], [-23.863352, 70.133734], [-23.797109, 70.15058], [-23.734609, 70.13642], [-23.629994, 70.130927], [-23.559804, 70.11286], [-22.371653, 70.115058], [-22.210072, 70.149604], [-22.109731, 70.155219], [-22.080963, 70.138495], [-22.077138, 70.130316], [-22.106801, 70.118394], [-22.161448, 70.071357], [-22.243398, 70.037177], [-22.296132, 70.001288], [-22.29973075666856, 70.0], [-22.423712594063545, 70.0], [-22.4287, 70.00609], [-22.466054, 70.012885], [-22.473704, 70.010077], [-22.47692074854207, 70.0], [-27.27583274739447, 70.0], [-27.188385, 70.089016]]], [[[-39.288889, 83.092434], [-39.307362, 83.071601], [-39.347727, 83.050767], [-39.522328, 83.006659], [-39.666493, 82.99551], [-39.840159, 83.016262], [-39.977122, 83.06094], [-40.0, 83.06438889432826], [-40.0, 83.16021078805362], [-39.972727, 83.159817], [-39.81843, 83.123114], [-39.288889, 83.092434]]], [[[-39.944488, 83.010647], [-39.862172, 82.982245], [-40.0, 82.9898692446929], [-40.0, 83.01916130865887], [-39.944488, 83.010647]]], [[[-38.642568, 83.118801], [-38.917348, 83.109565], [-38.951039, 83.118801], [-38.944203, 83.118801], [-39.84553, 83.199856], [-39.905019, 83.22956], [-40.0, 83.25036448165248], [-40.0, 83.29942420441418], [-39.998525, 83.299221], [-39.774241, 83.301418], [-39.474924, 83.21955], [-38.83434, 83.174018], [-38.642568, 83.118801]]], [[[-26.18456, 70.560004], [-26.146718, 70.531236], [-26.074208, 70.52383], [-26.106679, 70.508205], [-26.101552, 70.489651], [-26.189524, 70.458441], [-26.288808, 70.459418], [-26.321685, 70.478095], [-26.38268, 70.489651], [-26.362172, 70.503323], [-26.38268, 70.52383], [-26.306996, 70.544867], [-26.232533, 70.531236], [-26.232533, 70.538072], [-26.265981, 70.551703], [-26.208323, 70.565375], [-26.18456, 70.560004]]], [[[-27.748891, 70.76911], [-27.739573, 70.812445], [-27.759999, 70.8581], [-27.753163, 70.873236], [-27.722768, 70.888577], [-27.589345, 70.90119], [-27.493153, 70.886908], [-27.239858, 70.894355], [-27.321848, 70.852769], [-27.369618, 70.81802], [-27.498402, 70.790758], [-27.67162, 70.738471], [-27.719065, 70.739814], [-27.748891, 70.76911]]], [[[-25.283518, 70.690863], [-25.285959, 70.667792], [-25.301137, 70.657294], [-25.570139, 70.634101], [-25.652821, 70.609117], [-25.825307, 70.601264], [-25.964752, 70.542304], [-25.999745, 70.535102], [-26.071156, 70.531236], [-26.088206, 70.544867], [-26.132883, 70.544867], [-26.163564, 70.579047], [-26.237945, 70.58926], [-26.281809, 70.584866], [-26.348256, 70.563666], [-26.500356, 70.547919], [-26.575103, 70.52383], [-26.92455, 70.517646], [-26.968495, 70.528062], [-27.019846, 70.503323], [-28.067698, 70.430732], [-28.116119, 70.437079], [-28.137359, 70.45954], [-28.12682, 70.475287], [-28.101674, 70.487047], [-27.995107, 70.521877], [-27.986562, 70.531236], [-27.994618, 70.541815], [-28.048004, 70.558539], [-28.06432, 70.58161], [-27.963368, 70.631252], [-27.651357, 70.660875], [-27.582509, 70.709377], [-27.490834, 70.746161], [-27.453684, 70.753485], [-27.428578, 70.767646], [-27.271718, 70.798896], [-27.149648, 70.877834], [-27.067494, 70.893541], [-26.662506, 70.89647], [-26.308909, 70.938544], [-26.227203, 70.974555], [-26.082997, 70.993394], [-26.022125, 71.014553], [-25.703765, 71.085842], [-25.676991, 71.086127], [-25.684438, 71.06566], [-25.676991, 71.024115], [-25.686838, 71.011054], [-25.725453, 70.990546], [-25.677642, 70.976264], [-25.485341, 70.963528], [-25.397572, 70.914252], [-25.375356, 70.873236], [-25.4169, 70.852769], [-25.355336, 70.835761], [-25.341176, 70.825426], [-25.341786, 70.809719], [-25.359731, 70.801825], [-25.475006, 70.792385], [-25.485219, 70.780707], [-25.478017, 70.771226], [-25.357533, 70.768948], [-25.321767, 70.761786], [-25.283518, 70.690863]]], [[[-25.510894, 71.111762], [-25.464752, 71.106024], [-25.423736, 71.078681], [-25.363026, 71.085395], [-25.341176, 71.078681], [-25.3756, 71.056138], [-25.331776, 71.042873], [-25.307688, 71.017279], [-25.353586, 71.024848], [-25.395823, 71.045152], [-25.400502, 71.026272], [-25.413971, 71.027411], [-25.472157, 71.08747], [-25.485219, 71.092963], [-25.560943, 71.088935], [-25.5808, 71.106024], [-25.567128, 71.113471], [-25.56192, 71.107164], [-25.510894, 71.111762]]], [[[-21.928619, 72.408189], [-21.961903, 72.390082], [-22.005727, 72.38642], [-22.157704, 72.420315], [-22.252756, 72.42829], [-22.271311, 72.436184], [-22.257639, 72.450385], [-22.360341, 72.428697], [-22.641428, 72.465522], [-22.725901, 72.453518], [-22.760121, 72.441067], [-22.736806, 72.415676], [-22.744211, 72.405097], [-22.732818, 72.383694], [-22.67516, 72.36164], [-22.327382, 72.310452], [-22.298573, 72.292141], [-22.319651, 72.264228], [-22.303049, 72.25727], [-22.259999, 72.260565], [-22.243398, 72.271674], [-22.246978, 72.282538], [-22.221018, 72.287299], [-22.045318, 72.271674], [-22.196156, 72.209621], [-22.190297, 72.197333], [-22.155181, 72.182847], [-22.125234, 72.159369], [-22.201283, 72.125149], [-22.250356, 72.120998], [-22.524892, 72.134833], [-22.600209, 72.154975], [-22.600209, 72.162421], [-22.514719, 72.188178], [-22.497792, 72.209621], [-22.544301, 72.217353], [-22.607655, 72.182847], [-22.684641, 72.171291], [-22.803619, 72.208808], [-22.948354, 72.238837], [-22.995513, 72.261176], [-23.065094, 72.310004], [-23.64745, 72.422065], [-23.762278, 72.428209], [-23.953277, 72.472886], [-23.998647, 72.470282], [-24.039174, 72.446926], [-24.063547, 72.445258], [-24.080881, 72.460598], [-24.080556, 72.470282], [-23.998443, 72.498969], [-24.02595, 72.52143], [-24.0985, 72.546942], [-24.140248, 72.550971], [-24.135162, 72.545356], [-24.16161, 72.530992], [-24.286, 72.579535], [-24.351796, 72.591295], [-24.371693, 72.604071], [-24.406606, 72.678534], [-24.408925, 72.737779], [-24.44343, 72.787095], [-24.48526, 72.826565], [-24.467397, 72.843248], [-24.400136, 72.859117], [-23.930409, 72.881537], [-23.800649, 72.859565], [-23.715443, 72.860093], [-23.633168, 72.837958], [-23.137034, 72.840033], [-23.067006, 72.794257], [-23.045155, 72.759955], [-22.951405, 72.716864], [-22.866078, 72.707221], [-22.846669, 72.686225], [-22.729604, 72.667955], [-22.703277, 72.648424], [-22.717519, 72.634711], [-22.586741, 72.607611], [-22.5183, 72.614244], [-22.481516, 72.626451], [-22.465403, 72.603339], [-22.445872, 72.595649], [-22.376536, 72.589423], [-22.324534, 72.570217], [-22.182485, 72.545356], [-22.151926, 72.528469], [-22.150624, 72.518378], [-22.187123, 72.503119], [-22.202301, 72.483954], [-22.02831, 72.504381], [-21.986562, 72.500434], [-21.951731, 72.488105], [-21.935374, 72.466864], [-21.949086, 72.428697], [-21.928619, 72.408189]]], [[[-24.772532, 72.909369], [-24.799672, 72.887641], [-24.882476, 72.867499], [-24.872304, 72.853909], [-24.869374, 72.814602], [-24.875071, 72.79857], [-24.901438, 72.78205], [-25.041575, 72.787828], [-25.094146, 72.806098], [-25.286855, 72.834052], [-25.320668, 72.846991], [-25.21227, 72.852281], [-25.183502, 72.860663], [-25.149403, 72.888617], [-25.128285, 72.892279], [-25.056956, 72.888617], [-24.97468, 72.908433], [-24.799916, 72.915961], [-24.772532, 72.909369]]], [[[-21.878651, 72.723293], [-21.874908, 72.709906], [-21.900746, 72.696845], [-21.894521, 72.689399], [-21.994537, 72.682563], [-22.020416, 72.696519], [-22.086293, 72.689399], [-22.045318, 72.716702], [-22.07018, 72.720933], [-22.137034, 72.712226], [-22.169504, 72.695624], [-22.265045, 72.709906], [-22.654042, 72.698065], [-22.723134, 72.716702], [-22.61852, 72.724189], [-22.613881, 72.737779], [-22.741851, 72.752509], [-22.771555, 72.765082], [-22.759918, 72.777411], [-22.763051, 72.78734], [-22.791982, 72.79857], [-22.785227, 72.806098], [-22.819569, 72.818793], [-23.163319, 72.877916], [-23.616078, 72.870917], [-23.718984, 72.896918], [-23.831125, 72.907782], [-24.526235, 72.901679], [-24.574127, 72.927883], [-24.586903, 72.950426], [-24.577138, 72.973944], [-24.536488, 72.991889], [-23.779164, 73.015448], [-23.704335, 73.030707], [-23.552358, 73.03266], [-23.238271, 73.075263], [-22.922434, 73.039496], [-22.819325, 73.039496], [-22.744985, 73.02204], [-22.255035, 72.978461], [-22.095448, 72.929999], [-22.086293, 72.929633], [-22.072621, 72.943834], [-21.996938, 72.932685], [-21.969594, 72.943834], [-21.957834, 72.929348], [-21.900746, 72.915961], [-21.887685, 72.895453], [-21.97936, 72.879096], [-22.004384, 72.860663], [-21.97643, 72.846991], [-22.034169, 72.845364], [-22.18871, 72.812323], [-22.159779, 72.804267], [-22.093088, 72.806098], [-22.084869, 72.79442], [-21.978993, 72.779608], [-21.963368, 72.771308], [-22.024892, 72.758246], [-22.004709, 72.745063], [-21.956654, 72.750393], [-21.878651, 72.723293]]], [[[-21.203521, 73.146064], [-21.168324, 73.134426], [-21.185943, 73.130357], [-21.188791, 73.121405], [-21.328277, 73.100979], [-21.396718, 73.099758], [-21.462514, 73.121405], [-21.361887, 73.147121], [-21.203521, 73.146064]]], [[[-24.556549, 73.052965], [-24.652821, 73.046291], [-24.751536, 73.072943], [-24.885406, 73.078559], [-25.063222, 73.118354], [-25.430531, 73.121405], [-25.573476, 73.148261], [-25.707265, 73.184719], [-25.710805, 73.194892], [-25.691151, 73.21011], [-25.567535, 73.234687], [-25.533315, 73.261664], [-25.449534, 73.297309], [-25.312367, 73.320014], [-25.285959, 73.333686], [-25.285756, 73.347561], [-25.302154, 73.370754], [-25.296783, 73.385199], [-25.24352, 73.411119], [-24.460072, 73.425035], [-23.230214, 73.251125], [-23.209788, 73.231269], [-23.257802, 73.221137], [-24.970448, 73.325344], [-25.012196, 73.313178], [-24.985463, 73.306545], [-24.90746, 73.317288], [-24.816884, 73.301825], [-24.436757, 73.273912], [-24.374257, 73.256293], [-24.306508, 73.265367], [-23.807362, 73.200385], [-23.785756, 73.203315], [-23.766225, 73.195299], [-23.080637, 73.175971], [-22.963979, 73.148098], [-22.892445, 73.158026], [-22.980702, 73.107123], [-24.467519, 73.036078], [-24.556549, 73.052965]]], [[[-20.297515, 74.232164], [-20.140248, 74.213202], [-20.132965, 74.190172], [-20.161529, 74.168769], [-20.768219, 74.118557], [-20.875152, 74.122219], [-21.025461, 74.09634], [-21.268666, 74.087795], [-21.405873, 74.137193], [-21.932932, 74.207668], [-21.97997, 74.225287], [-21.986969, 74.248236], [-21.941721, 74.296332], [-21.900746, 74.313707], [-21.880849, 74.313707], [-21.874013, 74.334215], [-21.839996, 74.351223], [-21.24706, 74.457099], [-20.980946, 74.450181], [-20.921254, 74.425279], [-20.856353, 74.430365], [-20.533355, 74.406724], [-20.44164, 74.357978], [-20.434641, 74.344428], [-20.457346, 74.329047], [-20.460805, 74.309149], [-20.431264, 74.296332], [-20.407338, 74.272773], [-20.297515, 74.232164]]], [[[-20.0, 74.92494124434323], [-20.0, 74.74271631454059], [-20.085805, 74.704088], [-20.138254, 74.699286], [-20.253082, 74.706732], [-20.32787, 74.725898], [-20.433176, 74.734198], [-20.662587, 74.805243], [-20.680735, 74.82095], [-20.592275, 74.862372], [-20.549062, 74.907904], [-20.544504, 74.927232], [-20.55248, 74.946194], [-20.613393, 74.985297], [-20.599721, 74.998969], [-20.47997, 75.039455], [-20.339101, 75.054185], [-20.188954, 75.044094], [-20.101552, 75.023749], [-20.006256, 75.016506], [-20.0, 75.01525837741245], [-20.0, 74.97217112066492], [-20.17512, 74.938951], [-20.201894, 74.923814], [-20.195668, 74.911689], [-20.176381, 74.903876], [-20.13858, 74.901435], [-20.112538, 74.93065], [-20.030507, 74.93008], [-20.0, 74.92494124434323]]], [[[-21.403554, 77.882473], [-21.405588, 77.893378], [-21.36852, 77.927436], [-21.332997, 77.94595], [-21.230336, 77.975409], [-21.127756, 77.990302], [-21.086415, 77.984524], [-21.100006, 77.970852], [-21.153798, 77.961086], [-21.172231, 77.94774], [-21.161488, 77.929877], [-21.23412, 77.898505], [-21.243398, 77.875678], [-21.329701, 77.854967], [-21.3815, 77.864325], [-21.403554, 77.882473]]], [[[-20.473541, 77.948554], [-20.489858, 77.959662], [-20.438222, 77.976793], [-20.205963, 77.972846], [-20.0, 77.99939295612282], [-20.0, 77.88967758924967], [-20.473541, 77.948554]]], [[[-20.433502, 78.127509], [-20.600331, 78.133246], [-20.814605, 78.174994], [-20.683502, 78.196194], [-20.552602, 78.243109], [-20.467641, 78.249457], [-20.396474, 78.225653], [-20.346506, 78.182929], [-20.342112, 78.16352], [-20.352935, 78.147406], [-20.433502, 78.127509]]]]}}]}