{"type": "FeatureCollection", "features": [{"type": "Feature", "properties": {"name": "Antarctica"}, "geometry": {"type": "MultiPolygon", "coordinates": [[[[-39.884511, -81.071547], [-39.83849, -81.043552], [-39.699086, -81.021417], [-39.619985, -81.02044], [-39.549184, -80.996352], [-38.932729, -80.906671], [-38.822418, -80.905369], [-38.772288, -80.892267], [-38.820058, -80.886163], [-38.803578, -80.863214], [-38.791127, -80.859552], [-38.54662, -80.913507], [-38.392242, -80.912042], [-37.622792, -80.996026], [-37.653676, -81.009942], [-37.687896, -81.013442], [-37.471059, -81.031345], [-37.372182, -81.06992], [-37.230295, -81.089288], [-37.194, -81.084161], [-37.123769, -81.056248], [-36.978505, -81.052423], [-36.908193, -81.031427], [-36.861236, -80.986261], [-36.816965, -80.97503], [-36.590728, -81.004978], [-36.595082, -80.972589], [-36.554107, -80.951349], [-36.457875, -80.934666], [-36.033193, -80.920668], [-35.982411, -80.884535], [-35.882436, -80.867852], [-35.827748, -80.839776], [-35.782582, -80.826593], [-35.778066, -80.801528], [-35.214955, -80.695408], [-35.466786, -80.648126], [-35.358388, -80.61533], [-33.476186, -80.615411], [-33.177561, -80.55462], [-33.425526, -80.523614], [-33.464752, -80.497654], [-33.413075, -80.497654], [-33.125111, -80.531996], [-32.931508, -80.541599], [-32.030507, -80.435235], [-30.505849, -80.478204], [-30.350209, -80.499933], [-30.387115, -80.469008], [-30.456858, -80.458185], [-30.586903, -80.458429], [-31.319488, -80.308852], [-31.278879, -80.297133], [-29.924184, -80.284356], [-29.87267, -80.263442], [-29.720937, -80.261977], [-29.790639, -80.233494], [-29.86384, -80.215427], [-29.81607, -80.187433], [-29.760813, -80.175551], [-26.332875, -80.122003], [-26.195139, -80.091485], [-24.25414, -80.075942], [-24.209218, -80.069757], [-24.106191, -80.019708], [-24.068593, -80.009942], [-22.905629, -79.982843], [-22.824086, -79.963474], [-22.841542, -79.944268], [-22.766835, -79.926202], [-22.609242, -79.929132], [-22.53246, -79.917087], [-23.738759, -79.830011], [-23.791331, -79.815606], [-23.930816, -79.830336], [-24.089752, -79.819594], [-24.201487, -79.82643], [-24.262034, -79.822361], [-24.303131, -79.803806], [-24.274322, -79.781834], [-24.271718, -79.741469], [-24.256215, -79.715102], [-24.729848, -79.781996], [-30.673248, -79.588067], [-30.652089, -79.563165], [-29.541371, -79.280043], [-29.585317, -79.267673], [-29.63036, -79.268162], [-29.829172, -79.319431], [-29.849233, -79.307306], [-29.833811, -79.276056], [-30.059804, -79.262791], [-30.524729, -79.286391], [-30.541493, -79.275079], [-30.556223, -79.248224], [-30.449452, -79.217218], [-30.008656, -79.144464], [-29.941762, -79.111423], [-29.989654, -79.091485], [-30.195627, -79.104425], [-30.138987, -79.073989], [-30.183827, -79.044203], [-30.239166, -79.034275], [-30.297515, -79.037286], [-30.457834, -79.065362], [-30.494862, -79.091567], [-30.573598, -79.10589], [-30.58845, -79.099054], [-30.598134, -79.077813], [-30.611195, -79.074965], [-32.82018, -79.24391], [-34.218129, -79.138116], [-34.151845, -79.117608], [-34.200754, -79.091078], [-34.258453, -79.076593], [-36.251332, -78.851658], [-36.344635, -78.815199], [-36.411285, -78.753513], [-36.443756, -78.634047], [-36.441151, -78.611261], [-36.399403, -78.564223], [-36.391835, -78.540216], [-36.324696, -78.457127], [-36.277455, -78.418145], [-36.260162, -78.392348], [-36.057851, -78.265069], [-36.021799, -78.215916], [-35.92748, -78.185724], [-35.838857, -78.182387], [-35.81725, -78.152032], [-35.632395, -78.161391], [-35.580963, -78.150486], [-35.610951, -78.12127], [-35.621205, -78.08172], [-35.60733, -78.072849], [-35.500803, -78.058526], [-35.490549, -78.050714], [-35.466461, -77.96795], [-35.356191, -77.861993], [-35.312856, -77.844415], [-35.056467, -77.823419], [-34.664296, -77.853611], [-34.59789, -77.845961], [-34.499664, -77.851983], [-34.459096, -77.821954], [-34.650299, -77.793878], [-34.645334, -77.763767], [-34.679799, -77.751723], [-34.759267, -77.747735], [-34.7412, -77.731052], [-34.738881, -77.712172], [-34.750396, -77.696059], [-34.773915, -77.687433], [-34.711497, -77.62949], [-34.688303, -77.618585], [-34.572662, -77.598891], [-34.434804, -77.529392], [-34.401357, -77.498793], [-34.320546, -77.466404], [-33.975453, -77.418878], [-33.863596, -77.388116], [-33.721099, -77.310968], [-33.696767, -77.305841], [-33.645131, -77.305271], [-33.56371, -77.282485], [-33.482289, -77.286879], [-33.346344, -77.259454], [-33.173818, -77.261326], [-33.120432, -77.253106], [-32.954579, -77.188897], [-32.50064, -77.126153], [-32.119456, -77.170668], [-31.915028, -77.150811], [-31.894276, -77.143243], [-31.881825, -77.127537], [-31.868642, -77.067641], [-31.85143, -77.050958], [-31.749094, -76.994399], [-31.696116, -76.976658], [-30.692128, -76.849786], [-30.661366, -76.851658], [-30.650706, -76.847345], [-30.626861, -76.809991], [-30.539174, -76.785414], [-30.456288, -76.745538], [-30.4051, -76.736098], [-30.376088, -76.699477], [-30.226471, -76.667087], [-30.153472, -76.635349], [-29.65807, -76.576918], [-29.557932, -76.543227], [-29.570424, -76.520929], [-29.526763, -76.491388], [-29.471547, -76.490167], [-29.411041, -76.474705], [-29.358266, -76.44378], [-29.157338, -76.425388], [-28.85912, -76.353285], [-27.819651, -76.227472], [-27.597646, -76.227472], [-27.337636, -76.172052], [-27.220204, -76.161228], [-26.985178, -76.169692], [-26.859731, -76.135837], [-26.847401, -76.108168], [-26.822865, -76.097345], [-26.595326, -76.089614], [-26.507436, -76.054946], [-26.373687, -76.032322], [-26.287709, -75.996677], [-26.117177, -75.973891], [-25.94815, -75.933038], [-24.325592, -75.77988], [-24.213735, -75.756443], [-23.269358, -75.73797], [-23.215199, -75.715997], [-23.105092, -75.704685], [-22.847076, -75.707615], [-22.729604, -75.690037], [-22.650746, -75.690688], [-22.596018, -75.674737], [-22.560943, -75.643813], [-22.533355, -75.642022], [-22.378529, -75.678155], [-22.327626, -75.649998], [-22.301869, -75.644627], [-22.073964, -75.705824], [-22.069325, -75.684991], [-22.050893, -75.681573], [-21.862782, -75.709568], [-21.811635, -75.708673], [-21.76183, -75.699965], [-21.680531, -75.671157], [-21.269643, -75.714288], [-21.17394, -75.705011], [-20.947499, -75.632989], [-20.85969, -75.636651], [-20.755849, -75.605239], [-20.665273, -75.62127], [-20.644154, -75.612074], [-20.721669, -75.57822], [-20.735829, -75.563572], [-20.730295, -75.541599], [-20.705474, -75.528416], [-20.494456, -75.496677], [-20.399485, -75.472101], [-20.0, -75.52103291131876], [-20.0, -90.0], [-40.0, -90.0], [-40.0, -81.09365640241164], [-39.884511, -81.071547]]], [[[-32.168691, -79.669122], [-32.496653, -79.673272], [-32.601226, -79.661065], [-32.485463, -79.645115], [-32.564605, -79.626886], [-32.450307, -79.619561], [-32.445465, -79.594415], [-32.427887, -79.578058], [-32.430247, -79.567641], [-32.454742, -79.550714], [-32.294179, -79.521905], [-32.222279, -79.520196], [-31.933339, -79.563084], [-31.913482, -79.572849], [-31.92455, -79.599786], [-31.964426, -79.610935], [-32.191314, -79.620375], [-32.205556, -79.627048], [-32.208648, -79.642755], [-32.198801, -79.657159], [-32.1433, -79.661065], [-32.168691, -79.669122]]], [[[-33.987538, -79.34824], [-34.070872, -79.361505], [-36.726389, -79.29811], [-36.844797, -79.259861], [-36.938466, -79.181248], [-36.883168, -79.192641], [-36.723256, -79.265313], [-36.590077, -79.275567], [-36.62206, -79.243829], [-36.659576, -79.223077], [-35.844146, -79.168634], [-35.787831, -79.153497], [-35.684071, -79.107843], [-35.628651, -79.093927], [-35.503407, -79.090102], [-34.020863, -79.268487], [-33.916493, -79.312595], [-33.987538, -79.34824]]], [[[-20.377675, -74.449395], [-20.414784, -74.483819], [-20.478098, -74.498712], [-20.528554, -74.502618], [-20.80663, -74.475193], [-20.843007, -74.462823], [-20.865712, -74.43906], [-20.869618, -74.401625], [-20.981191, -74.211033], [-21.011952, -74.187188], [-21.122426, -74.142836], [-21.299469, -74.10589], [-21.71345, -74.088474], [-22.021148, -74.114028], [-22.040151, -74.105564], [-21.893951, -74.041681], [-21.336049, -74.003676], [-21.234853, -73.980645], [-21.145375, -73.950128], [-21.069569, -73.913018], [-21.009511, -73.870538], [-21.010732, -73.825942], [-20.940907, -73.751072], [-20.924387, -73.70436], [-20.89037, -73.678969], [-20.814198, -73.646417], [-20.648793, -73.619399], [-20.637603, -73.61004], [-20.640248, -73.587498], [-20.55663, -73.620782], [-20.515859, -73.659763], [-20.509185, -73.677667], [-20.512685, -73.695571], [-20.535024, -73.739516], [-20.528188, -73.75921], [-20.495839, -73.793715], [-20.543202, -73.818943], [-20.583119, -73.854099], [-20.575836, -73.887465], [-20.599924, -73.917657], [-20.591217, -73.971287], [-20.598622, -73.990492], [-20.647369, -74.019464], [-20.658762, -74.067153], [-20.69286, -74.101983], [-20.579905, -74.220961], [-20.425649, -74.309015], [-20.399485, -74.33172], [-20.366689, -74.392999], [-20.366567, -74.425388], [-20.377675, -74.449395]]], [[[-29.701243, -79.931329], [-29.779612, -79.92962], [-29.861724, -79.919041], [-29.923695, -79.869806], [-30.008901, -79.853611], [-30.095448, -79.856215], [-30.163401, -79.876886], [-30.252349, -79.886163], [-30.145904, -79.931085], [-30.021962, -79.943455], [-29.989084, -79.96559], [-30.184722, -80.004978], [-30.366444, -80.017755], [-30.425526, -80.010919], [-30.471669, -79.988702], [-30.324208, -79.984796], [-30.277984, -79.975844], [-30.482655, -79.945001], [-30.496002, -79.937595], [-30.513661, -79.908949], [-30.529205, -79.902602], [-30.631174, -79.906427], [-30.652496, -79.916925], [-30.635976, -79.927423], [-30.632436, -79.938897], [-30.64566, -79.95143], [-30.678944, -79.956313], [-30.887685, -79.925551], [-31.541737, -79.898533], [-31.751943, -79.859145], [-31.872426, -79.847101], [-31.835805, -79.832452], [-31.718902, -79.809503], [-31.809682, -79.800958], [-31.998199, -79.820245], [-32.089467, -79.809259], [-31.916331, -79.772149], [-31.878774, -79.75449], [-31.93932, -79.743748], [-31.998036, -79.713962], [-32.161773, -79.709649], [-31.967763, -79.690118], [-32.037221, -79.681329], [-32.07726, -79.666599], [-32.024403, -79.649672], [-31.787709, -79.630792], [-31.644765, -79.636895], [-31.591664, -79.648696], [-31.443959, -79.708591], [-31.18928, -79.76572], [-31.134511, -79.79754], [-31.095448, -79.810724], [-30.654124, -79.846124], [-30.492299, -79.841892], [-30.3579, -79.855401], [-30.290517, -79.853204], [-30.225575, -79.837498], [-30.82018, -79.748305], [-30.870717, -79.727227], [-30.898183, -79.695977], [-30.928944, -79.684259], [-30.843373, -79.65252], [-30.797353, -79.650079], [-30.754872, -79.660333], [-30.707021, -79.711602], [-30.647084, -79.739679], [-29.906239, -79.815037], [-29.765126, -79.851983], [-29.612864, -79.910252], [-29.701243, -79.931329]]]]}}]}