{"type": "FeatureCollection", "features": [{"type": "Feature", "properties": {"name": "New Zealand"}, "geometry": {"type": "MultiPolygon", "coordinates": [[[[-176.113881, -44.265069], [-176.148874, -44.282403], [-176.162343, -44.316583], [-176.218984, -44.341241], [-176.2176, -44.327244], [-176.231191, -44.306736], [-176.210683, -44.265069], [-176.236073, -44.241957], [-176.209055, -44.224786], [-176.169504, -44.221124], [-176.150217, -44.229181], [-176.145253, -44.248142], [-176.113881, -44.265069]]], [[[-176.385121, -43.906671], [-176.398793, -43.907647], [-176.409373, -43.854181], [-176.358022, -43.804864], [-176.354115, -43.785903], [-176.372263, -43.765883], [-176.513051, -43.750177], [-176.53539, -43.755629], [-176.532908, -43.779067], [-176.514231, -43.791436], [-176.423044, -43.805841], [-176.496409, -43.85117], [-176.501536, -43.864435], [-176.459706, -43.911716], [-176.456532, -43.949802], [-176.433217, -43.962986], [-176.395212, -43.938572], [-176.382395, -43.985772], [-176.351633, -44.00921], [-176.313181, -44.019301], [-176.300038, -44.042576], [-176.398508, -44.056573], [-176.435496, -44.070082], [-176.504954, -44.101251], [-176.51179, -44.121759], [-176.581492, -44.123142], [-176.607981, -44.111505], [-176.617787, -44.071384], [-176.641469, -44.032973], [-176.664377, -44.01922], [-176.57433, -43.969415], [-176.558176, -43.949477], [-176.51594, -43.922296], [-176.522288, -43.898614], [-176.566151, -43.837823], [-176.611318, -43.805841], [-176.638376, -43.799574], [-176.672597, -43.809666], [-176.683054, -43.805841], [-176.6905, -43.813246], [-176.685251, -43.826918], [-176.72468, -43.833673], [-176.754221, -43.8235], [-176.825917, -43.839614], [-176.85497, -43.820082], [-176.840281, -43.801202], [-176.779286, -43.779067], [-176.786488, -43.75628], [-176.77245, -43.751153], [-176.734609, -43.771661], [-176.644846, -43.764337], [-176.624745, -43.754571], [-176.601999, -43.707615], [-176.580637, -43.703383], [-176.539662, -43.716974], [-176.484446, -43.716974], [-176.391957, -43.744887], [-176.169138, -43.731378], [-176.169138, -43.737481], [-176.196482, -43.744317], [-176.203318, -43.771661], [-176.244456, -43.754327], [-176.285105, -43.769708], [-176.369822, -43.862726], [-176.385121, -43.906671]]]]}}]}