{"type": "FeatureCollection", "features": [{"type": "Feature", "properties": {"name": "Antarctica"}, "geometry": {"type": "MultiPolygon", "coordinates": [[[[160.058767, -69.64365], [160.102306, -69.684991], [160.143809, -69.693129], [160.202322, -69.736912], [160.29127, -69.770278], [160.334483, -69.796075], [160.341075, -69.828383], [160.324229, -69.84881], [160.303071, -69.861586], [160.250499, -69.874119], [160.172862, -69.875177], [160.093028, -69.887628], [160.0, -69.8744180360239], [160.0, -69.62890117522322], [160.058767, -69.64365]]], [[[160.014822, -69.996026], [160.117198, -69.969171], [160.142833, -69.968845], [160.216807, -69.987726], [160.301203293471, -70.0], [160.0, -70.0], [160.0, -69.99541653919272], [160.014822, -69.996026]]], [[[164.836925, -67.362726], [164.91391, -67.404392], [164.926036, -67.431085], [164.916189, -67.454278], [164.848969, -67.500909], [164.875011, -67.515069], [164.819835, -67.550226], [164.760427, -67.570408], [164.703787, -67.568617], [164.657237, -67.538344], [164.651866, -67.511407], [164.632823, -67.488702], [164.68214, -67.447849], [164.6963, -67.416762], [164.696056, -67.385186], [164.659516, -67.333591], [164.670421, -67.312107], [164.657237, -67.260837], [164.674571, -67.257745], [164.712169, -67.268487], [164.840343, -67.339288], [164.836925, -67.362726]]], [[[163.295095, -66.884861], [163.249197, -66.877374], [163.190766, -66.843845], [163.15504, -66.81227], [163.081309, -66.706476], [163.114757, -66.68727], [163.169932, -66.690199], [163.260509, -66.716241], [163.26531, -66.748468], [163.257009, -66.763279], [163.313243, -66.781508], [163.286143, -66.797784], [163.312511, -66.828709], [163.293712, -66.838067], [163.295095, -66.884861]]], [[[162.568044, -66.526137], [162.546397, -66.534601], [162.471039, -66.506606], [162.340505, -66.410252], [162.290212, -66.397638], [162.342947, -66.372491], [162.349457, -66.360447], [162.324474, -66.346775], [162.328868, -66.312758], [162.287608, -66.294041], [162.297862, -66.254815], [162.314708, -66.251397], [162.556326, -66.436619], [162.62615, -66.462498], [162.568044, -66.526137]]]]}}, {"type": "Feature", "properties": {"name": "New Zealand"}, "geometry": {"type": "MultiPolygon", "coordinates": [[[[166.226329, -50.885431], [166.157237, -50.903253], [166.129649, -50.902602], [166.122732, -50.912042], [165.985525, -50.904392], [165.924083, -50.851251], [165.985688, -50.874607], [166.076834, -50.8624], [166.095876, -50.851251], [166.226329, -50.885431]]], [[[169.261574, -52.554544], [169.245001, -52.562635], [169.229572, -52.587532], [169.195296, -52.600313], [169.132239, -52.595592], [169.073724, -52.564613], [169.06151, -52.56127], [169.051487, -52.568682], [169.015391, -52.542657], [169.024844, -52.53375], [169.113593, -52.546453], [169.144305, -52.490061], [169.186255, -52.469199], [169.205022, -52.469188], [169.21276, -52.474562], [169.208995, -52.484063], [169.274689, -52.50543], [169.293524, -52.520198], [169.250421, -52.520257], [169.261574, -52.554544]]], [[[166.226248, -50.611423], [166.201834, -50.604669], [166.184744, -50.611017], [166.202403, -50.628188], [166.212087, -50.652602], [166.184744, -50.645766], [166.192149, -50.666274], [166.164317, -50.686782], [166.195811, -50.683282], [166.226329, -50.693536], [166.202403, -50.700779], [166.122732, -50.700372], [166.122732, -50.707208], [166.198416, -50.72088], [166.177908, -50.75506], [166.232595, -50.75506], [166.226817, -50.772393], [166.232595, -50.789727], [166.198416, -50.789727], [166.198416, -50.796563], [166.253673, -50.817071], [166.240082, -50.851007], [166.224376, -50.860121], [166.125011, -50.824477], [166.108897, -50.80283], [166.061209, -50.830743], [166.083507, -50.786798], [166.067638, -50.761977], [166.040212, -50.752048], [166.02711, -50.762465], [166.052908, -50.785903], [166.044444, -50.789727], [165.992931, -50.776137], [166.022309, -50.798028], [166.026866, -50.825372], [166.021495, -50.836033], [165.978689, -50.84352], [165.933116, -50.821384], [165.896739, -50.851251], [165.886485, -50.79461], [165.925304, -50.754002], [166.059093, -50.693536], [166.078787, -50.675551], [166.115245, -50.574477], [166.117686, -50.552423], [166.095876, -50.535903], [166.139903, -50.526056], [166.171153, -50.53281], [166.232595, -50.522231], [166.226329, -50.549005], [166.287771, -50.542739], [166.288259, -50.560154], [166.302013, -50.576918], [166.250824, -50.57936], [166.243419, -50.600763], [166.226248, -50.611423]]]]}}]}