{"type": "FeatureCollection", "features": [{"type": "Feature", "properties": {"name": "United States of America"}, "geometry": {"type": "Polygon", "coordinates": [[[-100.014123, 28.050459], [-100.010196, 28.068882], [-100.045077, 28.095289], [-100.056498, 28.137922], [-100.074895, 28.154407], [-100.189203, 28.201329], [-100.197626, 28.207168], [-100.205946, 28.242877], [-100.240724, 28.249698], [-100.275089, 28.277242], [-100.284339, 28.296517], [-100.278551, 28.331088], [-100.322631, 28.386899], [-100.336326, 28.458574], [-100.355549, 28.478185], [-100.351622, 28.496711], [-100.322631, 28.510406], [-100.38423, 28.537174], [-100.397769, 28.557586], [-100.401438, 28.60226], [-100.44619, 28.626497], [-100.444898, 28.643782], [-100.493939, 28.708378], [-100.519054, 28.804961], [-100.534453, 28.830231], [-100.566234, 28.842504], [-100.566234, 28.869789], [-100.586543, 28.879789], [-100.594966, 28.899322], [-100.624318, 28.924721], [-100.626696, 28.948338], [-100.637909, 28.962884], [-100.628918, 28.98433], [-100.632793, 29.005156], [-100.652224, 29.044817], [-100.668967, 29.116208], [-100.70204, 29.12365], [-100.762501, 29.173776], [-100.770098, 29.187289], [-100.762088, 29.208658], [-100.796143, 29.257673], [-100.86389, 29.290616], [-100.91474, 29.337048], [-101.008068, 29.380585], [-101.022175, 29.40048], [-101.037782, 29.460063], [-101.134778, 29.487659], [-101.163562, 29.501301], [-101.191416, 29.528147], [-101.212861, 29.531584], [-101.226478, 29.55445], [-101.219011, 29.610287], [-101.233919, 29.622663], [-101.258776, 29.620157], [-101.30097, 29.594138], [-101.312158, 29.597859], [-101.301073, 29.649509], [-101.336239, 29.654315], [-101.357684, 29.667441], [-101.406545, 29.752888], [-101.405098, 29.778442], [-101.446103, 29.771052], [-101.470908, 29.791516], [-101.521809, 29.765936], [-101.542893, 29.771052], [-101.528604, 29.801438], [-101.546458, 29.820145], [-101.564907, 29.786478], [-101.632216, 29.775651], [-101.794531, 29.795857], [-101.805978, 29.811928], [-101.857602, 29.805184], [-101.88742, 29.81229], [-101.929613, 29.797717], [-101.972246, 29.818181], [-101.98793, 29.805184], [-102.014595, 29.810998], [-102.109344, 29.80211], [-102.203679, 29.846138], [-102.239775, 29.849135], [-102.253444, 29.855285], [-102.258276, 29.873475], [-102.276181, 29.869547], [-102.302175, 29.889391], [-102.321011, 29.893939], [-102.339769, 29.870633], [-102.370723, 29.857765], [-102.380051, 29.811386], [-102.406096, 29.777279], [-102.515288, 29.784721], [-102.546578, 29.757875], [-102.558309, 29.759089], [-102.566758, 29.771052], [-102.621225, 29.747281], [-102.683469, 29.743715], [-102.69104, 29.736817], [-102.697758, 29.709557], [-102.73127, 29.650594], [-102.761346, 29.603414], [-102.779665, 29.592303], [-102.774084, 29.579617], [-102.785892, 29.571814], [-102.78075, 29.558249], [-102.795478, 29.54427], [-102.839067, 29.45195], [-102.835191, 29.403839], [-102.845578, 29.384719], [-102.837672, 29.366322], [-102.864957, 29.359527], [-102.883069, 29.343766], [-102.899709, 29.2639], [-102.858781, 29.229147], [-102.896893, 29.220285], [-102.947536, 29.182018], [-102.969757, 29.192845], [-102.988386, 29.177135], [-103.024275, 29.116157], [-103.072541, 29.091404], [-103.091532, 29.057866], [-103.104684, 29.057866], [-103.109205, 29.023372], [-103.122771, 28.996474], [-103.147989, 28.985105], [-103.241756, 29.003502], [-103.301545, 29.002365], [-103.316247, 29.010065], [-103.309994, 29.031175], [-103.330484, 29.023733], [-103.342602, 29.041226], [-103.372083, 29.023733], [-103.38663, 29.028798], [-103.423605, 29.057866], [-103.478537, 29.08205], [-103.529748, 29.126776], [-103.550238, 29.154656], [-103.58499, 29.154656], [-103.673125, 29.173569], [-103.770767, 29.229845], [-103.777718, 29.235297], [-103.769424, 29.257543], [-103.78366, 29.274803], [-103.928122, 29.293019], [-104.057313, 29.339037], [-104.105424, 29.385675], [-104.161648, 29.416759], [-104.194514, 29.448927], [-104.212291, 29.484661], [-104.267171, 29.526571], [-104.320604, 29.532255], [-104.338484, 29.524013], [-104.349026, 29.537578], [-104.444008, 29.589203], [-104.455222, 29.613387], [-104.516639, 29.654315], [-104.535036, 29.677802], [-104.537103, 29.702116], [-104.561391, 29.745421], [-104.570279, 29.787511], [-104.619682, 29.833064], [-104.637588, 29.887996], [-104.680479, 29.942308], [-104.680479, 29.976466], [-104.68677896626849, 30.0], [-100.0, 30.0], [-100.0, 28.024260577056875], [-100.014123, 28.050459]]]}}, {"type": "Feature", "properties": {"name": "Mexico"}, "geometry": {"type": "MultiPolygon", "coordinates": [[[[-101.00824, 17.252976], [-101.042814, 17.270202], [-101.059029, 17.264237], [-101.065105, 17.276008], [-101.053699, 17.282743], [-101.055084, 17.302639], [-101.105082, 17.35031], [-101.17182, 17.389791], [-101.182245, 17.412536], [-101.263092, 17.456204], [-101.455773, 17.526338], [-101.456838, 17.53735], [-101.443189, 17.539349], [-101.440704, 17.557156], [-101.45814, 17.583343], [-101.496491, 17.614406], [-101.525866, 17.618393], [-101.55314, 17.611376], [-101.55732, 17.62539], [-101.569898, 17.625384], [-101.579348, 17.636367], [-101.595128, 17.635343], [-101.599337, 17.653339], [-101.644487, 17.668294], [-101.647667, 17.705284], [-101.67189, 17.74027], [-101.74554, 17.792204], [-101.756337, 17.81684], [-101.770911, 17.829233], [-101.773027, 17.848225], [-101.811061, 17.89026], [-101.989877, 17.974751], [-102.036733, 17.990668], [-102.100477, 17.982327], [-102.145493, 17.934169], [-102.190629, 17.915988], [-102.288591, 17.961587], [-102.475082, 18.017777], [-102.514033, 18.020574], [-102.597247, 18.049051], [-102.742299, 18.066962], [-103.024444, 18.185818], [-103.113469, 18.192098], [-103.125223, 18.206008], [-103.14094, 18.201865], [-103.343667, 18.270956], [-103.36164, 18.26682], [-103.424162, 18.30319], [-103.4984, 18.333483], [-103.575103, 18.492255], [-103.629025, 18.547985], [-103.706737, 18.591221], [-103.71002, 18.601176], [-103.686228, 18.628552], [-103.700175, 18.654327], [-103.794277, 18.741248], [-103.953178, 18.849273], [-103.979977, 18.874938], [-104.180606, 18.971381], [-104.331668, 19.022256], [-104.329012, 19.053299], [-104.306859, 19.056649], [-104.299608, 19.065755], [-104.304102, 19.081682], [-104.328721, 19.099297], [-104.356163, 19.094884], [-104.354332, 19.111913], [-104.386139, 19.115433], [-104.393426, 19.108322], [-104.390002, 19.093372], [-104.398433, 19.091243], [-104.415802, 19.105658], [-104.439548, 19.081607], [-104.451577, 19.104426], [-104.503814, 19.129665], [-104.636016, 19.159369], [-104.672963, 19.176581], [-104.68399, 19.183498], [-104.691925, 19.207587], [-104.72289, 19.211493], [-104.733551, 19.228461], [-104.799672, 19.224555], [-104.806915, 19.229071], [-104.801422, 19.294745], [-104.815704, 19.299628], [-104.849517, 19.286566], [-104.8662, 19.289984], [-104.880523, 19.27912], [-104.993642, 19.34219], [-105.01712, 19.368476], [-105.039337, 19.435614], [-105.070098, 19.447781], [-105.065541, 19.475002], [-105.085968, 19.505683], [-105.08771, 19.561073], [-105.11692, 19.585564], [-105.151845, 19.584174], [-105.250762, 19.666083], [-105.298329, 19.718573], [-105.388417, 19.852362], [-105.441558, 19.90644], [-105.525624, 20.031928], [-105.545318, 20.09162], [-105.558949, 20.218207], [-105.593129, 20.245551], [-105.62857, 20.299994], [-105.655652, 20.313181], [-105.698681, 20.406911], [-105.683095, 20.423651], [-105.575592, 20.487738], [-105.460439, 20.492621], [-105.429189, 20.505927], [-105.328734, 20.513738], [-105.287039, 20.549929], [-105.266719, 20.557584], [-105.243642, 20.583564], [-105.234296, 20.636127], [-105.25367, 20.656139], [-105.283801, 20.67005], [-105.310223, 20.727213], [-105.341526, 20.754639], [-105.361561, 20.762751], [-105.38836, 20.739463], [-105.410907, 20.733999], [-105.441972, 20.74871], [-105.478329, 20.751481], [-105.514122, 20.770333], [-105.532875, 20.756447], [-105.544896, 20.768096], [-105.523583, 20.789656], [-105.504448, 20.784906], [-105.486535, 20.796223], [-105.455285, 20.867023], [-105.439926, 20.871435], [-105.403941, 20.928942], [-105.358238, 20.957734], [-105.309682, 21.030666], [-105.29885, 21.03428], [-105.270559, 21.025323], [-105.234327, 21.060966], [-105.230333, 21.090671], [-105.239248, 21.131198], [-105.229701, 21.155067], [-105.232936, 21.182952], [-105.216081, 21.204379], [-105.2257, 21.283876], [-105.243138, 21.342064], [-105.219757, 21.407497], [-105.202898, 21.434747], [-105.184967, 21.44302], [-105.200063, 21.492865], [-105.217559, 21.517239], [-105.243766, 21.527245], [-105.249886, 21.514455], [-105.263504, 21.513401], [-105.414078, 21.601113], [-105.448417, 21.631032], [-105.462906, 21.67145], [-105.549387, 21.830182], [-105.632264, 21.955737], [-105.648775, 21.992322], [-105.657261, 22.047253], [-105.647664, 22.190608], [-105.655032, 22.256298], [-105.732696, 22.504055], [-105.716664, 22.514187], [-105.732452, 22.541449], [-105.741933, 22.546088], [-105.757598, 22.534613], [-105.766957, 22.590481], [-105.80016, 22.638454], [-105.881134, 22.712795], [-105.925445, 22.76614], [-106.001617, 22.823188], [-106.004018, 22.830105], [-105.98412, 22.856757], [-106.010162, 22.848944], [-106.031972, 22.830105], [-106.220326, 23.051947], [-106.277333, 23.083686], [-106.370839, 23.183987], [-106.388214, 23.192572], [-106.419342, 23.179877], [-106.429799, 23.185126], [-106.43517, 23.244289], [-106.486928, 23.307685], [-106.478505, 23.328396], [-106.522817, 23.407538], [-106.611846, 23.469062], [-106.640411, 23.516547], [-106.666534, 23.528754], [-106.732574, 23.606513], [-106.793243, 23.632351], [-106.813385, 23.699652], [-106.860992, 23.755154], [-106.873321, 23.798285], [-106.902008, 23.846625], [-107.035878, 23.98078], [-107.116933, 24.029202], [-107.169667, 24.076443], [-107.377756, 24.206855], [-107.404286, 24.252509], [-107.480865, 24.293402], [-107.543202, 24.346584], [-107.775014, 24.477444], [-107.799672, 24.512152], [-107.789906, 24.523017], [-107.772532, 24.507554], [-107.769154, 24.489325], [-107.498036, 24.34394], [-107.553293, 24.378079], [-107.549672, 24.387885], [-107.498036, 24.357611], [-107.491811, 24.370592], [-107.505483, 24.370592], [-107.478261, 24.400092], [-107.481801, 24.432847], [-107.529693, 24.521918], [-107.563385, 24.530666], [-107.592641, 24.520087], [-107.601674, 24.50845], [-107.587554, 24.505439], [-107.560902, 24.51496], [-107.553293, 24.50845], [-107.594228, 24.467475], [-107.624135, 24.458482], [-107.676747, 24.501614], [-107.704091, 24.487942], [-107.718821, 24.492377], [-107.745025, 24.515855], [-107.751861, 24.542548], [-107.779164, 24.55622], [-107.820546, 24.59516], [-107.832875, 24.5987], [-107.848053, 24.590318], [-107.889027, 24.623765], [-107.936838, 24.638821], [-107.878529, 24.57982], [-107.819081, 24.54442], [-107.806508, 24.528957], [-107.833892, 24.535224], [-107.908559, 24.577867], [-107.995188, 24.648383], [-108.004709, 24.661811], [-108.01887, 24.730862], [-108.060292, 24.786444], [-108.036204, 24.785224], [-107.994862, 24.758043], [-107.978871, 24.756985], [-107.971588, 24.778754], [-107.976308, 24.79678], [-108.013173, 24.836819], [-108.000844, 24.847642], [-108.004262, 24.914618], [-107.985219, 24.953437], [-108.036122, 24.998481], [-108.048695, 25.001451], [-108.032338, 24.917955], [-108.041127, 24.838365], [-108.05012, 24.823147], [-108.077748, 24.837795], [-108.087636, 24.823147], [-108.124379, 24.84455], [-108.155588, 24.883002], [-108.23412, 25.028388], [-108.257802, 25.056342], [-108.322255, 25.099514], [-108.32787, 25.111151], [-108.283803, 25.106838], [-108.266184, 25.096869], [-108.258941, 25.08039], [-108.197499, 25.014879], [-108.183258, 24.981391], [-108.163401, 24.987616], [-108.13915, 24.973944], [-108.130605, 24.976793], [-108.132476, 25.019355], [-108.15331, 25.016303], [-108.163401, 25.022366], [-108.13679, 25.059963], [-108.10554, 25.026923], [-108.013173, 25.001899], [-108.00475, 25.009508], [-108.003529, 25.03144], [-108.119537, 25.123481], [-108.136098, 25.124742], [-108.12914, 25.110745], [-108.149078, 25.104315], [-108.172922, 25.113593], [-108.218007, 25.173163], [-108.252431, 25.160305], [-108.266428, 25.165717], [-108.305776, 25.156968], [-108.351796, 25.169501], [-108.355214, 25.206732], [-108.314198, 25.186225], [-108.317454, 25.228502], [-108.329416, 25.251654], [-108.361399, 25.269355], [-108.386057, 25.161933], [-108.399241, 25.14525], [-108.396148, 25.214179], [-108.405181, 25.233832], [-108.435048, 25.26081], [-108.554189, 25.307766], [-108.614003, 25.343329], [-108.654286, 25.353705], [-108.731923, 25.35814], [-108.708608, 25.373847], [-108.594146, 25.351304], [-108.657216, 25.392239], [-108.687245, 25.398505], [-108.765736, 25.380927], [-108.779693, 25.398505], [-108.738678, 25.399075], [-108.729888, 25.405992], [-108.746938, 25.444648], [-108.755849, 25.446926], [-108.779693, 25.433254], [-108.767445, 25.478705], [-108.768951, 25.540188], [-108.793365, 25.536322], [-108.828114, 25.549302], [-108.838368, 25.563625], [-108.858876, 25.556789], [-108.896311, 25.560248], [-108.896392, 25.543118], [-108.883616, 25.519843], [-108.884755, 25.496772], [-108.89981, 25.477973], [-108.929677, 25.466376], [-108.95165, 25.48786], [-108.937367, 25.494778], [-108.951812, 25.503892], [-109.001861, 25.499945], [-109.015777, 25.493354], [-109.018788, 25.482489], [-109.006256, 25.467353], [-109.034657, 25.465237], [-109.066314, 25.485053], [-109.116119, 25.536322], [-109.088246, 25.549302], [-109.070465, 25.580471], [-109.057769, 25.584662], [-109.023915, 25.573065], [-109.00536, 25.577948], [-108.992584, 25.549302], [-108.980458, 25.544623], [-108.971547, 25.584662], [-108.896392, 25.652981], [-108.896392, 25.672838], [-108.880523, 25.684882], [-108.882721, 25.717231], [-108.873118, 25.736721], [-108.833323, 25.768866], [-108.828114, 25.789537], [-108.838043, 25.804633], [-108.900868, 25.70067], [-108.9169, 25.687161], [-109.009674, 25.649563], [-109.041737, 25.604682], [-109.062123, 25.590277], [-109.088246, 25.597724], [-109.131256, 25.583401], [-109.144399, 25.594713], [-109.171213, 25.648749], [-109.250152, 25.686184], [-109.24592, 25.659166], [-109.16926, 25.597968], [-109.15274, 25.576483], [-109.156484, 25.556789], [-109.227528, 25.628648], [-109.262929, 25.639309], [-109.373891, 25.637152], [-109.410308, 25.646145], [-109.359283, 25.668402], [-109.300526, 25.659166], [-109.300526, 25.693305], [-109.286855, 25.710679], [-109.302561, 25.735541], [-109.321767, 25.748196], [-109.359486, 25.762885], [-109.378041, 25.761786], [-109.395172, 25.74372], [-109.399648, 25.678534], [-109.410308, 25.693305], [-109.406239, 25.759223], [-109.43517, 25.776313], [-109.440541, 25.793402], [-109.418406, 25.862047], [-109.419097, 25.895941], [-109.437815, 25.942694], [-109.433258, 26.021674], [-109.396718, 26.07689], [-109.342397, 26.134752], [-109.329701, 26.175116], [-109.269643, 26.277411], [-109.262196, 26.304104], [-109.251332, 26.289455], [-109.283844, 26.24018], [-109.295522, 26.172553], [-109.280426, 26.160631], [-109.272817, 26.168036], [-109.261708, 26.210395], [-109.231597, 26.262519], [-109.225413, 26.334459], [-109.216664, 26.34398], [-109.16393, 26.331366], [-109.157135, 26.292792], [-109.176991, 26.262519], [-109.156077, 26.254828], [-109.109364, 26.216457], [-109.095041, 26.214748], [-109.108713, 26.262519], [-109.082997, 26.277004], [-109.088246, 26.290432], [-109.116119, 26.288886], [-109.156728, 26.364203], [-109.184438, 26.378567], [-109.170155, 26.35871], [-109.211741, 26.364936], [-109.240102, 26.335517], [-109.249623, 26.334459], [-109.253, 26.349066], [-109.239003, 26.419501], [-109.255727, 26.497992], [-109.314154, 26.568716], [-109.357905, 26.597391], [-109.387089, 26.638021], [-109.417433, 26.661964], [-109.482753, 26.682211], [-109.428522, 26.671851], [-109.441374, 26.694239], [-109.435554, 26.703621], [-109.441398, 26.714555], [-109.473476, 26.717647], [-109.483428, 26.742641], [-109.506154, 26.729066], [-109.512019, 26.747297], [-109.528946, 26.751438], [-109.552788, 26.71701], [-109.521862, 26.708204], [-109.523573, 26.688405], [-109.493237, 26.676468], [-109.494391, 26.669173], [-109.530561, 26.684227], [-109.604642, 26.696597], [-109.647798, 26.693379], [-109.664071, 26.674062], [-109.694428, 26.678155], [-109.784576, 26.719428], [-109.856313, 26.800971], [-109.871573, 26.870793], [-109.911244, 26.951972], [-109.945565, 26.99709], [-109.941773, 27.007394], [-109.904164, 26.954413], [-109.88329, 26.940904], [-109.908359, 26.996683], [-109.917037, 27.060074], [-109.966176, 27.108873], [-110.023834, 27.117418], [-110.062329, 27.081692], [-110.090783, 27.102709], [-110.287622, 27.148394], [-110.336688, 27.172062], [-110.403718, 27.245371], [-110.447883, 27.274262], [-110.500371, 27.291082], [-110.522329, 27.290354], [-110.524394, 27.300083], [-110.438423, 27.292655], [-110.425628, 27.301906], [-110.471059, 27.345852], [-110.479156, 27.358629], [-110.4735, 27.376858], [-110.499664, 27.393378], [-110.530385, 27.373236], [-110.550933, 27.377387], [-110.558502, 27.434394], [-110.587405, 27.449365], [-110.588849, 27.511865], [-110.626708, 27.608537], [-110.627101, 27.641099], [-110.617005, 27.657477], [-110.578969, 27.668362], [-110.567942, 27.681383], [-110.570139, 27.697414], [-110.581939, 27.700141], [-110.603342, 27.681383], [-110.594716, 27.714504], [-110.553456, 27.732489], [-110.548085, 27.742825], [-110.599517, 27.752346], [-110.601715, 27.767076], [-110.589019, 27.791246], [-110.612864, 27.80093], [-110.609527, 27.824774], [-110.597239, 27.812893], [-110.586578, 27.837063], [-110.521067, 27.84455], [-110.508372, 27.853664], [-110.513295, 27.873196], [-110.533274, 27.865953], [-110.591664, 27.887519], [-110.616322, 27.886176], [-110.604115, 27.875637], [-110.623769, 27.872992], [-110.670969, 27.898383], [-110.741851, 27.91413], [-110.812123, 27.914537], [-110.84911, 27.906684], [-110.84911, 27.91413], [-110.808176, 27.927802], [-110.827138, 27.982856], [-110.838857, 27.989407], [-110.850657, 27.989081], [-110.860585, 27.934882], [-110.890696, 27.899848], [-110.875844, 27.901923], [-110.863637, 27.889797], [-110.867177, 27.863105], [-110.886301, 27.838853], [-110.91804, 27.879381], [-110.945912, 27.886176], [-110.96581, 27.906684], [-110.938466, 27.920356], [-110.999257, 27.964057], [-111.040561, 27.95591], [-111.059146, 27.937017], [-111.105025, 27.935372], [-111.095236, 27.951712], [-111.103995, 27.962051], [-111.128443, 27.968989], [-111.142593, 27.984057], [-111.1718, 27.990087], [-111.220464, 28.044274], [-111.250662, 28.052013], [-111.300372, 28.129349], [-111.332648, 28.160407], [-111.340443, 28.205268], [-111.349355, 28.215766], [-111.372792, 28.217719], [-111.394114, 28.27383], [-111.451772, 28.325629], [-111.458323, 28.347235], [-111.43814, 28.387112], [-111.4735, 28.381049], [-111.708354, 28.460141], [-111.76061, 28.58397], [-111.9204, 28.720038], [-111.94938, 28.756514], [-111.894358, 28.780666], [-111.867055, 28.749579], [-111.856028, 28.773627], [-111.868235, 28.803127], [-111.925017, 28.801719], [-111.967271, 28.841321], [-112.030296, 28.861431], [-112.035268, 28.880561], [-112.04892, 28.885892], [-112.046774, 28.895934], [-112.084019, 28.92354], [-112.105526, 28.957378], [-112.166508, 28.966726], [-112.170819, 28.972993], [-112.152179, 28.987436], [-112.173088, 29.070373], [-112.186017, 29.074745], [-112.164947, 29.109931], [-112.166127, 29.120429], [-112.194753, 29.157519], [-112.191148, 29.16692], [-112.22704, 29.188422], [-112.211425, 29.252808], [-112.239453, 29.315337], [-112.263474, 29.32998], [-112.314002, 29.330543], [-112.330528, 29.321087], [-112.333079, 29.296536], [-112.35676, 29.318793], [-112.411224, 29.344728], [-112.419822, 29.37591], [-112.377838, 29.462795], [-112.377754, 29.485729], [-112.38715, 29.498275], [-112.408037, 29.502707], [-112.430452, 29.520222], [-112.431996, 29.561184], [-112.505972, 29.616919], [-112.535878, 29.688218], [-112.543772, 29.698228], [-112.560476, 29.696341], [-112.58019, 29.718004], [-112.595815, 29.771308], [-112.637929, 29.825873], [-112.669455, 29.897623], [-112.68635, 29.907782], [-112.729577, 29.903012], [-112.746287, 29.910465], [-112.751472, 29.924264], [-112.739266, 29.941249], [-112.744488, 29.958833], [-112.73389810249358, 30.0], [-104.68677896626849, 30.0], [-104.680479, 29.976466], [-104.680479, 29.942308], [-104.637588, 29.887996], [-104.619682, 29.833064], [-104.570279, 29.787511], [-104.561391, 29.745421], [-104.537103, 29.702116], [-104.535036, 29.677802], [-104.516639, 29.654315], [-104.455222, 29.613387], [-104.444008, 29.589203], [-104.349026, 29.537578], [-104.338484, 29.524013], [-104.320604, 29.532255], [-104.267171, 29.526571], [-104.212291, 29.484661], [-104.194514, 29.448927], [-104.161648, 29.416759], [-104.105424, 29.385675], [-104.057313, 29.339037], [-103.928122, 29.293019], [-103.78366, 29.274803], [-103.769424, 29.257543], [-103.777718, 29.235297], [-103.770767, 29.229845], [-103.673125, 29.173569], [-103.58499, 29.154656], [-103.550238, 29.154656], [-103.529748, 29.126776], [-103.478537, 29.08205], [-103.423605, 29.057866], [-103.38663, 29.028798], [-103.372083, 29.023733], [-103.342602, 29.041226], [-103.330484, 29.023733], [-103.309994, 29.031175], [-103.316247, 29.010065], [-103.301545, 29.002365], [-103.241756, 29.003502], [-103.147989, 28.985105], [-103.122771, 28.996474], [-103.109205, 29.023372], [-103.104684, 29.057866], [-103.091532, 29.057866], [-103.072541, 29.091404], [-103.024275, 29.116157], [-102.988386, 29.177135], [-102.969757, 29.192845], [-102.947536, 29.182018], [-102.896893, 29.220285], [-102.858781, 29.229147], [-102.899709, 29.2639], [-102.883069, 29.343766], [-102.864957, 29.359527], [-102.837672, 29.366322], [-102.845578, 29.384719], [-102.835191, 29.403839], [-102.839067, 29.45195], [-102.795478, 29.54427], [-102.78075, 29.558249], [-102.785892, 29.571814], [-102.774084, 29.579617], [-102.779665, 29.592303], [-102.761346, 29.603414], [-102.73127, 29.650594], [-102.697758, 29.709557], [-102.69104, 29.736817], [-102.683469, 29.743715], [-102.621225, 29.747281], [-102.566758, 29.771052], [-102.558309, 29.759089], [-102.546578, 29.757875], [-102.515288, 29.784721], [-102.406096, 29.777279], [-102.380051, 29.811386], [-102.370723, 29.857765], [-102.339769, 29.870633], [-102.321011, 29.893939], [-102.302175, 29.889391], [-102.276181, 29.869547], [-102.258276, 29.873475], [-102.253444, 29.855285], [-102.239775, 29.849135], [-102.203679, 29.846138], [-102.109344, 29.80211], [-102.014595, 29.810998], [-101.98793, 29.805184], [-101.972246, 29.818181], [-101.929613, 29.797717], [-101.88742, 29.81229], [-101.857602, 29.805184], [-101.805978, 29.811928], [-101.794531, 29.795857], [-101.632216, 29.775651], [-101.564907, 29.786478], [-101.546458, 29.820145], [-101.528604, 29.801438], [-101.542893, 29.771052], [-101.521809, 29.765936], [-101.470908, 29.791516], [-101.446103, 29.771052], [-101.405098, 29.778442], [-101.406545, 29.752888], [-101.357684, 29.667441], [-101.336239, 29.654315], [-101.301073, 29.649509], [-101.312158, 29.597859], [-101.30097, 29.594138], [-101.258776, 29.620157], [-101.233919, 29.622663], [-101.219011, 29.610287], [-101.226478, 29.55445], [-101.212861, 29.531584], [-101.191416, 29.528147], [-101.163562, 29.501301], [-101.134778, 29.487659], [-101.037782, 29.460063], [-101.022175, 29.40048], [-101.008068, 29.380585], [-100.91474, 29.337048], [-100.86389, 29.290616], [-100.796143, 29.257673], [-100.762088, 29.208658], [-100.770098, 29.187289], [-100.762501, 29.173776], [-100.70204, 29.12365], [-100.668967, 29.116208], [-100.652224, 29.044817], [-100.632793, 29.005156], [-100.628918, 28.98433], [-100.637909, 28.962884], [-100.626696, 28.948338], [-100.624318, 28.924721], [-100.594966, 28.899322], [-100.586543, 28.879789], [-100.566234, 28.869789], [-100.566234, 28.842504], [-100.534453, 28.830231], [-100.519054, 28.804961], [-100.493939, 28.708378], [-100.444898, 28.643782], [-100.44619, 28.626497], [-100.401438, 28.60226], [-100.397769, 28.557586], [-100.38423, 28.537174], [-100.322631, 28.510406], [-100.351622, 28.496711], [-100.355549, 28.478185], [-100.336326, 28.458574], [-100.322631, 28.386899], [-100.278551, 28.331088], [-100.284339, 28.296517], [-100.275089, 28.277242], [-100.240724, 28.249698], [-100.205946, 28.242877], [-100.197626, 28.207168], [-100.189203, 28.201329], [-100.074895, 28.154407], [-100.056498, 28.137922], [-100.045077, 28.095289], [-100.010196, 28.068882], [-100.014123, 28.050459], [-100.0, 28.024260577056875], [-100.0, 16.91254421835338], [-101.00824, 17.252976]]], [[[-114.533132, 29.967951], [-114.481306, 29.947299], [-114.472698, 29.918974], [-114.459341, 29.910115], [-114.427719, 29.907295], [-114.408795, 29.880942], [-114.415097, 29.854766], [-114.396297, 29.827228], [-114.409439, 29.815433], [-114.398257, 29.809707], [-114.39224, 29.783012], [-114.381251, 29.774452], [-114.353263, 29.768018], [-114.339542, 29.744723], [-114.322526, 29.741101], [-114.288811, 29.748293], [-114.292887, 29.766586], [-114.28054, 29.772067], [-114.208485, 29.744775], [-114.196235, 29.721877], [-114.157833, 29.690421], [-114.142605, 29.690669], [-114.111223, 29.653062], [-114.062656, 29.629316], [-114.046276, 29.596376], [-114.030396, 29.593209], [-114.014863, 29.577954], [-113.994334, 29.576982], [-113.897464, 29.48565], [-113.865047, 29.463656], [-113.838665, 29.456602], [-113.832674, 29.435245], [-113.770866, 29.407756], [-113.68084, 29.315998], [-113.636331, 29.282179], [-113.623076, 29.252714], [-113.656557, 29.21844], [-113.655337, 29.207323], [-113.63835, 29.198636], [-113.641378, 29.183833], [-113.624364, 29.162425], [-113.60845, 29.163416], [-113.602052, 29.140884], [-113.579374, 29.126418], [-113.535884, 29.05142], [-113.563599, 29.014042], [-113.544988, 28.975527], [-113.546938, 28.958982], [-113.557876, 28.948253], [-113.524854, 28.891566], [-113.481538, 28.893398], [-113.472213, 28.915175], [-113.487973, 28.930303], [-113.478693, 28.946248], [-113.450064, 28.94229], [-113.434665, 28.959874], [-113.426218, 28.949139], [-113.42879, 28.934713], [-113.413052, 28.922322], [-113.387871, 28.939804], [-113.383031, 28.935499], [-113.394227, 28.913139], [-113.367439, 28.907096], [-113.380418, 28.893276], [-113.359215, 28.873943], [-113.370633, 28.837206], [-113.36529, 28.823844], [-113.351849, 28.818386], [-113.354476, 28.800274], [-113.309971, 28.802064], [-113.260386, 28.840107], [-113.234099, 28.835623], [-113.220263, 28.824843], [-113.211843, 28.802874], [-113.196044, 28.792052], [-113.194241, 28.74402], [-113.156046, 28.657626], [-113.132354, 28.641303], [-113.126992, 28.627869], [-113.131609, 28.604583], [-113.10297, 28.504583], [-113.080723, 28.48681], [-113.039617, 28.47623], [-113.036098, 28.466607], [-113.001639, 28.455579], [-112.971268, 28.456328], [-112.902362, 28.475342], [-112.876004, 28.450512], [-112.879938, 28.434581], [-112.846304, 28.441077], [-112.844742, 28.422387], [-112.858393, 28.403844], [-112.849532, 28.382345], [-112.870302, 28.330779], [-112.872126, 28.28374], [-112.786456, 28.196077], [-112.8039, 28.162608], [-112.811771, 28.12054], [-112.789558, 28.067475], [-112.8037, 28.045722], [-112.799363, 28.017424], [-112.785677, 28.002866], [-112.760362, 27.997756], [-112.761921, 27.893727], [-112.773218, 27.863902], [-112.738603, 27.829576], [-112.719371, 27.82618], [-112.715129, 27.783899], [-112.705608, 27.777408], [-112.703531, 27.75496], [-112.670342, 27.71773], [-112.657829, 27.708503], [-112.643341, 27.710462], [-112.621124, 27.678078], [-112.599626, 27.666613], [-112.598008, 27.654297], [-112.485215, 27.62002], [-112.45613, 27.597824], [-112.418331, 27.58989], [-112.354714, 27.547323], [-112.353207, 27.533943], [-112.332996, 27.516593], [-112.323768, 27.494574], [-112.320572, 27.443836], [-112.299012, 27.405067], [-112.297325, 27.381062], [-112.270759, 27.357596], [-112.258044, 27.330599], [-112.241708, 27.326584], [-112.230243, 27.291104], [-112.195579, 27.250129], [-112.212764, 27.210463], [-112.164947, 27.166815], [-112.133955, 27.160071], [-112.114534, 27.142147], [-112.011168, 27.116831], [-111.993585, 27.096208], [-111.950372, 27.093276], [-111.944254, 27.069626], [-111.970152, 27.067982], [-112.003128, 27.035743], [-112.017161, 26.978502], [-112.001454, 26.952216], [-111.973948, 26.936916], [-111.951795, 26.892184], [-111.915598, 26.878198], [-111.910043, 26.858882], [-111.870717, 26.82807], [-111.861446, 26.783795], [-111.872398, 26.776523], [-111.877629, 26.756325], [-111.890207, 26.762926], [-111.905181, 26.73428], [-111.900114, 26.714559], [-111.863509, 26.693052], [-111.843103, 26.645159], [-111.824613, 26.639947], [-111.798227, 26.612647], [-111.784275, 26.571796], [-111.73581, 26.539684], [-111.676793, 26.581859], [-111.714609, 26.629707], [-111.757064, 26.659439], [-111.766891, 26.676219], [-111.794121, 26.690113], [-111.807421, 26.715525], [-111.814585, 26.714577], [-111.816702, 26.766478], [-111.828684, 26.808293], [-111.823641, 26.820475], [-111.836904, 26.834613], [-111.851419, 26.880275], [-111.818073, 26.896233], [-111.795091, 26.884028], [-111.792354, 26.87542], [-111.745229, 26.844099], [-111.721082, 26.806267], [-111.680124, 26.778759], [-111.667337, 26.780551], [-111.647831, 26.74648], [-111.625895, 26.739701], [-111.60842, 26.721134], [-111.560055, 26.695653], [-111.564772, 26.558001], [-111.482411, 26.52851], [-111.460221, 26.537669], [-111.46103, 26.529677], [-111.442238, 26.517526], [-111.45453, 26.505523], [-111.455676, 26.486354], [-111.468247, 26.466436], [-111.468867, 26.419504], [-111.46156, 26.400057], [-111.423835, 26.377154], [-111.432385, 26.360875], [-111.393656, 26.330011], [-111.381925, 26.277073], [-111.393223, 26.277997], [-111.397449, 26.252215], [-111.375823, 26.21255], [-111.375721, 26.183452], [-111.364521, 26.17612], [-111.350947, 26.126319], [-111.322037, 26.098183], [-111.319483, 26.06356], [-111.344941, 26.028751], [-111.337328, 25.987698], [-111.36026, 25.964097], [-111.335764, 25.8994], [-111.33889, 25.873078], [-111.331028, 25.837358], [-111.315741, 25.836202], [-111.291923, 25.812266], [-111.301077, 25.807895], [-111.315394, 25.820034], [-111.307116, 25.779207], [-111.278323, 25.750659], [-111.255638, 25.741657], [-111.244282, 25.723303], [-111.225005, 25.724353], [-111.212533, 25.701567], [-111.191744, 25.614829], [-111.172384, 25.594972], [-111.163958, 25.573333], [-111.145702, 25.566221], [-111.123896, 25.530322], [-111.076626, 25.524768], [-111.069453, 25.532353], [-111.071937, 25.517271], [-111.019256, 25.51525], [-111.014655, 25.477502], [-111.025389, 25.447153], [-111.003817, 25.416713], [-110.979545, 25.342369], [-110.955808, 25.328375], [-110.943535, 25.307581], [-110.947454, 25.29801], [-110.934262, 25.291141], [-110.934661, 25.277844], [-110.947316, 25.261814], [-110.932024, 25.215313], [-110.906093, 25.182162], [-110.912711, 25.177879], [-110.904451, 25.143013], [-110.87423, 25.118999], [-110.861615, 25.079189], [-110.823572, 25.058328], [-110.826739, 25.048018], [-110.814232, 25.03319], [-110.794464, 25.030599], [-110.790454, 25.036795], [-110.757791, 25.012239], [-110.747241, 24.96379], [-110.719187, 24.924159], [-110.698632, 24.914528], [-110.708515, 24.908806], [-110.683868, 24.882959], [-110.684341, 24.857073], [-110.656972, 24.806918], [-110.664524, 24.764721], [-110.687208, 24.730661], [-110.688438, 24.710239], [-110.723528, 24.681178], [-110.739314, 24.621253], [-110.732611, 24.560709], [-110.738585, 24.554572], [-110.728855, 24.515989], [-110.6872, 24.466039], [-110.684361, 24.444251], [-110.692113, 24.4355], [-110.693596, 24.407716], [-110.681499, 24.390615], [-110.681849, 24.36066], [-110.653678, 24.323144], [-110.638426, 24.314866], [-110.641475, 24.309168], [-110.60989, 24.253725], [-110.581001, 24.240311], [-110.562359, 24.212503], [-110.511586, 24.195746], [-110.402089, 24.175523], [-110.325195, 24.175709], [-110.337815, 24.160846], [-110.36931, 24.149693], [-110.432429, 24.173617], [-110.416837, 24.108576], [-110.360857, 24.111083], [-110.350381, 24.114456], [-110.347187, 24.139574], [-110.306134, 24.176716], [-110.300811, 24.217042], [-110.312187, 24.21841], [-110.309885, 24.237264], [-110.324568, 24.245048], [-110.322139, 24.265456], [-110.32779, 24.267722], [-110.336259, 24.255892], [-110.33928, 24.31586], [-110.321219, 24.320587], [-110.33247, 24.328795], [-110.309065, 24.33757], [-110.296997, 24.351932], [-110.2462, 24.350445], [-110.232613, 24.343206], [-110.236384, 24.320184], [-110.192156, 24.290354], [-110.17276, 24.252976], [-110.087231, 24.215753], [-110.006985, 24.158826], [-109.996633, 24.128611], [-109.987652, 24.046319], [-109.931409, 24.029305], [-109.828288, 24.0628], [-109.821796, 24.037895], [-109.803444, 24.02206], [-109.811186, 24.001296], [-109.833104, 23.985722], [-109.837322, 23.938087], [-109.823964, 23.910386], [-109.772778, 23.877559], [-109.698443, 23.798428], [-109.710272, 23.775183], [-109.711322, 23.74897], [-109.694203, 23.688951], [-109.696321, 23.66552], [-109.679825, 23.648165], [-109.636001, 23.626182], [-109.566668, 23.596988], [-109.524019, 23.588135], [-109.514421, 23.570454], [-109.468016, 23.555138], [-109.477949, 23.525435], [-109.468359, 23.503872], [-109.426316, 23.458513], [-109.427065, 23.409931], [-109.414317, 23.405945], [-109.413625, 23.391697], [-109.428556, 23.374433], [-109.425649, 23.297187], [-109.437652, 23.281317], [-109.437652, 23.240383], [-109.453838, 23.202271], [-109.494203, 23.151731], [-109.531672, 23.108207], [-109.566147, 23.094968], [-109.577144, 23.081714], [-109.607599, 23.081166], [-109.672143, 23.056104], [-109.713176, 23.03105], [-109.712383, 23.007792], [-109.731519, 22.987543], [-109.758579, 22.984465], [-109.803377, 22.956122], [-109.80601, 22.93607], [-109.851064, 22.89997], [-109.901739, 22.889677], [-109.895378, 22.874203], [-109.954496, 22.872155], [-109.999659, 22.894442], [-110.060018, 22.950816], [-110.09838, 23.017562], [-110.107593, 23.075455], [-110.151575, 23.226267], [-110.16726, 23.321086], [-110.229487, 23.407075], [-110.234637, 23.426069], [-110.307362, 23.541032], [-110.353907, 23.580786], [-110.577343, 23.68156], [-110.647518, 23.733901], [-110.815788, 23.908746], [-110.851633, 23.940375], [-110.880872, 23.953662], [-110.883335, 23.966503], [-110.931711, 24.01496], [-111.010011, 24.071446], [-111.039714, 24.104185], [-111.227441, 24.217472], [-111.444445, 24.324391], [-111.44959, 24.330119], [-111.359749, 24.290322], [-111.374376, 24.305915], [-111.460705, 24.343196], [-111.522592, 24.404639], [-111.565366, 24.419181], [-111.595578, 24.442235], [-111.619425, 24.473137], [-111.629085, 24.508529], [-111.6535, 24.552219], [-111.634251, 24.547823], [-111.67903, 24.586334], [-111.695627, 24.587144], [-111.685928, 24.556889], [-111.698781, 24.535562], [-111.737199, 24.546734], [-111.76554, 24.538508], [-111.803145, 24.546451], [-111.761715, 24.515249], [-111.791545, 24.517444], [-111.812908, 24.50588], [-111.82102, 24.534015], [-111.814884, 24.569867], [-111.848924, 24.653686], [-111.941597, 24.744225], [-111.91222, 24.736583], [-111.968129, 24.79442], [-111.984731, 24.847154], [-112.008372, 24.874579], [-111.98766, 24.796698], [-111.966705, 24.778306], [-111.988433, 24.764716], [-111.966705, 24.744208], [-111.983551, 24.742825], [-111.9947, 24.75788], [-112.011627, 24.739447], [-112.025258, 24.755561], [-112.04308, 24.80565], [-112.029286, 24.820217], [-112.035634, 24.840399], [-112.051259, 24.830064], [-112.054514, 24.817125], [-112.043054, 24.753466], [-112.063588, 24.751654], [-112.088043, 24.773383], [-112.097727, 24.80565], [-112.097727, 24.846625], [-112.116851, 24.857082], [-112.124215, 24.874046], [-112.09024, 24.90119], [-112.103505, 24.940416], [-112.082387, 24.960273], [-112.096921, 24.999609], [-112.104171, 25.007873], [-112.110374, 25.002611], [-112.120242, 24.988124], [-112.119568, 24.970645], [-112.137278, 24.946112], [-112.123023, 24.909327], [-112.144931, 24.874094], [-112.155831, 24.875438], [-112.160872, 24.893257], [-112.153862, 24.931819], [-112.165803, 24.953935], [-112.141756, 24.970367], [-112.149005, 24.979616], [-112.123363, 25.038267], [-112.122176, 25.073402], [-112.132368, 25.073427], [-112.142525, 25.085979], [-112.130621, 25.172028], [-112.077871, 25.258735], [-112.074228, 25.372747], [-112.086248, 25.377725], [-112.086932, 25.390585], [-112.072611, 25.416592], [-112.070697, 25.441318], [-112.083098, 25.443995], [-112.074292, 25.456501], [-112.030778, 25.473615], [-112.079373, 25.471117], [-112.08445, 25.481021], [-112.062571, 25.494696], [-112.072079, 25.571333], [-112.063133, 25.625334], [-112.08145, 25.720682], [-112.089517, 25.715431], [-112.087026, 25.593207], [-112.0964, 25.510727], [-112.10409, 25.504154], [-112.101911, 25.728014], [-112.108712, 25.784145], [-112.130953, 25.816505], [-112.139628, 25.857525], [-112.159686, 25.890531], [-112.178942, 25.955175], [-112.198282, 25.995106], [-112.238515, 26.040839], [-112.26415, 26.054104], [-112.292873, 26.049712], [-112.308746, 26.06977], [-112.321156, 26.131008], [-112.343495, 26.178127], [-112.402699, 26.24022], [-112.452952, 26.262926], [-112.481313, 26.238105], [-112.49828, 26.235012], [-112.556793, 26.272366], [-112.559967, 26.301093], [-112.590168, 26.287845], [-112.617096, 26.319729], [-112.689117, 26.32274], [-112.728363, 26.370227], [-112.830358, 26.435268], [-112.903037, 26.493197], [-112.953358, 26.518494], [-112.962229, 26.543402], [-113.003651, 26.54975], [-113.060716, 26.599118], [-113.057037, 26.650214], [-113.143056, 26.757717], [-113.140533, 26.781684], [-113.119049, 26.794094], [-113.136383, 26.799018], [-113.163686, 26.78913], [-113.170318, 26.765123], [-113.195953, 26.760199], [-113.192616, 26.743638], [-113.205881, 26.738674], [-113.21581, 26.744452], [-113.238149, 26.786607], [-113.212514, 26.792426], [-113.18106, 26.814765], [-113.137278, 26.857733], [-113.124582, 26.886298], [-113.12621, 26.937893], [-113.145741, 26.97012], [-113.163808, 26.974799], [-113.179351, 26.966946], [-113.192544, 26.94506], [-113.204221, 26.853463], [-113.232411, 26.829332], [-113.24474, 26.837104], [-113.257965, 26.824652], [-113.270544, 26.752474], [-113.285772, 26.749551], [-113.363971, 26.795068], [-113.419564, 26.805843], [-113.470986, 26.804554], [-113.503887, 26.793416], [-113.526479, 26.753607], [-113.542307, 26.742092], [-113.542966, 26.719196], [-113.574149, 26.705039], [-113.637138, 26.725531], [-113.665842, 26.769436], [-113.725209, 26.799994], [-113.75414, 26.860582], [-113.816388, 26.948969], [-113.87866, 26.9835], [-113.909901, 26.992336], [-113.959767, 26.997984], [-113.974739, 26.993548], [-113.973519, 26.980216], [-113.993886, 26.971829], [-114.005198, 26.977444], [-114.04954, 27.017985], [-114.063629, 27.050767], [-114.114369, 27.105455], [-114.181956, 27.139635], [-114.236562, 27.153306], [-114.274083, 27.148898], [-114.290296, 27.14654], [-114.293999, 27.125462], [-114.350819, 27.165758], [-114.395149, 27.182914], [-114.421405, 27.166457], [-114.435143, 27.176367], [-114.429799, 27.20893], [-114.463368, 27.22248], [-114.475894, 27.217654], [-114.487542, 27.238098], [-114.484446, 27.324286], [-114.506461, 27.406184], [-114.537831, 27.433905], [-114.581078, 27.450845], [-114.596586, 27.477189], [-114.715752, 27.521904], [-114.734229, 27.521252], [-114.78173, 27.602757], [-114.830386, 27.631132], [-114.844866, 27.616064], [-114.875819, 27.643824], [-114.872012, 27.649295], [-114.848878, 27.640565], [-114.844472, 27.659654], [-114.861562, 27.689887], [-114.886586, 27.694892], [-114.899805, 27.664122], [-114.932195, 27.676193], [-114.950964, 27.716259], [-114.988709, 27.726854], [-115.001726, 27.715931], [-115.022684, 27.740291], [-115.052887, 27.822089], [-115.083823, 27.851054], [-115.055898, 27.860256], [-115.04147, 27.856782], [-115.014257, 27.830347], [-114.966451, 27.826467], [-114.923405, 27.836275], [-114.868641, 27.830554], [-114.847801, 27.825216], [-114.840016, 27.812303], [-114.78609, 27.815329], [-114.723568, 27.806801], [-114.708985, 27.791793], [-114.604457, 27.774409], [-114.530646, 27.78764], [-114.499057, 27.774071], [-114.432851, 27.800279], [-114.365102, 27.850775], [-114.316274, 27.874701], [-114.298085, 27.868109], [-114.290639, 27.833401], [-114.312164, 27.77969], [-114.282379, 27.735826], [-114.223704, 27.696967], [-114.195627, 27.692043], [-114.15095, 27.669664], [-114.119496, 27.63581], [-114.120351, 27.625881], [-114.102935, 27.620917], [-114.102935, 27.601874], [-114.047597, 27.653144], [-114.043446, 27.668036], [-114.057485, 27.669664], [-114.064931, 27.682929], [-114.078196, 27.680406], [-114.074859, 27.690375], [-114.055043, 27.694485], [-114.042592, 27.679633], [-114.021108, 27.679633], [-114.012034, 27.665513], [-113.953277, 27.655666], [-113.917795, 27.696967], [-113.918568, 27.719306], [-113.973988, 27.74494], [-113.983062, 27.75731], [-113.993804, 27.749905], [-114.025258, 27.749905], [-114.059153, 27.801174], [-114.069081, 27.799506], [-114.057485, 27.764797], [-114.038482, 27.739163], [-114.051747, 27.72012], [-114.072377, 27.725084], [-114.104604, 27.707709], [-114.125315, 27.714301], [-114.140981, 27.730862], [-114.145985, 27.755683], [-114.172434, 27.788764], [-114.174916, 27.816067], [-114.131093, 27.888821], [-114.15095, 27.898668], [-114.135243, 27.911933], [-114.158355, 27.930121], [-114.153432, 27.945014], [-114.168324, 27.950832], [-114.182362, 27.930976], [-114.23941, 27.911933], [-114.267694, 27.886901], [-114.276452, 27.901148], [-114.261708, 27.944159], [-114.134389, 28.08393], [-114.119868, 28.08595], [-114.117184, 28.04318], [-114.146133, 28.02179], [-114.150836, 28.004566], [-114.106402, 27.927952], [-114.091603, 27.976062], [-114.095639, 27.996258], [-114.107081, 28.013484], [-114.123242, 28.016451], [-114.121224, 28.022985], [-114.108431, 28.030708], [-114.094287, 28.024176], [-114.068036, 27.99566], [-114.039736, 28.02773], [-114.037709, 28.037235], [-114.057914, 28.041993], [-114.070031, 28.055065], [-114.099667, 28.055064], [-114.10167, 28.099028], [-114.113121, 28.120413], [-114.057485, 28.206285], [-114.078196, 28.246772], [-114.098783, 28.238653], [-114.124883, 28.255725], [-114.081174, 28.342969], [-114.042592, 28.458441], [-114.050893, 28.474189], [-114.071496, 28.486944], [-114.068227, 28.518012], [-114.110422, 28.561835], [-114.160126, 28.566187], [-114.15727, 28.625672], [-114.174916, 28.657701], [-114.235341, 28.660061], [-114.246158, 28.653317], [-114.271751, 28.658801], [-114.275342, 28.696241], [-114.298308, 28.70382], [-114.31406, 28.726333], [-114.346923, 28.730755], [-114.34802, 28.763867], [-114.361371, 28.777803], [-114.36205, 28.795111], [-114.37092, 28.813178], [-114.391646, 28.806779], [-114.407282, 28.839984], [-114.402317, 28.860249], [-114.419299, 28.87848], [-114.437582, 28.877507], [-114.439942, 28.89461], [-114.476633, 28.929145], [-114.501943, 28.932563], [-114.529937, 28.925523], [-114.542832, 28.934394], [-114.561215, 28.9804], [-114.575022, 28.979234], [-114.591633, 28.965404], [-114.603765, 28.997609], [-114.602528, 29.030341], [-114.631418, 29.094468], [-114.689036, 29.113135], [-114.704927, 29.096113], [-114.72201, 29.117505], [-114.743804, 29.187567], [-114.785313, 29.19416], [-114.972035, 29.377753], [-115.104237, 29.418891], [-115.187123, 29.428616], [-115.232289, 29.490058], [-115.285722, 29.529885], [-115.371449, 29.556952], [-115.451964, 29.620106], [-115.477447, 29.626451], [-115.498583, 29.611401], [-115.536122, 29.635159], [-115.593705, 29.692173], [-115.622053, 29.695296], [-115.697564, 29.755826], [-115.685767, 29.830641], [-115.699899, 29.898014], [-115.744293, 29.947496], [-115.807485, 29.956204], [-115.811187, 29.968004], [-115.80402067026654, 30.0], [-114.55174574597793, 30.0], [-114.533132, 29.967951]]], [[[-114.724029, 18.354926], [-114.720855, 18.345689], [-114.734039, 18.32925], [-114.78189, 18.32453], [-114.798573, 18.330878], [-114.798573, 18.342475], [-114.775543, 18.354926], [-114.724029, 18.354926]]], [[[-110.93224, 18.794664], [-110.911204, 18.762519], [-110.911204, 18.744696], [-110.924306, 18.727362], [-110.961171, 18.726955], [-110.979482, 18.716783], [-111.008372, 18.742377], [-111.06725, 18.768744], [-111.05309, 18.815985], [-111.000559, 18.868232], [-110.956166, 18.843695], [-110.940785, 18.821723], [-110.945912, 18.799994], [-110.93224, 18.794664]]], [[[-110.787668, 19.31391], [-110.824086, 19.286282], [-110.83023, 19.273342], [-110.836049, 19.293402], [-110.81432, 19.334377], [-110.81432, 19.348049], [-110.787668, 19.31391]]], [[[-106.227506, 21.291166], [-106.24731, 21.289699], [-106.270197, 21.300997], [-106.279363, 21.314659], [-106.260005, 21.334097], [-106.231917, 21.335237], [-106.224038, 21.328736], [-106.227506, 21.291166]]], [[[-106.372728, 21.482046], [-106.362887, 21.464307], [-106.362644, 21.455074], [-106.380654, 21.446987], [-106.387098, 21.420636], [-106.478747, 21.451402], [-106.492614, 21.469005], [-106.459587, 21.494885], [-106.437062, 21.495946], [-106.372728, 21.482046]]], [[[-106.511664, 21.571896], [-106.532361, 21.541629], [-106.541794, 21.543459], [-106.537711, 21.555386], [-106.545065, 21.561892], [-106.591268, 21.577225], [-106.631156, 21.600861], [-106.628759, 21.616837], [-106.655986, 21.658266], [-106.649477, 21.662532], [-106.650643, 21.684069], [-106.660848, 21.693064], [-106.600013, 21.691452], [-106.548004, 21.668546], [-106.534458, 21.657571], [-106.539426, 21.636398], [-106.504782, 21.602859], [-106.512353, 21.597034], [-106.511664, 21.571896]]], [[[-106.657766, 21.739878], [-106.678963, 21.727036], [-106.688941, 21.746832], [-106.678139, 21.774846], [-106.663823, 21.777246], [-106.657766, 21.739878]]], [[[-109.808563, 24.182222], [-109.798425, 24.155165], [-109.802865, 24.137062], [-109.873927, 24.151703], [-109.871761, 24.159691], [-109.900432, 24.199241], [-109.923875, 24.266638], [-109.916621, 24.284812], [-109.937425, 24.325149], [-109.93322, 24.374414], [-109.808563, 24.182222]]], [[[-111.509633, 24.363959], [-111.462958, 24.329771], [-111.532817, 24.358312], [-111.561253, 24.362367], [-111.597245, 24.365109], [-111.664814, 24.351856], [-111.673254, 24.358401], [-111.657778, 24.375217], [-111.561635, 24.378079], [-111.509633, 24.363959]]], [[[-111.724208, 24.396167], [-111.692317, 24.373939], [-111.699752, 24.358924], [-111.693867, 24.347602], [-111.710355, 24.318346], [-111.708111, 24.299854], [-111.758561, 24.356101], [-111.871583, 24.439099], [-111.926217, 24.468124], [-111.94079, 24.483587], [-112.001754, 24.506313], [-112.006844, 24.5144], [-111.988974, 24.527654], [-111.971611, 24.518536], [-111.864395, 24.520479], [-111.85059, 24.509819], [-111.837343, 24.512756], [-111.838526, 24.499991], [-111.818232, 24.467621], [-111.775477, 24.461988], [-111.753489, 24.446967], [-111.724208, 24.396167]]], [[[-110.305002, 24.50316], [-110.287863, 24.469742], [-110.292346, 24.458185], [-110.306513, 24.456492], [-110.312734, 24.446682], [-110.307851, 24.432685], [-110.326505, 24.400749], [-110.34804, 24.402451], [-110.348837, 24.429575], [-110.363187, 24.436372], [-110.370426, 24.429678], [-110.375659, 24.446832], [-110.358635, 24.4522], [-110.360162, 24.457546], [-110.38464, 24.473656], [-110.39199, 24.497768], [-110.387649, 24.505601], [-110.39677, 24.511183], [-110.395914, 24.51912], [-110.376232, 24.530767], [-110.395966, 24.535027], [-110.394443, 24.546094], [-110.405571, 24.543804], [-110.403324, 24.559076], [-110.415745, 24.569601], [-110.397507, 24.590805], [-110.386497, 24.586864], [-110.363636, 24.556948], [-110.363989, 24.532489], [-110.345923, 24.530395], [-110.305002, 24.50316]]], [[[-110.70202, 25.103375], [-110.684752, 25.066186], [-110.668625, 25.052773], [-110.593092, 25.034447], [-110.574916, 25.015727], [-110.565807, 24.980569], [-110.570692, 24.955493], [-110.524929, 24.880001], [-110.571703, 24.872382], [-110.579153, 24.863662], [-110.57388, 24.887455], [-110.620302, 24.916724], [-110.642313, 24.914498], [-110.6365, 24.927726], [-110.644023, 24.942503], [-110.654683, 24.946073], [-110.675838, 25.011198], [-110.682248, 25.020289], [-110.713282, 25.029215], [-110.710792, 25.095047], [-110.70202, 25.103375]]], [[[-112.078085, 24.584837], [-112.070911, 24.585178], [-112.057478, 24.553691], [-112.059907, 24.540603], [-112.102478, 24.559152], [-112.113862, 24.599166], [-112.137332, 24.619089], [-112.146533, 24.618711], [-112.159216, 24.643023], [-112.176344, 24.653562], [-112.166326, 24.670937], [-112.144786, 24.670892], [-112.138381, 24.680297], [-112.139482, 24.714721], [-112.155764, 24.743385], [-112.189533, 24.773923], [-112.237785, 24.789228], [-112.260932, 24.776582], [-112.259413, 24.749407], [-112.272532, 24.772977], [-112.304596, 24.792182], [-112.30203, 24.807442], [-112.290033, 24.812495], [-112.275182, 24.839513], [-112.206302, 25.01766], [-112.163224, 25.156268], [-112.142495, 25.255132], [-112.137846, 25.265261], [-112.125326, 25.265833], [-112.120224, 25.220521], [-112.156034, 25.140773], [-112.179304, 25.044986], [-112.167319, 25.01939], [-112.161827, 24.974397], [-112.178957, 24.9747], [-112.186964, 24.961331], [-112.187354, 24.921709], [-112.19593, 24.915301], [-112.19097, 24.889849], [-112.176865, 24.872388], [-112.182557, 24.86596], [-112.20431, 24.866861], [-112.213715, 24.847527], [-112.206195, 24.817434], [-112.171125, 24.794538], [-112.17752, 24.790928], [-112.162112, 24.759709], [-112.131465, 24.728471], [-112.131119, 24.709629], [-112.115623, 24.689301], [-112.140029, 24.659288], [-112.136464, 24.632882], [-112.103485, 24.617166], [-112.078085, 24.584837]]], [[[-108.786529, 25.385443], [-108.803944, 25.374579], [-108.916086, 25.424465], [-108.994008, 25.426744], [-109.007965, 25.432563], [-109.013092, 25.446926], [-108.90099, 25.446519], [-108.831614, 25.426418], [-108.786529, 25.385443]]], [[[-110.785886, 25.604369], [-110.805532, 25.644418], [-110.803561, 25.674933], [-110.782474, 25.710335], [-110.773414, 25.712795], [-110.770004, 25.695627], [-110.762062, 25.693618], [-110.766684, 25.675786], [-110.753187, 25.598096], [-110.765292, 25.593939], [-110.785886, 25.604369]]], [[[-111.070008, 25.997039], [-111.067386, 25.965818], [-111.101114, 25.996851], [-111.11233, 25.99666], [-111.130683, 25.961821], [-111.180803, 25.902525], [-111.181303, 25.866851], [-111.204303, 25.845438], [-111.204991, 25.803754], [-111.230345, 25.823612], [-111.233355, 25.842899], [-111.218344, 25.871688], [-111.211072, 25.928869], [-111.1881, 25.969916], [-111.169255, 25.987594], [-111.168213, 26.02348], [-111.176027, 26.043342], [-111.133813, 26.052844], [-111.13607, 26.063303], [-111.12752, 26.068313], [-111.103414, 26.053817], [-111.056369, 26.071817], [-111.081986, 26.028694], [-111.081194, 25.998658], [-111.070008, 25.997039]]], [[[-109.985245, 27.069568], [-109.95751, 27.051967], [-109.938034, 27.021165], [-109.991444, 27.064195], [-110.044442, 27.087], [-109.985245, 27.069568]]], [[[-110.604563, 27.382514], [-110.59309, 27.416986], [-110.594042, 27.331832], [-110.575182, 27.313715], [-110.530659, 27.300392], [-110.534342, 27.284357], [-110.588564, 27.302735], [-110.604176, 27.318024], [-110.604563, 27.382514]]], [[[-115.184136, 28.314741], [-115.17393, 28.308831], [-115.162715, 28.261342], [-115.172268, 28.212645], [-115.158848, 28.19284], [-115.155829, 28.14078], [-115.185777, 28.106173], [-115.182149, 28.070236], [-115.188288, 28.056347], [-115.179321, 28.040345], [-115.181697, 28.027582], [-115.206299, 28.03794], [-115.228143, 28.028323], [-115.253995, 28.040304], [-115.261845, 28.070143], [-115.280263, 28.08747], [-115.303545, 28.094699], [-115.3367, 28.084436], [-115.34661, 28.071051], [-115.358052, 28.082579], [-115.352157, 28.11642], [-115.334004, 28.124878], [-115.239756, 28.233606], [-115.262453, 28.298756], [-115.248642, 28.359315], [-115.214867, 28.378279], [-115.191995, 28.360836], [-115.19498, 28.341358], [-115.184136, 28.314741]]], [[[-112.860757, 28.67186], [-112.804956, 28.636537], [-112.752401, 28.591081], [-112.773919, 28.575782], [-112.789131, 28.58687], [-112.797926, 28.60992], [-112.842642, 28.640068], [-112.867798, 28.643278], [-112.865227, 28.650153], [-112.893769, 28.677696], [-112.860757, 28.67186]]], [[[-112.557451, 28.733809], [-112.547957, 28.728549], [-112.541402, 28.712268], [-112.553939, 28.672288], [-112.604349, 28.669434], [-112.61315, 28.725763], [-112.557451, 28.733809]]], [[[-112.30966, 28.74636], [-112.326175, 28.762722], [-112.345489, 28.765192], [-112.359055, 28.758236], [-112.366965, 28.772016], [-112.382004, 28.773822], [-112.412819, 28.800128], [-112.466536, 28.80557], [-112.467216, 28.819406], [-112.493849, 28.823019], [-112.496043, 28.833045], [-112.583033, 28.875363], [-112.526104, 28.908842], [-112.504303, 28.931871], [-112.485911, 28.971625], [-112.500152, 28.990424], [-112.500356, 29.075629], [-112.480295, 29.154934], [-112.464711, 29.18183], [-112.43871, 29.202094], [-112.42229, 29.18939], [-112.401452, 29.189441], [-112.362748, 29.217736], [-112.299565, 29.222823], [-112.264337, 29.24689], [-112.281569, 29.225471], [-112.263567, 29.192841], [-112.274286, 29.165222], [-112.268482, 29.152726], [-112.272747, 29.137675], [-112.235313, 29.095725], [-112.195606, 29.02133], [-112.213543, 28.986747], [-112.228424, 28.903951], [-112.243474, 28.889499], [-112.237684, 28.876342], [-112.254137, 28.856879], [-112.276229, 28.805451], [-112.272564, 28.784096], [-112.253187, 28.76905], [-112.263193, 28.763388], [-112.274657, 28.768388], [-112.30966, 28.74636]]], [[[-113.102084, 29.053106], [-113.116636, 29.026198], [-113.114792, 28.984478], [-113.159163, 29.017744], [-113.190745, 29.028753], [-113.199405, 29.046809], [-113.243628, 29.06947], [-113.300654, 29.145095], [-113.353974, 29.170739], [-113.362072, 29.187579], [-113.405533, 29.211975], [-113.431032, 29.242772], [-113.434613, 29.266779], [-113.450128, 29.279715], [-113.48193, 29.278444], [-113.49608, 29.285201], [-113.511685, 29.326409], [-113.589104, 29.409599], [-113.588401, 29.456846], [-113.564595, 29.507679], [-113.571144, 29.53995], [-113.559802, 29.544275], [-113.549117, 29.533139], [-113.523624, 29.543113], [-113.523646, 29.549929], [-113.510876, 29.549338], [-113.510844, 29.537582], [-113.476789, 29.532104], [-113.432774, 29.492537], [-113.419336, 29.466392], [-113.39516, 29.459318], [-113.361133, 29.40193], [-113.363257, 29.393284], [-113.349779, 29.384066], [-113.373138, 29.361205], [-113.370287, 29.310009], [-113.345597, 29.295827], [-113.30659, 29.290325], [-113.297415, 29.280457], [-113.276862, 29.289101], [-113.18276, 29.289693], [-113.168525, 29.276118], [-113.178811, 29.259459], [-113.172183, 29.194671], [-113.165772, 29.1891], [-113.174315, 29.129248], [-113.14823, 29.066267], [-113.102084, 29.053106]]], [[[-118.229589, 29.06172], [-118.220529, 29.01518], [-118.229078, 28.995973], [-118.221365, 28.959343], [-118.225804, 28.915052], [-118.251362, 28.884542], [-118.289214, 28.878882], [-118.288782, 28.868083], [-118.298392, 28.876798], [-118.29475, 28.888624], [-118.283586, 28.89257], [-118.297472, 28.930891], [-118.294043, 28.948117], [-118.29998, 28.967759], [-118.31599, 28.981687], [-118.304343, 28.998019], [-118.323495, 29.039966], [-118.355518, 29.067004], [-118.368804, 29.114401], [-118.365383, 29.131653], [-118.356778, 29.149481], [-118.336729, 29.163293], [-118.30925, 29.171556], [-118.296346, 29.186159], [-118.273755, 29.189563], [-118.255895, 29.180932], [-118.283693, 29.151855], [-118.286176, 29.13644], [-118.26721, 29.098057], [-118.229589, 29.06172]]], [[[-113.228993, 26.732896], [-113.195139, 26.713853], [-113.174428, 26.720445], [-113.138051, 26.665107], [-113.264556, 26.70893], [-113.228993, 26.732896]]], [[[-110.569228, 24.843842], [-110.561414, 24.815017], [-110.580328, 24.821168], [-110.586163, 24.832117], [-110.569228, 24.843842]]], [[[-115.752309, 24.953274], [-115.753285, 24.95303], [-115.753774, 24.954413], [-115.752309, 24.953274]]], [[[-110.689525, 25.308389], [-110.707195, 25.271563], [-110.728873, 25.259982], [-110.732742, 25.287954], [-110.714791, 25.305926], [-110.689525, 25.308389]]], [[[-112.098136, 25.485822], [-112.109558, 25.363164], [-112.104347, 25.342348], [-112.122754, 25.282136], [-112.138051, 25.297347], [-112.117719, 25.360584], [-112.103015, 25.461551], [-112.106306, 25.484113], [-112.098136, 25.485822]]], [[[-111.05955, 25.708224], [-111.04354, 25.706725], [-111.037154, 25.713811], [-111.019226, 25.693887], [-111.012889, 25.678705], [-111.02851, 25.651793], [-111.047703, 25.670636], [-111.05955, 25.708224]]], [[[-111.247525, 25.799136], [-111.245943, 25.765702], [-111.258494, 25.781399], [-111.258235, 25.812789], [-111.247525, 25.799136]]], [[[-111.275238, 26.136378], [-111.263725, 26.135042], [-111.264243, 26.105006], [-111.286204, 26.103132], [-111.279932, 26.114641], [-111.286624, 26.125846], [-111.275238, 26.136378]]], [[[-112.108812, 27.236915], [-112.09009, 27.259978], [-112.045253, 27.216644], [-112.052227, 27.193672], [-112.066279, 27.178965], [-112.087448, 27.182942], [-112.097003, 27.224523], [-112.108812, 27.236915]]], [[[-111.904288, 27.437639], [-111.901083, 27.449228], [-111.879332, 27.453189], [-111.856394, 27.43787], [-111.859621, 27.430141], [-111.892268, 27.429019], [-111.904288, 27.437639]]], [[[-115.162365, 27.868343], [-115.164596, 27.851296], [-115.178434, 27.850657], [-115.193807, 27.881404], [-115.220367, 27.88864], [-115.218039, 27.896108], [-115.162365, 27.868343]]], [[[-111.395065, 27.979389], [-111.38744, 27.988079], [-111.365587, 27.9534], [-111.381951, 27.957243], [-111.395065, 27.979389]]], [[[-115.588265, 28.309779], [-115.567777, 28.313724], [-115.564667, 28.307373], [-115.592321, 28.297501], [-115.603979, 28.31014], [-115.593807, 28.317167], [-115.588265, 28.309779]]], [[[-113.504707, 29.092178], [-113.505965, 29.062595], [-113.492011, 29.03595], [-113.506825, 29.039657], [-113.514318, 29.053284], [-113.50943, 29.060804], [-113.527146, 29.092295], [-113.504707, 29.092178]]], [[[-114.401849, 29.986034], [-114.394781, 29.960184], [-114.422017, 29.966236], [-114.418542, 29.986776], [-114.401849, 29.986034]]]]}}, {"type": "Feature", "properties": {"name": "Clipperton I."}, "geometry": {"type": "Polygon", "coordinates": [[[-109.210357, 10.288723], [-109.218577, 10.281562], [-109.234242, 10.307929], [-109.212026, 10.30268], [-109.210357, 10.288723]]]}}]}