{"type": "FeatureCollection", "features": [{"type": "Feature", "properties": {"name": "South Africa"}, "geometry": {"type": "Polygon", "coordinates": [[[19.967947, -34.815199], [19.858409, -34.749688], [19.69809, -34.753676], [19.653168, -34.774102], [19.57602, -34.72796], [19.499685, -34.664239], [19.448497, -34.640069], [19.398692, -34.601821], [19.374766, -34.599298], [19.331716, -34.617771], [19.31422, -34.610935], [19.296886, -34.617771], [19.360118, -34.53867], [19.360199, -34.500421], [19.323904, -34.438653], [19.290375, -34.409112], [19.207774, -34.418552], [19.146495, -34.414972], [19.119314, -34.400567], [19.085216, -34.356541], [19.111013, -34.352634], [19.139903, -34.294366], [19.122569, -34.302667], [19.08839, -34.342706], [18.999034, -34.339288], [18.872895, -34.361912], [18.838227, -34.383884], [18.817638, -34.376886], [18.808279, -34.364679], [18.817638, -34.342706], [18.810313, -34.301853], [18.839692, -34.254327], [18.82252, -34.184991], [18.858165, -34.150323], [18.816173, -34.097101], [18.800059, -34.089532], [18.647227, -34.070001], [18.555024, -34.073826], [18.478363, -34.106866], [18.446056, -34.13714], [18.440278, -34.15781], [18.460785, -34.184503], [18.474457, -34.22617], [18.467621, -34.311293], [18.47169, -34.33172], [18.48878, -34.342706], [18.470063, -34.347426], [18.44516, -34.336521], [18.406261, -34.301853], [18.378917, -34.250258], [18.3838, -34.218683], [18.372081, -34.212498], [18.35434, -34.175388], [18.316254, -34.157485], [18.316905, -34.130548], [18.341319, -34.114679], [18.347179, -34.075453], [18.358409, -34.054783], [18.330414, -34.062188], [18.314789, -34.029067], [18.351817, -33.982192], [18.372081, -33.925063], [18.404552, -33.903253], [18.475352, -33.899835], [18.48878, -33.86297], [18.484386, -33.843927], [18.465099, -33.817966], [18.431814, -33.69671], [18.400076, -33.633396], [18.320323, -33.567478], [18.307384, -33.479262], [18.254161, -33.419366], [18.146169, -33.35589], [18.156016, -33.339044], [18.150157, -33.319268], [18.075206, -33.202244], [18.029307, -33.164972], [17.99171, -33.150323], [17.954926, -33.101983], [17.995291, -33.088149], [18.00587, -33.091729], [18.037446, -33.129978], [18.03297, -33.140883], [18.099132, -33.200942], [18.11199, -33.205011], [18.127452, -33.197361], [18.096528, -33.159112], [18.091563, -33.135512], [18.071056, -33.129978], [18.040863, -33.101658], [18.037446, -33.033787], [18.023204, -33.014337], [17.970551, -33.002374], [17.940684, -33.006443], [17.954926, -33.02752], [17.912771, -33.047459], [17.901866, -33.036879], [17.878591, -32.981541], [17.885509, -32.966078], [17.862478, -32.907159], [17.881033, -32.867608], [17.843028, -32.823337], [17.843923, -32.81463], [17.861827, -32.815199], [17.897309, -32.792739], [17.905935, -32.725844], [17.967459, -32.703546], [17.98227, -32.704767], [17.974864, -32.712172], [17.986583, -32.726983], [18.037446, -32.766778], [18.080577, -32.781345], [18.118826, -32.773045], [18.273123, -32.647556], [18.296397, -32.608575], [18.334158, -32.491306], [18.337901, -32.451593], [18.333181, -32.382013], [18.31544, -32.343683], [18.344737, -32.300714], [18.349376, -32.260349], [18.31072, -32.12949], [18.29949, -32.022638], [18.27589, -31.957452], [18.276866, -31.892673], [18.235688, -31.828058], [18.234874, -31.80047], [18.196788, -31.697361], [18.071056, -31.533461], [18.023285, -31.490411], [18.009451, -31.456638], [17.961192, -31.416192], [17.922211, -31.363946], [17.893728, -31.344822], [17.871837, -31.272882], [17.818614, -31.23211], [17.745291, -31.128839], [17.686778, -31.018976], [17.617198, -30.934015], [17.561697, -30.838067], [17.535981, -30.75213], [17.450369, -30.639093], [17.454112, -30.601251], [17.429535, -30.576755], [17.364594, -30.464044], [17.281993, -30.347752], [17.259451, -30.24505], [17.206879, -30.165297], [17.166352, -30.012872], [17.16055637334048, -30.0], [20.0, -30.0], [20.0, -34.81771543842395], [19.967947, -34.815199]]]}}]}