{"type": "FeatureCollection", "features": [{"type": "Feature", "properties": {"name": "Pitcairn Is."}, "geometry": {"type": "MultiPolygon", "coordinates": [[[[-130.101145, -25.064386], [-130.086252, -25.075128], [-130.105336, -25.076755], [-130.120351, -25.068292], [-130.101145, -25.064386]]], [[[-124.797109, -24.667087], [-124.786529, -24.663995], [-124.780588, -24.664646], [-124.77892, -24.667413], [-124.778066, -24.67254], [-124.786163, -24.664565], [-124.797109, -24.667087]]], [[[-128.3037, -24.334649], [-128.290842, -24.365655], [-128.290151, -24.39837], [-128.30012, -24.41367], [-128.320668, -24.400649], [-128.342193, -24.371759], [-128.35025, -24.341241], [-128.33019, -24.324314], [-128.3037, -24.334649]]], [[[-130.742096, -23.92783], [-130.750844, -23.934666], [-130.753082, -23.92962], [-130.742096, -23.92783]]]]}}, {"type": "Feature", "properties": {"name": "Fr. Polynesia"}, "geometry": {"type": "MultiPolygon", "coordinates": [[[[-136.175689, -22.02988], [-136.185862, -22.034438], [-136.163564, -22.013604], [-136.175689, -22.02988]]], [[[-136.395823, -21.462823], [-136.413401, -21.471368], [-136.391469, -21.45615], [-136.379872, -21.45908], [-136.377187, -21.468357], [-136.395823, -21.462823]]], [[[-136.532216, -21.331313], [-136.525706, -21.338067], [-136.529449, -21.349867], [-136.543121, -21.359796], [-136.535715, -21.34238], [-136.549387, -21.336847], [-136.532216, -21.331313]]], [[[-136.646799, -21.327244], [-136.651601, -21.322931], [-136.639882, -21.32643], [-136.63622, -21.341567], [-136.646799, -21.327244]]], [[[-136.745758, -21.303399], [-136.752187, -21.308526], [-136.745961, -21.299493], [-136.738637, -21.299493], [-136.729115, -21.318048], [-136.745758, -21.303399]]], [[[-139.207672, -19.337335], [-139.214833, -19.334568], [-139.195912, -19.340916], [-139.20519, -19.359145], [-139.207672, -19.337335]]], [[[-138.805979, -19.288832], [-138.812123, -19.283787], [-138.794586, -19.281671], [-138.796742, -19.290297], [-138.805979, -19.288832]]], [[[-138.793202, -18.778904], [-138.829742, -18.759942], [-138.815745, -18.761407], [-138.801584, -18.765232], [-138.793202, -18.778904]]], [[[-138.461415, -17.365655], [-138.463735, -17.356948], [-138.446929, -17.332696], [-138.426137, -17.324884], [-138.458811, -17.356866], [-138.441721, -17.366388], [-138.461415, -17.365655]]], [[[-134.997955, -23.116306], [-134.965484, -23.090509], [-134.942983, -23.083591], [-134.984527, -23.138767], [-135.019358, -23.125095], [-135.019358, -23.117608], [-134.997955, -23.116306]]], [[[-138.665191, -10.427341], [-138.636708, -10.440606], [-138.620432, -10.471856], [-138.620229, -10.510837], [-138.636952, -10.542169], [-138.671498, -10.55047], [-138.685618, -10.542087], [-138.694447, -10.507908], [-138.679596, -10.473565], [-138.698801, -10.426446], [-138.665191, -10.427341]]], [[[-139.130767, -10.014907], [-139.14219628150965, -10.0], [-139.12098864883603, -10.0], [-139.130767, -10.014907]]], [[[-138.9322, -21.87127], [-138.911855, -21.863946], [-138.849599, -21.87127], [-138.9322, -21.87127]]], [[[-135.525787, -21.487074], [-135.484934, -21.49684], [-135.457509, -21.528009], [-135.525787, -21.487074]]], [[[-138.517323, -20.849216], [-138.544667, -20.784682], [-138.56843, -20.788181], [-138.548899, -20.779962], [-138.542633, -20.780369], [-138.519765, -20.814548], [-138.512847, -20.85768], [-138.534901, -20.876886], [-138.517323, -20.849216]]], [[[-136.31607, -18.546319], [-136.331288, -18.532647], [-136.382965, -18.514744], [-136.448883, -18.471856], [-136.461252, -18.468683], [-136.464263, -18.486017], [-136.478586, -18.471856], [-136.45873, -18.464288], [-136.426137, -18.475356], [-136.382395, -18.509942], [-136.330434, -18.527602], [-136.304758, -18.545668], [-136.314076, -18.567315], [-136.31607, -18.546319]]], [[[-137.067616, -18.26629], [-137.010243, -18.304376], [-136.982777, -18.33587], [-136.971425, -18.361912], [-137.067616, -18.26629]]], [[[-136.74234, -21.320082], [-136.746938, -21.316176], [-136.744781, -21.315851], [-136.74234, -21.320082]]], [[[-139.141469, -20.803155], [-139.147857, -20.804946], [-139.135813, -20.799737], [-139.141469, -20.803155]]]]}}]}