{"type": "FeatureCollection", "features": [{"type": "Feature", "properties": {"name": "Russia"}, "geometry": {"type": "Polygon", "coordinates": [[[36.652599, 80.174872], [36.853689, 80.151923], [36.785899, 80.139838], [36.646251, 80.145494], [36.593598, 80.158759], [36.652599, 80.174872]]]}}, {"type": "Feature", "properties": {"name": "Norway"}, "geometry": {"type": "MultiPolygon", "coordinates": [[[[21.253103, 70.002997], [21.289887, 70.021064], [21.332774, 70.030341], [21.392589, 70.028998], [21.513827461923164, 70.0], [21.250157643220344, 70.0], [21.253103, 70.002997]]], [[[22.051524, 70.01675], [22.113617, 70.024115], [22.113617, 70.030341], [21.950857, 70.012274], [21.865896, 70.011908], [21.79835, 70.037177], [21.838878, 70.055121], [22.005138, 70.061347], [22.082774, 70.096503], [22.099376, 70.120347], [22.007823, 70.102362], [21.986013, 70.089057], [21.958263, 70.08454], [21.839203, 70.092434], [21.805024, 70.071357], [21.719493, 70.060614], [21.688487, 70.065131], [21.613292, 70.098578], [21.513357, 70.091702], [21.48227, 70.098578], [21.438975, 70.137152], [21.436534, 70.149604], [21.496593, 70.174954], [21.358165, 70.164049], [21.312266, 70.167548], [21.281993, 70.176256], [21.246837, 70.199408], [21.209239, 70.208482], [21.270356, 70.238593], [21.439301, 70.269477], [21.435232, 70.250067], [21.445079, 70.23786], [21.489757, 70.208482], [21.489757, 70.232978], [21.510265, 70.256903], [21.517751, 70.304674], [21.552989, 70.321031], [21.585948, 70.312161], [21.589122, 70.287299], [21.613292, 70.269924], [21.709483, 70.250067], [21.796886, 70.206285], [21.819347, 70.174954], [21.874034, 70.14704], [21.879649, 70.16059], [21.860362, 70.202297], [21.894542, 70.208482], [21.827322, 70.22663], [21.808849, 70.24018], [21.805675, 70.257229], [21.821788, 70.268622], [21.986827, 70.323432], [22.031586, 70.318345], [21.983897, 70.284247], [22.072032, 70.304674], [22.104828, 70.304145], [22.107595, 70.245307], [22.117198, 70.233466], [22.14088, 70.236477], [22.152843, 70.246527], [22.14088, 70.284247], [22.267426, 70.295111], [22.305837, 70.287299], [22.315115, 70.272691], [22.300304, 70.255113], [22.257579, 70.22956], [22.272309, 70.217922], [22.291759, 70.167548], [22.237071, 70.140204], [22.274669, 70.135484], [22.404959, 70.14704], [22.52475, 70.123521], [22.559337, 70.126614], [22.507335, 70.146715], [22.325938, 70.167548], [22.360606, 70.215888], [22.373709, 70.250067], [22.400645, 70.258287], [22.46811, 70.259914], [22.553966, 70.238349], [22.587087, 70.242092], [22.600271, 70.236477], [22.594005, 70.222073], [22.603689, 70.218492], [22.675304, 70.223131], [22.967052, 70.207465], [22.976899, 70.198879], [22.970551, 70.189358], [22.860199, 70.126207], [22.836681, 70.120347], [22.736095, 70.101996], [22.552501, 70.085598], [22.434581, 70.088935], [22.392345, 70.067816], [22.284923, 70.044013], [22.331798, 70.040432], [22.39503, 70.061103], [22.647634, 70.07567], [22.713715, 70.095282], [22.867198, 70.106024], [22.978526, 70.145413], [23.018565, 70.14704], [23.002696, 70.114407], [22.998057, 70.08218], [23.02003, 70.038072], [23.032237, 70.030341], [23.115082, 70.043036], [23.128429, 70.033759], [23.120057660735842, 70.0], [22.05427029941057, 70.0], [22.051524, 70.01675]]], [[[23.48463, 70.006334], [23.539317, 70.024115], [23.488536, 70.034166], [23.296886, 70.039781], [23.175548, 70.092434], [23.379242, 70.123236], [23.40211, 70.140204], [23.299083, 70.167548], [23.403087, 70.180813], [23.422048, 70.195461], [23.280772, 70.198472], [23.243907, 70.215888], [23.275727, 70.225043], [23.487641, 70.235541], [23.531912, 70.243842], [23.47047, 70.256008], [23.292247, 70.243842], [23.312836, 70.256985], [23.399425, 70.278632], [23.570811, 70.290676], [23.614431, 70.304674], [23.511974, 70.297838], [23.546153, 70.325141], [23.463634, 70.318345], [23.513194, 70.365546], [23.590587, 70.386705], [23.750987, 70.448717], [23.840343, 70.497056], [23.917979, 70.509426], [24.18629, 70.493964], [24.298025, 70.47484], [24.350271, 70.456244], [24.355317, 70.471991], [24.315196, 70.4831], [24.231456, 70.52383], [24.102712, 70.541409], [24.264334, 70.606269], [24.272309, 70.613186], [24.282237, 70.657538], [24.352387, 70.690985], [24.408865, 70.681464], [24.477712, 70.683295], [24.646983, 70.617987], [24.687999, 70.614325], [24.723481, 70.621039], [24.738536, 70.644232], [24.724864, 70.665229], [24.661632, 70.688178], [24.642263, 70.702582], [24.655935, 70.709377], [24.588145, 70.72191], [24.5324, 70.750393], [24.292328, 70.764106], [24.26588, 70.769924], [24.245128, 70.784491], [24.268077, 70.800238], [24.269379, 70.838446], [24.395763, 70.866889], [24.41627, 70.852769], [24.408865, 70.845933], [24.465831, 70.834459], [24.464122, 70.81802], [24.520274, 70.811591], [24.616059, 70.779731], [24.635427, 70.779771], [24.649669, 70.798774], [24.600759, 70.825426], [24.613292, 70.859361], [24.628673, 70.8664], [24.710297, 70.859036], [24.724864, 70.873236], [24.608165, 70.894355], [24.628673, 70.908026], [24.594737, 70.918118], [24.573985, 70.935289], [24.613048, 70.947496], [24.655935, 70.949612], [24.587657, 70.962592], [24.666026, 70.977688], [24.774181, 70.968207], [24.80714, 70.947211], [24.847423, 70.938707], [24.860199, 70.928371], [24.820486, 70.908026], [24.984874, 70.914252], [24.96811, 70.929836], [24.987966, 70.958157], [24.971202, 70.962592], [24.9935, 70.972073], [25.033458, 70.97134], [25.062836, 70.957587], [25.053233, 70.927883], [24.988943, 70.891303], [24.916026, 70.873236], [24.932953, 70.867621], [24.971365, 70.876166], [25.004731, 70.86164], [25.067393, 70.852769], [25.067149, 70.873033], [25.07602, 70.884345], [25.111501, 70.909329], [25.153575, 70.919501], [25.241873, 70.862372], [25.266124, 70.825426], [25.245616, 70.791327], [25.266856, 70.794257], [25.29477, 70.813422], [25.341563, 70.812445], [25.392263, 70.884426], [25.396658, 70.900702], [25.360606, 70.925605], [25.341807, 70.952704], [25.365001, 70.976142], [25.535981, 70.922919], [25.537283, 70.911282], [25.512462, 70.886908], [25.423106, 70.859605], [25.441661, 70.841498], [25.465668, 70.844062], [25.512462, 70.869818], [25.553396, 70.852769], [25.588878, 70.880683], [25.662608, 70.895331], [25.70574, 70.895575], [25.756114, 70.859605], [25.790538, 70.880683], [25.881602, 70.895697], [25.925792, 70.863674], [25.925141, 70.855902], [25.868663, 70.835435], [25.825206, 70.82746], [25.753266, 70.784491], [25.629161, 70.763983], [25.656505, 70.736029], [25.620128, 70.712307], [25.559906, 70.699042], [25.512462, 70.67121], [25.446788, 70.661933], [25.427989, 70.642401], [25.35377, 70.607164], [25.28712, 70.592719], [25.239268, 70.564765], [25.101085, 70.523098], [25.073578, 70.503323], [25.245942, 70.527899], [25.28712, 70.510728], [25.242524, 70.48664], [25.059906, 70.489651], [25.097504, 70.47134], [25.243337, 70.47842], [25.28712, 70.456122], [25.251801, 70.448065], [25.245942, 70.434638], [25.264008, 70.405341], [25.264659, 70.393012], [25.256602, 70.386379], [25.197765, 70.400377], [25.156586, 70.393948], [25.081065, 70.35932], [25.135753, 70.353095], [25.105479, 70.336249], [25.104747, 70.325344], [25.122081, 70.318345], [25.186778, 70.339342], [25.203949, 70.331977], [25.208751, 70.316718], [25.201345, 70.307074], [24.979828, 70.229438], [24.964692, 70.191352], [24.970225, 70.176825], [24.946788, 70.15762], [24.94337, 70.102362], [24.96339, 70.08039], [25.004242, 70.064032], [25.03712, 70.064358], [25.033376, 70.092434], [25.006033, 70.118598], [25.012218, 70.133979], [25.094737, 70.153876], [25.073578, 70.126614], [25.122244, 70.13227], [25.135753, 70.126614], [25.090343, 70.116604], [25.081065, 70.106024], [25.11378, 70.082465], [25.159434, 70.080878], [25.252696, 70.101304], [25.324392, 70.18244], [25.394786, 70.199693], [25.429535, 70.222235], [25.450531, 70.249498], [25.5171, 70.277899], [25.540375, 70.297838], [25.517263, 70.311347], [25.423106, 70.325141], [25.441091, 70.342231], [25.656423, 70.440619], [25.869151, 70.564195], [25.927419, 70.576402], [25.990571, 70.606513], [26.012218, 70.626207], [26.070811, 70.71247], [26.136404, 70.723049], [26.163585, 70.757799], [26.255382, 70.797431], [26.374278, 70.868476], [26.613617, 70.949123], [26.691173, 70.955797], [26.677501, 70.942125], [26.725352, 70.927883], [26.719249, 70.916164], [26.732758, 70.897773], [26.730154, 70.887885], [26.708263, 70.869818], [26.669119, 70.859605], [26.663829, 70.849311], [26.679942, 70.826646], [26.736013, 70.838609], [26.745779, 70.832261], [26.69158, 70.772935], [26.685313, 70.754584], [26.691173, 70.736029], [26.640473, 70.70661], [26.341645, 70.647935], [26.375336, 70.638373], [26.537446, 70.661851], [26.623057, 70.651923], [26.656993, 70.64053], [26.601817, 70.558539], [26.606293, 70.544379], [26.560802, 70.517646], [26.558442, 70.504136], [26.581309, 70.47663], [26.521332, 70.448391], [26.513031, 70.431586], [26.526622, 70.407701], [26.50587, 70.36286], [26.553884, 70.353095], [26.594981, 70.379788], [26.649587, 70.379788], [26.631033, 70.401109], [26.634451, 70.413031], [26.662283, 70.426418], [26.692719, 70.420233], [26.753103, 70.427314], [26.799327, 70.454657], [26.812266, 70.479926], [26.945079, 70.482856], [26.931488, 70.466457], [26.948253, 70.46247], [27.05128, 70.47606], [27.102061, 70.469794], [27.054373, 70.482856], [26.976085, 70.527411], [26.966075, 70.538072], [26.990896, 70.543769], [27.007091, 70.558539], [26.972911, 70.565375], [27.021495, 70.598944], [27.080903, 70.613186], [27.116384, 70.599514], [27.171072, 70.599514], [27.266612, 70.585273], [27.235118, 70.601711], [27.129893, 70.626207], [27.099864, 70.641099], [27.105317, 70.655748], [27.156749, 70.681464], [27.080903, 70.702582], [27.110606, 70.728705], [27.139822, 70.740627], [27.329438, 70.743313], [27.342296, 70.757799], [27.293712, 70.763902], [27.280447, 70.774726], [27.310883, 70.818183], [27.323985, 70.823635], [27.629649, 70.804999], [27.480154, 70.825426], [27.480154, 70.832261], [27.534028, 70.845933], [27.500011, 70.8664], [27.47047, 70.865953], [27.453461, 70.87934], [27.391287, 70.87637], [27.383311, 70.883775], [27.386892, 70.891669], [27.410492, 70.914252], [27.355805, 70.886908], [27.335134, 70.884019], [27.190929, 70.894965], [27.122569, 70.921698], [27.1338, 70.950019], [27.148692, 70.963853], [27.171153, 70.966864], [27.348969, 70.942125], [27.307872, 70.972602], [27.232432, 70.996772], [27.22169, 71.018948], [27.253184, 71.026313], [27.47641, 71.006659], [27.500011, 70.993638], [27.508556, 70.968573], [27.529307, 70.955471], [27.55421, 70.955268], [27.575531, 70.968817], [27.564301, 70.994452], [27.58253, 71.017279], [27.533051, 71.028754], [27.524587, 71.074408], [27.534028, 71.086127], [27.568696, 71.097235], [27.642345, 71.095445], [27.650157, 71.127102], [27.715505, 71.104234], [27.72462, 71.090399], [27.698009, 71.06566], [27.72169, 71.059719], [27.787852, 71.059475], [27.87672, 71.037746], [27.963634, 71.046617], [27.999034, 71.065823], [28.043224, 71.07099], [28.061697, 71.06566], [28.063975, 71.049954], [28.081065, 71.040961], [28.145193, 71.074042], [28.191417, 71.086127], [28.232758, 71.07803], [28.260997, 71.055732], [28.252289, 71.039374], [28.198904, 71.017279], [28.219249, 71.017279], [28.185232, 70.996772], [28.239757, 71.011054], [28.226329, 70.992825], [28.205089, 70.9831], [28.233084, 70.977037], [28.343435, 71.004218], [28.491466, 70.999823], [28.546072, 70.979926], [28.548839, 70.972602], [28.529307, 70.939195], [28.483165, 70.889472], [28.369477, 70.886908], [28.383556, 70.874986], [28.44516, 70.8664], [28.397472, 70.847113], [28.343435, 70.845933], [28.363292, 70.825426], [28.225434, 70.832261], [28.30128, 70.812445], [28.26588, 70.794989], [28.179698, 70.782864], [28.061697, 70.798774], [28.023123, 70.792914], [28.009532, 70.796129], [28.013845, 70.812445], [27.99879, 70.815741], [27.950694, 70.797756], [27.76002, 70.791327], [27.828298, 70.770819], [27.782481, 70.755194], [27.773692, 70.743557], [27.899669, 70.768215], [27.986827, 70.757025], [28.006684, 70.742865], [28.080821, 70.745673], [28.130544, 70.736029], [28.072439, 70.703274], [27.933442, 70.687079], [27.869884, 70.667792], [27.87672, 70.660956], [27.793142, 70.636786], [27.650157, 70.60635], [27.794688, 70.613674], [28.153819, 70.677924], [28.253429, 70.716376], [28.283376, 70.718492], [28.30128, 70.702582], [28.287852, 70.653754], [28.233165, 70.61518], [27.994395, 70.526516], [27.87379, 70.498603], [27.849376, 70.482856], [27.883556, 70.428209], [27.914561, 70.473212], [27.944998, 70.489163], [27.979747, 70.497056], [27.938162, 70.469794], [28.058604, 70.492987], [28.185232, 70.503323], [28.080089, 70.477118], [28.040863, 70.44477], [28.087657, 70.451483], [28.112804, 70.463853], [28.130544, 70.469794], [28.104015, 70.454332], [28.107595, 70.445705], [28.127126, 70.44184], [28.177745, 70.47663], [28.25294, 70.510077], [28.335297, 70.517646], [28.322113, 70.496975], [28.264008, 70.466376], [28.160655, 70.382799], [28.158458, 70.368109], [28.17335, 70.332953], [28.157237, 70.284247], [28.157888, 70.247301], [28.177908, 70.182278], [28.177745, 70.153876], [28.167247, 70.135484], [28.099783, 70.088121], [28.039887, 70.071275], [28.013845, 70.071357], [28.066254, 70.063178], [28.128103, 70.08161], [28.18393, 70.115546], [28.219249, 70.153876], [28.225434, 70.174018], [28.198904, 70.215888], [28.204356, 70.245795], [28.191417, 70.284247], [28.225434, 70.345649], [28.232677, 70.399115], [28.258149, 70.420966], [28.320811, 70.43891], [28.329112, 70.469794], [28.390391, 70.493354], [28.458832, 70.489651], [28.456228, 70.471991], [28.469249, 70.455146], [28.489268, 70.445258], [28.507335, 70.448717], [28.511729, 70.457994], [28.500499, 70.482856], [28.525727, 70.49787], [28.555024, 70.503323], [28.555024, 70.510728], [28.458832, 70.517646], [28.397472, 70.548285], [28.401703, 70.558987], [28.479259, 70.626207], [28.493419, 70.658026], [28.516856, 70.678168], [28.620291, 70.67829], [28.610362, 70.68891], [28.540701, 70.70893], [28.526215, 70.721747], [28.555024, 70.750393], [28.643077, 70.789252], [28.725597, 70.848944], [28.794688, 70.873236], [29.082693, 70.880683], [29.104503, 70.873033], [29.062266, 70.8664], [29.062266, 70.859605], [29.221365, 70.855414], [29.261404, 70.839748], [29.264822, 70.815172], [29.2824, 70.805121], [29.404796, 70.784491], [29.380544, 70.769436], [29.294932, 70.743557], [29.322113, 70.734931], [29.417817, 70.736029], [29.372569, 70.723863], [29.322276, 70.723049], [29.337738, 70.708441], [29.36378, 70.709377], [29.351899, 70.695299], [29.281423, 70.681464], [29.294932, 70.674628], [29.281423, 70.660956], [29.306407, 70.652899], [29.3921, 70.697333], [29.517751, 70.705878], [29.699555, 70.74372], [29.745779, 70.742743], [29.778982, 70.726549], [29.781505, 70.68891], [29.761974, 70.664496], [29.702647, 70.639594], [29.67921, 70.620022], [29.82309, 70.633694], [29.870372, 70.664374], [29.993826, 70.71308], [30.104747, 70.710761], [30.206798, 70.681464], [30.186046, 70.6647], [30.096934, 70.647935], [30.130707, 70.638821], [30.240896, 70.633694], [30.336925, 70.606147], [30.347341, 70.596137], [30.264659, 70.56977], [30.124766, 70.551703], [30.124766, 70.544867], [30.159841, 70.541449], [30.165212, 70.531236], [30.041352, 70.544379], [30.000743, 70.544867], [30.000743, 70.538072], [30.163097, 70.524604], [30.456309, 70.561225], [30.581798, 70.542182], [30.599132, 70.529771], [30.562348, 70.517646], [30.731944, 70.468166], [30.741222, 70.44184], [30.786632, 70.42064], [30.812348, 70.4147], [30.837413, 70.431708], [30.926036, 70.456122], [30.946951, 70.450019], [30.973399, 70.42121], [31.005626, 70.409003], [31.063324, 70.366767], [31.019379, 70.339911], [31.021739, 70.325141], [31.066417, 70.300482], [31.076996, 70.284247], [31.041189, 70.284857], [30.933604, 70.263739], [30.548839, 70.248684], [30.515147, 70.239081], [30.514659, 70.215888], [30.488943, 70.20307], [30.398611, 70.195461], [30.374848, 70.185858], [30.357758, 70.173245], [30.357432, 70.161282], [30.384288, 70.153876], [30.355235, 70.129706], [30.119477, 70.084906], [30.117931, 70.07807], [30.158946, 70.071357], [29.22047, 70.120347], [29.226736, 70.120347], [28.653656, 70.182318], [28.616547, 70.176907], [28.59669, 70.161322], [28.753673, 70.167548], [28.732595, 70.149319], [28.690115, 70.134101], [28.610362, 70.120347], [28.629405, 70.107123], [28.732677, 70.098578], [28.786469, 70.111151], [28.849946, 70.098578], [28.849946, 70.092434], [28.759044, 70.093573], [28.732677, 70.085598], [28.924083, 70.073879], [28.993337, 70.055854], [29.13795, 70.057603], [29.124278, 70.044013], [29.183116, 70.043402], [29.192556, 70.037177], [29.130382, 70.01675], [29.158376, 70.009223], [29.343435, 70.01675], [29.389415, 70.004869], [29.430285429287345, 70.0], [27.99653645972324, 70.0], [27.98101, 70.009604], [27.927163, 70.05327], [27.897294, 70.070685], [27.866908, 70.07531], [27.792184, 70.058929], [27.66506, 70.068282], [27.612557, 70.062055], [27.570906, 70.040894], [27.563309, 70.023582], [27.445229, 70.003222], [27.438077973174536, 70.0], [23.479286987882624, 70.0], [23.48463, 70.006334]]], [[[21.099376, 70.010484], [21.0562567387431, 70.0], [20.760880815121162, 70.0], [20.802013, 70.037502], [20.859874, 70.044013], [20.958832, 70.003079], [21.099376, 70.010484]]], [[[21.046641, 70.03913], [21.02003, 70.028144], [20.955333, 70.024115], [20.991873, 70.051459], [21.020518, 70.063544], [21.041026, 70.061347], [21.046641, 70.03913]]], [[[20.7942, 70.067816], [20.771007, 70.057603], [20.747325, 70.055976], [20.688487, 70.071357], [20.660411, 70.054592], [20.60255, 70.044013], [20.588145, 70.045966], [20.60255, 70.086371], [20.592296, 70.106024], [20.564708, 70.104722], [20.559581, 70.093736], [20.564952, 70.078803], [20.517833, 70.078803], [20.520844, 70.062323], [20.506684, 70.058336], [20.431651, 70.068061], [20.399913, 70.085598], [20.389903, 70.102688], [20.399669, 70.150377], [20.437755, 70.186672], [20.544607, 70.208482], [20.547699, 70.224799], [20.561371, 70.233222], [20.733897, 70.236721], [20.808849, 70.220364], [20.824392, 70.209866], [20.824229, 70.194566], [20.780772, 70.142483], [20.771007, 70.115546], [20.791515, 70.092434], [20.7942, 70.067816]]], [[[20.111583, 70.120185], [20.154063, 70.120347], [20.154063, 70.11286], [20.023692, 70.092434], [20.036388, 70.083075], [20.031016, 70.075385], [20.0, 70.06642403921234], [20.0, 70.14334324772983], [20.111583, 70.120185]]], [[[22.988536, 70.292955], [23.008311, 70.280748], [23.019054, 70.26496], [23.016287, 70.254299], [23.001475, 70.249172], [22.7317, 70.256903], [22.44516, 70.291449], [22.373709, 70.331977], [22.378673, 70.346991], [22.421072, 70.361762], [22.504649, 70.325141], [22.4699, 70.353095], [22.473643, 70.380276], [22.485118, 70.384467], [22.529796, 70.364203], [22.575206, 70.382025], [22.600271, 70.366767], [22.618907, 70.38703], [22.648123, 70.372992], [22.65089, 70.386298], [22.674653, 70.398871], [22.694509, 70.385565], [22.696462, 70.353095], [22.714366, 70.336982], [22.729747, 70.344631], [22.737153, 70.365058], [22.730479, 70.387193], [22.756358, 70.394965], [22.780528, 70.386217], [22.798595, 70.366848], [22.805675, 70.342231], [22.827973, 70.333726], [22.956391, 70.325141], [22.922374, 70.304674], [22.988536, 70.292955]]], [[[23.628103, 70.489651], [23.662283, 70.469794], [23.634125, 70.437486], [23.59254, 70.415269], [23.408376, 70.353095], [23.319021, 70.342108], [23.292247, 70.331977], [23.339041, 70.330878], [23.381602, 70.318345], [23.216319, 70.282782], [23.15504, 70.27733], [23.104666, 70.283271], [23.082042, 70.301663], [23.087413, 70.328355], [23.135427, 70.385321], [23.134613, 70.414537], [23.075043, 70.360053], [23.03891, 70.340969], [22.995372, 70.357164], [22.949555, 70.35932], [22.854015, 70.407701], [22.88087, 70.41413], [22.940115, 70.40705], [22.963878, 70.421373], [22.908702, 70.435004], [22.897227, 70.450995], [22.952973, 70.462958], [22.963878, 70.47663], [22.998057, 70.47663], [23.018565, 70.497056], [23.124278, 70.520575], [23.141449, 70.514146], [23.151052, 70.498358], [23.223399, 70.517646], [23.223399, 70.52383], [23.181, 70.53852], [23.175548, 70.547593], [23.214366, 70.550442], [23.262055, 70.536119], [23.271739, 70.520697], [23.260916, 70.480902], [23.278575, 70.47663], [23.326427, 70.531236], [23.304698, 70.535102], [23.29835, 70.543158], [23.307628, 70.550442], [23.333263, 70.551703], [23.408376, 70.531236], [23.387869, 70.544867], [23.412608, 70.561713], [23.539317, 70.544867], [23.489268, 70.570868], [23.43629, 70.585273], [23.457367, 70.60635], [23.390961, 70.617987], [23.484548, 70.624661], [23.518809, 70.610541], [23.556651, 70.618883], [23.573497, 70.613186], [23.559825, 70.60635], [23.601329, 70.579047], [23.580333, 70.531236], [23.591645, 70.516425], [23.656016, 70.503323], [23.628103, 70.489651]]], [[[24.065196, 70.645941], [24.128429, 70.620022], [24.101573, 70.58869], [24.012218, 70.567776], [23.928966, 70.523261], [23.867931, 70.512397], [23.80421, 70.513332], [23.750987, 70.52383], [23.697032, 70.571601], [23.686778, 70.599514], [23.641775, 70.599514], [23.680675, 70.624945], [23.679535, 70.636298], [23.656016, 70.647935], [23.690196, 70.667792], [23.635509, 70.692043], [23.640147, 70.702216], [23.709239, 70.748603], [23.815684, 70.751166], [23.840343, 70.743557], [23.82838, 70.730292], [23.847179, 70.723049], [23.819184, 70.709377], [23.831879, 70.703355], [23.867686, 70.709377], [23.977794, 70.706936], [24.043468, 70.683498], [24.066905, 70.660956], [24.065196, 70.645941]]], [[[22.398692, 70.513983], [22.342296, 70.499213], [22.30893, 70.503363], [22.292817, 70.514472], [22.312836, 70.531236], [22.285655, 70.541571], [22.268077, 70.528998], [22.243337, 70.489651], [22.186534, 70.473131], [22.15447, 70.472317], [22.14088, 70.482856], [22.185557, 70.534654], [22.245453, 70.556708], [22.264415, 70.571601], [22.237071, 70.579047], [22.333344, 70.613186], [22.099946, 70.60635], [22.068614, 70.592719], [22.040701, 70.593573], [22.011241, 70.599514], [22.072032, 70.633694], [22.0088, 70.63349], [21.950369, 70.647935], [21.986501, 70.662543], [22.0442, 70.659857], [22.221528, 70.631903], [22.250336, 70.6494], [22.244477, 70.668362], [22.229747, 70.674628], [22.26588, 70.674994], [22.415212, 70.626207], [22.373871, 70.698188], [22.384532, 70.709377], [22.414561, 70.707953], [22.448578, 70.682522], [22.492686, 70.675727], [22.511485, 70.681464], [22.497895, 70.689358], [22.501475, 70.708075], [22.541026, 70.717475], [22.651541, 70.68769], [22.656261, 70.681708], [22.641124, 70.67121], [22.594981, 70.652533], [22.606456, 70.64053], [22.63087, 70.635932], [22.688975, 70.660956], [22.702891, 70.651516], [22.713145, 70.609768], [22.724864, 70.603583], [22.736664, 70.637112], [22.747895, 70.647406], [22.826182, 70.647935], [22.785167, 70.674628], [22.792491, 70.69359], [22.730479, 70.729885], [22.722992, 70.748481], [22.805675, 70.763983], [22.792003, 70.750393], [22.851085, 70.741889], [22.867198, 70.729885], [22.854015, 70.729885], [22.854015, 70.723049], [22.923839, 70.724799], [22.931488, 70.71662], [22.89503, 70.695136], [22.969086, 70.6612], [22.990733, 70.667792], [22.976899, 70.681464], [23.032725, 70.701361], [23.025401, 70.723049], [23.120942, 70.709377], [23.09311, 70.732123], [23.182384, 70.736029], [23.135427, 70.74551], [23.128429, 70.757799], [23.052745, 70.773912], [23.029959, 70.790839], [23.100597, 70.798774], [23.066254, 70.812445], [23.09254, 70.813666], [23.161876, 70.791327], [23.18214, 70.794989], [23.187673, 70.802191], [23.161876, 70.81802], [23.161876, 70.825426], [23.271739, 70.777045], [23.328949, 70.779283], [23.340099, 70.784491], [23.340343, 70.798489], [23.320974, 70.818508], [23.312999, 70.86164], [23.34254, 70.866034], [23.443126, 70.828843], [23.454926, 70.804836], [23.484141, 70.798774], [23.387869, 70.784491], [23.457367, 70.770819], [23.415782, 70.763983], [23.40211, 70.743557], [23.333263, 70.750393], [23.319591, 70.709377], [23.297537, 70.710395], [23.251313, 70.695136], [23.271739, 70.681464], [23.158539, 70.694159], [23.153087, 70.678168], [23.134613, 70.667792], [23.142833, 70.659003], [23.182384, 70.65412], [23.151866, 70.63227], [23.120372, 70.62401], [23.059418, 70.626207], [23.114106, 70.613186], [23.088878, 70.586249], [23.018321, 70.603949], [22.984548, 70.599514], [23.004731, 70.596137], [23.008149, 70.58515], [22.976899, 70.565375], [22.88087, 70.579047], [22.88087, 70.571601], [22.936046, 70.558539], [22.888194, 70.538072], [22.833263, 70.551703], [22.788585, 70.52383], [22.765147, 70.531073], [22.778331, 70.551703], [22.643809, 70.564154], [22.626801, 70.544867], [22.635427, 70.53262], [22.631602, 70.526313], [22.58961, 70.528632], [22.584809, 70.514716], [22.566091, 70.503323], [22.516775, 70.527818], [22.489268, 70.531928], [22.468435, 70.494859], [22.398692, 70.513983]]], [[[24.210216, 70.966986], [24.245128, 70.955797], [24.210785, 70.955797], [24.210785, 70.94599], [24.169281, 70.942125], [24.176768, 70.935289], [24.159923, 70.928046], [24.107921, 70.935289], [24.0796, 70.914618], [24.043142, 70.91413], [24.005707, 70.922838], [23.986501, 70.942288], [23.909353, 70.955797], [24.03891, 70.976264], [24.007091, 70.9831], [23.942149, 70.977607], [23.909353, 70.9831], [23.885753, 70.996161], [23.950206, 71.004218], [23.922862, 71.017279], [23.960134, 71.028632], [24.087413, 71.024115], [24.07309, 71.011054], [24.109223, 71.002143], [24.187673, 71.005072], [24.22462, 70.996772], [24.187836, 70.989325], [24.1067, 70.993883], [24.07309, 70.9831], [24.087413, 70.968817], [24.07309, 70.962592], [24.210216, 70.966986]]], [[[26.208507, 71.049628], [26.21811, 71.031562], [26.206554, 71.013251], [26.179942, 71.002672], [26.113536, 70.995347], [26.072602, 70.975165], [25.968598, 70.977729], [25.900238, 70.96133], [25.800548, 70.962592], [25.75294, 70.976508], [25.73113, 70.975409], [25.718516, 70.955797], [25.753266, 70.949612], [25.753266, 70.942125], [25.668142, 70.94538], [25.553396, 70.927883], [25.533539, 70.93183], [25.491954, 70.959174], [25.41627, 70.9831], [25.538097, 71.003363], [25.560802, 71.017279], [25.454356, 71.029975], [25.325531, 71.007392], [25.306977, 71.011054], [25.292491, 71.028144], [25.293305, 71.045152], [25.347992, 71.06566], [25.313813, 71.072455], [25.399181, 71.086127], [25.458832, 71.072008], [25.478363, 71.078681], [25.457286, 71.092963], [25.47169, 71.102607], [25.553884, 71.092597], [25.592052, 71.078111], [25.634776, 71.08039], [25.708669, 71.062079], [25.718516, 71.051988], [25.700938, 71.08393], [25.553396, 71.140774], [25.565278, 71.152167], [25.607107, 71.145006], [25.667328, 71.165269], [25.684093, 71.144721], [25.807384, 71.154446], [25.783946, 71.112209], [25.783702, 71.102932], [25.805675, 71.095852], [25.859141, 71.113349], [25.883067, 71.113471], [25.879649, 71.096829], [25.937022, 71.109687], [25.96046, 71.107489], [26.006358, 71.12519], [26.029796, 71.116523], [26.033702, 71.087226], [25.990977, 71.067043], [25.889822, 71.051988], [25.925141, 71.0397], [25.964366, 71.037746], [25.964366, 71.017279], [25.930186, 71.011054], [25.956391, 71.002021], [26.053722, 71.004218], [26.135997, 71.037746], [26.208507, 71.049628]]], [[[20.861664, 70.068996], [20.825531, 70.073065], [20.798839, 70.093329], [20.792979, 70.119045], [20.807465, 70.140815], [20.831798, 70.150946], [20.856944, 70.144924], [20.914806, 70.107896], [20.915212, 70.095526], [20.861664, 70.068996]]], [[[21.792735, 70.358059], [21.799164, 70.347113], [21.793712, 70.323432], [21.749034, 70.2744], [21.703136, 70.261786], [21.676931, 70.284817], [21.688813, 70.335435], [21.684581, 70.363837], [21.71225, 70.389228], [21.792735, 70.358059]]], [[[25.580821, 76.712063], [25.580821, 76.698432], [25.560802, 76.69599], [25.391287, 76.620307], [25.217621, 76.568061], [25.225108, 76.554999], [25.181163, 76.533759], [25.047211, 76.498033], [25.019054, 76.468736], [25.031912, 76.446479], [25.017589, 76.439643], [24.979259, 76.436469], [24.94337, 76.445136], [24.947276, 76.460191], [24.967784, 76.478217], [25.032237, 76.505113], [25.094737, 76.544135], [25.354503, 76.636908], [25.423106, 76.684149], [25.41627, 76.691596], [25.478363, 76.712063], [25.580821, 76.712063]]], [[[24.33579, 77.798579], [24.246866, 77.757913], [24.22837, 77.716851], [24.152842, 77.684092], [24.045421, 77.620551], [23.994965, 77.605292], [23.918142, 77.524482], [23.892833, 77.508368], [23.734874, 77.45539], [23.540294, 77.424384], [23.39088, 77.380113], [23.35434, 77.376858], [23.268472, 77.326594], [23.289058, 77.290851], [23.234541, 77.263683], [22.922224, 77.256288], [22.703947, 77.23728], [22.429698, 77.263739], [22.401622, 77.284003], [22.39088, 77.303941], [22.42628, 77.319281], [22.504649, 77.335883], [22.484141, 77.382025], [22.414073, 77.414496], [22.410899, 77.420315], [22.42213, 77.431464], [22.56658, 77.46662], [22.602794, 77.486396], [22.675304, 77.493476], [22.733084, 77.518052], [22.778331, 77.554918], [22.667817, 77.551459], [22.609141, 77.539374], [22.579112, 77.513373], [22.553722, 77.518622], [22.559418, 77.530015], [22.606456, 77.548163], [22.565929, 77.567328], [22.446625, 77.577826], [22.291759, 77.554918], [22.243337, 77.520209], [22.191742, 77.504136], [21.365733, 77.470689], [21.316905, 77.457913], [21.09254, 77.439154], [20.921723, 77.442369], [20.865489, 77.456204], [20.863292, 77.466864], [20.929861, 77.501614], [20.859874, 77.527655], [20.88087, 77.534491], [20.86964, 77.539455], [20.831798, 77.540717], [20.887055, 77.548163], [20.873546, 77.56859], [21.216075, 77.609565], [21.236501, 77.623033], [21.229177, 77.658026], [21.250255, 77.671617], [21.245128, 77.699774], [21.260753, 77.7331], [21.362804, 77.775539], [21.435232, 77.795152], [21.437755, 77.82038], [21.558116, 77.856635], [21.566254, 77.872138], [21.542491, 77.886176], [21.537608, 77.89761], [21.556326, 77.90705], [21.661794, 77.918036], [21.622325, 77.944566], [21.582286, 77.939765], [21.368175, 77.965033], [21.316254, 77.983059], [21.2435, 77.992133], [20.880138, 78.085395], [20.876964, 78.098578], [20.992198, 78.138617], [21.696788, 78.211086], [22.396251, 78.199856], [22.53419, 78.230211], [22.966075, 78.256293], [23.060802, 78.235053], [23.133149, 78.231838], [23.32781, 78.200141], [23.47047, 78.158271], [23.47047, 78.151435], [23.374278, 78.130927], [23.375255, 78.11286], [23.350108, 78.104926], [23.141612, 78.096869], [23.105479, 78.088121], [23.0713, 78.06623], [23.055024, 78.037299], [23.07309, 78.007473], [23.120453, 77.985907], [23.368907, 77.956366], [23.47047, 77.918036], [23.566091, 77.89761], [23.628266, 77.870307], [23.941661, 77.852118], [23.995616, 77.859442], [24.073416, 77.89411], [24.238292, 77.89761], [24.304942, 77.911851], [24.348806, 77.882392], [24.406505, 77.86518], [24.424765, 77.825936], [24.33579, 77.798579]]], [[[20.797699, 78.226508], [20.737559, 78.212877], [20.722504, 78.199205], [20.699555, 78.192939], [20.647227, 78.194037], [20.627696, 78.206732], [20.687836, 78.219143], [20.667328, 78.219143], [20.667328, 78.226508], [20.715831, 78.233344], [20.713145, 78.253363], [20.791515, 78.274359], [20.725271, 78.304389], [20.468761, 78.315334], [20.483084, 78.327704], [20.535411, 78.341498], [20.648448, 78.340155], [20.674571, 78.346625], [20.685069, 78.357978], [20.681895, 78.371243], [20.661143, 78.391059], [20.583018, 78.404486], [20.455577, 78.440253], [20.153575, 78.475409], [20.183116, 78.495347], [20.87143, 78.556627], [21.020356, 78.544745], [21.084239, 78.555732], [21.12672, 78.583441], [21.106212, 78.589586], [21.106212, 78.597113], [21.178233, 78.623236], [21.303966, 78.627753], [21.423106, 78.614407], [21.49936, 78.568061], [21.552257, 78.572699], [21.674327, 78.600531], [21.793142, 78.598782], [21.805675, 78.597113], [21.826182, 78.575995], [21.878429, 78.585679], [21.916515, 78.562445], [21.939301, 78.560696], [22.064789, 78.597113], [22.09197, 78.58926], [22.132579, 78.527248], [22.15561, 78.512641], [22.223888, 78.498358], [22.235362, 78.48786], [22.230642, 78.464179], [22.195567, 78.43887], [22.225434, 78.413886], [22.226329, 78.380927], [22.243907, 78.366848], [22.228282, 78.307563], [22.243337, 78.288642], [22.237071, 78.281806], [22.271251, 78.267524], [21.061209, 78.200344], [21.01059, 78.206732], [21.024262, 78.219143], [20.797699, 78.226508]]], [[[26.947276, 78.67829], [26.951915, 78.657904], [26.774669, 78.640692], [26.737559, 78.626451], [26.691173, 78.644232], [26.698009, 78.665351], [26.68686, 78.669664], [26.636241, 78.671576], [26.465994, 78.709459], [26.458669, 78.732489], [26.396332, 78.775214], [26.441905, 78.807359], [26.497244, 78.815579], [26.615489, 78.808783], [26.650401, 78.782375], [26.745779, 78.74726], [26.773692, 78.726793], [26.833995, 78.711249], [27.020763, 78.69892], [26.947276, 78.67829]]], [[[29.583995, 78.9206], [29.665538, 78.9206], [29.707042, 78.898139], [29.329112, 78.863349], [29.335297, 78.850328], [29.236501, 78.853217], [28.927094, 78.895982], [28.86964, 78.911811], [28.369477, 78.877631], [28.103282, 78.822455], [27.84197, 78.843492], [28.03061, 78.873928], [28.105642, 78.895006], [28.151134, 78.918606], [28.364024, 78.92121], [28.40268, 78.929511], [28.428722, 78.944525], [28.41863, 78.966986], [28.78891, 78.964179], [28.993907, 78.931627], [29.064789, 78.904202], [29.438975, 78.904975], [29.583995, 78.9206]]], [[[30.309255, 79.008002], [30.337087, 78.99433], [30.274587, 78.980902], [30.206798, 78.980048], [30.22047, 78.973212], [30.184255, 78.966742], [30.136241, 78.96894], [30.092459, 78.982001], [30.069591, 79.008002], [30.309255, 79.008002]]], [[[20.188731, 79.131659], [20.215587, 79.124091], [20.195079, 79.117865], [20.467784, 79.1258], [20.571788, 79.103583], [20.764008, 79.085883], [20.805919, 79.074123], [20.831798, 79.055162], [20.70102, 79.025946], [20.498546, 79.01789], [20.405935, 78.995917], [20.358246, 78.994696], [20.243988, 79.025051], [20.122813, 79.023139], [20.0442, 79.04149], [20.13502, 79.060696], [20.133311, 79.073188], [20.110362, 79.088324], [20.140391, 79.117865], [20.098888, 79.124091], [20.188731, 79.131659]]], [[[20.155121, 79.364407], [20.177989, 79.35342], [20.172699, 79.342597], [20.143891, 79.336249], [20.109874, 79.33515], [20.064626, 79.35342], [20.034923, 79.356187], [20.0, 79.35417540419597], [20.0, 79.37895749681377], [20.155121, 79.364407]]], [[[20.180675, 78.630927], [20.098888, 78.638088], [20.051524, 78.629584], [20.031912, 78.619818], [20.030528, 78.603949], [20.0, 78.60626162179389], [20.0, 79.0192973327291], [20.031098, 79.020982], [20.076915, 79.009101], [20.198741, 79.00141], [20.450369, 78.946357], [21.39088, 78.867377], [21.440603, 78.855414], [21.522146, 78.853705], [21.541026, 78.84691], [21.545421, 78.834052], [21.510265, 78.808783], [21.508474, 78.794013], [21.551931, 78.775214], [21.508311, 78.747016], [21.406098, 78.722154], [21.360118, 78.69892], [21.394216, 78.671576], [21.383311, 78.658596], [21.336599, 78.658352], [21.26824, 78.674262], [21.12672, 78.665351], [21.125824, 78.645209], [21.098806, 78.639797], [21.037364, 78.644232], [20.988943, 78.658515], [20.930186, 78.659573], [20.886974, 78.682563], [20.859874, 78.678412], [20.691417, 78.69359], [20.640147, 78.671576], [20.605235, 78.633857], [20.578298, 78.630601], [20.503429, 78.630601], [20.444835, 78.644232], [20.219574, 78.646186], [20.180675, 78.630927]]], [[[33.298595, 80.248114], [33.640391, 80.220771], [33.596202, 80.203192], [33.543468, 80.195054], [33.031912, 80.171088], [32.831065, 80.133246], [31.611095, 80.072699], [31.477061, 80.103949], [31.496349, 80.115709], [32.939626, 80.206244], [32.995616, 80.218899], [33.074229, 80.22016], [33.298595, 80.248114]]], [[[24.192638, 80.457587], [24.242849, 80.454047], [24.362315, 80.408026], [24.381602, 80.391547], [24.167166, 80.383368], [24.128429, 80.405178], [24.144867, 80.408759], [24.169281, 80.446112], [24.192638, 80.457587]]], [[[24.259776, 80.473049], [24.21697, 80.46955], [24.010509, 80.483385], [23.97755, 80.494574], [24.039724, 80.508734], [24.174815, 80.511623], [24.292247, 80.488349], [24.259776, 80.473049]]], [[[27.136241, 80.04267], [27.171072, 80.028998], [27.158214, 80.010932], [27.102061, 79.974433], [27.134613, 79.955227], [27.224946, 79.924872], [27.239106, 79.905504], [27.207367, 79.873684], [27.149669, 79.854967], [26.919607, 79.842515], [26.856944, 79.831488], [26.79005, 79.795478], [26.649913, 79.786851], [26.630707, 79.781073], [26.635916, 79.768297], [26.612804, 79.75967], [26.533458, 79.754625], [26.527517, 79.735053], [26.495128, 79.723334], [26.296886, 79.696926], [26.222341, 79.669501], [25.82602, 79.626044], [25.810802, 79.620917], [25.80893, 79.609524], [25.894054, 79.581], [25.965099, 79.52619], [25.968761, 79.515448], [25.929047, 79.495917], [25.82309, 79.465033], [25.842052, 79.45303], [25.829112, 79.442206], [25.645681, 79.397691], [25.410655, 79.374091], [25.36671, 79.360012], [25.183279, 79.336249], [24.974946, 79.334459], [24.959321, 79.341498], [24.945323, 79.370795], [24.920665, 79.378241], [24.771495, 79.370836], [24.562511, 79.324042], [24.288097, 79.309882], [24.258637, 79.28852], [24.272309, 79.254381], [24.259776, 79.24079], [24.053071, 79.18887], [22.925629, 79.222846], [22.736664, 79.267401], [22.644705, 79.309638], [22.654959, 79.364244], [22.89503, 79.419501], [22.513357, 79.393622], [22.416677, 79.409735], [21.711762, 79.371772], [21.500743, 79.397284], [20.816905, 79.378079], [20.791515, 79.391588], [20.853038, 79.405219], [20.763682, 79.433417], [20.750011, 79.449897], [20.729747, 79.458564], [20.196788, 79.468817], [20.076671, 79.490465], [20.016856, 79.512193], [20.0, 79.51431342839692], [20.0, 79.64025987567005], [20.208344, 79.645453], [20.277599, 79.617499], [20.412608, 79.591864], [21.154552, 79.569078], [21.127778, 79.587714], [20.649425, 79.626532], [20.495372, 79.673163], [20.475597, 79.686428], [21.850352, 79.706936], [21.866384, 79.710761], [21.864431, 79.719428], [21.840505, 79.734198], [21.893728, 79.752346], [22.281749, 79.774115], [22.346934, 79.788804], [22.287446, 79.805732], [22.215668, 79.806708], [21.79835, 79.768297], [21.79835, 79.775214], [21.832367, 79.78266], [21.736176, 79.78266], [21.768809, 79.804633], [21.853201, 79.807074], [21.887706, 79.823554], [20.172048, 79.785224], [20.0, 79.74948717537829], [20.0, 80.46895874467462], [20.036794, 80.467841], [20.016287, 80.446112], [20.07838, 80.433051], [20.071544, 80.41942], [20.098888, 80.412584], [20.081228, 80.389309], [20.084972, 80.381415], [20.105479, 80.378485], [20.141449, 80.38581], [20.191417, 80.421373], [20.23406, 80.427395], [20.389822, 80.423489], [20.423513, 80.413153], [20.427908, 80.391547], [20.544607, 80.357978], [20.523448, 80.330024], [20.591807, 80.30272], [20.627452, 80.29914], [20.798025, 80.31623], [20.839203, 80.309556], [20.773774, 80.291205], [20.749034, 80.268622], [20.813243, 80.226752], [20.852875, 80.213935], [21.193126, 80.233588], [21.280935, 80.258368], [21.325938, 80.261786], [21.298676, 80.241278], [21.332774, 80.220771], [21.318533, 80.220771], [21.318533, 80.213365], [21.34547, 80.214423], [21.414806, 80.235093], [21.420177, 80.252102], [21.531505, 80.273505], [21.648123, 80.237616], [21.702647, 80.241278], [21.654307, 80.25434], [21.677419, 80.274848], [21.723399, 80.280422], [21.84669, 80.272121], [21.866384, 80.261217], [21.89796, 80.22427], [21.897634, 80.213446], [21.71697, 80.173814], [21.59962, 80.12523], [21.621837, 80.11518], [21.649913, 80.116278], [21.763438, 80.146918], [21.826996, 80.151923], [21.905528, 80.129462], [22.065196, 80.110989], [22.05893, 80.103461], [22.216645, 80.04267], [22.175059, 80.021552], [22.223481, 80.008531], [22.195567, 79.988023], [22.283214, 79.983059], [22.330089, 79.991767], [22.367442, 80.008531], [22.319102, 80.035834], [22.365733, 80.044989], [22.438162, 80.010891], [22.477306, 80.015367], [22.423676, 80.044338], [22.357758, 80.056098], [22.346934, 80.070014], [22.463064, 80.070014], [22.373709, 80.110989], [22.408376, 80.145087], [22.401622, 80.166205], [22.435802, 80.186713], [22.465994, 80.221625], [22.449474, 80.261786], [22.478526, 80.275865], [22.549978, 80.284654], [22.57602, 80.299018], [22.56422, 80.310858], [22.372732, 80.340522], [22.333344, 80.364203], [22.337738, 80.383857], [22.38795, 80.426907], [22.457367, 80.440863], [22.68214, 80.426907], [22.668793, 80.403998], [22.613292, 80.357978], [22.635509, 80.341376], [22.674164, 80.333157], [22.750336, 80.330024], [22.696462, 80.357978], [22.801606, 80.381903], [22.81422, 80.404242], [22.833018, 80.412584], [22.812511, 80.426907], [22.828461, 80.434149], [22.791352, 80.459215], [22.805675, 80.481513], [22.774099, 80.488023], [22.750336, 80.504828], [22.759776, 80.513983], [22.781586, 80.517279], [22.826182, 80.515041], [22.976899, 80.474066], [23.267426, 80.453803], [23.360606, 80.433051], [23.285411, 80.41942], [23.319591, 80.412584], [23.294932, 80.405097], [23.189464, 80.403022], [23.120942, 80.391547], [23.167247, 80.377631], [23.217133, 80.378485], [23.207774, 80.363593], [23.18922, 80.357978], [23.315196, 80.351711], [23.35377, 80.337551], [23.295177, 80.327786], [23.305919, 80.28974], [23.295909, 80.280992], [23.226248, 80.264472], [23.055024, 80.248358], [23.006684, 80.162095], [23.06129, 80.131659], [23.122325, 80.11758], [23.184418, 80.113959], [23.230235, 80.12523], [23.086762, 80.172431], [23.243907, 80.166205], [23.217133, 80.179877], [23.225434, 80.191148], [23.307384, 80.193427], [23.315929, 80.189765], [23.319591, 80.172431], [23.344249, 80.154853], [23.370453, 80.143052], [23.398692, 80.142524], [23.429454, 80.158759], [23.387869, 80.189765], [23.398692, 80.204169], [23.47047, 80.213365], [23.457367, 80.20718], [23.480642, 80.206977], [23.497732, 80.192857], [23.494395, 80.183661], [23.463634, 80.172431], [23.491466, 80.158759], [23.539317, 80.158759], [23.531912, 80.138251], [23.567638, 80.13349], [23.662283, 80.172431], [23.804861, 80.184556], [23.833507, 80.200344], [23.759288, 80.210191], [23.730479, 80.235093], [23.792654, 80.248114], [23.716807, 80.261786], [23.75766, 80.276068], [23.737315, 80.295315], [23.76531, 80.309068], [23.867686, 80.282294], [23.958507, 80.282294], [24.014496, 80.270575], [24.032725, 80.276068], [23.89503, 80.309556], [24.077159, 80.30272], [24.189952, 80.275336], [24.22462, 80.282294], [24.203949, 80.295315], [24.335623, 80.286282], [24.374766, 80.295315], [24.34254, 80.307196], [24.306407, 80.309556], [24.306407, 80.317043], [24.381358, 80.316352], [24.40211, 80.323188], [24.375987, 80.332343], [24.210785, 80.335028], [24.148774, 80.350531], [24.187022, 80.371772], [24.259776, 80.3758], [24.481212, 80.355373], [24.600759, 80.317043], [24.53419, 80.313625], [24.470958, 80.295315], [24.491466, 80.282294], [24.464122, 80.268622], [24.521332, 80.255683], [24.554373, 80.255561], [24.601573, 80.279731], [24.725434, 80.293891], [24.748709, 80.306138], [24.755138, 80.327297], [24.829926, 80.355902], [24.888682, 80.323188], [24.840831, 80.30272], [24.848806, 80.286038], [24.780121, 80.248114], [24.892426, 80.261298], [25.045909, 80.252916], [25.115245, 80.268622], [25.355479, 80.282294], [25.324474, 80.267971], [25.225108, 80.25434], [25.269705, 80.233466], [25.318126, 80.226142], [25.546641, 80.241278], [25.587576, 80.229071], [25.614919, 80.200344], [25.698741, 80.222968], [25.743907, 80.225531], [25.780528, 80.213365], [25.704356, 80.172431], [25.847423, 80.172593], [25.939708, 80.185452], [26.80714, 80.174262], [26.903494, 80.151923], [27.003917, 80.11518], [27.191905, 80.109605], [27.239106, 80.097317], [27.171072, 80.073432], [27.136241, 80.04267]]], [[[20.063487, 80.537543], [20.133556, 80.515041], [20.0, 80.49163050291642], [20.0, 80.53919539804842], [20.063487, 80.537543]]], [[[20.666515, 80.642157], [20.496104, 80.659613], [20.517833, 80.665839], [20.791515, 80.659613], [20.776134, 80.641303], [20.750011, 80.639146], [20.757498, 80.624905], [20.666515, 80.642157]]], [[[21.089529, 80.657172], [21.045746, 80.667914], [21.024262, 80.693793], [21.21461, 80.711249], [21.332774, 80.707424], [21.325938, 80.700019], [21.366954, 80.680121], [21.089529, 80.657172]]], [[[20.52768, 80.747382], [20.517833, 80.769477], [20.622081, 80.770087], [20.718272, 80.737698], [21.003184, 80.71426], [20.977875, 80.697089], [20.897309, 80.693793], [20.86671, 80.680121], [20.821544, 80.680121], [20.80893, 80.685696], [20.805512, 80.705756], [20.737966, 80.713121], [20.674815, 80.707424], [20.633311, 80.734768], [20.52768, 80.747382]]], [[[24.812348, 71.079983], [24.82602, 71.07685], [24.776622, 71.059231], [24.789073, 71.047065], [24.77003, 71.02619], [24.722016, 71.026557], [24.614268, 71.056627], [24.618988, 71.069322], [24.671641, 71.08808], [24.705333, 71.078518], [24.704845, 71.069037], [24.732921, 71.06859], [24.739106, 71.07331], [24.709483, 71.097724], [24.712576, 71.107571], [24.744884, 71.108791], [24.779307, 71.093655], [24.836925, 71.094875], [24.812348, 71.079983]]]]}}, {"type": "Feature", "properties": {"name": "Finland"}, "geometry": {"type": "Polygon", "coordinates": [[[27.445229, 70.003222], [27.563309, 70.023582], [27.570906, 70.040894], [27.612557, 70.062055], [27.66506, 70.068282], [27.792184, 70.058929], [27.866908, 70.07531], [27.897294, 70.070685], [27.927163, 70.05327], [27.98101, 70.009604], [27.99653645972324, 70.0], [27.438077973174536, 70.0], [27.445229, 70.003222]]]}}]}