{"type": "FeatureCollection", "features": [{"type": "Feature", "properties": {"name": "Russia"}, "geometry": {"type": "MultiPolygon", "coordinates": [[[[160.137218, 69.718085], [160.169444, 69.703274], [160.188975, 69.701972], [160.141124, 69.728664], [160.25587, 69.718695], [160.31186, 69.700019], [160.320567, 69.69009], [160.318614, 69.654202], [160.383962, 69.674872], [160.515961, 69.687201], [160.719493, 69.665188], [160.848399, 69.635077], [160.91505, 69.646715], [160.99464, 69.593166], [161.006358, 69.577338], [160.958995, 69.540229], [160.921235, 69.461819], [160.937755, 69.440131], [160.9463, 69.403022], [160.983409, 69.372992], [160.993175, 69.338813], [161.022716, 69.2956], [161.021739, 69.270819], [161.003917, 69.24608], [161.038585, 69.194892], [161.035981, 69.162665], [160.983246, 69.131781], [160.962901, 69.105536], [161.059093, 69.069566], [161.287283, 69.043891], [161.390147, 69.00552], [161.415375, 68.982001], [161.394054, 68.943427], [161.299327, 68.872748], [161.278819, 68.831204], [161.219412, 68.792182], [161.209646, 68.692084], [161.146658, 68.652737], [161.106944, 68.605211], [161.031749, 68.560492], [160.942393, 68.5539], [160.758067, 68.564276], [160.77947, 68.539455], [160.821056, 68.527411], [160.908214, 68.523342], [161.046886, 68.53441], [161.134125, 68.561428], [161.256602, 68.666083], [161.347016, 68.701402], [161.290294, 68.75373], [161.319102, 68.790229], [161.432302, 68.846015], [161.477794, 68.879055], [161.533376, 68.894965], [161.574067, 68.921129], [161.558767, 69.029771], [161.499197, 69.071926], [161.483653, 69.091864], [161.480479, 69.122952], [161.448904, 69.153957], [161.466075, 69.168524], [161.465587, 69.181952], [161.399262, 69.221259], [161.463145, 69.287055], [161.457205, 69.301581], [161.415375, 69.331448], [161.475597, 69.33454], [161.483653, 69.34512], [161.435802, 69.379869], [161.473806, 69.39704], [161.600352, 69.42829], [161.702647, 69.495917], [161.768077, 69.505601], [161.823741, 69.534654], [161.945649, 69.527981], [162.025564, 69.551174], [162.014659, 69.573432], [162.030284, 69.58397], [162.086436, 69.592108], [162.126475, 69.610053], [162.1963, 69.626288], [162.172211, 69.633368], [162.189708, 69.650458], [162.209727, 69.655911], [162.271821, 69.646715], [162.298513, 69.651679], [162.317882, 69.662909], [162.328136, 69.679877], [162.327159, 69.701972], [162.40797, 69.676581], [162.621349, 69.681545], [162.768809, 69.654202], [163.023123, 69.685492], [163.089122, 69.708808], [163.16505, 69.720893], [163.304047, 69.720282], [163.35377, 69.707424], [163.416352, 69.708808], [163.477875, 69.68773], [163.584809, 69.684068], [163.77303, 69.694402], [163.892764, 69.738882], [164.027029, 69.77383], [164.108246, 69.759345], [164.136078, 69.725572], [164.237071, 69.682603], [164.313975, 69.667873], [164.439138, 69.620754], [164.834258, 69.567404], [165.269471, 69.597954], [165.674729, 69.595978], [165.946056, 69.557807], [166.075206, 69.523261], [166.629649, 69.533677], [166.692556, 69.514797], [166.698416, 69.506741], [166.678233, 69.495917], [166.893809, 69.495917], [166.938731, 69.502102], [167.509532, 69.695258], [167.586925, 69.74079], [167.674083, 69.771877], [167.802013, 69.775214], [167.848155, 69.763739], [167.938243, 69.722235], [167.987153, 69.715033], [168.059093, 69.71955], [168.083344, 69.708808], [167.977875, 69.683254], [167.926443, 69.654202], [167.965505, 69.634345], [168.103282, 69.60578], [168.219737, 69.567857], [168.25408, 69.544338], [168.256602, 69.531684], [168.240408, 69.502753], [168.240408, 69.461819], [168.192068, 69.379869], [168.232677, 69.336371], [168.240408, 69.318427], [168.23113, 69.298774], [168.243663, 69.275946], [168.288259, 69.242662], [168.371837, 69.221137], [168.658051, 69.213568], [168.850597, 69.188056], [169.152354, 69.105536], [169.30421, 69.097724], [169.371267, 69.076565], [169.41977, 69.023627], [169.433116, 68.974311], [169.434581, 68.886705], [169.453868, 68.845445], [169.484141, 68.821682], [169.523936, 68.805325], [169.625499, 68.777248], [170.351085, 68.82807], [170.422862, 68.807074], [170.493907, 68.800198], [170.551524, 68.771959], [170.625173, 68.748603], [170.549327, 68.793036], [170.536388, 68.811265], [170.563731, 68.824937], [170.458669, 68.831732], [170.440196, 68.845445], [170.449229, 68.863471], [170.633067, 68.918158], [170.659841, 68.913764], [170.652517, 68.88581], [170.694021, 68.858466], [170.708751, 68.828355], [170.728038, 68.821967], [170.707693, 68.875881], [170.714529, 68.910346], [170.680431, 68.940375], [170.759288, 68.953803], [170.894379, 68.993232], [170.94044, 69.023627], [170.960948, 69.050279], [170.979259, 69.055854], [171.050304, 69.027737], [171.159434, 69.037258], [171.159434, 69.044094], [171.070567, 69.045111], [171.027599, 69.054755], [171.009288, 69.08161], [170.995616, 69.126532], [170.980235, 69.144355], [170.960948, 69.15705], [170.900076, 69.17121], [170.8921, 69.184394], [170.896658, 69.194037], [170.929861, 69.234036], [170.913097, 69.304145], [170.858653, 69.346829], [170.748546, 69.391181], [170.742442, 69.441352], [170.731781, 69.456529], [170.687185, 69.47606], [170.677745, 69.488756], [170.680431, 69.520168], [170.667654, 69.540432], [170.60613, 69.589789], [170.584158, 69.599555], [170.510269, 69.602088], [170.286347, 69.579117], [170.180414, 69.584636], [170.160733, 69.613367], [170.231553, 69.688589], [170.354069, 69.724074], [170.50043, 69.740289], [170.591776, 69.764725], [170.550059, 69.804389], [170.545421, 69.820705], [170.556814, 69.845404], [170.560313, 69.890367], [170.522716, 69.938463], [170.53709672947247, 70.0], [171.96783659293948, 70.0], [171.994477, 69.993069], [172.647146, 69.971503], [172.701345, 69.98314], [172.725352, 69.980862], [172.790782, 69.962714], [172.798513, 69.928534], [172.860688, 69.903469], [173.179373, 69.84516], [173.236339, 69.818671], [173.181407, 69.801988], [173.177745, 69.794176], [173.198009, 69.783433], [173.41863, 69.797756], [173.46225, 69.818671], [173.479259, 69.835761], [173.40268, 69.876532], [173.253673, 69.918687], [173.208507, 69.910875], [173.172699, 69.881171], [173.164073, 69.886664], [173.160899, 69.89997], [173.175548, 69.914496], [173.230154, 69.934272], [173.278575, 69.94184], [173.460785, 69.948554], [173.701915, 69.886949], [173.674571, 69.879543], [173.737804, 69.851996], [173.777599, 69.852851], [173.743419, 69.873277], [173.787852, 69.884467], [173.8838, 69.851752], [173.928477, 69.845404], [174.00408, 69.879543], [174.070811, 69.886908], [174.255138, 69.878241], [174.329112, 69.887152], [174.374034, 69.87641], [175.088384, 69.845749], [175.715542, 69.881453], [175.724789, 69.87079], [175.529737, 69.856304], [175.695965, 69.835376], [175.770658, 69.820378], [175.826168, 69.79348], [175.997177, 69.769363], [176.07349, 69.768927], [176.143482, 69.78209], [176.159453, 69.802687], [176.15767, 69.821482], [176.145792, 69.839552], [176.099744, 69.85845], [175.843802, 69.861274], [175.790229, 69.873085], [175.781566, 69.885283], [175.943232, 69.880766], [176.127615, 69.893785], [176.175955, 69.862738], [176.272146, 69.818671], [176.282237, 69.8015], [176.243012, 69.799018], [176.231212, 69.78734], [176.242035, 69.774359], [176.313162, 69.777086], [176.503917, 69.754096], [176.621593, 69.72248], [176.689952, 69.68773], [176.734548, 69.67475], [176.827647, 69.66828], [176.976899, 69.634426], [177.162283, 69.61636], [177.357921, 69.617174], [177.642833, 69.570014], [177.682953, 69.551174], [177.641124, 69.558905], [177.620942, 69.557034], [177.608572, 69.544338], [177.678559, 69.53148], [177.771251, 69.531399], [177.898123, 69.499172], [178.156016, 69.461819], [178.212169, 69.443427], [178.246918, 69.443915], [178.299978, 69.461819], [178.277354, 69.479926], [178.299815, 69.487372], [178.364919, 69.486802], [178.772634, 69.415229], [178.81072, 69.393704], [178.872081, 69.388007], [178.992686, 69.359361], [179.067719, 69.331448], [179.067719, 69.325263], [178.897472, 69.321031], [178.862315, 69.355943], [178.837901, 69.364895], [178.75587, 69.372992], [178.70045, 69.36579], [178.666189, 69.383287], [178.657481, 69.379869], [178.671072, 69.357123], [178.653982, 69.31745], [178.673513, 69.297797], [178.745616, 69.283677], [178.861664, 69.297919], [178.986339, 69.283149], [179.067719, 69.297919], [179.261485, 69.272162], [179.305919, 69.25788], [179.360606, 69.223131], [179.958507, 68.995673], [179.847992, 69.010159], [179.67628, 69.081285], [179.548106, 69.112982], [179.572032, 69.092719], [179.650564, 69.064602], [179.692149, 69.016099], [179.774099, 68.988837], [180.0, 68.98105], [180.0, 65.06619], [179.896332, 65.055487], [179.779552, 65.018215], [179.712657, 64.953111], [179.478689, 64.82274], [179.250011, 64.811225], [179.171153, 64.79267], [178.911794, 64.715399], [178.757986, 64.640937], [178.561534, 64.591539], [178.514171, 64.590318], [178.485606, 64.6105], [178.718761, 64.648139], [178.75587, 64.682196], [178.750173, 64.691718], [178.667735, 64.699286], [178.568044, 64.678778], [178.217947, 64.658271], [178.273448, 64.669338], [178.259613, 64.685614], [178.240571, 64.688788], [178.084321, 64.68891], [177.978363, 64.671942], [177.967947, 64.675238], [177.951182, 64.699286], [177.926768, 64.707343], [177.744151, 64.706366], [177.67449, 64.721747], [177.625011, 64.72016], [177.601736, 64.725898], [177.642589, 64.747707], [177.553884, 64.781562], [177.491873, 64.788642], [177.503429, 64.802965], [177.50115, 64.813707], [177.488455, 64.820461], [177.427094, 64.821031], [177.389415, 64.835842], [177.438243, 64.848822], [177.491873, 64.850084], [177.450857, 64.891059], [177.450857, 64.912177], [177.432953, 64.929023], [177.399913, 64.936469], [177.319835, 64.932603], [177.238292, 64.945624], [177.219412, 64.956366], [177.169688, 65.027574], [176.992686, 65.059801], [176.93686, 65.082831], [176.812999, 65.076402], [176.730479, 65.048285], [176.608409, 65.031806], [176.570811, 65.033515], [176.521007, 65.059149], [176.449718, 65.071194], [176.41863, 65.090237], [176.381358, 65.090277], [176.394786, 65.064358], [176.371104, 65.054674], [176.306326, 65.055487], [176.335704, 65.038153], [176.443858, 65.041897], [176.498546, 65.008002], [176.546153, 65.000922], [176.914724, 65.049302], [176.958507, 65.046576], [176.991873, 65.010565], [177.053233, 64.997463], [177.080903, 64.97309], [177.169688, 64.945624], [177.193858, 64.921373], [177.221528, 64.914618], [177.245372, 64.884223], [177.224294, 64.863715], [177.297699, 64.838446], [177.300059, 64.82274], [177.203787, 64.794867], [177.039806, 64.772773], [177.000824, 64.792222], [176.950043, 64.803656], [176.88559, 64.842108], [176.62615, 64.867906], [176.535655, 64.82274], [176.435802, 64.81094], [176.426443, 64.839545], [176.397146, 64.859931], [176.24171, 64.901068], [176.188731, 64.927965], [176.111095, 64.925198], [176.090668, 64.931627], [176.065196, 64.958645], [176.045665, 64.962795], [175.954845, 64.924954], [175.939464, 64.897895], [175.867686, 64.845038], [175.788097, 64.826483], [175.71461, 64.793647], [175.562755, 64.811957], [175.41391, 64.783637], [175.289236, 64.775377], [175.240733, 64.786811], [175.186209, 64.770982], [175.040782, 64.778062], [174.990408, 64.770982], [174.863943, 64.714789], [174.750336, 64.68891], [174.441742, 64.69245], [174.477061, 64.675971], [174.519054, 64.670396], [174.771739, 64.68065], [175.022472, 64.754584], [175.107188, 64.764797], [175.278494, 64.750556], [175.590505, 64.789374], [175.657481, 64.767646], [175.711681, 64.774726], [175.840994, 64.810452], [175.887055, 64.838772], [175.924653, 64.848293], [176.004649, 64.915351], [176.082367, 64.918931], [176.210134, 64.873969], [176.273285, 64.824897], [176.316742, 64.767483], [176.364594, 64.749945], [176.423676, 64.709621], [176.383962, 64.683254], [176.326671, 64.665717], [176.182384, 64.647162], [176.145274, 64.62759], [176.114513, 64.590033], [176.100841, 64.548407], [176.114268, 64.541938], [176.121349, 64.569525], [176.209972, 64.620063], [176.326671, 64.624172], [176.368419, 64.634263], [176.405935, 64.654853], [176.442231, 64.688544], [176.45753, 64.69245], [176.582286, 64.673733], [176.689952, 64.62759], [176.727387, 64.579169], [176.742931, 64.571234], [176.819347, 64.59748], [176.832205, 64.60932], [176.82838, 64.624172], [176.854666, 64.642646], [176.919688, 64.670111], [176.98585, 64.711127], [177.169444, 64.726549], [177.33839, 64.78148], [177.491873, 64.767524], [177.452403, 64.685492], [177.455251, 64.652167], [177.420177, 64.62759], [177.389415, 64.582587], [177.364268, 64.563218], [177.361501, 64.548407], [177.38738, 64.491889], [177.426606, 64.442328], [177.453624, 64.42064], [177.553884, 64.377753], [177.594737, 64.341946], [177.669932, 64.305121], [177.813324, 64.254218], [178.000011, 64.210354], [178.183849, 64.205797], [178.183849, 64.213202], [178.100841, 64.23786], [178.074555, 64.254218], [178.10255, 64.270657], [178.216645, 64.303534], [178.282563, 64.35399], [178.217947, 64.426825], [178.183849, 64.411282], [178.200043, 64.440172], [178.222016, 64.429429], [178.399913, 64.243354], [178.440766, 64.165188], [178.588634, 64.035102], [178.48406, 64.070868], [178.399913, 64.035102], [178.382579, 64.000963], [178.492442, 63.986721], [178.382579, 63.979234], [178.382579, 63.973049], [178.407237, 63.967231], [178.533214, 63.970364], [178.639415, 63.946357], [178.656912, 63.949164], [178.659841, 63.963121], [178.636404, 63.993476], [178.64324, 64.000963], [178.698416, 63.897366], [178.691091, 63.856391], [178.740245, 63.737128], [178.762869, 63.642768], [178.759288, 63.622992], [178.72283, 63.650865], [178.608572, 63.6765], [178.588634, 63.671373], [178.649099, 63.628607], [178.72462, 63.616767], [178.733084, 63.608344], [178.705333, 63.595649], [178.641449, 63.587714], [178.62615, 63.592515], [178.612153, 63.619859], [178.590099, 63.632717], [178.531098, 63.643622], [178.506033, 63.636664], [178.5324, 63.631659], [178.526866, 63.613715], [178.502289, 63.59691], [178.471934, 63.595649], [178.459972, 63.622992], [178.355235, 63.630439], [178.31422, 63.602484], [178.259613, 63.581977], [178.268809, 63.565416], [178.341482, 63.527411], [178.372325, 63.522366], [178.400238, 63.526923], [178.482188, 63.571845], [178.509532, 63.578518], [178.675466, 63.563707], [178.693044, 63.575344], [178.711274, 63.570014], [178.711436, 63.548529], [178.729015, 63.531195], [178.717621, 63.521186], [178.735118, 63.513007], [178.720225, 63.476467], [178.663097, 63.459662], [178.64324, 63.438666], [178.59547, 63.411322], [178.698985, 63.385688], [178.815766, 63.419664], [178.83839, 63.434882], [178.754242, 63.538275], [178.759288, 63.581977], [178.777029, 63.59516], [178.799978, 63.512274], [178.815603, 63.491156], [179.005544, 63.321357], [178.96046, 63.337348], [178.848155, 63.404202], [178.80714, 63.390204], [178.809337, 63.350491], [178.918305, 63.325181], [178.931163, 63.294013], [179.054698, 63.280992], [179.132009, 63.238349], [179.160899, 63.232611], [179.232758, 63.239407], [179.299571, 63.214586], [179.334809, 63.196479], [179.347911, 63.175849], [179.386485, 63.1612], [179.413341, 63.132392], [179.417817, 63.068061], [179.403656, 63.055406], [179.352306, 63.068061], [179.311209, 63.060777], [179.248709, 63.025824], [179.241954, 63.006496], [179.249522, 62.984687], [179.291759, 62.927476], [179.316173, 62.906155], [179.345714, 62.893866], [179.470876, 62.884711], [179.511729, 62.872504], [179.540701, 62.848944], [179.55128, 62.797797], [179.584483, 62.777167], [179.60906, 62.705634], [179.558604, 62.658149], [179.567231, 62.635972], [179.562999, 62.624742], [179.433442, 62.616116], [179.410411, 62.547309], [179.383637, 62.520819], [179.349132, 62.506496], [179.311046, 62.500678], [179.190196, 62.503241], [179.148774, 62.496039], [179.116059, 62.472235], [179.112641, 62.44831], [179.149587, 62.417792], [179.134939, 62.380276], [179.150401, 62.341864], [179.103282, 62.297919], [179.073578, 62.287177], [179.054698, 62.294094], [179.034516, 62.326158], [178.938162, 62.366034], [178.816091, 62.381334], [178.737966, 62.403551], [178.489431, 62.436835], [178.375743, 62.472235], [178.302094, 62.474555], [178.061046, 62.541083], [177.680349, 62.575263], [177.306814, 62.582099], [177.341075, 62.588324], [177.26588, 62.615627], [177.334158, 62.688178], [177.319835, 62.745917], [177.344412, 62.767035], [177.429698, 62.770453], [177.424327, 62.792222], [177.457774, 62.814846], [177.444347, 62.822211], [177.33253, 62.806789], [177.300548, 62.786526], [177.251638, 62.732896], [177.26588, 62.71247], [177.188975, 62.709662], [177.155447, 62.719631], [177.128184, 62.745917], [177.153331, 62.777574], [177.156016, 62.786933], [177.14796, 62.795844], [177.101329, 62.822252], [177.031912, 62.841539], [177.019542, 62.863227], [176.992198, 62.869452], [176.975271, 62.862006], [176.979259, 62.84101], [177.00587, 62.801215], [176.998302, 62.794379], [177.042247, 62.768704], [177.024425, 62.748236], [176.931, 62.694403], [176.927908, 62.672919], [176.958018, 62.643541], [177.011485, 62.623481], [177.023611, 62.59984], [177.050059, 62.584215], [177.175955, 62.595771], [177.26588, 62.588324], [177.239268, 62.56977], [177.014903, 62.550482], [176.860525, 62.519355], [176.708995, 62.499213], [176.688324, 62.500474], [176.683116, 62.51317], [176.71697, 62.528632], [176.723969, 62.541083], [176.661876, 62.534613], [176.635916, 62.522162], [176.635265, 62.499579], [176.594249, 62.485826], [176.597667, 62.4737], [176.6421, 62.47842], [176.6421, 62.472235], [176.393403, 62.395087], [176.320567, 62.335028], [176.279307, 62.317084], [175.633474, 62.191311], [175.555431, 62.159491], [175.474864, 62.141181], [175.306407, 62.074937], [175.38087, 62.106269], [175.395193, 62.122748], [175.31837, 62.110012], [175.298839, 62.116604], [175.258067, 62.168769], [175.25115, 62.160631], [175.256196, 62.09398], [175.250987, 62.065741], [175.230317, 62.043931], [175.17449, 62.021918], [174.815115, 61.947008], [174.765147, 61.916693], [174.804861, 61.944037], [174.785411, 61.957587], [174.699392, 61.958319], [174.599946, 61.985012], [174.617931, 61.960028], [174.719249, 61.904486], [174.729666, 61.896064], [174.726899, 61.886298], [174.690115, 61.861274], [174.489757, 61.814643], [174.428477, 61.814927], [174.383311, 61.825507], [174.359874, 61.821112], [174.377452, 61.829739], [174.380382, 61.839911], [174.353038, 61.848456], [174.285004, 61.813544], [174.204275, 61.815009], [174.15504, 61.800605], [174.19337, 61.816799], [174.138031, 61.844631], [174.104503, 61.848538], [174.073009, 61.84162], [174.086192, 61.827948], [174.032725, 61.826321], [174.01352, 61.817328], [174.020681, 61.796861], [174.060557, 61.776068], [174.106619, 61.780178], [174.03891, 61.761298], [173.990977, 61.714545], [173.924001, 61.704169], [173.804942, 61.649848], [173.812836, 61.676459], [173.801931, 61.691799], [173.672537, 61.720933], [173.599946, 61.753892], [173.57309, 61.756659], [173.544607, 61.749091], [173.522146, 61.721137], [173.503184, 61.671129], [173.473888, 61.642808], [173.49586, 61.589179], [173.497081, 61.571275], [173.48113, 61.555243], [173.380056, 61.561021], [173.331228, 61.547309], [173.291026, 61.519477], [173.309093, 61.491645], [173.285899, 61.465074], [173.128429, 61.396959], [173.083995, 61.392524], [173.002126, 61.415229], [172.969412, 61.444322], [172.914806, 61.451158], [172.897146, 61.472317], [172.826427, 61.468817], [172.715587, 61.430732], [172.826345, 61.387641], [172.899181, 61.37226], [172.931326, 61.351549], [172.939952, 61.317572], [172.955089, 61.314032], [172.894542, 61.277899], [172.81837, 61.292385], [172.738943, 61.32274], [172.667817, 61.334459], [172.768809, 61.28559], [172.766775, 61.262519], [172.699718, 61.247992], [172.674653, 61.232082], [172.646739, 61.191107], [172.573741, 61.187201], [172.386078, 61.227444], [172.338227, 61.211005], [172.403005, 61.159369], [172.434418, 61.149563], [172.434418, 61.142727], [172.336762, 61.122301], [172.286388, 61.123684], [172.242686, 61.142727], [172.263031, 61.114732], [172.297862, 61.103746], [172.403494, 61.097886], [172.418468, 61.089667], [172.420746, 61.073798], [172.437348, 61.070787], [172.489594, 61.081244], [172.476085, 61.055732], [172.416352, 61.036933], [172.372569, 61.012885], [172.242686, 61.019843], [172.132823, 61.067572], [172.009288, 61.101142], [172.160899, 61.027493], [172.180675, 61.012356], [172.200857, 60.975775], [172.197276, 60.958441], [172.180675, 60.944729], [172.115408, 60.940985], [172.091807, 60.916815], [172.084158, 60.887193], [172.04713, 60.860663], [172.006847, 60.855211], [171.989431, 60.889472], [172.004731, 60.92064], [172.004405, 60.936469], [171.982677, 60.950873], [171.957774, 60.953111], [171.95753, 60.918606], [171.940929, 60.90998], [171.948416, 60.895697], [171.941091, 60.881537], [171.961599, 60.854682], [171.949392, 60.848293], [171.825043, 60.832221], [171.745942, 60.853583], [171.663341, 60.816718], [171.628266, 60.816881], [171.584727, 60.800116], [171.536876, 60.806952], [171.620453, 60.774115], [171.632579, 60.744818], [171.502778, 60.731147], [171.413422, 60.690172], [171.467947, 60.731147], [171.461762, 60.747707], [171.428071, 60.765692], [171.415212, 60.785061], [171.396332, 60.782945], [171.407237, 60.714748], [171.403575, 60.705227], [171.37908, 60.697699], [171.372406, 60.643052], [171.35613, 60.627387], [171.313243, 60.615424], [171.271007, 60.592841], [171.220063, 60.583808], [171.179454, 60.558905], [171.055675, 60.555854], [170.959809, 60.521308], [170.81072, 60.512112], [170.750743, 60.529486], [170.735037, 60.518948], [170.750499, 60.501166], [170.766775, 60.494452], [170.81072, 60.49844], [170.787771, 60.476386], [170.783376, 60.463935], [170.790212, 60.450629], [170.717296, 60.428168], [170.639415, 60.423326], [170.587576, 60.450629], [170.51588, 60.450629], [170.526215, 60.43476], [170.58074, 60.433905], [170.618419, 60.388577], [170.598888, 60.376695], [170.652517, 60.361274], [170.662934, 60.350246], [170.66212, 60.332017], [170.618907, 60.302436], [170.537283, 60.290473], [170.502289, 60.272528], [170.473969, 60.232245], [170.457286, 60.18244], [170.440196, 60.080756], [170.400645, 59.965644], [170.371267, 59.948472], [170.265147, 59.920356], [170.234223, 59.921291], [170.176768, 59.953803], [170.118907, 59.968004], [170.101248, 59.989447], [170.118663, 60.019273], [170.056651, 60.046576], [169.955821, 60.059231], [169.848806, 60.181627], [169.843761, 60.210761], [169.862478, 60.219184], [169.97462, 60.232164], [169.919932, 60.249986], [169.836925, 60.243354], [169.755219, 60.27558], [169.746755, 60.283026], [169.741954, 60.313463], [169.707774, 60.347602], [169.707774, 60.399482], [169.69337, 60.41649], [169.605479, 60.443305], [169.568614, 60.468695], [169.521821, 60.471137], [169.350271, 60.533189], [169.264171, 60.550482], [169.247813, 60.567328], [169.341075, 60.560736], [169.371349, 60.567328], [169.285492, 60.620592], [169.235362, 60.621161], [169.214366, 60.62873], [169.206554, 60.615058], [169.214366, 60.601467], [169.188813, 60.583197], [169.170665, 60.582221], [169.145518, 60.594062], [169.132579, 60.587226], [169.166515, 60.567328], [168.975759, 60.574164], [168.748302, 60.569729], [168.695974, 60.553046], [168.650401, 60.55268], [168.624766, 60.555609], [168.575938, 60.582424], [168.531505, 60.593085], [168.280121, 60.596422], [168.237804, 60.584906], [168.096365, 60.571479], [167.837657, 60.510565], [167.81658, 60.512112], [167.781912, 60.548163], [167.768077, 60.553046], [167.749685, 60.547065], [167.750173, 60.534613], [167.771251, 60.508979], [167.771983, 60.496731], [167.713145, 60.488837], [167.634939, 60.455268], [167.592296, 60.445461], [167.549001, 60.443793], [167.480154, 60.468004], [167.463145, 60.427069], [167.433604, 60.420396], [167.365977, 60.465806], [167.336111, 60.471137], [167.363943, 60.439602], [167.374034, 60.405951], [167.355235, 60.398749], [167.281505, 60.41649], [167.306407, 60.393012], [167.278331, 60.373236], [167.192149, 60.355048], [167.116384, 60.377997], [167.080577, 60.399848], [167.07545, 60.423326], [167.024913, 60.42768], [167.039806, 60.39997], [167.034434, 60.382392], [167.052745, 60.340522], [167.048106, 60.328437], [166.925629, 60.297431], [166.897797, 60.299791], [166.933279, 60.279853], [166.938813, 60.26911], [166.931814, 60.259019], [166.837657, 60.220201], [166.726329, 60.13227], [166.361176, 59.883857], [166.287771, 59.84455], [166.245128, 59.830634], [166.109548, 59.82746], [166.101248, 59.863349], [166.102794, 59.90941], [166.144054, 59.966457], [166.150645, 59.987942], [166.145763, 60.042141], [166.175304, 60.120307], [166.188731, 60.1376], [166.266775, 60.17829], [166.285411, 60.197252], [166.287771, 60.224677], [166.258067, 60.285956], [166.276052, 60.331285], [166.266449, 60.358832], [166.232595, 60.395982], [166.274587, 60.383734], [166.312673, 60.392727], [166.343435, 60.416897], [166.362966, 60.450629], [166.349864, 60.457465], [166.392833, 60.480414], [166.39088, 60.492255], [166.373302, 60.499457], [166.321951, 60.471137], [166.253673, 60.485419], [166.052257, 60.453843], [166.013438, 60.440375], [165.946056, 60.38935], [165.924083, 60.382392], [165.940603, 60.365627], [165.979747, 60.375718], [166.040782, 60.423326], [166.080577, 60.437405], [166.212087, 60.457465], [166.052745, 60.423977], [165.967296, 60.365058], [165.85613, 60.34219], [165.721446, 60.269721], [165.670909, 60.252021], [165.516124, 60.21894], [165.461274, 60.219468], [165.444998, 60.258857], [165.431651, 60.227851], [165.444998, 60.196763], [165.401703, 60.170152], [165.298595, 60.14053], [165.229259, 60.097235], [165.185069, 60.099026], [165.160004, 60.129096], [165.163748, 60.142157], [165.191661, 60.170111], [165.162283, 60.168769], [165.109141, 60.121649], [165.082286, 60.113105], [165.053722, 60.115546], [164.999278, 60.135321], [165.01352, 60.094387], [165.009044, 60.083401], [165.024099, 60.072211], [165.043956, 60.067857], [165.063975, 60.09101], [165.129649, 60.084174], [165.150076, 60.032294], [165.212087, 59.99136], [165.181814, 59.986518], [165.161794, 59.973944], [165.129649, 59.937323], [165.01352, 59.847968], [164.930349, 59.833686], [164.838634, 59.787421], [164.80714, 59.789618], [164.785981, 59.81269], [164.772716, 59.841132], [164.786388, 59.861029], [164.701671, 59.981106], [164.623546, 60.027533], [164.550548, 60.082913], [164.488536, 60.111029], [164.411632, 60.110297], [164.391124, 60.103013], [164.37672, 60.075385], [164.341319, 60.090969], [164.320567, 60.088609], [164.319347, 60.063707], [164.336111, 60.036038], [164.368663, 60.025458], [164.339122, 59.991523], [164.207693, 59.973375], [164.164317, 59.963446], [164.117931, 59.941392], [164.1067, 59.924628], [164.109141, 59.902533], [164.125743, 59.884508], [164.19044, 59.854193], [164.063975, 59.874986], [164.052013, 59.879584], [164.041677, 59.907538], [164.053966, 59.915595], [164.089203, 59.916693], [164.113292, 59.943549], [164.204845, 59.997504], [164.109141, 59.99136], [164.058604, 60.024482], [164.017345, 60.035793], [163.919688, 60.039008], [163.855235, 60.025458], [163.868907, 60.032538], [163.875255, 60.046576], [163.833832, 60.059149], [163.796886, 60.044827], [163.739106, 60.053371], [163.628673, 60.046576], [163.623383, 60.025458], [163.638438, 60.004218], [163.683116, 59.97427], [163.721853, 59.971747], [163.759125, 59.984524], [163.7588, 59.995795], [163.765636, 59.997504], [163.793793, 59.99136], [163.751638, 59.962551], [163.688487, 59.898342], [163.534516, 59.905422], [163.50408, 59.897895], [163.423676, 59.848212], [163.361827, 59.82746], [163.378184, 59.814358], [163.361827, 59.741523], [163.376801, 59.675971], [163.392263, 59.652411], [163.390147, 59.631537], [163.3213, 59.587104], [163.247406, 59.587388], [163.202159, 59.574897], [163.180186, 59.558254], [163.21046, 59.559963], [163.17628, 59.525824], [163.170909, 59.505683], [163.278087, 59.450507], [163.321462, 59.411038], [163.32838, 59.392239], [163.312511, 59.287543], [163.295095, 59.259019], [163.244477, 59.23786], [163.22755, 59.242255], [163.230154, 59.249579], [163.287852, 59.286933], [163.286143, 59.299262], [163.272309, 59.302883], [163.217296, 59.28559], [163.183116, 59.299262], [163.133474, 59.291083], [163.080577, 59.271308], [163.066905, 59.234076], [163.076996, 59.212551], [163.074718, 59.193101], [163.128429, 59.183173], [163.171886, 59.158922], [163.218616, 59.150678], [163.261869, 59.08083], [163.245665, 59.063189], [163.164317, 59.033677], [163.148936, 59.03856], [163.146007, 59.047065], [163.17628, 59.07331], [163.16505, 59.096666], [163.066905, 59.120551], [163.074474, 59.142239], [163.012462, 59.161444], [162.978282, 59.155219], [162.958018, 59.161933], [162.947113, 59.158759], [162.943533, 59.134752], [162.88266, 59.132799], [162.886567, 59.113511], [162.968516, 59.052314], [163.026052, 59.02558], [163.046153, 59.029731], [163.077758, 59.007594], [163.080661, 58.983797], [163.068549, 58.968053], [162.990397, 58.933195], [162.920988, 58.923924], [162.87819, 58.906477], [162.914121, 58.947772], [162.919607, 58.971625], [162.902599, 58.983954], [162.889903, 58.978746], [162.869965, 58.965318], [162.843666, 58.906796], [162.816195, 58.887224], [162.734223, 58.891262], [162.700206, 58.875434], [162.676606, 58.874091], [162.682302, 58.856024], [162.714122, 58.846991], [162.731212, 58.853583], [162.724376, 58.861029], [162.742931, 58.865139], [162.770763, 58.858344], [162.785899, 58.874091], [162.790538, 58.864244], [162.781505, 58.847846], [162.787687, 58.831921], [162.737581, 58.820454], [162.5134, 58.7212], [162.405294, 58.654445], [162.169868, 58.405917], [162.046927, 58.206203], [161.993228, 58.087392], [162.025564, 57.928778], [162.082042, 57.882473], [162.145844, 57.847154], [162.21461, 57.821723], [162.37006, 57.784829], [162.455539, 57.784351], [162.466298, 57.764418], [162.439824, 57.740808], [162.395035, 57.727178], [162.34547, 57.691596], [162.354503, 57.688544], [162.382335, 57.692939], [162.521789, 57.754156], [162.515345, 57.79985], [162.494041, 57.847606], [162.491155, 57.88732], [162.529796, 57.93651], [162.582774, 57.954332], [162.655528, 57.956732], [162.689952, 57.969713], [162.720714, 57.962795], [162.765391, 57.928778], [162.850922, 57.918199], [163.00387, 57.837528], [163.092633, 57.820785], [163.218942, 57.813458], [163.221983, 57.797542], [163.266775, 57.777533], [163.32951, 57.708945], [163.242469, 57.670345], [163.237486, 57.640664], [163.242885, 57.594992], [163.16391, 57.562229], [163.074834, 57.461], [162.962314, 57.436435], [162.908517, 57.416934], [162.833119, 57.383312], [162.800196, 57.346434], [162.789017, 57.32652], [162.776385, 57.255147], [162.79544, 57.183505], [162.785899, 57.145453], [162.817393, 57.092922], [162.859851, 57.051443], [162.789561, 56.921861], [162.7835, 56.763029], [162.83463, 56.722352], [162.967187, 56.70356], [163.068517, 56.741309], [163.125734, 56.727401], [163.227616, 56.742464], [163.238969, 56.733021], [163.225841, 56.720933], [163.243337, 56.71369], [163.251964, 56.698879], [163.280572, 56.688012], [163.246724, 56.647519], [163.238713, 56.623415], [163.240977, 56.593166], [163.278471, 56.563521], [163.246987, 56.531537], [163.265147, 56.488593], [163.281436, 56.472364], [163.278889, 56.462177], [163.250255, 56.451117], [163.338552, 56.355292], [163.353284, 56.321979], [163.336895, 56.277524], [163.342052, 56.233547], [163.366069, 56.180659], [163.307962, 56.168076], [163.293637, 56.149514], [163.17628, 56.133124], [163.117931, 56.106431], [163.094981, 56.068264], [163.053173, 56.027534], [163.051208, 56.005404], [162.930784, 56.017904], [162.885997, 56.041653], [162.821618, 56.056199], [162.754253, 56.108308], [162.738269, 56.149522], [162.69044, 56.171454], [162.638025, 56.220794], [162.556814, 56.228502], [162.644611, 56.243368], [162.706877, 56.271155], [162.741653, 56.312562], [162.753632, 56.347036], [162.872513, 56.358756], [162.939921, 56.38169], [162.943918, 56.406044], [163.000187, 56.438354], [163.058202, 56.44585], [163.085129, 56.461002], [163.116052, 56.500504], [163.100825, 56.517721], [163.043349, 56.520927], [163.020133, 56.537641], [162.989949, 56.533434], [162.958468, 56.499316], [162.94261, 56.449028], [162.909902, 56.425691], [162.740187, 56.479779], [162.682944, 56.483867], [162.650669, 56.470099], [162.628115, 56.439562], [162.573009, 56.426825], [162.511729, 56.440619], [162.454438, 56.398505], [162.414042, 56.38387], [162.401189, 56.369765], [162.482269, 56.335198], [162.526467, 56.325674], [162.536632, 56.305732], [162.59254, 56.26849], [162.559963, 56.252555], [162.495861, 56.242058], [162.488218, 56.216861], [162.442719, 56.212348], [162.1421, 56.129055], [162.098317, 56.088609], [162.056752, 56.069135], [162.040212, 56.045478], [162.076929, 56.022472], [162.018077, 55.976142], [162.019334, 55.93125], [161.968894, 55.895181], [161.948845, 55.852938], [161.920965, 55.825491], [161.925338, 55.794017], [161.840634, 55.70264], [161.777081, 55.608327], [161.764131, 55.554846], [161.763379, 55.511883], [161.749873, 55.465229], [161.747686, 55.375954], [161.771336, 55.325732], [161.776063, 55.290327], [161.812981, 55.179184], [161.874766, 55.078599], [161.960134, 55.034613], [162.046898, 54.956488], [162.049487, 54.924283], [162.151703, 54.862616], [162.153168, 54.849921], [162.107432, 54.824693], [162.130147, 54.772415], [162.127609, 54.760405], [162.109323, 54.742936], [162.045095, 54.725775], [162.009125, 54.702297], [161.976573, 54.662502], [161.816905, 54.590522], [161.753184, 54.519761], [161.723806, 54.509426], [161.665212, 54.512519], [161.636974, 54.525702], [161.579845, 54.516262], [161.470225, 54.51557], [161.31186, 54.490139], [161.237559, 54.51789], [161.223643, 54.529934], [161.209972, 54.570787], [161.15089, 54.597317], [161.066417, 54.596829], [160.891856, 54.570787], [160.741222, 54.535224], [160.527354, 54.437405], [160.48699, 54.40705], [160.420421, 54.378363], [160.237315, 54.248725], [160.160899, 54.235053], [160.052989, 54.175727], [160.000743, 54.13109], [160.0, 54.12858461033818], [160.0, 59.21033756020881], [160.16212, 59.293769], [160.21461, 59.332465], [160.310313, 59.346137], [160.336274, 59.36107], [160.446462, 59.455268], [160.466075, 59.521064], [160.497325, 59.552476], [160.612315, 59.57038], [160.667979, 59.594672], [160.804942, 59.605373], [160.846853, 59.617987], [160.926117, 59.667182], [160.975271, 59.715074], [161.017426, 59.731269], [161.038585, 59.751776], [161.098318, 59.762885], [161.191742, 59.83039], [161.283896, 59.870534], [161.337901, 59.945299], [161.417724, 59.982204], [161.466655, 60.032239], [161.532849, 60.067615], [161.654186, 60.089464], [161.710216, 60.123847], [161.745914, 60.130111], [161.897215, 60.202961], [161.936326, 60.236471], [161.94805, 60.270098], [161.944625, 60.294524], [161.922374, 60.313463], [161.894929, 60.29753], [161.893144, 60.303106], [161.927696, 60.372898], [161.925807, 60.397237], [161.938555, 60.416788], [161.994232, 60.430608], [162.165212, 60.501858], [162.206228, 60.538031], [162.402517, 60.560614], [162.501801, 60.620795], [162.536876, 60.626451], [162.625499, 60.610582], [162.677908, 60.623725], [162.712413, 60.642157], [162.753673, 60.645941], [162.814508, 60.686312], [162.869133, 60.710092], [162.891225, 60.732027], [162.882624, 60.741198], [162.888983, 60.752484], [162.916688, 60.760006], [163.021398, 60.779511], [163.052665, 60.7602], [163.09905, 60.754688], [163.122965, 60.765549], [163.102306, 60.777123], [163.17085, 60.781785], [163.193658, 60.805211], [163.213387, 60.806969], [163.243886, 60.796256], [163.324821, 60.804665], [163.345659, 60.799292], [163.295421, 60.728461], [163.314789, 60.721747], [163.333995, 60.725002], [163.340837, 60.750394], [163.394806, 60.815134], [163.436234, 60.831512], [163.538863, 60.858329], [163.615409, 60.869157], [163.657679, 60.867578], [163.69981, 60.855588], [163.75104, 60.883058], [163.774263, 60.91852], [163.734141, 60.938544], [163.685883, 60.954779], [163.607853, 60.964816], [163.487303, 61.001664], [163.559207, 61.047044], [163.618205, 61.059158], [163.631338, 61.081979], [163.615733, 61.104885], [163.625042, 61.121073], [163.666257, 61.14486], [163.762573, 61.186945], [163.932791, 61.235297], [163.944102, 61.25259], [163.950857, 61.300971], [164.028819, 61.346625], [164.02296, 61.372382], [163.952322, 61.434516], [163.84783, 61.452867], [163.811778, 61.439358], [163.796066, 61.421745], [163.775693, 61.413207], [163.751475, 61.443305], [163.759494, 61.479001], [163.801403, 61.5198], [163.846202, 61.579779], [163.844412, 61.598334], [163.866057, 61.646524], [163.931234, 61.667927], [163.986729, 61.659261], [164.044815, 61.683433], [164.067882, 61.785875], [164.067556, 61.80744], [164.042491, 61.842963], [164.078879, 61.870956], [164.089957, 61.894704], [164.094883, 61.924336], [164.082952, 61.942564], [164.087718, 61.966879], [164.072774, 61.981078], [164.072705, 61.995703], [164.103249, 62.008989], [164.106404, 62.023294], [164.092735, 62.075732], [164.079599, 62.090505], [164.083597, 62.102521], [164.126776, 62.128657], [164.105383, 62.167846], [164.125669, 62.194046], [164.118204, 62.206124], [164.127194, 62.262379], [164.14855, 62.266955], [164.160075, 62.281503], [164.243578, 62.327977], [164.418061, 62.353483], [164.455454, 62.404693], [164.502544, 62.412682], [164.512349, 62.432525], [164.538313, 62.45111], [164.593372, 62.449569], [164.639771, 62.462772], [164.73903, 62.460367], [164.947704, 62.40928], [165.104353, 62.403117], [165.179642, 62.378738], [165.225434, 62.38288], [165.266775, 62.335028], [165.296886, 62.322577], [165.316173, 62.324205], [165.287283, 62.366116], [165.230558, 62.395341], [165.110875, 62.429416], [165.123782, 62.450614], [165.170127, 62.459197], [165.387298, 62.46592], [165.448512, 62.451817], [165.595063, 62.443508], [165.627615, 62.444525], [165.65089, 62.459174], [165.468756, 62.470759], [165.353717, 62.486968], [165.110029, 62.485326], [164.928262, 62.536382], [164.765658, 62.558323], [164.707042, 62.589545], [164.667735, 62.631822], [164.597937, 62.673065], [164.526021, 62.675752], [164.446919, 62.689419], [164.374631, 62.690866], [164.308268, 62.661008], [164.106504, 62.651144], [164.055126, 62.656096], [163.962186, 62.62035], [163.948372, 62.595653], [163.908406, 62.584374], [163.859362, 62.604499], [163.763869, 62.602201], [163.669743, 62.58695], [163.625739, 62.588707], [163.475536, 62.54507], [163.398934, 62.575902], [163.387584, 62.548449], [163.26705, 62.521995], [163.249823, 62.507735], [163.268808, 62.465642], [163.244099, 62.447746], [163.185053, 62.442751], [163.167731, 62.432055], [163.176532, 62.419059], [163.234814, 62.417599], [163.228589, 62.384894], [163.302146, 62.375296], [163.370212, 62.340002], [163.368918, 62.32767], [163.286749, 62.325469], [163.231523, 62.311399], [163.222992, 62.304267], [163.224777, 62.293521], [163.241336, 62.285331], [163.221243, 62.273657], [163.179264, 62.273472], [163.091487, 62.226638], [163.086925, 62.214993], [163.108084, 62.153795], [163.13795, 62.132148], [163.150407, 62.113302], [163.147605, 62.104013], [163.101079, 62.092076], [163.105023, 62.079971], [163.122744, 62.067579], [163.193124, 62.066623], [163.186283, 62.052314], [163.147789, 62.037638], [163.137692, 62.008198], [163.119261, 61.988714], [163.068658, 61.966621], [163.080176, 61.954659], [163.067097, 61.936019], [163.026243, 61.920971], [163.064055, 61.917322], [163.058382, 61.898199], [163.030991, 61.873411], [163.026028, 61.856603], [162.978398, 61.809509], [162.976734, 61.79957], [163.02711, 61.775702], [163.128875, 61.756548], [163.145171, 61.744245], [163.238788, 61.735477], [163.343387, 61.705686], [163.321973, 61.693387], [163.326549, 61.657856], [163.207899, 61.63677], [163.207987, 61.628534], [163.224107, 61.62395], [163.230212, 61.611115], [163.165538, 61.62995], [163.112097, 61.615926], [163.075938, 61.58515], [163.107617, 61.570855], [163.102124, 61.556445], [163.112069, 61.548097], [163.0447, 61.517129], [163.017284, 61.516585], [162.9817, 61.536851], [162.967636, 61.571826], [162.907917, 61.57991], [162.903119, 61.589075], [162.912611, 61.596114], [162.908822, 61.608737], [162.875727, 61.610334], [162.859798, 61.602536], [162.860145, 61.616676], [162.897557, 61.634272], [162.939996, 61.639081], [162.943188, 61.650097], [162.930675, 61.675482], [162.838817, 61.707571], [162.765579, 61.705107], [162.622667, 61.659069], [162.631494, 61.637246], [162.679613, 61.622401], [162.746109, 61.624102], [162.764259, 61.613483], [162.77484, 61.593885], [162.672076, 61.604551], [162.601584, 61.623759], [162.538663, 61.652497], [162.417247, 61.675849], [162.386136, 61.658919], [162.375487, 61.628879], [162.35061, 61.615042], [162.292003, 61.617621], [162.327823, 61.590455], [162.251958, 61.552564], [162.216482, 61.557847], [162.213715, 61.545478], [162.228422, 61.524512], [162.215449, 61.512911], [162.179975, 61.505017], [162.168248, 61.493341], [162.139373, 61.496249], [162.136168, 61.484061], [162.10063, 61.456712], [162.105633, 61.447561], [162.095317, 61.436383], [162.040782, 61.436103], [162.060739, 61.417204], [161.98639, 61.372619], [161.93939, 61.376556], [161.900076, 61.427476], [161.888357, 61.430732], [161.880544, 61.418199], [161.889334, 61.384589], [161.913018, 61.357294], [161.890231, 61.335519], [161.861626, 61.338966], [161.826055, 61.373437], [161.807293, 61.372207], [161.809226, 61.345581], [161.794203, 61.334628], [161.8021, 61.317112], [161.771616, 61.298223], [161.692608, 61.286232], [161.646581, 61.263513], [161.595627, 61.255178], [161.603056, 61.225919], [161.567145, 61.183744], [161.487476, 61.202342], [161.471195, 61.195591], [161.460337, 61.171433], [161.411906, 61.15176], [161.454411, 61.136406], [161.445836, 61.120964], [161.396663, 61.10895], [161.297566, 61.055961], [161.212242, 61.05419], [161.208187, 61.047324], [161.21507, 61.035696], [161.204548, 61.02208], [161.182092, 61.014431], [161.183574, 60.992607], [161.041455, 60.942122], [160.978253, 60.909441], [160.915149, 60.899645], [160.901967, 60.860364], [160.87187, 60.848209], [160.847195, 60.813603], [160.828489, 60.754661], [160.796475, 60.74689], [160.791624, 60.7177], [160.737456, 60.731097], [160.720017, 60.751379], [160.686757, 60.760112], [160.660934, 60.752616], [160.641703, 60.733576], [160.635879, 60.715577], [160.580788, 60.723053], [160.58003, 60.737829], [160.559064, 60.740607], [160.543195, 60.739017], [160.527857, 60.722711], [160.500719, 60.719339], [160.493368, 60.706747], [160.470185, 60.699047], [160.410319, 60.706086], [160.442939, 60.742745], [160.431016, 60.749204], [160.371617, 60.722692], [160.381794, 60.701606], [160.357586, 60.65862], [160.288992, 60.639493], [160.281823, 60.609231], [160.249344, 60.602521], [160.238405, 60.589497], [160.185933, 60.578406], [160.154393, 60.576336], [160.136078, 60.602118], [160.159693, 60.640832], [160.146999, 60.662011], [160.219627, 60.665108], [160.201863, 60.69711], [160.220078, 60.710374], [160.244814, 60.71392], [160.233769, 60.725022], [160.25141, 60.734812], [160.24268, 60.757556], [160.251685, 60.772418], [160.231431, 60.792158], [160.170095, 60.824897], [160.197424, 60.82782], [160.217763, 60.845686], [160.253712, 60.82455], [160.241489, 60.874577], [160.281543, 60.905555], [160.357526, 60.910755], [160.353485, 60.945156], [160.373429, 60.965929], [160.424876, 60.983678], [160.407675, 61.005051], [160.444215, 61.03622], [160.371824, 61.04321], [160.349158, 61.033111], [160.317926, 61.03517], [160.280637, 61.018696], [160.201973, 61.03822], [160.071859, 61.005394], [160.047297, 60.984786], [160.025356, 60.984051], [160.0, 60.96467365010968], [160.0, 61.10605831313767], [160.000141, 61.106118], [160.0, 61.10630473364987], [160.0, 61.28808073692509], [160.003993, 61.292228], [160.0, 61.29260088767533], [160.0, 61.378370535834534], [160.052543, 61.378876], [160.05092, 61.39541], [160.084446, 61.409793], [160.106853, 61.429963], [160.106106, 61.444703], [160.088057, 61.453158], [160.0515, 61.448904], [160.033515, 61.451466], [160.034989, 61.459046], [160.114936, 61.489602], [160.11323, 61.499679], [160.217476, 61.511884], [160.229155, 61.526699], [160.28514, 61.554107], [160.251228, 61.575195], [160.249231, 61.58573], [160.284821, 61.606311], [160.259832, 61.62507], [160.312951, 61.644861], [160.318794, 61.66677], [160.307075, 61.682957], [160.259055, 61.690378], [160.327539, 61.714623], [160.413958, 61.764781], [160.397284, 61.77731], [160.399288, 61.793537], [160.368175, 61.800767], [160.361978, 61.813544], [160.400255, 61.831354], [160.393533, 61.852545], [160.376315, 61.855963], [160.371336, 61.871862], [160.391288, 61.881377], [160.363292, 61.911689], [160.345958, 61.916693], [160.345714, 61.944729], [160.295159, 61.93993], [160.240804, 61.918878], [160.21846, 61.8977], [160.181624, 61.880416], [160.132414, 61.877358], [160.039012, 61.846246], [160.0, 61.79906872277556], [160.0, 69.75384904597827], [160.137218, 69.718085]]], [[[160.005138, 53.274075], [160.017589, 53.265204], [160.024425, 53.220893], [160.038341, 53.192369], [160.031261, 53.179877], [160.050304, 53.158433], [160.058604, 53.097357], [160.015636, 53.115424], [160.0, 53.11477056676558], [160.0, 53.272311423537055], [160.005138, 53.274075]]], [[[161.517589, 68.979885], [161.514985, 68.934638], [161.482107, 68.902167], [161.40919, 68.893256], [161.477387, 68.975165], [161.455577, 69.000963], [161.383556, 69.037787], [161.305512, 69.060248], [161.134776, 69.091864], [161.140961, 69.132799], [161.121918, 69.16767], [161.131602, 69.216986], [161.127289, 69.235256], [161.168956, 69.325263], [161.151378, 69.354641], [161.081554, 69.392971], [161.065929, 69.417426], [161.073253, 69.445014], [161.092459, 69.464789], [161.278494, 69.538153], [161.318614, 69.538886], [161.357921, 69.550116], [161.374522, 69.545885], [161.389903, 69.496487], [161.381684, 69.478746], [161.388682, 69.461819], [161.314301, 69.437242], [161.29713, 69.42829], [161.292491, 69.414008], [161.305349, 69.400702], [161.350841, 69.380439], [161.360688, 69.362779], [161.351085, 69.332099], [161.37436, 69.296047], [161.367361, 69.278998], [161.319102, 69.242662], [161.388682, 69.188056], [161.381114, 69.180609], [161.391775, 69.102118], [161.487071, 69.026679], [161.517589, 68.979885]]], [[[161.610525, 69.533759], [161.607677, 69.517035], [161.62672, 69.482856], [161.607188, 69.468655], [161.615733, 69.450385], [161.54835, 69.426215], [161.375011, 69.407782], [161.375011, 69.414008], [161.360688, 69.414008], [161.373057, 69.427151], [161.408865, 69.441474], [161.425629, 69.464993], [161.427582, 69.521308], [161.394786, 69.592108], [161.454275, 69.602362], [161.475108, 69.638007], [161.524669, 69.638739], [161.590099, 69.618394], [161.632091, 69.579739], [161.631114, 69.561103], [161.610525, 69.533759]]], [[[168.101899, 54.52497], [168.110362, 54.503485], [168.083751, 54.504462], [168.042491, 54.521552], [167.937348, 54.594184], [167.820079, 54.647366], [167.734874, 54.663398], [167.698985, 54.689683], [167.50115, 54.785102], [167.448904, 54.820461], [167.439138, 54.866278], [167.472992, 54.866848], [167.557791, 54.839179], [167.562673, 54.807318], [167.577403, 54.797553], [167.73406, 54.762641], [167.753754, 54.728502], [167.784028, 54.701728], [167.845225, 54.687323], [167.875011, 54.659166], [167.924327, 54.644477], [168.059255, 54.546617], [168.101899, 54.52497]]], [[[166.654796, 54.702338], [166.664399, 54.68008], [166.624522, 54.710028], [166.579275, 54.725246], [166.501964, 54.780463], [166.48585, 54.801337], [166.500011, 54.824693], [166.474783, 54.832343], [166.397634, 54.831529], [166.356456, 54.839545], [166.29835, 54.883857], [166.281912, 54.908271], [166.195323, 54.944525], [166.162608, 54.999701], [166.082856, 55.060614], [166.088552, 55.1022], [166.080577, 55.120429], [166.023611, 55.177558], [165.981212, 55.193427], [165.969574, 55.205512], [165.992931, 55.22191], [165.898448, 55.25727], [165.764822, 55.282701], [165.74643, 55.297065], [165.858409, 55.308783], [165.89031, 55.321275], [165.924083, 55.358547], [165.94044, 55.364976], [166.179942, 55.319403], [166.253673, 55.331855], [166.266124, 55.313422], [166.287771, 55.3039], [166.241222, 55.269965], [166.226329, 55.250067], [166.240977, 55.214993], [166.240001, 55.17414], [166.250255, 55.152289], [166.318533, 55.095649], [166.353282, 55.054389], [166.386729, 55.031724], [166.395356, 55.006252], [166.44809, 54.961127], [166.479015, 54.943549], [166.573253, 54.912421], [166.584972, 54.904771], [166.589529, 54.889594], [166.64975, 54.84455], [166.637218, 54.811103], [166.664399, 54.756415], [166.654796, 54.702338]]], [[[164.690878, 58.955145], [164.680837, 58.905178], [164.631874, 58.865366], [164.407725, 58.864895], [164.303579, 58.827004], [164.29083, 58.808173], [164.25601, 58.798604], [164.231456, 58.812649], [164.170177, 58.824286], [164.134072, 58.802493], [164.121247, 58.780718], [163.987429, 58.728916], [163.954849, 58.707527], [163.882335, 58.702786], [163.846035, 58.690515], [163.78994, 58.642871], [163.585462, 58.55789], [163.552681, 58.521647], [163.515, 58.497147], [163.490019, 58.444503], [163.445649, 58.475572], [163.445183, 58.505495], [163.412854, 58.535369], [163.416344, 58.550026], [163.444996, 58.561391], [163.555287, 58.573029], [163.610543, 58.607463], [163.654378, 58.690505], [163.675473, 58.71513], [163.725288, 58.749628], [163.779552, 58.810402], [163.766327, 58.872124], [163.781758, 58.893873], [163.859849, 58.961472], [163.913191, 58.994291], [163.893565, 59.010077], [163.848155, 59.005072], [163.789806, 59.018134], [163.730842, 58.995802], [163.696386, 58.991945], [163.749283, 59.01896], [163.804185, 59.031278], [163.966698, 59.028561], [164.283051, 59.113715], [164.395193, 59.183905], [164.558116, 59.239691], [164.580821, 59.234076], [164.580821, 59.183173], [164.616222, 59.183173], [164.616222, 59.161444], [164.637218, 59.099351], [164.687673, 59.077094], [164.705414, 59.048774], [164.734072, 59.023253], [164.709541, 59.006175], [164.7069, 58.976828], [164.690878, 58.955145]]], [[[169.451427, 69.818671], [169.408458, 69.784817], [169.412283, 69.763414], [169.305919, 69.77025], [169.277599, 69.759508], [169.302501, 69.742987], [169.278494, 69.719957], [169.309906, 69.664455], [169.278982, 69.62401], [169.234711, 69.592108], [169.189464, 69.575181], [169.039317, 69.577867], [168.874522, 69.567857], [168.172537, 69.695217], [168.059906, 69.763658], [167.969086, 69.77558], [167.882335, 69.798245], [167.790863, 69.808336], [167.753754, 69.832343], [167.82252, 69.881008], [167.991059, 69.957099], [168.16620692885283, 70.0], [168.50096523194873, 70.0], [168.637869, 69.986029], [168.683604, 69.970852], [168.768077, 69.962714], [168.829845, 69.939887], [169.227712, 69.907294], [169.423839, 69.872992], [169.446462, 69.849107], [169.451427, 69.818671]]], [[[161.907879, 69.647442], [161.90373, 69.632109], [161.885624, 69.61914], [161.898637, 69.57404], [161.866936, 69.554554], [161.779439, 69.548527], [161.751564, 69.553235], [161.710969, 69.586911], [161.675648, 69.602052], [161.665617, 69.620548], [161.667244, 69.636683], [161.755154, 69.640342], [161.817117, 69.657553], [161.907879, 69.647442]]], [[[170.275277, 69.773371], [170.271279, 69.763798], [170.247539, 69.763808], [170.223754, 69.739196], [170.101485, 69.687211], [170.065969, 69.694032], [170.069826, 69.709074], [169.95521, 69.726742], [169.97479, 69.741806], [170.053701, 69.763764], [170.124871, 69.773378], [170.275277, 69.773371]]]]}}, {"type": "Feature", "properties": {"name": "United States of America"}, "geometry": {"type": "MultiPolygon", "coordinates": [[[[179.472341, 51.370551], [179.403575, 51.364407], [179.410411, 51.370551], [179.382823, 51.377346], [179.335216, 51.357571], [179.301117, 51.364407], [179.254893, 51.350287], [179.243012, 51.353827], [179.234223, 51.372016], [179.24643, 51.391059], [179.076915, 51.453559], [179.041026, 51.477037], [179.026866, 51.500922], [178.960134, 51.542141], [178.872325, 51.571357], [178.78297, 51.57217], [178.779633, 51.582831], [178.735118, 51.584906], [178.689464, 51.615383], [178.636404, 51.637437], [178.682628, 51.659003], [178.721202, 51.642808], [178.769216, 51.639716], [178.78712, 51.623847], [178.800304, 51.635443], [178.814789, 51.635932], [178.841807, 51.617011], [178.869884, 51.621812], [178.920177, 51.611802], [178.934337, 51.588609], [178.992686, 51.576646], [179.060313, 51.514594], [179.122895, 51.480414], [179.195323, 51.470526], [179.228038, 51.439195], [179.240082, 51.416693], [179.294281, 51.419013], [179.28004, 51.398505], [179.400076, 51.408433], [179.472341, 51.370551]]], [[[178.333995, 51.81623], [178.396169, 51.7685], [178.341482, 51.7685], [178.311697, 51.79206], [178.236583, 51.822943], [178.224864, 51.836737], [178.333995, 51.81623]]], [[[178.590505, 51.968248], [178.604259, 51.93769], [178.568044, 51.911811], [178.574229, 51.905585], [178.516775, 51.896186], [178.471365, 51.926256], [178.459972, 51.944403], [178.477306, 51.985907], [178.519705, 51.994371], [178.590505, 51.968248]]], [[[179.749848, 51.936021], [179.755382, 51.922675], [179.746593, 51.913479], [179.699718, 51.886542], [179.6421, 51.874172], [179.566742, 51.88524], [179.49822, 51.916409], [179.506602, 51.939154], [179.486095, 51.973863], [179.52711, 51.980129], [179.558279, 52.001858], [179.597911, 52.011542], [179.636974, 52.035346], [179.664236, 52.02851], [179.734548, 51.978827], [179.780935, 51.967027], [179.749848, 51.936021]]], [[[177.683767, 52.105048], [177.69044, 52.089911], [177.656261, 52.069485], [177.642589, 52.035346], [177.567638, 52.001858], [177.576996, 51.988918], [177.554454, 51.968451], [177.574474, 51.953437], [177.614757, 51.950019], [177.612071, 51.927924], [177.594249, 51.932929], [177.567638, 51.911811], [177.538748, 51.92829], [177.505544, 51.932929], [177.477794, 51.912991], [177.465099, 51.925482], [177.471365, 51.939154], [177.413585, 51.93065], [177.365977, 51.912095], [177.323578, 51.826809], [177.283376, 51.862494], [177.224294, 51.891995], [177.328868, 51.929674], [177.372569, 51.974677], [177.508474, 51.994574], [177.556, 52.084906], [177.553884, 52.104234], [177.593435, 52.125067], [177.615408, 52.130072], [177.683767, 52.105048]]], [[[175.915863, 52.377997], [175.990977, 52.3581], [175.962901, 52.344062], [175.928884, 52.33926], [175.898611, 52.348822], [175.881847, 52.377997], [175.915863, 52.377997]]], [[[173.730642, 52.472113], [173.713064, 52.450588], [173.733653, 52.4112], [173.743419, 52.361233], [173.660899, 52.350653], [173.668468, 52.371161], [173.62672, 52.377997], [173.627615, 52.394599], [173.500662, 52.38703], [173.401703, 52.396674], [173.388927, 52.403795], [173.394054, 52.419582], [173.431326, 52.440497], [173.454275, 52.447211], [173.527843, 52.445502], [173.567068, 52.471177], [173.599294, 52.476386], [173.624522, 52.500718], [173.737478, 52.51081], [173.79127, 52.501532], [173.730642, 52.472113]]], [[[174.080333, 52.717678], [174.083507, 52.726508], [174.113943, 52.741034], [174.182302, 52.706936], [174.080333, 52.717678]]], [[[173.337413, 52.826239], [173.322032, 52.820217], [173.321544, 52.810858], [173.263031, 52.844143], [173.222667, 52.843817], [173.194835, 52.816799], [173.181163, 52.823635], [173.174327, 52.809312], [173.18865, 52.803168], [173.18865, 52.795722], [173.146495, 52.788275], [173.131521, 52.788642], [173.089366, 52.830471], [173.077485, 52.828315], [173.016612, 52.802191], [172.944347, 52.749823], [172.907481, 52.754706], [172.91212, 52.780992], [172.893809, 52.796088], [172.856212, 52.789496], [172.832286, 52.803168], [172.814626, 52.78266], [172.763438, 52.795722], [172.783214, 52.822821], [172.811046, 52.887926], [172.797618, 52.892524], [172.756033, 52.878241], [172.640391, 52.868801], [172.62615, 52.872016], [172.660411, 52.913031], [172.652843, 52.924384], [172.605154, 52.926663], [172.547618, 52.912909], [172.476085, 52.926663], [172.551117, 52.967597], [172.557384, 52.96015], [172.576915, 52.977973], [172.660411, 53.008612], [172.730805, 53.000393], [172.781098, 53.01553], [172.904063, 53.001166], [172.921072, 52.981879], [172.969412, 52.974433], [173.027192, 52.993598], [173.127208, 52.99494], [173.184744, 52.967597], [173.186046, 52.961819], [173.140147, 52.926663], [173.16033, 52.92772], [173.167491, 52.913031], [173.249848, 52.944403], [173.256847, 52.933498], [173.32252, 52.916002], [173.321788, 52.902493], [173.309337, 52.892768], [173.263031, 52.872016], [173.351573, 52.852484], [173.441905, 52.857733], [173.433116, 52.838568], [173.418712, 52.830756], [173.337413, 52.826239]]]]}}]}