{"type": "FeatureCollection", "features": [{"type": "Feature", "properties": {"name": "Antarctica"}, "geometry": {"type": "MultiPolygon", "coordinates": [[[[60.094981, -67.405369], [60.234386, -67.381768], [60.328787, -67.37713], [60.393077, -67.383884], [60.466645, -67.369806], [60.499197, -67.388849], [60.618907, -67.400567], [60.677501, -67.427504], [60.747732, -67.443129], [60.793305, -67.443536], [60.853363, -67.469659], [60.914073, -67.464776], [60.974132, -67.482843], [61.013357, -67.465102], [61.018565, -67.483819], [61.033865, -67.491143], [61.167003, -67.505304], [61.155447, -67.530857], [61.129242, -67.541436], [61.152192, -67.55641], [61.18572, -67.555759], [61.243175, -67.590509], [61.273204, -67.593194], [61.608084, -67.539646], [62.117442, -67.56227], [62.201508, -67.586114], [62.329438, -67.589288], [62.410655, -67.625258], [62.492198, -67.633559], [62.617361, -67.660089], [62.770844, -67.642999], [63.112641, -67.533787], [63.65089, -67.503351], [63.843272, -67.527439], [63.960623, -67.527032], [64.425466, -67.590509], [64.553233, -67.622817], [64.603852, -67.619724], [64.720958, -67.65309], [66.724946, -67.791925], [66.773448, -67.773126], [66.864268, -67.786391], [67.005544, -67.758884], [67.128917, -67.759047], [67.285818, -67.786798], [67.33961, -67.810805], [68.070811, -67.847914], [68.181651, -67.87656], [68.37672, -67.895196], [68.710623, -67.873468], [68.77711, -67.886], [69.106781, -67.846287], [69.154145, -67.832615], [69.189952, -67.81113], [69.207693, -67.773045], [69.229015, -67.758559], [69.302582, -67.736098], [69.352387, -67.730076], [69.555186, -67.738458], [69.639008, -67.763279], [69.648611, -67.779962], [69.650401, -67.830336], [69.662283, -67.852472], [69.682953, -67.864435], [69.632335, -67.938572], [69.59547, -68.043064], [69.601817, -68.06992], [69.634776, -68.122166], [69.81365, -68.285252], [69.997732, -68.379653], [70.009125, -68.398045], [70.038259, -68.413344], [70.089366, -68.483005], [70.115408, -68.493585], [70.179698, -68.494806], [70.090343, -68.521173], [70.054047, -68.519789], [69.970225, -68.5617], [69.894216, -68.580662], [69.793793, -68.573826], [69.663259, -68.578871], [69.631602, -68.588637], [69.672211, -68.600274], [69.600352, -68.610121], [69.57309, -68.622003], [69.675304, -68.633477], [69.651703, -68.651137], [69.626313, -68.702325], [69.604666, -68.718845], [69.672048, -68.713637], [69.621104, -68.735528], [69.436046, -68.782403], [69.361339, -68.813084], [69.281261, -68.831313], [69.271169, -68.850681], [69.308279, -68.849705], [69.292003, -68.865411], [69.385916, -68.884942], [69.718028, -68.8624], [69.857595, -68.872491], [69.82545, -68.894952], [69.712087, -68.938084], [69.769054, -68.942966], [69.719574, -68.967055], [69.660981, -68.984308], [69.303884, -69.047296], [69.370779, -69.057061], [69.335704, -69.099705], [69.386567, -69.101983], [69.72641, -69.169692], [69.760102, -69.197849], [69.761567, -69.246352], [69.740082, -69.296075], [69.705577, -69.327325], [69.604503, -69.351983], [69.551524, -69.353123], [69.397309, -69.321466], [69.343761, -69.321873], [69.259532, -69.367934], [69.213878, -69.367364], [68.970551, -69.309259], [68.920665, -69.309015], [68.872569, -69.327407], [68.811209, -69.37363], [68.742035, -69.389255], [68.778494, -69.408298], [68.861664, -69.433852], [68.897716, -69.454685], [68.747081, -69.492446], [68.733409, -69.502618], [68.733409, -69.550877], [68.88795, -69.543552], [69.046153, -69.557306], [69.355235, -69.61712], [69.256521, -69.688165], [69.201671, -69.705662], [69.136404, -69.710545], [69.000662, -69.704278], [68.930024, -69.712579], [68.88266, -69.740899], [69.026622, -69.773533], [69.174001, -69.786228], [69.206879, -69.797947], [69.204845, -69.823175], [69.155284, -69.875665], [69.022227, -69.9485], [68.892589, -69.993829], [68.85869901175754, -70.0], [68.5256145053526, -70.0], [68.49643, -69.978204], [68.499522, -69.95672], [68.361501, -69.896091], [68.280772, -69.846368], [68.202403, -69.726007], [68.177013, -69.719659], [68.147634, -69.72503], [68.135265, -69.735528], [68.123383, -69.848565], [68.05714, -69.893731], [68.009044, -69.908949], [67.910492, -69.923923], [67.913585, -69.978936], [67.86967705919004, -70.0], [60.0, -70.0], [60.0, -67.40360224485028], [60.094981, -67.405369]]], [[[73.008556, -69.998956], [73.01173690931198, -70.0], [73.00701880542782, -70.0], [73.008556, -69.998956]]], [[[73.109386, -69.982354], [73.158376, -69.993748], [73.230724, -69.978936], [73.208018, -69.942478], [73.233165, -69.910333], [73.248871, -69.858575], [73.367686, -69.829848], [73.405528, -69.79754], [73.438975, -69.79518], [73.472992, -69.780938], [73.513927, -69.803318], [73.560557, -69.806329], [73.580414, -69.815525], [73.608897, -69.851251], [73.704845, -69.862481], [73.812836, -69.802667], [73.884044, -69.745864], [73.986501, -69.718927], [74.07488, -69.71266], [74.235199, -69.737563], [74.253266, -69.765558], [74.316905, -69.806817], [74.328298, -69.819757], [74.322602, -69.837986], [74.274587, -69.907403], [74.302745, -69.91961], [74.403168, -69.897393], [74.412283, -69.927911], [74.467052, -69.925226], [74.574962, -69.89365], [74.670177, -69.848403], [74.717459, -69.835382], [74.771983, -69.842055], [74.720225, -69.88006], [74.77589, -69.908868], [74.867198, -69.868585], [74.940196, -69.856703], [74.972016, -69.868341], [75.06072, -69.930108], [75.091075, -69.937107], [75.123546, -69.924493], [75.179942, -69.877374], [75.217296, -69.867852], [75.210623, -69.841241], [75.224132, -69.822524], [75.275238, -69.810479], [75.301606, -69.817966], [75.317882, -69.832452], [75.342052, -69.880141], [75.386241, -69.892673], [75.40268, -69.935235], [75.41684, -69.94199], [75.438243, -69.937433], [75.556488, -69.893243], [75.602875, -69.894952], [75.638194, -69.868422], [75.718028, -69.849786], [75.76059, -69.83172], [75.813975, -69.834893], [75.883311, -69.778904], [75.91627, -69.78281], [75.835297, -69.730645], [75.822032, -69.716404], [75.798595, -69.661228], [75.777354, -69.635349], [75.753917, -69.621759], [75.79949, -69.596775], [75.807953, -69.567153], [75.82545, -69.560724], [75.793956, -69.549574], [75.820486, -69.525079], [75.931163, -69.526137], [75.972992, -69.489923], [76.079926, -69.468683], [76.215668, -69.420668], [76.378184, -69.405369], [76.357188, -69.44964], [76.360606, -69.467218], [76.384451, -69.477797], [76.406016, -69.47503], [76.457774, -69.450453], [76.559581, -69.380304], [76.605154, -69.365167], [76.733165, -69.350763], [76.783539, -69.363539], [76.809581, -69.36061], [76.832367, -69.346287], [76.827485, -69.289727], [76.868337, -69.274835], [76.961274, -69.275974], [76.986583, -69.259535], [76.961192, -69.239353], [77.000499, -69.211684], [77.063487, -69.201837], [77.237966, -69.20379], [77.318696, -69.182875], [77.431651, -69.184666], [77.470714, -69.205743], [77.533214, -69.179864], [77.841645, -69.13006], [77.826834, -69.111749], [77.823497, -69.096612], [77.831309, -69.083185], [77.889008, -69.045831], [77.922618, -69.007582], [77.948497, -69.001235], [78.043956, -69.002618], [77.947765, -68.977634], [77.984141, -68.942804], [78.031912, -68.925063], [77.936209, -68.919692], [77.943614, -68.898696], [77.939626, -68.856134], [77.985606, -68.820082], [78.142914, -68.758966], [78.350841, -68.752048], [78.444102, -68.719171], [78.669932, -68.6985], [78.626475, -68.670505], [78.571462, -68.654474], [78.458263, -68.650079], [78.531586, -68.614841], [78.544607, -68.601007], [78.511485, -68.551935], [78.516124, -68.518487], [78.526703, -68.50628], [78.496349, -68.498793], [78.464366, -68.501642], [78.461681, -68.485528], [78.501475, -68.460626], [78.511241, -68.425063], [78.559906, -68.364679], [78.604015, -68.34881], [78.746593, -68.262465], [79.131358, -68.147719], [79.757091, -68.038181], [79.867035, -68.031915], [80.0, -68.00941626614876], [80.0, -70.0], [73.08024357104291, -70.0], [73.109386, -69.982354]]], [[[72.648404478056, -70.0], [72.58256764853407, -70.0], [72.597992, -69.98797], [72.637055, -69.969822], [72.639903, -69.995701], [72.648404478056, -70.0]]]]}}, {"type": "Feature", "properties": {"name": "Heard I. and McDonald Is."}, "geometry": {"type": "Polygon", "coordinates": [[[73.812185, -53.118504], [73.661632, -53.146661], [73.609548, -53.179864], [73.580821, -53.187595], [73.473399, -53.189223], [73.440196, -53.173272], [73.404145, -53.139337], [73.36378, -53.074802], [73.371267, -53.06463], [73.353282, -53.05169], [73.364431, -53.037286], [73.253673, -53.015069], [73.236013, -52.982029], [73.296886, -52.961602], [73.377452, -53.017022], [73.399587, -52.990981], [73.426524, -53.003188], [73.412852, -53.009373], [73.425629, -53.025323], [73.447032, -53.02809], [73.487966, -53.009373], [73.56422, -53.016778], [73.632579, -53.044122], [73.699474, -53.100844], [73.735118, -53.1124], [73.812185, -53.118504]]]}}]}