{"type": "FeatureCollection", "features": [{"type": "Feature", "properties": {"name": "Chile"}, "geometry": {"type": "MultiPolygon", "coordinates": [[[[-69.497123, -17.621404], [-69.47578, -17.65241], [-69.359405, -17.75938], [-69.334239, -17.805785], [-69.326875, -17.915133], [-69.317857, -17.951616], [-69.302406, -17.976214], [-69.262047, -17.964019], [-69.234813, -17.992957], [-69.157712, -18.02572], [-69.14084, -18.030785], [-69.092057, -18.023343], [-69.081722, -18.039983], [-69.089215, -18.083081], [-69.155438, -18.140235], [-69.141201, -18.186847], [-69.100351, -18.234286], [-69.079293, -18.328027], [-69.07782, -18.398824], [-69.034386, -18.478303], [-69.042835, -18.600466], [-69.033844, -18.649455], [-69.003484, -18.702682], [-69.010537, -18.744539], [-68.951445, -18.867323], [-68.959843, -18.907837], [-68.989609, -18.946491], [-68.961703, -18.969435], [-68.908502, -19.067931], [-68.847369, -19.092012], [-68.815407, -19.113303], [-68.698464, -19.215622], [-68.663324, -19.273603], [-68.600072, -19.303368], [-68.493205, -19.376956], [-68.455016, -19.415403], [-68.447626, -19.434627], [-68.510206, -19.471627], [-68.630974, -19.641952], [-68.703218, -19.71554], [-68.70544, -19.733833], [-68.698412, -19.746339], [-68.618882, -19.813415], [-68.561108, -19.844317], [-68.541574, -19.920385], [-68.564932, -19.981363], [-68.574543, -20.03521], [-68.588341, -20.055571], [-68.652885, -20.054227], [-68.775539, -20.089677], [-68.792592, -20.106627], [-68.789466, -20.125851], [-68.759028, -20.144144], [-68.726265, -20.150965], [-68.729469, -20.228687], [-68.678516, -20.328629], [-68.735154, -20.347542], [-68.757685, -20.364286], [-68.769028, -20.390537], [-68.76541, -20.421233], [-68.729676, -20.479214], [-68.685544, -20.516834], [-68.583328, -20.563033], [-68.480957, -20.624735], [-68.481629, -20.643028], [-68.550204, -20.699046], [-68.572786, -20.742867], [-68.57196, -20.872368], [-68.555113, -20.913916], [-68.510206, -20.940168], [-68.453931, -20.939754], [-68.432071, -20.945025], [-68.41631, -20.959805], [-68.207537, -21.284333], [-68.19374, -21.328464], [-68.198442, -21.57186], [-68.190588, -21.60638], [-68.128369, -21.712317], [-68.107595, -21.789625], [-68.096226, -21.953956], [-68.082739, -21.980311], [-67.990186, -22.057619], [-67.960627, -22.102887], [-67.957165, -22.124592], [-67.976595, -22.159835], [-67.944969, -22.208307], [-67.934789, -22.251716], [-67.951894, -22.334088], [-67.906936, -22.420077], [-67.889676, -22.491184], [-67.859187, -22.547305], [-67.891329, -22.715667], [-67.887092, -22.818709], [-67.876343, -22.833592], [-67.833038, -22.840103], [-67.803583, -22.878654], [-67.77144, -22.888679], [-67.616772, -22.897258], [-67.547113, -22.892503], [-67.193904, -22.822223], [-67.013967, -23.000714], [-67.339787, -24.000601], [-67.362369, -24.030367], [-68.244486, -24.385384], [-68.262418, -24.396753], [-68.276835, -24.432306], [-68.326807, -24.498245], [-68.379827, -24.491114], [-68.397655, -24.500519], [-68.437704, -24.579687], [-68.451502, -24.629297], [-68.481836, -24.598807], [-68.49553, -24.601805], [-68.521317, -24.675289], [-68.572373, -24.769856], [-68.578006, -24.808717], [-68.555165, -24.862151], [-68.510206, -24.895534], [-68.489949, -24.895844], [-68.473051, -24.907936], [-68.465713, -24.922095], [-68.469072, -24.936771], [-68.437394, -24.974082], [-68.443544, -25.021107], [-68.367373, -25.103376], [-68.366649, -25.123427], [-68.399205, -25.144821], [-68.474033, -25.145441], [-68.49305, -25.155879], [-68.516046, -25.183578], [-68.605963, -25.436999], [-68.609942, -25.474206], [-68.602914, -25.51069], [-68.55501, -25.572598], [-68.568807, -25.587791], [-68.559609, -25.608565], [-68.559351, -25.663032], [-68.521885, -25.705613], [-68.498476, -25.754913], [-68.486383, -25.836561], [-68.409024, -26.144243], [-68.419876, -26.179279], [-68.546121, -26.269093], [-68.575164, -26.30351], [-68.593922, -26.378647], [-68.595317, -26.457299], [-68.587411, -26.508252], [-68.570151, -26.550626], [-68.32014, -26.87009], [-68.305361, -26.897995], [-68.302105, -26.926624], [-68.329132, -27.000108], [-68.330476, -27.044963], [-68.377346, -27.044446], [-68.42215, -27.062016], [-68.518009, -27.076899], [-68.557387, -27.107388], [-68.585861, -27.162785], [-68.610717, -27.165679], [-68.649474, -27.15121], [-68.718617, -27.106665], [-68.764299, -27.104598], [-68.814322, -27.120307], [-68.870753, -27.198442], [-68.879719, -27.22149], [-68.883052, -27.294974], [-68.931447, -27.395226], [-69.01741, -27.460442], [-69.019012, -27.524314], [-69.028573, -27.551289], [-69.053868, -27.599658], [-69.092341, -27.640172], [-69.09322, -27.656502], [-69.075831, -27.696189], [-69.118205, -27.722131], [-69.124329, -27.73443], [-69.173008, -27.924083], [-69.190191, -27.951368], [-69.2159, -27.968524], [-69.275147, -27.98289], [-69.303233, -27.99953], [-69.313103, -28.014516], [-69.311759, -28.03653], [-69.330828, -28.052447], [-69.367157, -28.130375], [-69.420306, -28.212644], [-69.476168, -28.187942], [-69.490508, -28.198381], [-69.510094, -28.267524], [-69.553528, -28.317857], [-69.653031, -28.397852], [-69.672358, -28.457693], [-69.678404, -28.573862], [-69.700883, -28.584404], [-69.72207, -28.610656], [-69.753386, -28.673391], [-69.755918, -28.707704], [-69.732767, -28.794314], [-69.735842, -28.8124], [-69.764833, -28.858599], [-69.767313, -28.884231], [-69.802789, -28.939938], [-69.806303, -28.980142], [-69.795761, -29.050112], [-69.803926, -29.098688], [-69.822323, -29.120082], [-69.844363, -29.12928], [-69.910948, -29.143233], [-69.921981, -29.168038], [-69.989496, -29.214443], [-69.976163, -29.23346], [-69.980323, -29.249996], [-70.031121, -29.277178], [-70.040655, -29.297539], [-70.042619, -29.363064], [-70.019546, -29.404406], [-70.010011, -29.456082], [-69.991615, -29.488121], [-69.968464, -29.583309], [-69.973192, -29.666095], [-69.963503, -29.685525], [-69.929086, -29.718288], [-69.915599, -29.805621], [-69.927975, -29.976774], [-69.93649467863936, -30.0], [-71.40791959929993, -30.0], [-71.412465, -29.991795], [-71.401031, -29.978123], [-71.384429, -29.984308], [-71.379954, -29.969659], [-71.358551, -29.961602], [-71.350697, -29.930841], [-71.339833, -29.929783], [-71.319651, -29.943292], [-71.29776, -29.933852], [-71.282582, -29.880141], [-71.285146, -29.836114], [-71.319447, -29.799981], [-71.335927, -29.728123], [-71.335357, -29.711196], [-71.320221, -29.696954], [-71.323069, -29.655938], [-71.288075, -29.603123], [-71.323354, -29.567804], [-71.336049, -29.524998], [-71.308827, -29.408868], [-71.336049, -29.381036], [-71.347157, -29.316827], [-71.360911, -29.295587], [-71.486928, -29.211847], [-71.494293, -29.192641], [-71.496205, -29.134698], [-71.481313, -29.107843], [-71.482086, -29.093438], [-71.501129, -29.069757], [-71.487538, -29.035577], [-71.501129, -28.991143], [-71.497548, -28.976821], [-71.501129, -28.970798], [-71.514801, -28.977634], [-71.521962, -28.940118], [-71.51122, -28.889581], [-71.487782, -28.845147], [-71.391347, -28.799493], [-71.357818, -28.723728], [-71.301869, -28.6749], [-71.28893, -28.607029], [-71.316233, -28.572931], [-71.27009, -28.54046], [-71.261586, -28.521661], [-71.267812, -28.476658], [-71.233632, -28.470473], [-71.210357, -28.44671], [-71.188588, -28.40545], [-71.17394, -28.36061], [-71.172231, -28.32643], [-71.193593, -28.294366], [-71.172231, -28.267755], [-71.160146, -28.211684], [-71.157094, -28.142836], [-71.173085, -28.09295], [-71.147328, -28.048923], [-71.132639, -27.923517], [-71.124379, -27.9013], [-71.097157, -27.873956], [-71.104726, -27.838962], [-71.084625, -27.822931], [-71.078765, -27.780694], [-71.048695, -27.723077], [-71.038686, -27.666436], [-71.024566, -27.65545], [-71.013254, -27.671563], [-70.952504, -27.661065], [-70.939524, -27.638279], [-70.912424, -27.62184], [-70.918568, -27.543878], [-70.891672, -27.493097], [-70.905181, -27.441502], [-70.94579, -27.37184], [-70.932688, -27.298028], [-70.954905, -27.243585], [-70.944936, -27.214939], [-70.95995, -27.188165], [-70.95995, -27.161391], [-70.941314, -27.113377], [-70.92927, -27.106703], [-70.917063, -27.106866], [-70.900461, -27.132501], [-70.870839, -27.117852], [-70.870595, -27.092462], [-70.852447, -27.071547], [-70.848744, -27.048028], [-70.81843, -27.047947], [-70.822743, -27.023614], [-70.788645, -26.99627], [-70.806386, -26.916192], [-70.822743, -26.886977], [-70.822418, -26.865818], [-70.786041, -26.788018], [-70.732467, -26.749281], [-70.756174, -26.713637], [-70.746938, -26.692071], [-70.730336, -26.681817], [-70.714996, -26.608575], [-70.695302, -26.568536], [-70.692454, -26.544366], [-70.706654, -26.492852], [-70.686635, -26.456476], [-70.685618, -26.434503], [-70.69929, -26.392999], [-70.691271, -26.383551], [-70.666636, -26.385269], [-70.656548, -26.355824], [-70.629954, -26.340977], [-70.642413, -26.315331], [-70.681443, -26.304496], [-70.675446, -26.276909], [-70.657057, -26.265802], [-70.648264, -26.235772], [-70.66454, -26.202813], [-70.671946, -26.160821], [-70.661733, -26.134047], [-70.658274, -26.06463], [-70.637807, -26.044122], [-70.630727, -26.009535], [-70.635976, -25.974705], [-70.648915, -25.943617], [-70.696685, -25.885186], [-70.710357, -25.835382], [-70.739985, -25.829323], [-70.723999, -25.778713], [-70.700313, -25.773377], [-70.686676, -25.668064], [-70.673411, -25.653904], [-70.650809, -25.648306], [-70.634775, -25.625502], [-70.637807, -25.581476], [-70.651438, -25.540785], [-70.646881, -25.521661], [-70.622874, -25.504164], [-70.603668, -25.501642], [-70.538482, -25.468194], [-70.513661, -25.386326], [-70.464915, -25.38242], [-70.444814, -25.344903], [-70.45287, -25.318048], [-70.439198, -25.276462], [-70.437001, -25.193455], [-70.449086, -25.152927], [-70.5006, -25.095473], [-70.488596, -25.039483], [-70.468739, -25.000095], [-70.472727, -24.975274], [-70.520985, -24.919041], [-70.555898, -24.810805], [-70.555898, -24.765883], [-70.576405, -24.731703], [-70.576405, -24.653253], [-70.554799, -24.60589], [-70.582834, -24.524835], [-70.561117, -24.481821], [-70.541917, -24.415229], [-70.555898, -24.365167], [-70.541615, -24.351495], [-70.547747, -24.327255], [-70.532884, -24.305732], [-70.534291, -24.261], [-70.513661, -24.214451], [-70.519683, -24.201349], [-70.506098, -24.167381], [-70.519552, -24.123822], [-70.504018, -24.114841], [-70.502309, -24.067641], [-70.526357, -23.99627], [-70.5006, -23.912693], [-70.513295, -23.859063], [-70.494456, -23.837579], [-70.498525, -23.784601], [-70.483998, -23.754978], [-70.439198, -23.714044], [-70.421254, -23.684666], [-70.394114, -23.614353], [-70.390736, -23.576918], [-70.413085, -23.511253], [-70.496983, -23.469472], [-70.512235, -23.480503], [-70.539315, -23.532273], [-70.60583, -23.510653], [-70.621338, -23.53109], [-70.631612, -23.517039], [-70.613881, -23.447198], [-70.601715, -23.444106], [-70.585072, -23.423598], [-70.599292, -23.404909], [-70.604633, -23.357283], [-70.591542, -23.326267], [-70.600123, -23.244225], [-70.586101, -23.213269], [-70.567795, -23.200222], [-70.56284, -23.175003], [-70.572213, -23.155201], [-70.565169, -23.130995], [-70.580685, -23.108321], [-70.562245, -23.059828], [-70.506174, -23.010024], [-70.49352, -23.026625], [-70.5006, -23.055597], [-70.484386, -23.086034], [-70.450751, -23.097075], [-70.425423, -23.08853], [-70.372859, -23.050874], [-70.356353, -23.02988], [-70.337148, -23.002618], [-70.327504, -22.956801], [-70.291575, -22.901951], [-70.28775, -22.868097], [-70.312571, -22.790623], [-70.281117, -22.695245], [-70.28775, -22.631606], [-70.269683, -22.619561], [-70.267242, -22.60711], [-70.280873, -22.566176], [-70.24059, -22.487563], [-70.254221, -22.456638], [-70.248199, -22.327569], [-70.235504, -22.29811], [-70.224965, -22.146905], [-70.211171, -22.101739], [-70.213246, -22.08294], [-70.198476, -22.075128], [-70.186147, -22.041436], [-70.185292, -22.024998], [-70.200103, -22.005548], [-70.177887, -21.973077], [-70.182769, -21.963962], [-70.17162, -21.932061], [-70.192128, -21.884373], [-70.150054, -21.861993], [-70.146067, -21.8117], [-70.153147, -21.759942], [-70.144358, -21.733494], [-70.150217, -21.653497], [-70.139844, -21.632646], [-70.103645, -21.608699], [-70.096145, -21.591222], [-70.08716, -21.54563], [-70.074403, -21.53794], [-70.071415, -21.522556], [-70.082916, -21.483331], [-70.058695, -21.433377], [-70.092698, -21.36534], [-70.094106, -21.345473], [-70.068674, -21.305841], [-70.077818, -21.263558], [-70.086832, -21.255054], [-70.080094, -21.233325], [-70.130727, -21.123956], [-70.12328, -21.110284], [-70.127302, -21.089203], [-70.164422, -21.040498], [-70.171295, -21.014581], [-70.150141, -20.962801], [-70.127462, -20.935275], [-70.141121, -20.915463], [-70.136575, -20.900684], [-70.154007, -20.856211], [-70.194169, -20.815833], [-70.213844, -20.811577], [-70.1972, -20.804529], [-70.190418, -20.791783], [-70.204094, -20.762707], [-70.205637, -20.739353], [-70.192128, -20.713067], [-70.2058, -20.706231], [-70.194203, -20.644627], [-70.2058, -20.52809], [-70.176503, -20.491795], [-70.166686, -20.448069], [-70.174916, -20.403578], [-70.192128, -20.366795], [-70.186879, -20.354262], [-70.145742, -20.330415], [-70.130727, -20.266778], [-70.164866, -20.208754], [-70.144358, -20.178643], [-70.151194, -20.137628], [-70.12328, -20.072198], [-70.136871, -20.041599], [-70.12328, -19.999933], [-70.144358, -19.890069], [-70.136871, -19.849054], [-70.158599, -19.818455], [-70.151194, -19.719415], [-70.177887, -19.640232], [-70.184145, -19.629386], [-70.242544, -19.598203], [-70.21442, -19.596359], [-70.199574, -19.534356], [-70.213984, -19.461097], [-70.226136, -19.436904], [-70.226308, -19.410821], [-70.266021, -19.334731], [-70.260813, -19.3235], [-70.28775, -19.300958], [-70.27953, -19.204278], [-70.266225, -19.178399], [-70.280873, -19.160414], [-70.277415, -19.108982], [-70.312734, -19.021905], [-70.308964, -18.971466], [-70.356597, -18.77337], [-70.342926, -18.735935], [-70.336171, -18.675714], [-70.350453, -18.636326], [-70.335247, -18.617575], [-70.338857, -18.57822], [-70.322499, -18.51336], [-70.329335, -18.471856], [-70.306369, -18.460555], [-70.303561, -18.445439], [-70.349477, -18.383181], [-70.394703, -18.337746], [-70.36939, -18.324729], [-70.317895, -18.321215], [-70.210873, -18.331241], [-70.159067, -18.32597], [-70.063233, -18.280701], [-70.010007, -18.27264], [-69.970345, -18.250625], [-69.865338, -18.144585], [-69.843583, -18.113166], [-69.783095, -17.981598], [-69.782372, -17.943874], [-69.812783, -17.88827], [-69.829036, -17.803831], [-69.857561, -17.734171], [-69.849835, -17.69159], [-69.818054, -17.659137], [-69.729042, -17.663271], [-69.683902, -17.656036], [-69.638324, -17.626064], [-69.510089, -17.506588], [-69.497123, -17.621404]]], [[[-79.890736, -26.351739], [-79.890207, -26.356052], [-79.909413, -26.358168], [-79.901763, -26.347426], [-79.890736, -26.351739]]]]}}, {"type": "Feature", "properties": {"name": "Bolivia"}, "geometry": {"type": "Polygon", "coordinates": [[[-69.511385, -17.398678], [-69.522599, -17.36912], [-69.597272, -17.300493], [-69.666492, -17.288298], [-69.649413, -17.262769], [-69.6228, -17.185565], [-69.59505, -17.179674], [-69.510094, -17.112081], [-69.427437, -17.086863], [-69.401263, -17.047175], [-69.416559, -17.031983], [-69.413588, -17.022267], [-69.364314, -16.991158], [-69.325945, -16.922222], [-69.224452, -16.818249], [-69.182362, -16.728745], [-69.166368, -16.719133], [-69.112056, -16.711485], [-69.037073, -16.670247], [-69.008341, -16.634177], [-69.040122, -16.581364], [-69.038882, -16.49186], [-69.027875, -16.454137], [-69.001727, -16.422821], [-68.855844, -16.363186], [-68.833494, -16.328976], [-68.843648, -16.302001], [-68.91876, -16.266655], [-68.959507, -16.22335], [-68.982038, -16.210017], [-69.01015, -16.219112], [-69.053558, -16.208364], [-69.095183, -16.231205], [-69.120815, -16.231205], [-69.184868, -16.195031], [-69.219646, -16.15276], [-69.424337, -15.656253], [-69.430021, -15.62628], [-69.421184, -15.596411], [-69.356408, -15.50143], [-69.343411, -15.442209], [-69.330363, -15.424225], [-69.285921, -15.405415], [-69.296954, -15.366968], [-69.291166, -15.350845], [-69.255897, -15.313328], [-69.222592, -15.302166], [-69.20913, -15.263615], [-69.166135, -15.263925], [-69.150426, -15.251626], [-69.1481, -15.233333], [-69.21267, -15.161296], [-69.288583, -15.101971], [-69.346098, -15.016498], [-69.384313, -14.981772], [-69.390669, -14.964408], [-69.367751, -14.900536], [-69.370541, -14.801524], [-69.339045, -14.774756], [-69.267628, -14.750675], [-69.25383, -14.721839], [-69.2475, -14.593682], [-69.234658, -14.574251], [-69.170399, -14.577559], [-69.164275, -14.503041], [-69.134018, -14.490742], [-69.094563, -14.446404], [-68.990254, -14.379018], [-69.01617, -14.32114], [-69.01015, -14.245899], [-68.984906, -14.228329], [-68.883724, -14.211483], [-68.864448, -14.191226], [-68.905764, -14.039297], [-68.916176, -14.024931], [-68.969713, -13.990514], [-68.982968, -13.972221], [-68.992993, -13.869798], [-69.023095, -13.80603], [-69.015964, -13.753113], [-69.08105, -13.695442], [-69.101591, -13.666607], [-69.087587, -13.643869], [-69.044024, -13.648003], [-69.023844, -13.634981], [-69.023198, -13.596947], [-68.985655, -13.550231], [-68.970747, -13.501449], [-68.962788, -13.283581], [-68.979661, -13.16457], [-68.972142, -13.046128], [-68.986224, -12.93337], [-68.980953, -12.867947], [-68.94943, -12.843866], [-68.926615, -12.800975], [-68.904627, -12.803972], [-68.876566, -12.754983], [-68.856206, -12.741443], [-68.77373, -12.719429], [-68.766134, -12.710541], [-68.742957, -12.665789], [-68.752982, -12.65473], [-68.785332, -12.645945], [-68.794608, -12.63654], [-68.793419, -12.62021], [-68.770113, -12.594372], [-68.726059, -12.56595], [-68.694381, -12.506832], [-68.684252, -12.502492], [-69.577635, -10.952302], [-69.502885, -10.955299], [-69.39594, -10.935042], [-69.293518, -10.954989], [-69.236803, -10.952922], [-69.121487, -10.970595], [-69.086889, -10.967185], [-68.996998, -11.001705], [-68.955425, -11.000464], [-68.884034, -11.016381], [-68.804659, -10.994677], [-68.757633, -11.011937], [-68.785642, -11.059272], [-68.791171, -11.08511], [-68.787011, -11.126038], [-68.775926, -11.140611], [-68.61573, -11.112499], [-68.536096, -11.061546], [-68.493308, -11.047387], [-68.428196, -11.043666], [-68.378276, -11.005012], [-68.331147, -11.000464], [-68.29332, -10.978967], [-68.257509, -10.938763], [-68.203558, -10.838924], [-68.147283, -10.779599], [-68.112091, -10.714074], [-68.09788, -10.697744], [-68.043775, -10.666945], [-68.010237, -10.65971], [-67.862649, -10.65878], [-67.833348, -10.664981], [-67.755782, -10.714177], [-67.721727, -10.705495], [-67.684675, -10.610514], [-67.643489, -10.574547], [-67.58463, -10.501787], [-67.468048, -10.452281], [-67.436628, -10.417451], [-67.42929, -10.390372], [-67.418335, -10.381484], [-67.342836, -10.372492], [-67.333689, -10.356679], [-67.337823, -10.326087], [-67.323509, -10.318852], [-67.259172, -10.313685], [-67.184706, -10.326707], [-67.151736, -10.288983], [-67.110033, -10.282575], [-67.0643, -10.256944], [-66.902656, -10.09313], [-66.78038206932968, -10.0], [-65.32972298098275, -10.0], [-65.284822, -10.206818], [-65.305363, -10.242164], [-65.327817, -10.314408], [-65.365024, -10.332185], [-65.379235, -10.351408], [-65.394738, -10.392439], [-65.38727, -10.406702], [-65.410938, -10.44918], [-65.425382, -10.463133], [-65.44998, -10.468094], [-65.435691, -10.499203], [-65.441634, -10.527832], [-65.429232, -10.561421], [-65.435691, -10.62581], [-65.386753, -10.669529], [-65.381069, -10.698054], [-65.404737, -10.799236], [-65.399698, -10.812259], [-65.360295, -10.822594], [-65.327119, -10.850499], [-65.31898, -10.865382], [-65.312779, -10.950958], [-65.299601, -10.969665], [-65.302986, -10.990749], [-65.341976, -11.032814], [-65.333294, -11.088521], [-65.341046, -11.106608], [-65.394738, -11.153427], [-65.398148, -11.178025], [-65.360011, -11.218849], [-65.366057, -11.234042], [-65.388614, -11.253162], [-65.38727, -11.277553], [-65.37448, -11.295847], [-65.326447, -11.327783], [-65.354766, -11.382353], [-65.319548, -11.476404], [-65.29247, -11.504723], [-65.257562, -11.495318], [-65.222655, -11.517435], [-65.215989, -11.530148], [-65.223611, -11.55795], [-65.219244, -11.584511], [-65.195447, -11.59216], [-65.167439, -11.615517], [-65.190926, -11.623165], [-65.193354, -11.632364], [-65.189272, -11.657065], [-65.20232, -11.691482], [-65.196197, -11.741814], [-65.151497, -11.77313], [-65.143538, -11.763829], [-65.133978, -11.702644], [-65.113411, -11.690551], [-65.113566, -11.722591], [-65.065559, -11.75308], [-65.038454, -11.818709], [-65.033674, -11.879791], [-64.998121, -11.908936], [-64.996493, -11.921235], [-65.014632, -11.950277], [-65.009438, -11.98428], [-64.967606, -12.007948], [-64.862083, -12.024795], [-64.839836, -12.016733], [-64.7925, -12.032546], [-64.768574, -12.086496], [-64.736793, -12.119776], [-64.744183, -12.133625], [-64.739532, -12.144581], [-64.716278, -12.146544], [-64.710283, -12.111921], [-64.689923, -12.104376], [-64.681577, -12.126597], [-64.688992, -12.153882], [-64.66486, -12.180961], [-64.593417, -12.215997], [-64.548433, -12.219098], [-64.511484, -12.242662], [-64.508848, -12.236048], [-64.489392, -12.239459], [-64.473037, -12.253204], [-64.468153, -12.272635], [-64.474432, -12.316456], [-64.492441, -12.356557], [-64.48978, -12.373611], [-64.452521, -12.390354], [-64.424874, -12.431385], [-64.395729, -12.457326], [-64.353199, -12.469212], [-64.297699, -12.465698], [-64.287544, -12.497117], [-64.268708, -12.497221], [-64.236565, -12.475413], [-64.215223, -12.473759], [-64.183106, -12.487919], [-64.144788, -12.520372], [-64.119828, -12.489676], [-64.104455, -12.507142], [-64.044458, -12.509106], [-64.022832, -12.537838], [-63.972447, -12.523886], [-63.939064, -12.544143], [-63.921236, -12.544349], [-63.862893, -12.469212], [-63.801398, -12.454949], [-63.657738, -12.475413], [-63.542189, -12.547967], [-63.485758, -12.557475], [-63.468757, -12.575769], [-63.462504, -12.605121], [-63.438164, -12.619177], [-63.431446, -12.636954], [-63.317913, -12.701963], [-63.235955, -12.698552], [-63.201848, -12.667856], [-63.180712, -12.667856], [-63.16707, -12.647392], [-63.136684, -12.63375], [-63.075034, -12.652663], [-63.064751, -12.666202], [-63.057826, -12.701963], [-63.04346, -12.719119], [-63.051108, -12.742167], [-63.014728, -12.77772], [-62.988011, -12.843866], [-62.955145, -12.857509], [-62.928893, -12.846036], [-62.865073, -12.93554], [-62.831431, -12.944945], [-62.820166, -12.974918], [-62.789832, -13.000652], [-62.770453, -13.010471], [-62.768645, -12.990627], [-62.722032, -12.982566], [-62.686634, -12.964996], [-62.651339, -12.992487], [-62.641676, -13.030005], [-62.554601, -13.066798], [-62.472125, -13.068452], [-62.430939, -13.109793], [-62.424118, -13.126536], [-62.335028, -13.14514], [-62.310533, -13.133978], [-62.290328, -13.142039], [-62.211521, -13.120335], [-62.173952, -13.140799], [-62.172454, -13.117855], [-62.139846, -13.147], [-62.114679, -13.150204], [-62.109408, -13.248958], [-62.019698, -13.33257], [-62.003265, -13.360475], [-61.958358, -13.385487], [-61.909834, -13.431892], [-61.872317, -13.456077], [-61.847977, -13.530801], [-61.83635, -13.540619], [-61.813974, -13.544237], [-61.75434, -13.530284], [-61.735116, -13.538036], [-61.692896, -13.517985], [-61.597114, -13.5061], [-61.550812, -13.538036], [-61.503425, -13.548164], [-61.45875, -13.54372], [-61.347724, -13.493697], [-61.281216, -13.507236], [-61.248556, -13.524393], [-61.215044, -13.517468], [-61.149105, -13.519845], [-61.139312, -13.514058], [-61.133576, -13.494007], [-61.118719, -13.484499], [-61.076009, -13.478298], [-61.047225, -13.464552], [-61.041256, -13.515195], [-61.022007, -13.535245], [-60.896743, -13.552918], [-60.870673, -13.575449], [-60.801969, -13.604181], [-60.652701, -13.7188], [-60.588623, -13.744535], [-60.575135, -13.765619], [-60.472635, -13.797865], [-60.448812, -13.896773], [-60.438554, -13.918374], [-60.408634, -13.944522], [-60.411605, -13.960542], [-60.387188, -13.98328], [-60.419434, -14.076917], [-60.468268, -14.103686], [-60.473513, -14.117225], [-60.478939, -14.1627], [-60.462403, -14.19846], [-60.464341, -14.278352], [-60.454316, -14.296646], [-60.399926, -14.340777], [-60.391348, -14.357107], [-60.376698, -14.419946], [-60.343806, -14.490949], [-60.338431, -14.5326], [-60.369204, -14.542832], [-60.35272, -14.575388], [-60.30404, -14.608151], [-60.291716, -14.630062], [-60.269805, -15.083368], [-60.274972, -15.09515], [-60.582241, -15.098871], [-60.529479, -15.143726], [-60.246395, -15.478279], [-60.237972, -15.50267], [-60.17981, -16.222006], [-60.16069, -16.264794], [-60.129839, -16.273062], [-60.0, -16.277599259060317], [-60.0, -19.29801784434085], [-60.006384, -19.298097], [-61.51084, -19.606916], [-61.753203, -19.64588], [-61.892574, -20.000897], [-61.94425, -20.104146], [-62.26883, -20.553111], [-62.277305, -20.579776], [-62.275703, -21.066568], [-62.627516, -22.184536], [-62.650357, -22.234456], [-62.658987, -22.231665], [-62.679296, -22.194768], [-62.783476, -22.130896], [-62.801356, -22.013487], [-62.804353, -22.004082], [-62.818564, -22.000878], [-62.862024, -21.99323], [-63.010439, -22.000775], [-63.639392, -21.997468], [-63.693911, -22.01204], [-63.74042, -22.050591], [-63.813129, -22.003049], [-63.933173, -22.001808], [-63.95095, -22.0108], [-63.968106, -22.066507], [-63.99565, -22.08294], [-64.004383, -22.09927], [-64.051021, -22.229185], [-64.086239, -22.257917], [-64.160549, -22.438474], [-64.184708, -22.471237], [-64.236333, -22.516712], [-64.250828, -22.54069], [-64.293978, -22.690862], [-64.294598, -22.762899], [-64.326947, -22.859224], [-64.325294, -22.871936], [-64.343897, -22.863668], [-64.347721, -22.816952], [-64.359994, -22.803], [-64.352321, -22.779125], [-64.355731, -22.751943], [-64.368986, -22.729723], [-64.401723, -22.712359], [-64.428285, -22.659029], [-64.45371, -22.642906], [-64.449421, -22.587096], [-64.428285, -22.542344], [-64.483734, -22.491184], [-64.507815, -22.443952], [-64.531328, -22.425658], [-64.524558, -22.385351], [-64.572023, -22.343183], [-64.542257, -22.291506], [-64.542774, -22.275487], [-64.560215, -22.243137], [-64.596207, -22.20655], [-64.65778, -22.178438], [-64.687442, -22.172857], [-64.722892, -22.183296], [-64.762321, -22.174408], [-64.832472, -22.137511], [-65.020368, -22.096583], [-65.457344, -22.101441], [-65.579894, -22.086454], [-65.605319, -22.099063], [-65.744613, -22.11405], [-65.804557, -22.085834], [-65.932689, -21.944551], [-65.954497, -21.933079], [-66.046532, -21.917989], [-66.063586, -21.864039], [-66.094488, -21.83293], [-66.222465, -21.786938], [-66.240009, -21.792415], [-66.287551, -21.956953], [-66.297163, -22.050281], [-66.307602, -22.077049], [-66.335249, -22.08232], [-66.353232, -22.109605], [-66.377468, -22.127072], [-66.626755, -22.192598], [-66.64138, -22.212545], [-66.699309, -22.200763], [-66.735896, -22.225051], [-66.756101, -22.268252], [-66.77517, -22.365197], [-66.790518, -22.388348], [-66.785092, -22.427622], [-66.935315, -22.480539], [-66.978155, -22.5225], [-67.032725, -22.524567], [-67.026628, -22.639392], [-67.113237, -22.710086], [-67.193904, -22.822223], [-67.547113, -22.892503], [-67.616772, -22.897258], [-67.77144, -22.888679], [-67.803583, -22.878654], [-67.833038, -22.840103], [-67.876343, -22.833592], [-67.887092, -22.818709], [-67.891329, -22.715667], [-67.859187, -22.547305], [-67.889676, -22.491184], [-67.906936, -22.420077], [-67.951894, -22.334088], [-67.934789, -22.251716], [-67.944969, -22.208307], [-67.976595, -22.159835], [-67.957165, -22.124592], [-67.960627, -22.102887], [-67.990186, -22.057619], [-68.082739, -21.980311], [-68.096226, -21.953956], [-68.107595, -21.789625], [-68.128369, -21.712317], [-68.190588, -21.60638], [-68.198442, -21.57186], [-68.19374, -21.328464], [-68.207537, -21.284333], [-68.41631, -20.959805], [-68.432071, -20.945025], [-68.453931, -20.939754], [-68.510206, -20.940168], [-68.555113, -20.913916], [-68.57196, -20.872368], [-68.572786, -20.742867], [-68.550204, -20.699046], [-68.481629, -20.643028], [-68.480957, -20.624735], [-68.583328, -20.563033], [-68.685544, -20.516834], [-68.729676, -20.479214], [-68.76541, -20.421233], [-68.769028, -20.390537], [-68.757685, -20.364286], [-68.735154, -20.347542], [-68.678516, -20.328629], [-68.729469, -20.228687], [-68.726265, -20.150965], [-68.759028, -20.144144], [-68.789466, -20.125851], [-68.792592, -20.106627], [-68.775539, -20.089677], [-68.652885, -20.054227], [-68.588341, -20.055571], [-68.574543, -20.03521], [-68.564932, -19.981363], [-68.541574, -19.920385], [-68.561108, -19.844317], [-68.618882, -19.813415], [-68.698412, -19.746339], [-68.70544, -19.733833], [-68.703218, -19.71554], [-68.630974, -19.641952], [-68.510206, -19.471627], [-68.447626, -19.434627], [-68.455016, -19.415403], [-68.493205, -19.376956], [-68.600072, -19.303368], [-68.663324, -19.273603], [-68.698464, -19.215622], [-68.815407, -19.113303], [-68.847369, -19.092012], [-68.908502, -19.067931], [-68.961703, -18.969435], [-68.989609, -18.946491], [-68.959843, -18.907837], [-68.951445, -18.867323], [-69.010537, -18.744539], [-69.003484, -18.702682], [-69.033844, -18.649455], [-69.042835, -18.600466], [-69.034386, -18.478303], [-69.07782, -18.398824], [-69.079293, -18.328027], [-69.100351, -18.234286], [-69.141201, -18.186847], [-69.155438, -18.140235], [-69.089215, -18.083081], [-69.081722, -18.039983], [-69.092057, -18.023343], [-69.14084, -18.030785], [-69.157712, -18.02572], [-69.234813, -17.992957], [-69.262047, -17.964019], [-69.302406, -17.976214], [-69.317857, -17.951616], [-69.326875, -17.915133], [-69.334239, -17.805785], [-69.359405, -17.75938], [-69.47578, -17.65241], [-69.497123, -17.621404], [-69.510089, -17.506588], [-69.511385, -17.398678]]]}}, {"type": "Feature", "properties": {"name": "Peru"}, "geometry": {"type": "MultiPolygon", "coordinates": [[[[-69.638324, -17.626064], [-69.683902, -17.656036], [-69.729042, -17.663271], [-69.818054, -17.659137], [-69.849835, -17.69159], [-69.857561, -17.734171], [-69.829036, -17.803831], [-69.812783, -17.88827], [-69.782372, -17.943874], [-69.783095, -17.981598], [-69.843583, -18.113166], [-69.865338, -18.144585], [-69.970345, -18.250625], [-70.010007, -18.27264], [-70.063233, -18.280701], [-70.159067, -18.32597], [-70.210873, -18.331241], [-70.317895, -18.321215], [-70.36939, -18.324729], [-70.394703, -18.337746], [-70.531252, -18.243259], [-70.683256, -18.161698], [-70.74767, -18.094415], [-70.768178, -18.088149], [-70.826161, -18.036716], [-70.878896, -18.016697], [-70.891672, -18.005629], [-70.914622, -17.946547], [-71.007151, -17.890232], [-71.086578, -17.869073], [-71.203521, -17.762628], [-71.304555, -17.705987], [-71.346913, -17.691013], [-71.384429, -17.697849], [-71.359609, -17.633071], [-71.377675, -17.492364], [-71.400258, -17.400323], [-71.481313, -17.331231], [-71.497711, -17.297133], [-71.514516, -17.284601], [-71.593088, -17.265558], [-71.641469, -17.231622], [-71.807607, -17.191339], [-71.845693, -17.174574], [-71.948598, -17.0735], [-72.003082, -17.042576], [-72.047271, -17.027765], [-72.118153, -17.019301], [-72.124379, -16.977716], [-72.178538, -16.942153], [-72.197255, -16.916436], [-72.268951, -16.895196], [-72.293365, -16.880629], [-72.306508, -16.824151], [-72.362213, -16.761326], [-72.385081, -16.745701], [-72.413971, -16.741306], [-72.440094, -16.714451], [-72.488026, -16.690362], [-72.529652, -16.683526], [-72.587758, -16.659356], [-72.692353, -16.660654], [-72.781321, -16.629327], [-72.888336, -16.55462], [-73.060246, -16.494881], [-73.093821, -16.460138], [-73.17516, -16.413263], [-73.231679, -16.407973], [-73.280141, -16.38836], [-73.296213, -16.395603], [-73.325999, -16.330743], [-73.420318, -16.293145], [-73.598909, -16.239849], [-73.676202, -16.227873], [-73.700687, -16.244594], [-73.700278, -16.220696], [-73.735015, -16.190118], [-73.842641, -16.146661], [-74.004077, -16.037059], [-74.032826, -16.012302], [-74.027904, -15.988803], [-74.04662, -15.960138], [-74.161692, -15.901056], [-74.220611, -15.89129], [-74.265739, -15.847661], [-74.289951, -15.8396], [-74.327937, -15.848055], [-74.398012, -15.826863], [-74.446401, -15.79225], [-74.463068, -15.726724], [-74.538318, -15.70264], [-74.84756, -15.566294], [-74.868645, -15.538051], [-74.979115, -15.482354], [-75.006418, -15.461196], [-75.048695, -15.460707], [-75.106109, -15.408624], [-75.160797, -15.393324], [-75.166982, -15.377618], [-75.189416, -15.369545], [-75.189461, -15.358371], [-75.155422, -15.34642], [-75.151641, -15.332988], [-75.16686, -15.311293], [-75.23644, -15.276788], [-75.263173, -15.250421], [-75.232777, -15.245782], [-75.23412, -15.214532], [-75.289622, -15.161065], [-75.361806, -15.144789], [-75.376454, -15.134047], [-75.44811, -15.007989], [-75.502756, -14.963637], [-75.506581, -14.918227], [-75.550649, -14.884942], [-75.680533, -14.821027], [-75.748332, -14.77098], [-75.839426, -14.726332], [-75.86677, -14.689548], [-75.930653, -14.649347], [-75.932769, -14.580015], [-75.973434, -14.528741], [-75.976511, -14.517386], [-75.964832, -14.49249], [-75.980636, -14.461099], [-76.03718, -14.429295], [-76.081858, -14.377699], [-76.133209, -14.359633], [-76.143553, -14.327895], [-76.116113, -14.324874], [-76.106709, -14.30586], [-76.149159, -14.223891], [-76.181142, -14.210626], [-76.20226, -14.168552], [-76.215443, -14.161228], [-76.24994, -14.147806], [-76.251567, -14.169807], [-76.271193, -14.20093], [-76.290435, -14.167413], [-76.282056, -14.140924], [-76.282806, -14.103695], [-76.291737, -14.080987], [-76.2812, -14.073314], [-76.280873, -14.057387], [-76.267907, -14.049715], [-76.274181, -14.03904], [-76.269449, -14.020059], [-76.284576, -13.991632], [-76.272805, -13.987398], [-76.270439, -13.9625], [-76.277429, -13.945103], [-76.29531, -13.934502], [-76.292714, -13.900486], [-76.308461, -13.891778], [-76.32486, -13.921], [-76.39396, -13.90802], [-76.391103, -13.867852], [-76.366713, -13.822024], [-76.371361, -13.809178], [-76.362016, -13.801642], [-76.344132, -13.805447], [-76.325754, -13.791192], [-76.295904, -13.793436], [-76.290473, -13.80477], [-76.302952, -13.832689], [-76.261773, -13.861428], [-76.253985, -13.850868], [-76.224317, -13.733871], [-76.221344, -13.686619], [-76.19815, -13.622491], [-76.181264, -13.539483], [-76.187856, -13.464939], [-76.221102, -13.357556], [-76.483347, -13.036296], [-76.516474, -12.946153], [-76.516233, -12.869919], [-76.542307, -12.831964], [-76.630035, -12.750665], [-76.681793, -12.655369], [-76.681467, -12.619317], [-76.73618, -12.552415], [-76.799079, -12.509342], [-76.811757, -12.48268], [-76.791127, -12.45672], [-76.78243, -12.419213], [-76.790886, -12.381047], [-76.825429, -12.352472], [-76.853646, -12.302644], [-76.948964, -12.250095], [-77.017201, -12.225763], [-77.038319, -12.20436], [-77.046946, -12.180759], [-77.038319, -12.153741], [-77.053944, -12.11419], [-77.088979, -12.088962], [-77.174916, -12.071873], [-77.14509, -12.023045], [-77.145904, -11.932061], [-77.161855, -11.87949], [-77.181711, -11.84588], [-77.187245, -11.825291], [-77.181441, -11.800578], [-77.196374, -11.776822], [-77.196336, -11.767835], [-77.177978, -11.770371], [-77.16706, -11.756536], [-77.171086, -11.736138], [-77.210927, -11.646417], [-77.225453, -11.627211], [-77.264231, -11.604262], [-77.284739, -11.575372], [-77.27774, -11.565851], [-77.28189, -11.549493], [-77.320465, -11.493748], [-77.340321, -11.485935], [-77.360463, -11.461114], [-77.60851, -11.322442], [-77.647257, -11.292316], [-77.647968, -11.222346], [-77.63985, -11.21393], [-77.618557, -11.216306], [-77.597799, -11.206837], [-77.594684, -11.165117], [-77.6186, -11.127194], [-77.612762, -11.115396], [-77.633368, -11.09269], [-77.634316, -11.056558], [-77.661307, -11.01446], [-77.646806, -10.996477], [-77.670539, -10.92752], [-77.711554, -10.868034], [-77.70917, -10.852247], [-77.753155, -10.815769], [-77.747803, -10.792072], [-77.763676, -10.761524], [-77.807682, -10.724044], [-77.819203, -10.701349], [-77.8485, -10.673761], [-77.911973, -10.56639], [-77.909571, -10.555114], [-77.922592, -10.530785], [-77.968495, -10.49391], [-77.966299, -10.478073], [-77.977159, -10.455981], [-78.010976, -10.412774], [-78.006427, -10.382482], [-78.055804, -10.347524], [-78.058173, -10.301908], [-78.085548, -10.277426], [-78.095511, -10.240667], [-78.090732, -10.228844], [-78.104934, -10.201132], [-78.166596, -10.141411], [-78.182335, -10.110846], [-78.182836, -10.100684], [-78.167969, -10.093416], [-78.178708, -10.069044], [-78.177943, -10.042507], [-78.193904, -10.020879], [-78.20151991761604, -10.0], [-72.19271953367333, -10.0], [-72.195666, -10.00559], [-71.391426, -10.00683], [-71.373391, -10.002282], [-71.37128879723547, -10.0], [-70.63881805028132, -10.0], [-70.641342, -11.0108], [-70.555559, -10.942793], [-70.534114, -10.938143], [-70.437272, -11.036741], [-70.391306, -11.059065], [-70.341025, -11.06723], [-70.2894, -11.06475], [-70.198734, -11.041185], [-69.956113, -10.919332], [-69.808318, -10.927187], [-69.753438, -10.958296], [-69.72021, -10.964911], [-69.577635, -10.952302], [-68.684252, -12.502492], [-68.694381, -12.506832], [-68.726059, -12.56595], [-68.770113, -12.594372], [-68.793419, -12.62021], [-68.794608, -12.63654], [-68.785332, -12.645945], [-68.752982, -12.65473], [-68.742957, -12.665789], [-68.766134, -12.710541], [-68.77373, -12.719429], [-68.856206, -12.741443], [-68.876566, -12.754983], [-68.904627, -12.803972], [-68.926615, -12.800975], [-68.94943, -12.843866], [-68.980953, -12.867947], [-68.986224, -12.93337], [-68.972142, -13.046128], [-68.979661, -13.16457], [-68.962788, -13.283581], [-68.970747, -13.501449], [-68.985655, -13.550231], [-69.023198, -13.596947], [-69.023844, -13.634981], [-69.044024, -13.648003], [-69.087587, -13.643869], [-69.101591, -13.666607], [-69.08105, -13.695442], [-69.015964, -13.753113], [-69.023095, -13.80603], [-68.992993, -13.869798], [-68.982968, -13.972221], [-68.969713, -13.990514], [-68.916176, -14.024931], [-68.905764, -14.039297], [-68.864448, -14.191226], [-68.883724, -14.211483], [-68.984906, -14.228329], [-69.01015, -14.245899], [-69.01617, -14.32114], [-68.990254, -14.379018], [-69.094563, -14.446404], [-69.134018, -14.490742], [-69.164275, -14.503041], [-69.170399, -14.577559], [-69.234658, -14.574251], [-69.2475, -14.593682], [-69.25383, -14.721839], [-69.267628, -14.750675], [-69.339045, -14.774756], [-69.370541, -14.801524], [-69.367751, -14.900536], [-69.390669, -14.964408], [-69.384313, -14.981772], [-69.346098, -15.016498], [-69.288583, -15.101971], [-69.21267, -15.161296], [-69.1481, -15.233333], [-69.150426, -15.251626], [-69.166135, -15.263925], [-69.20913, -15.263615], [-69.222592, -15.302166], [-69.255897, -15.313328], [-69.291166, -15.350845], [-69.296954, -15.366968], [-69.285921, -15.405415], [-69.330363, -15.424225], [-69.343411, -15.442209], [-69.356408, -15.50143], [-69.421184, -15.596411], [-69.430021, -15.62628], [-69.424337, -15.656253], [-69.219646, -16.15276], [-69.184868, -16.195031], [-69.120815, -16.231205], [-69.095183, -16.231205], [-69.053558, -16.208364], [-69.01015, -16.219112], [-68.982038, -16.210017], [-68.959507, -16.22335], [-68.91876, -16.266655], [-68.843648, -16.302001], [-68.833494, -16.328976], [-68.855844, -16.363186], [-69.001727, -16.422821], [-69.027875, -16.454137], [-69.038882, -16.49186], [-69.040122, -16.581364], [-69.008341, -16.634177], [-69.037073, -16.670247], [-69.112056, -16.711485], [-69.166368, -16.719133], [-69.182362, -16.728745], [-69.224452, -16.818249], [-69.325945, -16.922222], [-69.364314, -16.991158], [-69.413588, -17.022267], [-69.416559, -17.031983], [-69.401263, -17.047175], [-69.427437, -17.086863], [-69.510094, -17.112081], [-69.59505, -17.179674], [-69.6228, -17.185565], [-69.649413, -17.262769], [-69.666492, -17.288298], [-69.597272, -17.300493], [-69.522599, -17.36912], [-69.511385, -17.398678], [-69.510089, -17.506588], [-69.638324, -17.626064]]], [[[-76.17566, -14.288375], [-76.179585, -14.295208], [-76.220324, -14.274666], [-76.220311, -14.263276], [-76.21247, -14.259482], [-76.195232, -14.263294], [-76.17566, -14.288375]]], [[[-76.436689, -13.833522], [-76.441441, -13.853906], [-76.47025, -13.853856], [-76.456831, -13.822912], [-76.436689, -13.833522]]], [[[-77.193839, -12.100041], [-77.181541, -12.115912], [-77.204393, -12.114888], [-77.236668, -12.093345], [-77.25366, -12.063488], [-77.244108, -12.058878], [-77.193839, -12.100041]]]]}}, {"type": "Feature", "properties": {"name": "Argentina"}, "geometry": {"type": "Polygon", "coordinates": [[[-67.113237, -22.710086], [-67.026628, -22.639392], [-67.032725, -22.524567], [-66.978155, -22.5225], [-66.935315, -22.480539], [-66.785092, -22.427622], [-66.790518, -22.388348], [-66.77517, -22.365197], [-66.756101, -22.268252], [-66.735896, -22.225051], [-66.699309, -22.200763], [-66.64138, -22.212545], [-66.626755, -22.192598], [-66.377468, -22.127072], [-66.353232, -22.109605], [-66.335249, -22.08232], [-66.307602, -22.077049], [-66.297163, -22.050281], [-66.287551, -21.956953], [-66.240009, -21.792415], [-66.222465, -21.786938], [-66.094488, -21.83293], [-66.063586, -21.864039], [-66.046532, -21.917989], [-65.954497, -21.933079], [-65.932689, -21.944551], [-65.804557, -22.085834], [-65.744613, -22.11405], [-65.605319, -22.099063], [-65.579894, -22.086454], [-65.457344, -22.101441], [-65.020368, -22.096583], [-64.832472, -22.137511], [-64.762321, -22.174408], [-64.722892, -22.183296], [-64.687442, -22.172857], [-64.65778, -22.178438], [-64.596207, -22.20655], [-64.560215, -22.243137], [-64.542774, -22.275487], [-64.542257, -22.291506], [-64.572023, -22.343183], [-64.524558, -22.385351], [-64.531328, -22.425658], [-64.507815, -22.443952], [-64.483734, -22.491184], [-64.428285, -22.542344], [-64.449421, -22.587096], [-64.45371, -22.642906], [-64.428285, -22.659029], [-64.401723, -22.712359], [-64.368986, -22.729723], [-64.355731, -22.751943], [-64.352321, -22.779125], [-64.359994, -22.803], [-64.347721, -22.816952], [-64.343897, -22.863668], [-64.325294, -22.871936], [-64.326947, -22.859224], [-64.294598, -22.762899], [-64.293978, -22.690862], [-64.250828, -22.54069], [-64.236333, -22.516712], [-64.184708, -22.471237], [-64.160549, -22.438474], [-64.086239, -22.257917], [-64.051021, -22.229185], [-64.004383, -22.09927], [-63.99565, -22.08294], [-63.968106, -22.066507], [-63.947591, -22.007596], [-63.906405, -21.997157], [-63.813129, -22.003049], [-63.74042, -22.050591], [-63.693911, -22.01204], [-63.639392, -21.997468], [-63.010439, -22.000775], [-62.862024, -21.99323], [-62.804353, -22.004082], [-62.783476, -22.130896], [-62.679296, -22.194768], [-62.658987, -22.231665], [-62.624829, -22.247271], [-62.620282, -22.268459], [-62.632684, -22.295951], [-62.625294, -22.305046], [-62.564678, -22.321996], [-62.523388, -22.364887], [-62.470575, -22.381837], [-62.43807, -22.419664], [-62.368256, -22.464416], [-62.287227, -22.483949], [-62.281387, -22.512061], [-62.263352, -22.514439], [-62.241183, -22.538416], [-62.233225, -22.556296], [-62.25281, -22.603632], [-62.192969, -22.62823], [-62.187646, -22.638565], [-62.195036, -22.673602], [-62.175916, -22.684867], [-62.188267, -22.708329], [-62.1708, -22.71732], [-62.115868, -22.799796], [-62.084604, -22.820156], [-62.035821, -22.884855], [-62.006055, -22.936842], [-62.0059, -22.978906], [-61.956446, -23.034407], [-61.84498, -23.097245], [-61.814284, -23.135176], [-61.769274, -23.165562], [-61.752273, -23.187059], [-61.744263, -23.234808], [-61.732997, -23.243386], [-61.680313, -23.27925], [-61.60515, -23.289275], [-61.554636, -23.338368], [-61.51606, -23.344982], [-61.526343, -23.374748], [-61.510375, -23.38436], [-61.501073, -23.407821], [-61.451929, -23.417433], [-61.398677, -23.450092], [-61.36178, -23.454743], [-61.296951, -23.481408], [-61.272612, -23.523576], [-61.242924, -23.533084], [-61.214398, -23.557166], [-61.18024, -23.557166], [-61.139493, -23.592719], [-61.109857, -23.606982], [-61.10624, -23.627239], [-61.118849, -23.66641], [-61.092519, -23.70186], [-61.066216, -23.715709], [-61.04999, -23.734726], [-61.036244, -23.768832], [-61.006349, -23.805471], [-60.974826, -23.824074], [-60.936663, -23.813842], [-60.837625, -23.871823], [-60.729286, -23.872133], [-60.689676, -23.893631], [-60.63216, -23.892287], [-60.594617, -23.90655], [-60.577538, -23.94417], [-60.535964, -23.947581], [-60.484882, -23.977347], [-60.378351, -23.988509], [-60.337372, -24.016414], [-60.218128, -24.027369], [-60.143249, -24.025199], [-60.072375, -24.004839], [-60.033669, -24.007009], [-60.0, -24.027431811954038], [-60.0, -30.0], [-69.93649467863936, -30.0], [-69.927975, -29.976774], [-69.915599, -29.805621], [-69.929086, -29.718288], [-69.963503, -29.685525], [-69.973192, -29.666095], [-69.968464, -29.583309], [-69.991615, -29.488121], [-70.010011, -29.456082], [-70.019546, -29.404406], [-70.042619, -29.363064], [-70.040655, -29.297539], [-70.031121, -29.277178], [-69.980323, -29.249996], [-69.976163, -29.23346], [-69.989496, -29.214443], [-69.921981, -29.168038], [-69.910948, -29.143233], [-69.844363, -29.12928], [-69.822323, -29.120082], [-69.803926, -29.098688], [-69.795761, -29.050112], [-69.806303, -28.980142], [-69.802789, -28.939938], [-69.767313, -28.884231], [-69.764833, -28.858599], [-69.735842, -28.8124], [-69.732767, -28.794314], [-69.755918, -28.707704], [-69.753386, -28.673391], [-69.72207, -28.610656], [-69.700883, -28.584404], [-69.678404, -28.573862], [-69.672358, -28.457693], [-69.653031, -28.397852], [-69.553528, -28.317857], [-69.510094, -28.267524], [-69.490508, -28.198381], [-69.476168, -28.187942], [-69.420306, -28.212644], [-69.367157, -28.130375], [-69.330828, -28.052447], [-69.311759, -28.03653], [-69.313103, -28.014516], [-69.303233, -27.99953], [-69.275147, -27.98289], [-69.2159, -27.968524], [-69.190191, -27.951368], [-69.173008, -27.924083], [-69.124329, -27.73443], [-69.118205, -27.722131], [-69.075831, -27.696189], [-69.09322, -27.656502], [-69.092341, -27.640172], [-69.053868, -27.599658], [-69.028573, -27.551289], [-69.019012, -27.524314], [-69.01741, -27.460442], [-68.931447, -27.395226], [-68.883052, -27.294974], [-68.879719, -27.22149], [-68.870753, -27.198442], [-68.814322, -27.120307], [-68.764299, -27.104598], [-68.718617, -27.106665], [-68.649474, -27.15121], [-68.610717, -27.165679], [-68.585861, -27.162785], [-68.557387, -27.107388], [-68.518009, -27.076899], [-68.42215, -27.062016], [-68.377346, -27.044446], [-68.330476, -27.044963], [-68.329132, -27.000108], [-68.302105, -26.926624], [-68.305361, -26.897995], [-68.32014, -26.87009], [-68.570151, -26.550626], [-68.587411, -26.508252], [-68.595317, -26.457299], [-68.593922, -26.378647], [-68.575164, -26.30351], [-68.546121, -26.269093], [-68.419876, -26.179279], [-68.409024, -26.144243], [-68.486383, -25.836561], [-68.498476, -25.754913], [-68.521885, -25.705613], [-68.559351, -25.663032], [-68.559609, -25.608565], [-68.568807, -25.587791], [-68.55501, -25.572598], [-68.602914, -25.51069], [-68.609942, -25.474206], [-68.605963, -25.436999], [-68.516046, -25.183578], [-68.49305, -25.155879], [-68.474033, -25.145441], [-68.399205, -25.144821], [-68.366649, -25.123427], [-68.367373, -25.103376], [-68.443544, -25.021107], [-68.437394, -24.974082], [-68.469072, -24.936771], [-68.465713, -24.922095], [-68.473051, -24.907936], [-68.489949, -24.895844], [-68.510206, -24.895534], [-68.555165, -24.862151], [-68.578006, -24.808717], [-68.572373, -24.769856], [-68.521317, -24.675289], [-68.49553, -24.601805], [-68.481836, -24.598807], [-68.451502, -24.629297], [-68.437704, -24.579687], [-68.397655, -24.500519], [-68.379827, -24.491114], [-68.326807, -24.498245], [-68.276835, -24.432306], [-68.262418, -24.396753], [-68.244486, -24.385384], [-67.412289, -24.055585], [-67.362369, -24.030367], [-67.339787, -24.000601], [-67.013967, -23.000714], [-67.193904, -22.822223], [-67.113237, -22.710086]]]}}, {"type": "Feature", "properties": {"name": "Brazil"}, "geometry": {"type": "MultiPolygon", "coordinates": [[[[-60.129839, -16.273062], [-60.16069, -16.264794], [-60.17981, -16.222006], [-60.237972, -15.50267], [-60.246395, -15.478279], [-60.529479, -15.143726], [-60.582241, -15.098871], [-60.274972, -15.09515], [-60.269805, -15.083368], [-60.291716, -14.630062], [-60.30404, -14.608151], [-60.35272, -14.575388], [-60.369204, -14.542832], [-60.338431, -14.5326], [-60.343806, -14.490949], [-60.376698, -14.419946], [-60.391348, -14.357107], [-60.399926, -14.340777], [-60.454316, -14.296646], [-60.464341, -14.278352], [-60.462403, -14.19846], [-60.478939, -14.1627], [-60.473513, -14.117225], [-60.468268, -14.103686], [-60.419434, -14.076917], [-60.387188, -13.98328], [-60.411605, -13.960542], [-60.408634, -13.944522], [-60.438554, -13.918374], [-60.448812, -13.896773], [-60.472635, -13.797865], [-60.575135, -13.765619], [-60.588623, -13.744535], [-60.652701, -13.7188], [-60.801969, -13.604181], [-60.870673, -13.575449], [-60.896743, -13.552918], [-61.022007, -13.535245], [-61.041256, -13.515195], [-61.047225, -13.464552], [-61.076009, -13.478298], [-61.118719, -13.484499], [-61.133576, -13.494007], [-61.139312, -13.514058], [-61.149105, -13.519845], [-61.215044, -13.517468], [-61.248556, -13.524393], [-61.281216, -13.507236], [-61.347724, -13.493697], [-61.45875, -13.54372], [-61.503425, -13.548164], [-61.550812, -13.538036], [-61.597114, -13.5061], [-61.692896, -13.517985], [-61.735116, -13.538036], [-61.75434, -13.530284], [-61.813974, -13.544237], [-61.83635, -13.540619], [-61.847977, -13.530801], [-61.872317, -13.456077], [-61.909834, -13.431892], [-61.958358, -13.385487], [-62.003265, -13.360475], [-62.019698, -13.33257], [-62.109408, -13.248958], [-62.114679, -13.150204], [-62.139846, -13.147], [-62.172454, -13.117855], [-62.173952, -13.140799], [-62.211521, -13.120335], [-62.290328, -13.142039], [-62.310533, -13.133978], [-62.335028, -13.14514], [-62.424118, -13.126536], [-62.430939, -13.109793], [-62.472125, -13.068452], [-62.554601, -13.066798], [-62.641676, -13.030005], [-62.651339, -12.992487], [-62.686634, -12.964996], [-62.722032, -12.982566], [-62.768645, -12.990627], [-62.770453, -13.010471], [-62.789832, -13.000652], [-62.820166, -12.974918], [-62.831431, -12.944945], [-62.865073, -12.93554], [-62.928893, -12.846036], [-62.955145, -12.857509], [-62.988011, -12.843866], [-63.014728, -12.77772], [-63.051108, -12.742167], [-63.04346, -12.719119], [-63.057826, -12.701963], [-63.064751, -12.666202], [-63.075034, -12.652663], [-63.136684, -12.63375], [-63.16707, -12.647392], [-63.180712, -12.667856], [-63.201848, -12.667856], [-63.235955, -12.698552], [-63.317913, -12.701963], [-63.431446, -12.636954], [-63.438164, -12.619177], [-63.462504, -12.605121], [-63.468757, -12.575769], [-63.485758, -12.557475], [-63.542189, -12.547967], [-63.657738, -12.475413], [-63.801398, -12.454949], [-63.862893, -12.469212], [-63.921236, -12.544349], [-63.939064, -12.544143], [-63.972447, -12.523886], [-64.022832, -12.537838], [-64.044458, -12.509106], [-64.104455, -12.507142], [-64.119828, -12.489676], [-64.144788, -12.520372], [-64.183106, -12.487919], [-64.215223, -12.473759], [-64.236565, -12.475413], [-64.268708, -12.497221], [-64.287544, -12.497117], [-64.297699, -12.465698], [-64.353199, -12.469212], [-64.395729, -12.457326], [-64.424874, -12.431385], [-64.452521, -12.390354], [-64.48978, -12.373611], [-64.492441, -12.356557], [-64.474432, -12.316456], [-64.468153, -12.272635], [-64.473037, -12.253204], [-64.489392, -12.239459], [-64.508848, -12.236048], [-64.511484, -12.242662], [-64.548433, -12.219098], [-64.593417, -12.215997], [-64.66486, -12.180961], [-64.688992, -12.153882], [-64.681577, -12.126597], [-64.689923, -12.104376], [-64.710283, -12.111921], [-64.716278, -12.146544], [-64.739532, -12.144581], [-64.744183, -12.133625], [-64.736793, -12.119776], [-64.768574, -12.086496], [-64.7925, -12.032546], [-64.839836, -12.016733], [-64.862083, -12.024795], [-64.967606, -12.007948], [-64.997449, -11.996269], [-65.016337, -11.968467], [-65.014632, -11.950277], [-64.996493, -11.921235], [-64.998121, -11.908936], [-65.033674, -11.879791], [-65.038454, -11.818709], [-65.065559, -11.75308], [-65.113566, -11.722591], [-65.113411, -11.690551], [-65.133978, -11.702644], [-65.143538, -11.763829], [-65.151497, -11.77313], [-65.196197, -11.741814], [-65.20232, -11.691482], [-65.189272, -11.657065], [-65.193354, -11.632364], [-65.190926, -11.623165], [-65.167439, -11.615517], [-65.195447, -11.59216], [-65.219244, -11.584511], [-65.223611, -11.55795], [-65.215989, -11.530148], [-65.222655, -11.517435], [-65.257562, -11.495318], [-65.29247, -11.504723], [-65.319548, -11.476404], [-65.354766, -11.382353], [-65.326447, -11.327783], [-65.37448, -11.295847], [-65.38727, -11.277553], [-65.388614, -11.253162], [-65.366057, -11.234042], [-65.360011, -11.218849], [-65.398148, -11.178025], [-65.394738, -11.153427], [-65.341046, -11.106608], [-65.333294, -11.088521], [-65.341976, -11.032814], [-65.302986, -10.990749], [-65.299601, -10.969665], [-65.312779, -10.950958], [-65.31898, -10.865382], [-65.327119, -10.850499], [-65.360295, -10.822594], [-65.399698, -10.812259], [-65.404737, -10.799236], [-65.381069, -10.698054], [-65.386753, -10.669529], [-65.435691, -10.62581], [-65.429232, -10.561421], [-65.441634, -10.527832], [-65.435691, -10.499203], [-65.44998, -10.468094], [-65.425382, -10.463133], [-65.410938, -10.44918], [-65.38727, -10.406702], [-65.394738, -10.392439], [-65.379235, -10.351408], [-65.365024, -10.332185], [-65.327817, -10.314408], [-65.305363, -10.242164], [-65.284822, -10.206818], [-65.32972298098275, -10.0], [-60.0, -10.0], [-60.0, -16.277599259060317], [-60.129839, -16.273062]]], [[[-66.902656, -10.09313], [-67.0643, -10.256944], [-67.110033, -10.282575], [-67.151736, -10.288983], [-67.184706, -10.326707], [-67.259172, -10.313685], [-67.323509, -10.318852], [-67.337823, -10.326087], [-67.333689, -10.356679], [-67.342836, -10.372492], [-67.418335, -10.381484], [-67.42929, -10.390372], [-67.436628, -10.417451], [-67.468048, -10.452281], [-67.58463, -10.501787], [-67.643489, -10.574547], [-67.684675, -10.610514], [-67.721727, -10.705495], [-67.755782, -10.714177], [-67.833348, -10.664981], [-67.862649, -10.65878], [-68.010237, -10.65971], [-68.043775, -10.666945], [-68.09788, -10.697744], [-68.112091, -10.714074], [-68.147283, -10.779599], [-68.203558, -10.838924], [-68.257509, -10.938763], [-68.29332, -10.978967], [-68.331147, -11.000464], [-68.378276, -11.005012], [-68.428196, -11.043666], [-68.493308, -11.047387], [-68.536096, -11.061546], [-68.61573, -11.112499], [-68.775926, -11.140611], [-68.787011, -11.126038], [-68.791171, -11.08511], [-68.785642, -11.059272], [-68.757633, -11.011937], [-68.804659, -10.994677], [-68.884034, -11.016381], [-68.955425, -11.000464], [-68.996998, -11.001705], [-69.086889, -10.967185], [-69.121487, -10.970595], [-69.236803, -10.952922], [-69.293518, -10.954989], [-69.39594, -10.935042], [-69.502885, -10.955299], [-69.596238, -10.951992], [-69.72021, -10.964911], [-69.753438, -10.958296], [-69.808318, -10.927187], [-69.956113, -10.919332], [-70.198734, -11.041185], [-70.2894, -11.06475], [-70.341025, -11.06723], [-70.391306, -11.059065], [-70.437272, -11.036741], [-70.534114, -10.938143], [-70.555559, -10.942793], [-70.641342, -11.0108], [-70.63881805028132, -10.0], [-66.78038206932968, -10.0], [-66.902656, -10.09313]]], [[[-71.373391, -10.002282], [-71.391426, -10.00683], [-72.195666, -10.00559], [-72.19271953367333, -10.0], [-71.37128879723547, -10.0], [-71.373391, -10.002282]]]]}}, {"type": "Feature", "properties": {"name": "Paraguay"}, "geometry": {"type": "Polygon", "coordinates": [[[-62.627516, -22.184536], [-62.275703, -21.066568], [-62.277305, -20.579776], [-62.26883, -20.553111], [-61.94425, -20.104146], [-61.892574, -20.000897], [-61.753203, -19.64588], [-61.51084, -19.606916], [-60.006384, -19.298097], [-60.0, -19.298051924668368], [-60.0, -24.027431811954038], [-60.033669, -24.007009], [-60.072375, -24.004839], [-60.143249, -24.025199], [-60.218128, -24.027369], [-60.337372, -24.016414], [-60.378351, -23.988509], [-60.484882, -23.977347], [-60.535964, -23.947581], [-60.577538, -23.94417], [-60.594617, -23.90655], [-60.63216, -23.892287], [-60.689676, -23.893631], [-60.729286, -23.872133], [-60.837625, -23.871823], [-60.936663, -23.813842], [-60.974826, -23.824074], [-61.006349, -23.805471], [-61.036244, -23.768832], [-61.04999, -23.734726], [-61.066216, -23.715709], [-61.092519, -23.70186], [-61.118849, -23.66641], [-61.10624, -23.627239], [-61.109857, -23.606982], [-61.139493, -23.592719], [-61.18024, -23.557166], [-61.214398, -23.557166], [-61.242924, -23.533084], [-61.272612, -23.523576], [-61.296951, -23.481408], [-61.36178, -23.454743], [-61.398677, -23.450092], [-61.451929, -23.417433], [-61.501073, -23.407821], [-61.510375, -23.38436], [-61.526343, -23.374748], [-61.51606, -23.344982], [-61.554636, -23.338368], [-61.60515, -23.289275], [-61.680313, -23.27925], [-61.732997, -23.243386], [-61.744263, -23.234808], [-61.752273, -23.187059], [-61.769274, -23.165562], [-61.814284, -23.135176], [-61.84498, -23.097245], [-61.956446, -23.034407], [-62.0059, -22.978906], [-62.006055, -22.936842], [-62.035821, -22.884855], [-62.084604, -22.820156], [-62.115868, -22.799796], [-62.1708, -22.71732], [-62.188267, -22.708329], [-62.175916, -22.684867], [-62.195036, -22.673602], [-62.187646, -22.638565], [-62.192969, -22.62823], [-62.25281, -22.603632], [-62.233225, -22.556296], [-62.263352, -22.514439], [-62.281387, -22.512061], [-62.287227, -22.483949], [-62.368256, -22.464416], [-62.43807, -22.419664], [-62.470575, -22.381837], [-62.523388, -22.364887], [-62.564678, -22.321996], [-62.625294, -22.305046], [-62.632684, -22.295951], [-62.620282, -22.268459], [-62.626431, -22.255023], [-62.61961, -22.255023], [-62.631805, -22.24076], [-62.650357, -22.234456], [-62.627516, -22.184536]]]}}]}