{"type": "FeatureCollection", "features": [{"type": "Feature", "properties": {"name": "Bolivia"}, "geometry": {"type": "Polygon", "coordinates": [[[-58.464721, -16.33125], [-58.421623, -16.318434], [-58.392943, -16.279367], [-58.349741, -16.2804], [-58.339561, -16.289289], [-58.334548, -16.386647], [-58.338837, -16.400497], [-58.362299, -16.419307], [-58.36359, -16.43667], [-58.342661, -16.473154], [-58.356097, -16.509534], [-58.455885, -16.619088], [-58.480276, -16.683683], [-58.452939, -16.841296], [-58.466272, -16.887289], [-58.45635, -16.937001], [-58.432475, -16.98537], [-58.426791, -17.055237], [-58.406275, -17.110117], [-58.399144, -17.237448], [-58.38116, -17.267214], [-58.343695, -17.286954], [-58.302147, -17.293775], [-58.264527, -17.320027], [-58.231557, -17.329742], [-58.204065, -17.377388], [-58.188407, -17.38855], [-58.152234, -17.396405], [-58.101126, -17.44126], [-58.053687, -17.462344], [-58.010175, -17.49676], [-57.943564, -17.517844], [-57.836749, -17.511023], [-57.800731, -17.533451], [-57.790757, -17.555775], [-57.7859, -17.677525], [-57.767554, -17.708737], [-57.724456, -17.736642], [-57.732983, -17.768475], [-57.696809, -17.825112], [-57.698773, -17.843096], [-57.730089, -17.846093], [-57.636916, -18.001122], [-57.585498, -18.122769], [-57.551082, -18.183643], [-57.511188, -18.205554], [-57.474549, -18.208035], [-57.465661, -18.21775], [-57.466798, -18.239557], [-57.535734, -18.240488], [-57.56674, -18.256094], [-57.782334, -18.910421], [-57.742233, -18.913625], [-57.731794, -18.921996], [-57.715826, -19.044573], [-57.771895, -19.048707], [-57.789, -19.059249], [-58.124639, -19.729906], [-58.116939, -19.758018], [-57.859745, -19.980123], [-57.895609, -20.024151], [-57.917933, -20.034177], [-57.959171, -20.026218], [-57.975811, -20.047509], [-58.022371, -20.064976], [-58.053532, -20.10766], [-58.086243, -20.12089], [-58.103555, -20.144041], [-58.158797, -20.165125], [-58.15952, -20.13908], [-58.144741, -20.086163], [-58.141847, -20.000897], [-58.162207, -19.912324], [-58.161174, -19.847211], [-58.175282, -19.821373], [-59.069646, -19.291483], [-59.089541, -19.286729], [-60.0, -19.29801784434085], [-60.0, -16.277599259060317], [-58.464721, -16.33125]]]}}, {"type": "Feature", "properties": {"name": "Argentina"}, "geometry": {"type": "Polygon", "coordinates": [[[-59.67364, -24.225394], [-59.610517, -24.289576], [-59.539979, -24.308799], [-59.51042, -24.332674], [-59.4659, -24.353551], [-59.450268, -24.382387], [-59.426032, -24.392515], [-59.377766, -24.433546], [-59.340973, -24.4876], [-59.116981, -24.598807], [-59.072178, -24.606766], [-59.032697, -24.637048], [-59.000916, -24.644179], [-58.809196, -24.776781], [-58.737469, -24.782776], [-58.708117, -24.795075], [-58.694216, -24.812024], [-58.473403, -24.851299], [-58.438521, -24.872796], [-58.335995, -24.991858], [-58.311966, -24.993615], [-58.242513, -24.941732], [-58.224064, -24.941216], [-58.133889, -24.997853], [-58.124019, -25.012942], [-58.111513, -25.012322], [-58.04206, -25.044362], [-58.00046, -25.044362], [-57.983769, -25.074231], [-57.870701, -25.085289], [-57.81241, -25.143684], [-57.754067, -25.180891], [-57.721769, -25.246106], [-57.702339, -25.270911], [-57.671488, -25.290135], [-57.640792, -25.37261], [-57.578729, -25.416742], [-57.55811, -25.44351], [-57.575318, -25.564433], [-57.611647, -25.585931], [-57.623067, -25.615386], [-57.668077, -25.612286], [-57.678981, -25.647012], [-57.741251, -25.661895], [-57.774582, -25.701686], [-57.740373, -25.72215], [-57.767916, -25.750675], [-57.820626, -25.77827], [-57.801868, -25.831394], [-57.833235, -25.858782], [-57.875352, -25.876146], [-57.875352, -25.890202], [-57.852407, -25.897953], [-57.851374, -25.908392], [-57.905841, -25.968646], [-57.85959, -25.980945], [-57.859694, -25.994278], [-57.872716, -26.010298], [-57.988213, -26.088536], [-58.086501, -26.12719], [-58.124019, -26.201914], [-58.151304, -26.18145], [-58.148927, -26.19933], [-58.106604, -26.226098], [-58.105983, -26.239534], [-58.169959, -26.270333], [-58.167633, -26.335032], [-58.213057, -26.418645], [-58.209595, -26.431254], [-58.18541, -26.451718], [-58.202722, -26.471561], [-58.217346, -26.527579], [-58.213367, -26.544529], [-58.18541, -26.564992], [-58.164946, -26.592278], [-58.192283, -26.612845], [-58.178641, -26.650672], [-58.195694, -26.657493], [-58.235536, -26.649845], [-58.2452, -26.680231], [-58.247939, -26.758159], [-58.287936, -26.768598], [-58.27481, -26.798363], [-58.288556, -26.811489], [-58.323335, -26.803841], [-58.340026, -26.808595], [-58.352377, -26.830506], [-58.322146, -26.856758], [-58.31579, -26.874121], [-58.328916, -26.884146], [-58.374701, -26.887557], [-58.393873, -26.909674], [-58.47547, -26.937993], [-58.483686, -26.950602], [-58.481619, -26.963831], [-58.466633, -26.975923], [-58.50136, -27.023672], [-58.51154, -27.060156], [-58.527043, -27.054161], [-58.536035, -27.036178], [-58.54544, -27.041036], [-58.562183, -27.072145], [-58.56549, -27.115966], [-58.616133, -27.123821], [-58.638819, -27.135914], [-58.653289, -27.156274], [-58.658404, -27.18511], [-58.652358, -27.198029], [-58.614014, -27.226657], [-58.60156, -27.245674], [-58.604196, -27.316264], [-58.510765, -27.278437], [-58.238223, -27.257043], [-58.128824, -27.269652], [-58.021958, -27.259834], [-57.709367, -27.329804], [-57.513358, -27.41414], [-57.386699, -27.403494], [-57.335229, -27.409489], [-57.302983, -27.435534], [-57.237096, -27.45424], [-57.180097, -27.487313], [-57.10899, -27.490621], [-57.076227, -27.484006], [-56.977318, -27.435327], [-56.904351, -27.418687], [-56.869263, -27.431503], [-56.807458, -27.486797], [-56.771155, -27.506744], [-56.734233, -27.500439], [-56.683125, -27.464679], [-56.613, -27.446386], [-56.54644, -27.455067], [-56.461484, -27.553873], [-56.399731, -27.586842], [-56.367537, -27.580641], [-56.335988, -27.525657], [-56.296998, -27.480905], [-56.285319, -27.460958], [-56.279842, -27.389645], [-56.205428, -27.362153], [-56.168892, -27.324739], [-56.124554, -27.298901], [-56.073756, -27.304896], [-55.984847, -27.332284], [-55.913094, -27.32784], [-55.892837, -27.334868], [-55.854157, -27.40122], [-55.754732, -27.443698], [-55.681713, -27.379413], [-55.653627, -27.360086], [-55.60748, -27.345513], [-55.591331, -27.328357], [-55.581641, -27.305516], [-55.58407, -27.276784], [-55.568671, -27.245984], [-55.598979, -27.182629], [-55.598281, -27.16754], [-55.555338, -27.153794], [-55.533841, -27.09943], [-55.461855, -27.097983], [-55.451313, -27.082067], [-55.442761, -27.015508], [-55.414003, -26.979851], [-55.376228, -26.963831], [-55.329409, -26.958457], [-55.2806, -26.934272], [-55.256545, -26.934582], [-55.2012, -26.955459], [-55.138361, -26.953702], [-55.122315, -26.941714], [-55.118879, -26.920009], [-55.132677, -26.880632], [-55.125778, -26.863579], [-55.060898, -26.805184], [-54.97527, -26.787821], [-54.951137, -26.757539], [-54.919899, -26.674133], [-54.903337, -26.65987], [-54.879359, -26.654393], [-54.834969, -26.654393], [-54.817321, -26.665761], [-54.793059, -26.644987], [-54.780347, -26.575224], [-54.789829, -26.528509], [-54.780347, -26.510422], [-54.697664, -26.428153], [-54.683402, -26.350845], [-54.663661, -26.308367], [-54.664333, -26.236227], [-54.638288, -26.196953], [-54.663816, -26.149204], [-54.642526, -26.062801], [-54.662266, -25.979912], [-54.647952, -25.965649], [-54.61524, -25.961722], [-54.606404, -25.946632], [-54.61524, -25.882863], [-54.589557, -25.832944], [-54.587904, -25.810827], [-54.617152, -25.773516], [-54.643146, -25.68794], [-54.642887, -25.661585], [-54.633715, -25.652077], [-54.598497, -25.653834], [-54.583356, -25.644842], [-54.602218, -25.592442], [-54.600203, -25.574945], [-54.545632, -25.574769], [-54.5323, -25.610632], [-54.511422, -25.606188], [-54.473027, -25.625825], [-54.460573, -25.642051], [-54.447344, -25.68918], [-54.433133, -25.676571], [-54.437422, -25.645049], [-54.405072, -25.61983], [-54.395409, -25.581073], [-54.349675, -25.582417], [-54.321718, -25.555132], [-54.299239, -25.552651], [-54.284408, -25.556785], [-54.255624, -25.598746], [-54.243687, -25.577559], [-54.190253, -25.580763], [-54.2148, -25.531464], [-54.165087, -25.534358], [-54.116408, -25.494567], [-54.107158, -25.500561], [-54.125968, -25.552031], [-54.123126, -25.571771], [-54.09889, -25.597196], [-54.085764, -25.590582], [-54.089278, -25.558852], [-54.082715, -25.550067], [-54.055378, -25.570738], [-54.030212, -25.56216], [-53.997449, -25.574975], [-53.978277, -25.607015], [-53.967735, -25.653213], [-53.948098, -25.65063], [-53.90996, -25.629236], [-53.898127, -25.639467], [-53.876474, -25.697862], [-53.88345, -25.735586], [-53.840352, -25.791396], [-53.841644, -25.867671], [-53.829604, -25.921311], [-53.833428, -25.962238], [-53.765008, -26.028074], [-53.733382, -26.126363], [-53.66672, -26.219174], [-53.661552, -26.259791], [-53.673231, -26.292554], [-53.715864, -26.346711], [-53.724442, -26.376063], [-53.712918, -26.5005], [-53.737465, -26.525305], [-53.726819, -26.548559], [-53.742374, -26.600546], [-53.739532, -26.67558], [-53.746043, -26.693873], [-53.771726, -26.703692], [-53.77431, -26.714337], [-53.769659, -26.726636], [-53.747852, -26.739142], [-53.752916, -26.773248], [-53.734002, -26.777383], [-53.710696, -26.873811], [-53.712505, -26.904507], [-53.76847, -27.024086], [-53.800923, -27.039072], [-53.804902, -27.094366], [-53.828725, -27.114416], [-53.818752, -27.131469], [-53.830017, -27.156791], [-53.842006, -27.163509], [-53.868774, -27.125888], [-53.88221, -27.119894], [-53.909495, -27.168263], [-53.925412, -27.165989], [-53.950888, -27.147799], [-53.964117, -27.154], [-53.961792, -27.191414], [-53.981481, -27.195652], [-54.005148, -27.18821], [-54.018119, -27.212291], [-54.091758, -27.285155], [-54.12819, -27.288876], [-54.158059, -27.279471], [-54.15594, -27.257663], [-54.177024, -27.243401], [-54.231801, -27.351508], [-54.231646, -27.38055], [-54.261257, -27.388715], [-54.286888, -27.428402], [-54.306939, -27.428919], [-54.347712, -27.394296], [-54.347712, -27.435844], [-54.371586, -27.454447], [-54.378717, -27.422718], [-54.388898, -27.411142], [-54.444553, -27.408972], [-54.460831, -27.412589], [-54.464552, -27.423338], [-54.447654, -27.445765], [-54.448377, -27.458891], [-54.468583, -27.47026], [-54.543255, -27.487003], [-54.553797, -27.482973], [-54.57054, -27.455687], [-54.589454, -27.452587], [-54.605319, -27.467986], [-54.625912, -27.515322], [-54.639528, -27.526794], [-54.651233, -27.525864], [-54.656194, -27.50726], [-54.666452, -27.50385], [-54.676684, -27.520593], [-54.6772, -27.54178], [-54.690326, -27.551289], [-54.7319, -27.551289], [-54.773939, -27.563794], [-54.793731, -27.549222], [-54.786548, -27.534236], [-54.792232, -27.523177], [-54.805048, -27.526381], [-54.827527, -27.545088], [-54.845097, -27.611854], [-54.898272, -27.623636], [-54.90158, -27.704458], [-54.913207, -27.736911], [-54.932999, -27.743835], [-54.985192, -27.78528], [-55.009118, -27.78838], [-55.064309, -27.771017], [-55.081155, -27.778252], [-55.040434, -27.819489], [-55.02581, -27.84016], [-55.029634, -27.850702], [-55.067719, -27.839333], [-55.09994, -27.843777], [-55.108699, -27.846775], [-55.119241, -27.880881], [-55.177558, -27.853596], [-55.197737, -27.860624], [-55.22404, -27.8938], [-55.26024, -27.919225], [-55.314113, -27.914987], [-55.329874, -27.928113], [-55.33791, -27.96315], [-55.38093, -27.978239], [-55.383385, -28.014206], [-55.440746, -28.078905], [-55.475498, -28.086347], [-55.492965, -28.073944], [-55.505935, -28.078905], [-55.553478, -28.145568], [-55.577094, -28.144327], [-55.581641, -28.121073], [-55.604741, -28.116939], [-55.623835, -28.146188], [-55.684064, -28.196211], [-55.747936, -28.215744], [-55.772534, -28.231971], [-55.766591, -28.257602], [-55.687216, -28.290055], [-55.6636, -28.326539], [-55.677372, -28.373874], [-55.694244, -28.400126], [-55.705691, -28.407671], [-55.714967, -28.404467], [-55.718842, -28.38452], [-55.734604, -28.365916], [-55.842349, -28.346382], [-55.905601, -28.378008], [-55.896661, -28.406844], [-55.902035, -28.465135], [-56.011589, -28.496554], [-56.021434, -28.510403], [-56.021899, -28.585748], [-56.040812, -28.609002], [-56.103005, -28.648069], [-56.184705, -28.744188], [-56.21845, -28.764135], [-56.286146, -28.780154], [-56.294828, -28.795761], [-56.301003, -28.88144], [-56.323069, -28.916477], [-56.391618, -28.952237], [-56.410919, -28.991304], [-56.415751, -29.051352], [-56.427972, -29.069852], [-56.548301, -29.109953], [-56.617289, -29.160906], [-56.650672, -29.209069], [-56.657286, -29.237904], [-56.650465, -29.25134], [-56.688654, -29.329578], [-56.769941, -29.379084], [-56.780819, -29.395311], [-56.783429, -29.4258], [-56.799836, -29.433965], [-56.819034, -29.474996], [-56.951635, -29.586307], [-56.965795, -29.600879], [-56.979386, -29.634986], [-57.020933, -29.683355], [-57.094159, -29.751981], [-57.133381, -29.772135], [-57.219629, -29.778336], [-57.262572, -29.792599], [-57.291511, -29.81513], [-57.308513, -29.848513], [-57.325153, -29.981011], [-57.35311722776062, -30.0], [-60.0, -30.0], [-60.0, -24.027431811954038], [-59.67364, -24.225394]]]}}, {"type": "Feature", "properties": {"name": "Brazil"}, "geometry": {"type": "MultiPolygon", "coordinates": [[[[-57.325153, -29.981011], [-57.308513, -29.848513], [-57.291511, -29.81513], [-57.262572, -29.792599], [-57.219629, -29.778336], [-57.112866, -29.766037], [-57.020933, -29.683355], [-56.979386, -29.634986], [-56.965795, -29.600879], [-56.951635, -29.586307], [-56.819034, -29.474996], [-56.799836, -29.433965], [-56.783429, -29.4258], [-56.780819, -29.395311], [-56.769941, -29.379084], [-56.7055, -29.343737], [-56.677027, -29.313352], [-56.650465, -29.25134], [-56.656304, -29.223435], [-56.617289, -29.160906], [-56.548301, -29.109953], [-56.427972, -29.069852], [-56.415751, -29.051352], [-56.410919, -28.991304], [-56.391618, -28.952237], [-56.323069, -28.916477], [-56.301003, -28.88144], [-56.294828, -28.795761], [-56.286146, -28.780154], [-56.21845, -28.764135], [-56.184705, -28.744188], [-56.103005, -28.648069], [-56.040812, -28.609002], [-56.021899, -28.585748], [-56.021434, -28.510403], [-56.011589, -28.496554], [-55.902035, -28.465135], [-55.896661, -28.406844], [-55.905601, -28.378008], [-55.842349, -28.346382], [-55.734604, -28.365916], [-55.718842, -28.38452], [-55.714967, -28.404467], [-55.705691, -28.407671], [-55.694244, -28.400126], [-55.677372, -28.373874], [-55.6636, -28.326539], [-55.687216, -28.290055], [-55.766591, -28.257602], [-55.772534, -28.231971], [-55.747936, -28.215744], [-55.684064, -28.196211], [-55.623835, -28.146188], [-55.604741, -28.116939], [-55.581641, -28.121073], [-55.577094, -28.144327], [-55.553478, -28.145568], [-55.505935, -28.078905], [-55.492965, -28.073944], [-55.475498, -28.086347], [-55.440746, -28.078905], [-55.383385, -28.014206], [-55.38093, -27.978239], [-55.33791, -27.96315], [-55.329874, -27.928113], [-55.314113, -27.914987], [-55.26024, -27.919225], [-55.22404, -27.8938], [-55.197737, -27.860624], [-55.177558, -27.853596], [-55.119241, -27.880881], [-55.108699, -27.846775], [-55.09994, -27.843777], [-55.067719, -27.839333], [-55.029634, -27.850702], [-55.02581, -27.84016], [-55.040434, -27.819489], [-55.081155, -27.778252], [-55.064309, -27.771017], [-55.009118, -27.78838], [-54.985192, -27.78528], [-54.932999, -27.743835], [-54.913207, -27.736911], [-54.90158, -27.704458], [-54.898272, -27.623636], [-54.845097, -27.611854], [-54.827527, -27.545088], [-54.805048, -27.526381], [-54.792232, -27.523177], [-54.786548, -27.534236], [-54.793731, -27.549222], [-54.773939, -27.563794], [-54.7319, -27.551289], [-54.690326, -27.551289], [-54.6772, -27.54178], [-54.676684, -27.520593], [-54.666452, -27.50385], [-54.656194, -27.50726], [-54.651233, -27.525864], [-54.639528, -27.526794], [-54.625912, -27.515322], [-54.605319, -27.467986], [-54.589454, -27.452587], [-54.57054, -27.455687], [-54.553797, -27.482973], [-54.543255, -27.487003], [-54.468583, -27.47026], [-54.448377, -27.458891], [-54.447654, -27.445765], [-54.464552, -27.423338], [-54.460831, -27.412589], [-54.444553, -27.408972], [-54.388898, -27.411142], [-54.378717, -27.422718], [-54.371586, -27.454447], [-54.347712, -27.435844], [-54.347712, -27.394296], [-54.306939, -27.428919], [-54.286888, -27.428402], [-54.261257, -27.388715], [-54.231646, -27.38055], [-54.231801, -27.351508], [-54.177024, -27.243401], [-54.15594, -27.257663], [-54.158059, -27.279471], [-54.12819, -27.288876], [-54.091758, -27.285155], [-54.018119, -27.212291], [-54.005148, -27.18821], [-53.981481, -27.195652], [-53.961792, -27.191414], [-53.964117, -27.154], [-53.950888, -27.147799], [-53.925412, -27.165989], [-53.909495, -27.168263], [-53.88221, -27.119894], [-53.868774, -27.125888], [-53.842006, -27.163509], [-53.830017, -27.156791], [-53.818752, -27.131469], [-53.828725, -27.114416], [-53.804902, -27.094366], [-53.800923, -27.039072], [-53.76847, -27.024086], [-53.712505, -26.904507], [-53.710696, -26.873811], [-53.734002, -26.777383], [-53.752916, -26.773248], [-53.747852, -26.739142], [-53.769659, -26.726636], [-53.77431, -26.714337], [-53.771726, -26.703692], [-53.746043, -26.693873], [-53.739532, -26.67558], [-53.742374, -26.600546], [-53.726819, -26.548559], [-53.737465, -26.525305], [-53.712918, -26.5005], [-53.724442, -26.376063], [-53.715864, -26.346711], [-53.673231, -26.292554], [-53.661552, -26.259791], [-53.66672, -26.219174], [-53.733382, -26.126363], [-53.765008, -26.028074], [-53.833428, -25.962238], [-53.829604, -25.921311], [-53.841644, -25.867671], [-53.840352, -25.791396], [-53.88345, -25.735586], [-53.876474, -25.697862], [-53.898127, -25.639467], [-53.90996, -25.629236], [-53.948098, -25.65063], [-53.967735, -25.653213], [-53.978277, -25.607015], [-53.997449, -25.574975], [-54.030212, -25.56216], [-54.055378, -25.570738], [-54.082715, -25.550067], [-54.089278, -25.558852], [-54.085764, -25.590582], [-54.09889, -25.597196], [-54.123126, -25.571771], [-54.125968, -25.552031], [-54.107158, -25.500561], [-54.116408, -25.494567], [-54.165087, -25.534358], [-54.2148, -25.531464], [-54.190253, -25.580763], [-54.243687, -25.577559], [-54.255624, -25.598746], [-54.284408, -25.556785], [-54.299239, -25.552651], [-54.321718, -25.555132], [-54.349675, -25.582417], [-54.395409, -25.581073], [-54.405072, -25.61983], [-54.437422, -25.645049], [-54.433133, -25.676571], [-54.447344, -25.68918], [-54.460573, -25.642051], [-54.473027, -25.625825], [-54.511422, -25.606188], [-54.5323, -25.610632], [-54.545632, -25.574769], [-54.600203, -25.574945], [-54.591469, -25.524746], [-54.61245, -25.465525], [-54.597981, -25.397518], [-54.575656, -25.360311], [-54.547079, -25.336644], [-54.503568, -25.278663], [-54.48145, -25.21324], [-54.426621, -25.149472], [-54.429722, -25.130558], [-54.463312, -25.072784], [-54.462278, -25.03723], [-54.407294, -24.821223], [-54.371121, -24.766653], [-54.321305, -24.628366], [-54.334534, -24.496695], [-54.322907, -24.464345], [-54.271696, -24.389415], [-54.262187, -24.358512], [-54.26105, -24.32947], [-54.282651, -24.275313], [-54.314122, -24.234179], [-54.334637, -24.148912], [-54.324767, -24.118217], [-54.301048, -24.089898], [-54.245289, -24.050624], [-54.367607, -23.984685], [-54.422901, -23.913785], [-54.443158, -23.899935], [-54.612553, -23.811155], [-54.639218, -23.804437], [-54.696838, -23.845158], [-54.827424, -23.887016], [-54.891916, -23.920606], [-54.943644, -23.969182], [-54.994571, -23.973109], [-55.042294, -23.989026], [-55.105572, -23.988509], [-55.165439, -24.016827], [-55.200864, -24.019515], [-55.304346, -23.99409], [-55.367184, -23.989646], [-55.398035, -23.97683], [-55.420669, -23.954506], [-55.430178, -23.928564], [-55.445319, -23.735449], [-55.466971, -23.673231], [-55.530533, -23.603468], [-55.542471, -23.465802], [-55.515547, -23.410198], [-55.513868, -23.379399], [-55.555596, -23.330306], [-55.562159, -23.307879], [-55.535649, -23.245867], [-55.535236, -23.229124], [-55.560867, -23.145925], [-55.599392, -23.117089], [-55.595232, -23.064069], [-55.600684, -23.044535], [-55.637814, -23.000714], [-55.6343, -22.932811], [-55.656572, -22.85571], [-55.659001, -22.818296], [-55.618332, -22.725692], [-55.627788, -22.692102], [-55.62368, -22.638669], [-55.631199, -22.626783], [-55.697913, -22.595571], [-55.723932, -22.569629], [-55.74127, -22.537176], [-55.751579, -22.416253], [-55.760235, -22.391965], [-55.810775, -22.353105], [-55.86103, -22.289543], [-55.874388, -22.317345], [-55.89294, -22.306803], [-55.955262, -22.301325], [-55.998567, -22.277244], [-56.024715, -22.287372], [-56.214264, -22.275383], [-56.347331, -22.180402], [-56.407637, -22.075809], [-56.5113, -22.091415], [-56.530679, -22.109089], [-56.584965, -22.190531], [-56.654703, -22.23735], [-56.644135, -22.255436], [-56.648811, -22.263498], [-56.664573, -22.259984], [-56.715371, -22.215439], [-56.743534, -22.250372], [-56.754361, -22.242621], [-56.786994, -22.251819], [-56.808285, -22.247995], [-56.842856, -22.289026], [-56.85606, -22.29316], [-56.879547, -22.289956], [-56.90368, -22.236936], [-56.91479, -22.262878], [-56.960524, -22.254816], [-56.964554, -22.234869], [-56.975717, -22.24169], [-57.011167, -22.233836], [-57.085064, -22.238073], [-57.108473, -22.233525], [-57.115036, -22.22288], [-57.154155, -22.207997], [-57.199527, -22.212855], [-57.21379, -22.188154], [-57.271667, -22.213785], [-57.331767, -22.202416], [-57.339932, -22.216989], [-57.37502, -22.207274], [-57.384994, -22.213268], [-57.41786, -22.193838], [-57.463955, -22.180402], [-57.511188, -22.188774], [-57.542297, -22.171514], [-57.596712, -22.181022], [-57.614075, -22.176991], [-57.638932, -22.144539], [-57.654486, -22.104541], [-57.663685, -22.100614], [-57.689626, -22.109295], [-57.773652, -22.107745], [-57.775409, -22.123971], [-57.815769, -22.128312], [-57.843881, -22.143712], [-57.871372, -22.121181], [-57.906254, -22.128932], [-57.939999, -22.11839], [-57.961393, -22.090072], [-57.986249, -22.074465], [-57.986818, -22.035295], [-57.962633, -21.966978], [-57.925374, -21.904967], [-57.955915, -21.85112], [-57.93571, -21.812053], [-57.939017, -21.755312], [-57.895609, -21.688442], [-57.934831, -21.640693], [-57.939017, -21.623744], [-57.912093, -21.564006], [-57.939792, -21.548193], [-57.949145, -21.508298], [-57.929922, -21.453108], [-57.863311, -21.356886], [-57.855559, -21.330738], [-57.882328, -21.316372], [-57.90491, -21.287433], [-57.90429, -21.274928], [-57.870701, -21.247643], [-57.84786, -21.216223], [-57.833959, -21.173849], [-57.829876, -21.12703], [-57.852459, -21.037836], [-57.82538, -20.998562], [-57.816027, -20.975411], [-57.817577, -20.953604], [-57.836026, -20.938514], [-57.840315, -20.955981], [-57.847033, -20.955981], [-57.893025, -20.914846], [-57.914832, -20.905648], [-57.917933, -20.894382], [-57.908683, -20.881567], [-57.85711, -20.849734], [-57.859642, -20.831647], [-57.887651, -20.805912], [-57.940412, -20.793613], [-57.898761, -20.756613], [-57.865275, -20.747415], [-57.857678, -20.73987], [-57.86021, -20.730258], [-57.890648, -20.706384], [-57.90429, -20.678995], [-57.918088, -20.669797], [-57.934004, -20.66742], [-57.947182, -20.675068], [-57.95638, -20.709898], [-57.96501, -20.711034], [-57.980616, -20.692741], [-57.973123, -20.651193], [-57.990952, -20.620601], [-58.01002, -20.500091], [-57.989401, -20.433119], [-58.045625, -20.409347], [-58.082987, -20.376171], [-58.097715, -20.334623], [-58.099937, -20.309199], [-58.090325, -20.281707], [-58.09508, -20.272198], [-58.109756, -20.260726], [-58.137041, -20.274369], [-58.156316, -20.261656], [-58.162672, -20.243156], [-58.155283, -20.226413], [-58.118541, -20.214424], [-58.137041, -20.185588], [-58.158332, -20.181144], [-58.158797, -20.165125], [-58.103555, -20.144041], [-58.086243, -20.12089], [-58.053532, -20.10766], [-58.022371, -20.064976], [-57.975811, -20.047509], [-57.959171, -20.026218], [-57.917933, -20.034177], [-57.895609, -20.024151], [-57.859745, -19.980123], [-58.116939, -19.758018], [-58.124639, -19.729906], [-57.789, -19.059249], [-57.771895, -19.048707], [-57.715826, -19.044573], [-57.731794, -18.921996], [-57.742233, -18.913625], [-57.782334, -18.910421], [-57.56674, -18.256094], [-57.535734, -18.240488], [-57.466798, -18.239557], [-57.465661, -18.21775], [-57.474549, -18.208035], [-57.511188, -18.205554], [-57.551082, -18.183643], [-57.585498, -18.122769], [-57.636916, -18.001122], [-57.730089, -17.846093], [-57.698773, -17.843096], [-57.696809, -17.825112], [-57.732983, -17.768475], [-57.724456, -17.736642], [-57.767554, -17.708737], [-57.7859, -17.677525], [-57.790757, -17.555775], [-57.800731, -17.533451], [-57.836749, -17.511023], [-57.943564, -17.517844], [-58.010175, -17.49676], [-58.053687, -17.462344], [-58.101126, -17.44126], [-58.152234, -17.396405], [-58.188407, -17.38855], [-58.204065, -17.377388], [-58.231557, -17.329742], [-58.264527, -17.320027], [-58.302147, -17.293775], [-58.343695, -17.286954], [-58.38116, -17.267214], [-58.399144, -17.237448], [-58.406275, -17.110117], [-58.426791, -17.055237], [-58.432475, -16.98537], [-58.45635, -16.937001], [-58.466272, -16.887289], [-58.452939, -16.841296], [-58.480276, -16.683683], [-58.455885, -16.619088], [-58.356097, -16.509534], [-58.342661, -16.473154], [-58.36359, -16.43667], [-58.362299, -16.419307], [-58.338837, -16.400497], [-58.334548, -16.386647], [-58.339561, -16.289289], [-58.349741, -16.2804], [-58.392943, -16.279367], [-58.421623, -16.318434], [-58.464721, -16.33125], [-60.0, -16.277599259060317], [-60.0, -10.0], [-40.0, -10.0], [-40.0, -19.743448772552274], [-40.026845, -19.764418], [-40.097401, -19.930597], [-40.141672, -19.945571], [-40.157053, -19.958917], [-40.134429, -19.958917], [-40.131988, -19.971856], [-40.146474, -20.023045], [-40.178619, -20.04339], [-40.165924, -20.10589], [-40.190989, -20.189874], [-40.232777, -20.266778], [-40.244374, -20.27752], [-40.266184, -20.260512], [-40.286733, -20.28102], [-40.298085, -20.273696], [-40.293202, -20.24505], [-40.300404, -20.23268], [-40.336049, -20.227634], [-40.369293, -20.23268], [-40.350901, -20.256524], [-40.356557, -20.266371], [-40.376129, -20.266778], [-40.376129, -20.274184], [-40.361887, -20.28102], [-40.370473, -20.301039], [-40.365971, -20.323231], [-40.323948, -20.324838], [-40.325392, -20.337532], [-40.28246, -20.314223], [-40.259511, -20.321466], [-40.30248, -20.370864], [-40.312652, -20.41725], [-40.336537, -20.455662], [-40.348744, -20.500095], [-40.396596, -20.569024], [-40.418324, -20.61533], [-40.433217, -20.628676], [-40.451283, -20.616876], [-40.475331, -20.637791], [-40.524485, -20.715753], [-40.565175, -20.753025], [-40.583424, -20.801972], [-40.609399, -20.807289], [-40.628438, -20.839218], [-40.641591, -20.808201], [-40.652089, -20.808038], [-40.701378, -20.835956], [-40.731725, -20.843838], [-40.758463, -20.864194], [-40.760933, -20.882329], [-40.773085, -20.889108], [-40.801109, -20.930996], [-40.814613, -21.036612], [-40.830678, -21.049249], [-40.846547, -21.094496], [-40.95181, -21.238104], [-40.965199, -21.274835], [-40.959218, -21.303399], [-40.963503, -21.364503], [-41.05724, -21.483819], [-41.071868, -21.523339], [-41.059346, -21.561045], [-41.018544, -21.608087], [-41.013539, -21.651544], [-41.024729, -21.71919], [-41.006744, -21.823419], [-40.967275, -21.947524], [-40.972646, -21.986749], [-40.995269, -22.014255], [-41.243695, -22.145213], [-41.465728, -22.202569], [-41.555165, -22.232354], [-41.666493, -22.281834], [-41.770823, -22.354181], [-41.784495, -22.388604], [-41.84968, -22.433038], [-41.868479, -22.46852], [-41.900868, -22.485772], [-41.911977, -22.507989], [-41.966298, -22.535414], [-41.986073, -22.564874], [-41.996205, -22.609308], [-41.993031, -22.699884], [-41.93456, -22.768731], [-41.911041, -22.747166], [-41.870107, -22.734063], [-41.869781, -22.75213], [-41.890614, -22.782403], [-41.909576, -22.776625], [-41.945221, -22.809747], [-41.989613, -22.826349], [-41.996897, -22.875258], [-42.019928, -22.88128], [-42.03307, -22.91253], [-42.022694, -22.944513], [-42.007314, -22.933282], [-42.002919, -22.947686], [-42.013539, -22.981703], [-42.058217, -22.95379], [-42.531728, -22.934177], [-42.668609, -22.946954], [-42.695668, -22.966892], [-42.862701, -22.977227], [-43.031402, -22.974298], [-43.073964, -22.94492], [-43.089752, -22.95379], [-43.130767, -22.91961], [-43.103424, -22.926446], [-43.091908, -22.917087], [-43.099355, -22.901625], [-43.129465, -22.894138], [-43.126536, -22.88242], [-43.101715, -22.836521], [-43.034535, -22.775567], [-43.052968, -22.777765], [-43.061431, -22.765802], [-43.025136, -22.735528], [-43.02123, -22.704197], [-43.028391, -22.67254], [-43.075551, -22.665704], [-43.103424, -22.693617], [-43.151845, -22.695977], [-43.216705, -22.734063], [-43.255605, -22.737074], [-43.270172, -22.747003], [-43.271067, -22.788995], [-43.24059, -22.843927], [-43.220123, -22.829685], [-43.215443, -22.846938], [-43.199615, -22.857029], [-43.213287, -22.864435], [-43.162099, -22.895685], [-43.162465, -22.939711], [-43.151235, -22.933282], [-43.152211, -22.951104], [-43.170766, -22.969822], [-43.220123, -22.995294], [-43.447581, -23.018162], [-43.542226, -23.049412], [-43.560374, -23.067478], [-43.580068, -23.049412], [-43.620758, -23.042576], [-43.914052, -23.069757], [-43.988759, -23.097426], [-44.003733, -23.091078], [-44.008412, -23.069757], [-44.001454, -23.049249], [-43.987131, -23.041681], [-43.950063, -23.042576], [-43.905385, -23.055597], [-43.891713, -23.021417], [-43.869008, -23.039646], [-43.832021, -23.047621], [-43.751129, -23.049412], [-43.669301, -23.037205], [-43.625478, -23.024021], [-43.603749, -23.007745], [-43.646067, -22.99863], [-43.671986, -22.97796], [-43.706695, -22.974298], [-43.734039, -22.939548], [-43.802968, -22.929864], [-43.80899, -22.909763], [-43.864369, -22.905938], [-43.850168, -22.892267], [-44.004709, -22.939548], [-44.030751, -22.971368], [-44.049387, -22.974298], [-44.039174, -22.944106], [-44.042307, -22.935805], [-44.056223, -22.939548], [-44.079742, -22.987237], [-44.115102, -23.022393], [-44.151763, -23.028904], [-44.186391, -23.049005], [-44.196929, -23.033624], [-44.220082, -23.049412], [-44.242991, -23.042576], [-44.241811, -22.999933], [-44.250478, -22.996189], [-44.271555, -22.995294], [-44.298736, -23.012872], [-44.302602, -22.995294], [-44.329945, -23.015232], [-44.352651, -22.999282], [-44.354482, -22.986423], [-44.311838, -22.970147], [-44.316884, -22.946954], [-44.328969, -22.934828], [-44.316884, -22.926446], [-44.325917, -22.921645], [-44.357818, -22.91961], [-44.351552, -22.935317], [-44.37149, -22.961196], [-44.384511, -22.939548], [-44.398793, -22.946954], [-44.411366, -22.937433], [-44.439768, -22.981703], [-44.435658, -22.996759], [-44.486643, -23.018243], [-44.534047, -23.025323], [-44.604237, -23.055597], [-44.598012, -23.03574], [-44.6551, -23.043145], [-44.673207, -23.05934], [-44.70051, -23.10768], [-44.693186, -23.127374], [-44.712148, -23.174981], [-44.707997, -23.214614], [-44.645253, -23.186619], [-44.62678, -23.195245], [-44.673207, -23.229587], [-44.680002, -23.24863], [-44.655995, -23.230401], [-44.624745, -23.234959], [-44.648752, -23.26214], [-44.651357, -23.284763], [-44.600575, -23.234308], [-44.556508, -23.227472], [-44.576324, -23.24863], [-44.558258, -23.26336], [-44.510569, -23.27337], [-44.50121, -23.296482], [-44.523793, -23.290704], [-44.583811, -23.353204], [-44.616444, -23.342462], [-44.674428, -23.338067], [-44.727162, -23.351007], [-44.7329, -23.365818], [-44.747792, -23.370864], [-44.782379, -23.379002], [-44.799794, -23.37127], [-44.826975, -23.385431], [-44.844472, -23.385186], [-44.868031, -23.357843], [-44.898508, -23.364679], [-44.891998, -23.340997], [-44.919301, -23.34881], [-44.969228, -23.381443], [-44.981028, -23.399347], [-45.02831, -23.416111], [-45.04308, -23.405532], [-45.050771, -23.428155], [-45.008372, -23.46087], [-45.034739, -23.462091], [-45.05016, -23.473321], [-45.070424, -23.515395], [-45.091786, -23.491876], [-45.097646, -23.497817], [-45.09024, -23.515395], [-45.147776, -23.4874], [-45.15217, -23.498793], [-45.145497, -23.529067], [-45.164215, -23.533136], [-45.200347, -23.523696], [-45.213735, -23.542739], [-45.200673, -23.572035], [-45.251943, -23.59059], [-45.28954, -23.570082], [-45.367787, -23.616632], [-45.388295, -23.624444], [-45.412994, -23.617852], [-45.433502, -23.664727], [-45.423085, -23.710626], [-45.399403, -23.72088], [-45.406117, -23.756117], [-45.393056, -23.783461], [-45.394846, -23.803155], [-45.406606, -23.820408], [-45.426666, -23.830743], [-45.464508, -23.823907], [-45.509267, -23.837579], [-45.528879, -23.829522], [-45.551991, -23.802423], [-45.574086, -23.796645], [-45.618479, -23.802911], [-45.632151, -23.789809], [-45.717519, -23.770766], [-45.782948, -23.768731], [-45.823883, -23.75506], [-45.864369, -23.756443], [-45.989003, -23.789809], [-46.017974, -23.810235], [-46.026926, -23.828546], [-46.060658, -23.823907], [-46.136301, -23.851739], [-46.146067, -23.844415], [-46.179596, -23.890313], [-46.235422, -23.912693], [-46.235422, -23.92018], [-46.197377, -23.915704], [-46.145497, -23.870782], [-46.111928, -23.864923], [-46.159739, -23.92018], [-46.166493, -23.981622], [-46.186635, -23.995375], [-46.207509, -23.979913], [-46.221099, -23.981703], [-46.287668, -24.021173], [-46.317372, -24.016371], [-46.309926, -24.00156], [-46.28482, -23.992852], [-46.276357, -23.981622], [-46.299469, -23.925063], [-46.318837, -23.908868], [-46.357777, -23.900811], [-46.363759, -23.89422], [-46.358306, -23.878595], [-46.385406, -23.873468], [-46.387359, -23.903985], [-46.409291, -23.915948], [-46.40982, -23.933852], [-46.453928, -23.926446], [-46.449574, -23.938409], [-46.427235, -23.95086], [-46.412953, -23.981622], [-46.37682, -23.985121], [-46.376047, -24.024509], [-46.386301, -24.030043], [-46.391754, -24.016209], [-46.406728, -24.008966], [-46.593414, -24.089532], [-46.743072, -24.176853], [-46.936635, -24.27337], [-46.988922, -24.33115], [-47.009999, -24.376886], [-46.999501, -24.409845], [-47.01537, -24.422947], [-47.035024, -24.431085], [-47.049794, -24.42783], [-47.051015, -24.406183], [-47.072092, -24.4485], [-47.136342, -24.488702], [-47.181386, -24.53338], [-47.442047, -24.680434], [-47.454823, -24.67669], [-47.496693, -24.693536], [-47.531321, -24.688165], [-47.540761, -24.703383], [-47.63386, -24.755629], [-47.825551, -24.894138], [-47.8933, -24.961114], [-47.933746, -25.033461], [-47.960561, -25.0499], [-48.009999, -25.044203], [-48.001698, -25.027927], [-47.962148, -25.023126], [-47.961171, -25.013116], [-47.972727, -25.009373], [-48.016916, -25.010837], [-48.02359, -25.015069], [-48.027008, -25.04518], [-48.034901, -25.048761], [-48.051584, -25.036798], [-48.051625, -25.05283], [-48.03246, -25.063246], [-47.949696, -25.080011], [-47.915354, -25.059503], [-47.887074, -25.057306], [-47.921986, -25.158624], [-47.951772, -25.201349], [-48.003163, -25.214288], [-48.020009, -25.226332], [-48.068349, -25.280043], [-48.091542, -25.325291], [-48.168284, -25.369236], [-48.196523, -25.416925], [-48.209055, -25.457615], [-48.225087, -25.459731], [-48.241607, -25.448175], [-48.250152, -25.42783], [-48.222157, -25.339125], [-48.201527, -25.318292], [-48.127309, -25.279962], [-48.140289, -25.269627], [-48.174224, -25.290623], [-48.229604, -25.300388], [-48.250152, -25.318048], [-48.284332, -25.289972], [-48.283681, -25.316013], [-48.297434, -25.341241], [-48.318715, -25.35768], [-48.332753, -25.358331], [-48.319081, -25.324151], [-48.33373, -25.329685], [-48.33552, -25.318617], [-48.325307, -25.228611], [-48.372629, -25.27158], [-48.35261, -25.29339], [-48.367421, -25.304783], [-48.407216, -25.283868], [-48.43456, -25.242283], [-48.43456, -25.262791], [-48.455678, -25.248468], [-48.428334, -25.324151], [-48.496571, -25.331638], [-48.496571, -25.338474], [-48.445668, -25.347426], [-48.43456, -25.358331], [-48.457428, -25.379653], [-48.451283, -25.385675], [-48.43456, -25.37949], [-48.414052, -25.410089], [-48.417836, -25.428318], [-48.44815, -25.434015], [-48.460194, -25.47088], [-48.472727, -25.475681], [-48.497914, -25.468683], [-48.517079, -25.447035], [-48.537424, -25.454522], [-48.558013, -25.447035], [-48.562734, -25.459568], [-48.575063, -25.462009], [-48.635365, -25.444594], [-48.683827, -25.412774], [-48.743031, -25.352146], [-48.718821, -25.422621], [-48.695221, -25.440851], [-48.683583, -25.46266], [-48.68871, -25.473321], [-48.72936, -25.468194], [-48.710846, -25.496352], [-48.620107, -25.496189], [-48.626943, -25.509698], [-48.643056, -25.502374], [-48.654286, -25.516534], [-48.615387, -25.529962], [-48.606435, -25.543878], [-48.595448, -25.527765], [-48.558665, -25.527276], [-48.524037, -25.514825], [-48.469309, -25.543878], [-48.503407, -25.571873], [-48.482493, -25.579848], [-48.455678, -25.550714], [-48.406321, -25.555108], [-48.386708, -25.543878], [-48.361195, -25.570977], [-48.432729, -25.622491], [-48.517568, -25.770196], [-48.517079, -25.797133], [-48.541005, -25.845473], [-48.558502, -25.840997], [-48.572418, -25.821547], [-48.586008, -25.81756], [-48.578521, -25.797133], [-48.603505, -25.802179], [-48.620107, -25.81756], [-48.592193, -25.829278], [-48.583241, -25.854669], [-48.651235, -25.844496], [-48.743031, -25.851739], [-48.769439, -25.867364], [-48.765777, -25.886651], [-48.743031, -25.872817], [-48.578521, -25.872817], [-48.563466, -25.865818], [-48.558583, -25.901788], [-48.586008, -25.995782], [-48.61266, -26.040623], [-48.582631, -26.157159], [-48.582916, -26.172621], [-48.592519, -26.183852], [-48.634918, -26.194513], [-48.667877, -26.236017], [-48.712229, -26.233575], [-48.733795, -26.224705], [-48.76415, -26.147149], [-48.772532, -26.100681], [-48.788645, -26.063409], [-48.796457, -26.068455], [-48.798004, -26.088067], [-48.784006, -26.113051], [-48.791127, -26.135349], [-48.784006, -26.153985], [-48.766957, -26.163995], [-48.756093, -26.203546], [-48.76415, -26.228204], [-48.756215, -26.249444], [-48.77774, -26.263279], [-48.757314, -26.291192], [-48.782094, -26.290948], [-48.798248, -26.304864], [-48.737701, -26.319106], [-48.721791, -26.344822], [-48.650787, -26.37656], [-48.635854, -26.418552], [-48.6079, -26.4367], [-48.664459, -26.556085], [-48.683339, -26.662367], [-48.678944, -26.731052], [-48.626943, -26.770929], [-48.592152, -26.76393], [-48.577952, -26.776544], [-48.58373, -26.794854], [-48.620473, -26.837172], [-48.628774, -26.864841], [-48.626943, -26.897068], [-48.613271, -26.917739], [-48.620107, -26.982599], [-48.611195, -26.99391], [-48.592193, -26.99627], [-48.575185, -27.016209], [-48.607167, -27.104425], [-48.579498, -27.158461], [-48.551381, -27.158136], [-48.534413, -27.130466], [-48.516225, -27.120782], [-48.496816, -27.149102], [-48.476145, -27.153985], [-48.496571, -27.175063], [-48.486969, -27.1985], [-48.492909, -27.215997], [-48.524566, -27.221287], [-48.531361, -27.209161], [-48.516225, -27.206313], [-48.512603, -27.198175], [-48.5183, -27.188735], [-48.54186, -27.182387], [-48.606435, -27.223403], [-48.619985, -27.246677], [-48.609853, -27.305352], [-48.572336, -27.312188], [-48.560943, -27.324965], [-48.551869, -27.387302], [-48.565541, -27.367446], [-48.581939, -27.416681], [-48.636952, -27.446954], [-48.64745, -27.479587], [-48.609853, -27.558689], [-48.590159, -27.563653], [-48.579091, -27.576349], [-48.586008, -27.613214], [-48.594553, -27.60117], [-48.64745, -27.647393], [-48.631703, -27.679783], [-48.626943, -27.719659], [-48.606435, -27.750421], [-48.629221, -27.767511], [-48.572336, -27.825453], [-48.592193, -27.84295], [-48.588246, -27.853611], [-48.565541, -27.860284], [-48.569692, -27.878025], [-48.606435, -27.932306], [-48.616567, -27.990818], [-48.598988, -28.041599], [-48.620107, -28.068536], [-48.653717, -28.190199], [-48.655263, -28.212823], [-48.635894, -28.230157], [-48.688385, -28.278009], [-48.696401, -28.342055], [-48.731068, -28.384454], [-48.763051, -28.456964], [-48.756663, -28.477634], [-48.76122, -28.4874], [-48.780873, -28.487481], [-48.803456, -28.452325], [-48.807525, -28.431736], [-48.790883, -28.381524], [-48.79483, -28.370538], [-48.850575, -28.323663], [-48.864613, -28.320896], [-48.874013, -28.346287], [-48.859731, -28.39129], [-48.874013, -28.418878], [-48.869252, -28.42669], [-48.839223, -28.428888], [-48.854888, -28.475274], [-48.789174, -28.521417], [-48.77774, -28.525079], [-48.749867, -28.511407], [-48.756093, -28.528416], [-48.815338, -28.610447], [-48.884104, -28.623224], [-48.940582, -28.64544], [-48.976389, -28.675226], [-49.057037, -28.71852], [-49.342763, -28.923517], [-49.552317, -29.127374], [-49.810658, -29.443129], [-49.933583, -29.634373], [-49.997426, -29.764581], [-50.045318, -29.814548], [-50.1204965100954, -30.0], [-57.35311722776062, -30.0], [-57.325153, -29.981011]]], [[[-48.426584, -27.38893], [-48.408762, -27.399591], [-48.379872, -27.435724], [-48.377309, -27.458185], [-48.414052, -27.534112], [-48.407216, -27.579197], [-48.496571, -27.702732], [-48.497467, -27.723891], [-48.482167, -27.759454], [-48.486073, -27.774347], [-48.520497, -27.788344], [-48.542592, -27.816664], [-48.563791, -27.817315], [-48.563547, -27.739841], [-48.544423, -27.681573], [-48.559071, -27.674493], [-48.523915, -27.633722], [-48.52599, -27.611423], [-48.547109, -27.577244], [-48.515777, -27.570001], [-48.504262, -27.55641], [-48.506703, -27.539972], [-48.523915, -27.530694], [-48.517079, -27.507094], [-48.537506, -27.47617], [-48.512074, -27.444757], [-48.517079, -27.428318], [-48.43456, -27.404718], [-48.426584, -27.38893]]], [[[-48.575429, -26.376235], [-48.583241, -26.421075], [-48.611318, -26.412774], [-48.643137, -26.359063], [-48.703277, -26.311944], [-48.675282, -26.273858], [-48.646474, -26.268324], [-48.630035, -26.239679], [-48.558095, -26.205499], [-48.565541, -26.181329], [-48.547597, -26.16725], [-48.531158, -26.170343], [-48.516347, -26.184015], [-48.489125, -26.236017], [-48.507558, -26.256606], [-48.544423, -26.341892], [-48.575429, -26.376235]]], [[[-47.483022, -24.700942], [-47.448313, -24.6867], [-47.448313, -24.693536], [-47.495188, -24.723891], [-47.550038, -24.742364], [-47.78539, -24.923761], [-47.822743, -24.941664], [-47.888295, -25.041192], [-47.900136, -25.036798], [-47.89977, -25.01572], [-47.879628, -24.964776], [-47.831858, -24.913263], [-47.717397, -24.830336], [-47.673573, -24.811456], [-47.612945, -24.75449], [-47.561676, -24.736017], [-47.517161, -24.700942], [-47.483022, -24.700942]]], [[[-46.319488, -23.927667], [-46.29186, -23.990899], [-46.341379, -23.969903], [-46.355377, -23.970636], [-46.365793, -23.981622], [-46.399892, -23.974786], [-46.4204, -23.947442], [-46.40689, -23.941827], [-46.393666, -23.947442], [-46.388336, -23.935724], [-46.393666, -23.92018], [-46.319488, -23.927667]]], [[[-45.226471, -23.909275], [-45.218251, -23.949477], [-45.241689, -23.96795], [-45.262196, -23.961114], [-45.290435, -23.911879], [-45.385732, -23.938084], [-45.421864, -23.935235], [-45.447133, -23.912693], [-45.452952, -23.891371], [-45.447377, -23.877211], [-45.355377, -23.800063], [-45.324696, -23.725274], [-45.308461, -23.721368], [-45.287017, -23.728204], [-45.228098, -23.772393], [-45.234853, -23.844415], [-45.265736, -23.839288], [-45.271108, -23.86891], [-45.254994, -23.898207], [-45.221262, -23.892267], [-45.213735, -23.906508], [-45.226471, -23.909275]]], [[[-44.082265, -23.169529], [-44.107737, -23.17962], [-44.118276, -23.16546], [-44.145579, -23.172784], [-44.15925, -23.165785], [-44.189687, -23.186619], [-44.2412, -23.193455], [-44.292633, -23.172784], [-44.327707, -23.221287], [-44.341705, -23.198663], [-44.337392, -23.17962], [-44.360707, -23.178155], [-44.367096, -23.165216], [-44.32311, -23.145603], [-44.296376, -23.117608], [-44.284169, -23.123224], [-44.270863, -23.115167], [-44.235097, -23.06878], [-44.186513, -23.090997], [-44.186513, -23.097101], [-44.207021, -23.104587], [-44.186513, -23.117608], [-44.170766, -23.110121], [-44.141835, -23.13128], [-44.12442, -23.110772], [-44.113026, -23.114679], [-44.118276, -23.13128], [-44.082265, -23.169529]]], [[[-48.268961, -25.348155], [-48.255379, -25.348212], [-48.250917, -25.364587], [-48.268162, -25.426864], [-48.255883, -25.465745], [-48.291107, -25.489117], [-48.309227, -25.48598], [-48.323867, -25.467522], [-48.321475, -25.441978], [-48.339525, -25.425535], [-48.338304, -25.408171], [-48.322324, -25.383708], [-48.268961, -25.348155]]]]}}, {"type": "Feature", "properties": {"name": "Paraguay"}, "geometry": {"type": "Polygon", "coordinates": [[[-59.069646, -19.291483], [-58.164429, -19.832949], [-58.162207, -19.912324], [-58.141847, -20.000897], [-58.144741, -20.086163], [-58.15952, -20.13908], [-58.158332, -20.181144], [-58.137041, -20.185588], [-58.118541, -20.214424], [-58.155283, -20.226413], [-58.162672, -20.243156], [-58.156316, -20.261656], [-58.137041, -20.274369], [-58.109756, -20.260726], [-58.09508, -20.272198], [-58.090325, -20.281707], [-58.099937, -20.309199], [-58.097715, -20.334623], [-58.082987, -20.376171], [-58.045625, -20.409347], [-57.989401, -20.433119], [-58.01002, -20.500091], [-57.990952, -20.620601], [-57.973123, -20.651193], [-57.980616, -20.692741], [-57.96501, -20.711034], [-57.95638, -20.709898], [-57.947182, -20.675068], [-57.934004, -20.66742], [-57.918088, -20.669797], [-57.857678, -20.73987], [-57.898761, -20.756613], [-57.940412, -20.793613], [-57.887651, -20.805912], [-57.859642, -20.831647], [-57.85711, -20.849734], [-57.908683, -20.881567], [-57.917933, -20.894382], [-57.914832, -20.905648], [-57.893025, -20.914846], [-57.847033, -20.955981], [-57.840315, -20.955981], [-57.836026, -20.938514], [-57.817577, -20.953604], [-57.816027, -20.975411], [-57.82538, -20.998562], [-57.852459, -21.037836], [-57.829876, -21.12703], [-57.833959, -21.173849], [-57.84786, -21.216223], [-57.870701, -21.247643], [-57.90429, -21.274928], [-57.90491, -21.287433], [-57.882328, -21.316372], [-57.855559, -21.330738], [-57.863311, -21.356886], [-57.929922, -21.453108], [-57.949145, -21.508298], [-57.939792, -21.548193], [-57.912093, -21.564006], [-57.939017, -21.623744], [-57.934831, -21.640693], [-57.895609, -21.688442], [-57.939017, -21.755312], [-57.93571, -21.812053], [-57.955915, -21.85112], [-57.925374, -21.904967], [-57.962633, -21.966978], [-57.986818, -22.035295], [-57.986249, -22.074465], [-57.961393, -22.090072], [-57.939999, -22.11839], [-57.906254, -22.128932], [-57.871372, -22.121181], [-57.843881, -22.143712], [-57.815769, -22.128312], [-57.775409, -22.123971], [-57.773652, -22.107745], [-57.689626, -22.109295], [-57.663685, -22.100614], [-57.654486, -22.104541], [-57.638932, -22.144539], [-57.614075, -22.176991], [-57.596712, -22.181022], [-57.542297, -22.171514], [-57.511188, -22.188774], [-57.463955, -22.180402], [-57.41786, -22.193838], [-57.384994, -22.213268], [-57.37502, -22.207274], [-57.339932, -22.216989], [-57.331767, -22.202416], [-57.271667, -22.213785], [-57.21379, -22.188154], [-57.199527, -22.212855], [-57.154155, -22.207997], [-57.115036, -22.22288], [-57.108473, -22.233525], [-57.085064, -22.238073], [-57.011167, -22.233836], [-56.975717, -22.24169], [-56.964554, -22.234869], [-56.960524, -22.254816], [-56.91479, -22.262878], [-56.90368, -22.236936], [-56.879547, -22.289956], [-56.85606, -22.29316], [-56.842856, -22.289026], [-56.808285, -22.247995], [-56.786994, -22.251819], [-56.754361, -22.242621], [-56.743534, -22.250372], [-56.715371, -22.215439], [-56.664573, -22.259984], [-56.648811, -22.263498], [-56.644135, -22.255436], [-56.654703, -22.23735], [-56.584965, -22.190531], [-56.530679, -22.109089], [-56.5113, -22.091415], [-56.407637, -22.075809], [-56.347331, -22.180402], [-56.214264, -22.275383], [-56.024715, -22.287372], [-55.998567, -22.277244], [-55.955262, -22.301325], [-55.89294, -22.306803], [-55.874388, -22.317345], [-55.86103, -22.289543], [-55.810775, -22.353105], [-55.760235, -22.391965], [-55.751579, -22.416253], [-55.74127, -22.537176], [-55.723932, -22.569629], [-55.697913, -22.595571], [-55.631199, -22.626783], [-55.62368, -22.638669], [-55.627788, -22.692102], [-55.618332, -22.725692], [-55.659001, -22.818296], [-55.656572, -22.85571], [-55.6343, -22.932811], [-55.637814, -23.000714], [-55.600684, -23.044535], [-55.595232, -23.064069], [-55.599392, -23.117089], [-55.560867, -23.145925], [-55.535236, -23.229124], [-55.535649, -23.245867], [-55.562159, -23.307879], [-55.555596, -23.330306], [-55.513868, -23.379399], [-55.515547, -23.410198], [-55.542471, -23.465802], [-55.530533, -23.603468], [-55.466971, -23.673231], [-55.445319, -23.735449], [-55.430178, -23.928564], [-55.420669, -23.954506], [-55.398035, -23.97683], [-55.367184, -23.989646], [-55.304346, -23.99409], [-55.200864, -24.019515], [-55.165439, -24.016827], [-55.105572, -23.988509], [-55.042294, -23.989026], [-54.994571, -23.973109], [-54.943644, -23.969182], [-54.891916, -23.920606], [-54.827424, -23.887016], [-54.696838, -23.845158], [-54.639218, -23.804437], [-54.612553, -23.811155], [-54.443158, -23.899935], [-54.422901, -23.913785], [-54.367607, -23.984685], [-54.245289, -24.050624], [-54.301048, -24.089898], [-54.324767, -24.118217], [-54.334637, -24.148912], [-54.314122, -24.234179], [-54.282651, -24.275313], [-54.26105, -24.32947], [-54.262187, -24.358512], [-54.271696, -24.389415], [-54.322907, -24.464345], [-54.334534, -24.496695], [-54.321305, -24.628366], [-54.371121, -24.766653], [-54.407294, -24.821223], [-54.462278, -25.03723], [-54.463312, -25.072784], [-54.429722, -25.130558], [-54.426621, -25.149472], [-54.48145, -25.21324], [-54.503568, -25.278663], [-54.547079, -25.336644], [-54.575656, -25.360311], [-54.609814, -25.432762], [-54.608523, -25.487642], [-54.591469, -25.524746], [-54.602218, -25.592442], [-54.583356, -25.644842], [-54.598497, -25.653834], [-54.633715, -25.652077], [-54.642887, -25.661585], [-54.643146, -25.68794], [-54.617152, -25.773516], [-54.587904, -25.810827], [-54.589557, -25.832944], [-54.61524, -25.882863], [-54.606404, -25.946632], [-54.61524, -25.961722], [-54.647952, -25.965649], [-54.662266, -25.979912], [-54.642526, -26.062801], [-54.663816, -26.149204], [-54.638288, -26.196953], [-54.664333, -26.236227], [-54.663661, -26.308367], [-54.683402, -26.350845], [-54.697664, -26.428153], [-54.780347, -26.510422], [-54.789829, -26.528509], [-54.780347, -26.575224], [-54.793059, -26.644987], [-54.817321, -26.665761], [-54.834969, -26.654393], [-54.879359, -26.654393], [-54.903337, -26.65987], [-54.919899, -26.674133], [-54.951137, -26.757539], [-54.97527, -26.787821], [-55.060898, -26.805184], [-55.125778, -26.863579], [-55.132677, -26.880632], [-55.118879, -26.920009], [-55.122315, -26.941714], [-55.138361, -26.953702], [-55.2012, -26.955459], [-55.256545, -26.934582], [-55.2806, -26.934272], [-55.329409, -26.958457], [-55.376228, -26.963831], [-55.414003, -26.979851], [-55.442761, -27.015508], [-55.451313, -27.082067], [-55.461855, -27.097983], [-55.533841, -27.09943], [-55.555338, -27.153794], [-55.598281, -27.16754], [-55.598979, -27.182629], [-55.568671, -27.245984], [-55.58407, -27.276784], [-55.581641, -27.305516], [-55.591331, -27.328357], [-55.60748, -27.345513], [-55.653627, -27.360086], [-55.681713, -27.379413], [-55.754732, -27.443698], [-55.854157, -27.40122], [-55.892837, -27.334868], [-55.913094, -27.32784], [-55.984847, -27.332284], [-56.073756, -27.304896], [-56.124554, -27.298901], [-56.168892, -27.324739], [-56.205428, -27.362153], [-56.279842, -27.389645], [-56.285319, -27.460958], [-56.296998, -27.480905], [-56.335988, -27.525657], [-56.367537, -27.580641], [-56.399731, -27.586842], [-56.461484, -27.553873], [-56.54644, -27.455067], [-56.613, -27.446386], [-56.683125, -27.464679], [-56.734233, -27.500439], [-56.771155, -27.506744], [-56.807458, -27.486797], [-56.869263, -27.431503], [-56.904351, -27.418687], [-56.977318, -27.435327], [-57.076227, -27.484006], [-57.10899, -27.490621], [-57.180097, -27.487313], [-57.237096, -27.45424], [-57.302983, -27.435534], [-57.335229, -27.409489], [-57.386699, -27.403494], [-57.513358, -27.41414], [-57.709367, -27.329804], [-58.021958, -27.259834], [-58.128824, -27.269652], [-58.238223, -27.257043], [-58.510765, -27.278437], [-58.604196, -27.316264], [-58.60156, -27.245674], [-58.614014, -27.226657], [-58.652358, -27.198029], [-58.658404, -27.18511], [-58.653289, -27.156274], [-58.638819, -27.135914], [-58.616133, -27.123821], [-58.56549, -27.115966], [-58.562183, -27.072145], [-58.54544, -27.041036], [-58.536035, -27.036178], [-58.527043, -27.054161], [-58.51154, -27.060156], [-58.50136, -27.023672], [-58.466633, -26.975923], [-58.481619, -26.963831], [-58.483686, -26.950602], [-58.47547, -26.937993], [-58.393873, -26.909674], [-58.374701, -26.887557], [-58.328916, -26.884146], [-58.31579, -26.874121], [-58.322146, -26.856758], [-58.352377, -26.830506], [-58.340026, -26.808595], [-58.323335, -26.803841], [-58.288556, -26.811489], [-58.27481, -26.798363], [-58.287936, -26.768598], [-58.247939, -26.758159], [-58.2452, -26.680231], [-58.235536, -26.649845], [-58.195694, -26.657493], [-58.178641, -26.650672], [-58.192283, -26.612845], [-58.164946, -26.592278], [-58.18541, -26.564992], [-58.213367, -26.544529], [-58.217346, -26.527579], [-58.202722, -26.471561], [-58.18541, -26.451718], [-58.209595, -26.431254], [-58.213057, -26.418645], [-58.167633, -26.335032], [-58.169959, -26.270333], [-58.105983, -26.239534], [-58.106604, -26.226098], [-58.148927, -26.19933], [-58.151304, -26.18145], [-58.124019, -26.201914], [-58.086501, -26.12719], [-57.988213, -26.088536], [-57.872716, -26.010298], [-57.859694, -25.994278], [-57.85959, -25.980945], [-57.905841, -25.968646], [-57.851374, -25.908392], [-57.852407, -25.897953], [-57.875352, -25.890202], [-57.875352, -25.876146], [-57.833235, -25.858782], [-57.801868, -25.831394], [-57.820626, -25.77827], [-57.767916, -25.750675], [-57.740373, -25.72215], [-57.774582, -25.701686], [-57.741251, -25.661895], [-57.678981, -25.647012], [-57.668077, -25.612286], [-57.623067, -25.615386], [-57.611647, -25.585931], [-57.575318, -25.564433], [-57.55811, -25.44351], [-57.578729, -25.416742], [-57.640792, -25.37261], [-57.671488, -25.290135], [-57.702339, -25.270911], [-57.721769, -25.246106], [-57.754067, -25.180891], [-57.81241, -25.143684], [-57.870701, -25.085289], [-57.983769, -25.074231], [-58.00046, -25.044362], [-58.04206, -25.044362], [-58.111513, -25.012322], [-58.124019, -25.012942], [-58.133889, -24.997853], [-58.224064, -24.941216], [-58.242513, -24.941732], [-58.311966, -24.993615], [-58.335995, -24.991858], [-58.438521, -24.872796], [-58.473403, -24.851299], [-58.694216, -24.812024], [-58.708117, -24.795075], [-58.737469, -24.782776], [-58.809196, -24.776781], [-59.000916, -24.644179], [-59.032697, -24.637048], [-59.072178, -24.606766], [-59.116981, -24.598807], [-59.340973, -24.4876], [-59.377766, -24.433546], [-59.426032, -24.392515], [-59.450268, -24.382387], [-59.4659, -24.353551], [-59.51042, -24.332674], [-59.539979, -24.308799], [-59.610517, -24.289576], [-59.67364, -24.225394], [-60.0, -24.027431811954038], [-60.0, -19.298051924668368], [-59.069646, -19.291483]]]}}]}