{"type": "FeatureCollection", "features": [{"type": "Feature", "properties": {"name": "Russia"}, "geometry": {"type": "MultiPolygon", "coordinates": [[[[66.884776, 70.012885], [66.938162, 70.050971], [66.978201, 70.057603], [67.005544, 70.030341], [66.970551, 70.008002], [66.96684091376817, 70.0], [66.87921250400215, 70.0], [66.884776, 70.012885]]], [[[67.25172, 70.021226], [67.29835, 70.058498], [67.327647, 70.106024], [67.287852, 70.096991], [67.279145, 70.106024], [67.285981, 70.153876], [67.271739, 70.18887], [67.251964, 70.195461], [67.247406, 70.185004], [67.264903, 70.145087], [67.2435, 70.14525], [67.164561, 70.172309], [67.094249, 70.220893], [67.101817, 70.243842], [67.163829, 70.304674], [67.193207, 70.381578], [67.219249, 70.409329], [67.266287, 70.414537], [67.252615, 70.434068], [67.255056, 70.456244], [67.269786, 70.47309], [67.292817, 70.47663], [67.224946, 70.507025], [67.215099, 70.523912], [67.276622, 70.659613], [67.326996, 70.716946], [67.336436, 70.7355], [67.334483, 70.757799], [67.317882, 70.784084], [67.257009, 70.825588], [67.138438, 70.841783], [67.109223, 70.839748], [67.040375, 70.815741], [66.796397, 70.791327], [66.719981, 70.769599], [66.688731, 70.769843], [66.667735, 70.827948], [66.608246, 70.880683], [66.650238, 70.910712], [66.771332, 70.959621], [66.833181, 71.013088], [66.841075, 71.031562], [66.830577, 71.046332], [66.841075, 71.059475], [66.889496, 71.078681], [66.845063, 71.099555], [66.819509, 71.100979], [66.800059, 71.092963], [66.805512, 71.075181], [66.737966, 71.051988], [66.772227, 71.024115], [66.739919, 71.007025], [66.690278, 71.00137], [66.642751, 71.008857], [66.615733, 71.031562], [66.620453, 71.057847], [66.645518, 71.079779], [66.81129, 71.1612], [66.845063, 71.226142], [66.91212, 71.294745], [67.033458, 71.298407], [67.169607, 71.333645], [67.309255, 71.351223], [67.493907, 71.403266], [67.58839, 71.415107], [67.585948, 71.431627], [67.604991, 71.441962], [67.679454, 71.451606], [67.846853, 71.510932], [67.947276, 71.527574], [68.011241, 71.571601], [68.255056, 71.6883], [68.305431, 71.696112], [68.348806, 71.675198], [68.309744, 71.704413], [68.307791, 71.716742], [68.468516, 71.825995], [68.513194, 71.901679], [68.556326, 71.923285], [68.561046, 71.976264], [68.58074, 71.997748], [68.643728, 72.033189], [68.657074, 72.05565], [68.657074, 72.093492], [68.675141, 72.118109], [68.684581, 72.151842], [68.732921, 72.209621], [68.753917, 72.267157], [68.773774, 72.277899], [68.767914, 72.292873], [68.821625, 72.326321], [68.816173, 72.338284], [68.829112, 72.374091], [68.824962, 72.388251], [68.84962, 72.436184], [68.852306, 72.466864], [68.866059, 72.475775], [68.917247, 72.483954], [68.872406, 72.518704], [68.869395, 72.532375], [68.916352, 72.565375], [68.930431, 72.598049], [68.958751, 72.622748], [68.976817, 72.655707], [69.054454, 72.662055], [68.993419, 72.675198], [68.975597, 72.686225], [68.975759, 72.69599], [69.185313, 72.778754], [69.231781, 72.804511], [69.276622, 72.840766], [69.305024, 72.883694], [69.302013, 72.929633], [69.35377, 72.952582], [69.465343, 72.975165], [69.773936, 72.973293], [69.794932, 72.96369], [69.798106, 72.943671], [69.773936, 72.935981], [69.556651, 72.913764], [69.55128, 72.903266], [69.561534, 72.888617], [69.588227, 72.878485], [69.887543, 72.881496], [70.17213, 72.900133], [70.655447, 72.88935], [71.03297, 72.906806], [71.267426, 72.895494], [71.351736, 72.909491], [71.449555, 72.908433], [71.529796, 72.916815], [71.555837, 72.908433], [71.563243, 72.915961], [71.67449, 72.885443], [71.983246, 72.84809], [72.008311, 72.83397], [71.81658, 72.812323], [71.86964, 72.810004], [71.886485, 72.796617], [72.131033, 72.83161], [72.297374, 72.794257], [72.496104, 72.787665], [72.661469, 72.740139], [72.836925, 72.709906], [72.721446, 72.70303], [72.741954, 72.675727], [72.802257, 72.665676], [72.809581, 72.655219], [72.730724, 72.617377], [72.731456, 72.597235], [72.781505, 72.544013], [72.844981, 72.520413], [72.84669, 72.512356], [72.799327, 72.480536], [72.798513, 72.413275], [72.802745, 72.395168], [72.850352, 72.324123], [72.883962, 72.307196], [72.874278, 72.281073], [72.742686, 72.206041], [72.727306, 72.185492], [72.724132, 72.133246], [72.707774, 72.113959], [72.596365, 72.063381], [72.576996, 72.044501], [72.559744, 71.978705], [72.522227, 71.922268], [72.484548, 71.898098], [72.350841, 71.864203], [72.32016, 71.823188], [72.363048, 71.73607], [72.344981, 71.708157], [72.233897, 71.68537], [72.227306, 71.644477], [72.209321, 71.614732], [72.167328, 71.598863], [72.028656, 71.57217], [71.974132, 71.579535], [71.838145, 71.532416], [71.813243, 71.512519], [71.803396, 71.480292], [71.813813, 71.453559], [71.839122, 71.43122], [72.105724, 71.290351], [72.569998, 71.16059], [72.636485, 71.131659], [72.670746, 71.108954], [72.676443, 71.089545], [72.633556, 71.052476], [72.622895, 71.032945], [72.632091, 71.011054], [72.703949, 70.972602], [72.718028, 70.947577], [72.827403, 70.887641], [72.836925, 70.859605], [72.822032, 70.813666], [72.781261, 70.756496], [72.775401, 70.695136], [72.688243, 70.634426], [72.683279, 70.616604], [72.693533, 70.592719], [72.750987, 70.561998], [72.775401, 70.538072], [72.776134, 70.514228], [72.758474, 70.472317], [72.771332, 70.425238], [72.612478, 70.384345], [72.435557, 70.285875], [72.434093, 70.265692], [72.46697, 70.24018], [72.599132, 70.193305], [72.621593, 70.161689], [72.577403, 70.11286], [72.573741, 70.095526], [72.513845, 70.066881], [72.491954, 70.041205], [72.518809, 70.020453], [72.52265616747125, 70.0], [67.20607462671542, 70.0], [67.25172, 70.021226]]], [[[73.711436, 70.018948], [73.764822, 70.079047], [73.768077, 70.095649], [73.755544, 70.109524], [73.702403, 70.12637], [73.692231, 70.138129], [73.707693, 70.161322], [73.734548, 70.180894], [74.006602, 70.304511], [74.050304, 70.338813], [74.064952, 70.373725], [74.077403, 70.38349], [74.196544, 70.435004], [74.316173, 70.520331], [74.336599, 70.557359], [74.339041, 70.58218], [74.317882, 70.667792], [74.294281, 70.696234], [74.260753, 70.716295], [73.952159, 70.836819], [73.927501, 70.855373], [73.913097, 70.886908], [73.91033, 70.950995], [73.895763, 70.972602], [73.864513, 70.993109], [73.748709, 71.037746], [73.703624, 71.071438], [73.68214, 71.092353], [73.655284, 71.153469], [73.556163, 71.255113], [73.339366, 71.338813], [73.23585, 71.357123], [73.17335, 71.380316], [73.079275, 71.392279], [73.033376, 71.405707], [73.022472, 71.428778], [73.364757, 71.582994], [73.426524, 71.627387], [73.498546, 71.664944], [73.524913, 71.706244], [73.519379, 71.724433], [73.470225, 71.773424], [73.490896, 71.800523], [73.52589, 71.822211], [73.939301, 71.913723], [74.250499, 71.960028], [74.331554, 71.955715], [74.928396, 72.098131], [74.994884, 72.137844], [75.075694, 72.21015], [75.09197, 72.240627], [75.111095, 72.346422], [75.108735, 72.40351], [75.079112, 72.473212], [75.054535, 72.565497], [75.058849, 72.595038], [75.026378, 72.651842], [74.999522, 72.673896], [74.747569, 72.808295], [74.741547, 72.814399], [74.75115, 72.820014], [74.983165, 72.876776], [75.036632, 72.881659], [75.09197, 72.874986], [75.191417, 72.833726], [75.318858, 72.819159], [75.457205, 72.773261], [75.502126, 72.767279], [75.522309, 72.759833], [75.530772, 72.741156], [75.455577, 72.709906], [75.407481, 72.723822], [75.338227, 72.683173], [75.420909, 72.696845], [75.486501, 72.645087], [75.652517, 72.599107], [75.687185, 72.585395], [75.708181, 72.565863], [75.701996, 72.547024], [75.596853, 72.547105], [75.561697, 72.525336], [75.556488, 72.497504], [75.572032, 72.466742], [75.622813, 72.411933], [75.626231, 72.381537], [75.682872, 72.339911], [75.667247, 72.333075], [75.69044, 72.318671], [75.754731, 72.306383], [75.742442, 72.26553], [75.721202, 72.249579], [75.594086, 72.214545], [75.517833, 72.153225], [75.510102, 72.137885], [75.524587, 72.107815], [75.516938, 72.076402], [75.50172, 72.062445], [75.432628, 72.045966], [75.414073, 72.03144], [75.443858, 71.991929], [75.438975, 71.985338], [75.390636, 71.963813], [75.353852, 71.95775], [75.285004, 71.960395], [75.253673, 71.942206], [75.25294, 71.93244], [75.283539, 71.894232], [75.237559, 71.863593], [75.224132, 71.842231], [75.23585, 71.825995], [75.220225, 71.809963], [75.217621, 71.791978], [75.22755, 71.777411], [75.257579, 71.76789], [75.263194, 71.743476], [75.286957, 71.728949], [75.346202, 71.718207], [75.49171, 71.666083], [75.506358, 71.652167], [75.491222, 71.63939], [75.392426, 71.617865], [75.400645, 71.603461], [75.49171, 71.57392], [75.532888, 71.542304], [75.433767, 71.501654], [75.425548, 71.490383], [75.441905, 71.462226], [75.405935, 71.452582], [75.266612, 71.462226], [75.241547, 71.453559], [75.234548, 71.444037], [75.242686, 71.423407], [75.228363, 71.404527], [75.263031, 71.365546], [75.342621, 71.334947], [75.733653, 71.264879], [76.017345, 71.237006], [76.108409, 71.204495], [76.126475, 71.202826], [76.115245, 71.211737], [76.11964, 71.220404], [76.150401, 71.229478], [76.719981, 71.205308], [76.888927, 71.190416], [76.914236, 71.182318], [76.881684, 71.15998], [76.894298, 71.127102], [76.918305, 71.112982], [76.914236, 71.072455], [76.944347, 71.087104], [76.962576, 71.113471], [76.929047, 71.16059], [77.005138, 71.184475], [77.382091, 71.158922], [77.558116, 71.173651], [77.782725, 71.142483], [77.837738, 71.124579], [77.885509, 71.08926], [77.899913, 71.010484], [77.915538, 70.992174], [77.948904, 70.976264], [78.00172, 70.963609], [78.279063, 70.942125], [78.360362, 70.908026], [78.411388, 70.895453], [78.455251, 70.89468], [78.59783, 70.928046], [78.768809, 70.914252], [78.881358, 70.921698], [78.929454, 70.947659], [78.949474, 70.942125], [78.945974, 70.930609], [78.96461, 70.928697], [79.039561, 70.937323], [79.053396, 70.941962], [79.059337, 70.952704], [79.054373, 70.962104], [79.018321, 70.968817], [79.101085, 70.991034], [79.114513, 71.004218], [79.102794, 71.02025], [79.074474, 71.023505], [78.967784, 70.987006], [78.844981, 71.013251], [78.785655, 70.990546], [78.844493, 70.989163], [78.901622, 70.976264], [78.757579, 70.935004], [78.61378, 70.962592], [78.564708, 70.962551], [78.518077, 70.949612], [78.462087, 70.913642], [78.442393, 70.914252], [78.431488, 70.932115], [78.435395, 70.949612], [78.477794, 70.991523], [78.488048, 71.011664], [78.46339, 71.024115], [78.559744, 71.045152], [78.531586, 71.067125], [78.497569, 71.078681], [78.525401, 71.092963], [78.497325, 71.115058], [78.443858, 71.115302], [78.346202, 71.099799], [78.375987, 71.075995], [78.471039, 71.061754], [78.497569, 71.045152], [78.430431, 71.044745], [78.363943, 71.057196], [78.237559, 71.109687], [78.233653, 71.12287], [78.289073, 71.164374], [78.311046, 71.208441], [78.312511, 71.226386], [78.278982, 71.258938], [78.201427, 71.270657], [78.021983, 71.278713], [77.956065, 71.253892], [77.928477, 71.257473], [77.922374, 71.281317], [77.901134, 71.31269], [77.928233, 71.329739], [77.990489, 71.346381], [78.010997, 71.367336], [77.988292, 71.374742], [77.865489, 71.349433], [77.87379, 71.339342], [77.734141, 71.311184], [77.750824, 71.292182], [77.711925, 71.281317], [77.670909, 71.286119], [77.515473, 71.329169], [77.435557, 71.333197], [77.453461, 71.321519], [77.524913, 71.305243], [77.492198, 71.301337], [77.2317, 71.36225], [77.103526, 71.423977], [76.949718, 71.431383], [76.712657, 71.463446], [76.688243, 71.469713], [76.62672, 71.510688], [76.581065, 71.528754], [76.528168, 71.541815], [76.32545, 71.559516], [76.272309, 71.572903], [76.24936, 71.596666], [76.268321, 71.629584], [76.26352, 71.653144], [76.161876, 71.735175], [76.146332, 71.774482], [76.079763, 71.86343], [76.030447, 71.897773], [75.996837, 71.907904], [76.026703, 71.923814], [76.094005, 71.930732], [76.35377, 71.999091], [76.878184, 72.050035], [76.946137, 72.044257], [76.962576, 72.024604], [77.026866, 72.02143], [77.384613, 71.907375], [77.448985, 71.871039], [77.584646, 71.831122], [77.727224, 71.82685], [78.109548, 71.880439], [78.155935, 71.894355], [78.197113, 71.922268], [78.226817, 71.961859], [78.225759, 71.982571], [78.031586, 72.094672], [77.985606, 72.109524], [77.937755, 72.118109], [77.712576, 72.11518], [77.563975, 72.070624], [77.51059, 72.062079], [77.464529, 72.067572], [77.38738, 72.092231], [77.377208, 72.110175], [77.414399, 72.137885], [77.490733, 72.175442], [77.488292, 72.1883], [77.441742, 72.209621], [77.473888, 72.222357], [77.507091, 72.222357], [77.611501, 72.193427], [77.668224, 72.192816], [77.741384, 72.216213], [77.879242, 72.300482], [77.942638, 72.326321], [78.087576, 72.358791], [78.124522, 72.384589], [78.231619, 72.363837], [78.346202, 72.387763], [78.425792, 72.393378], [78.504405, 72.381537], [78.497569, 72.408189], [79.017426, 72.377183], [79.209483, 72.390204], [79.391449, 72.385565], [79.513845, 72.362209], [79.785411, 72.264635], [80.0, 72.21030752241968], [80.0, 70.0], [73.70959449497172, 70.0], [73.711436, 70.018948]]], [[[71.329845, 73.367825], [71.34962, 73.347317], [71.34254, 73.331366], [71.264171, 73.314927], [71.214122, 73.285061], [71.137462, 73.29267], [71.148692, 73.300971], [71.143809, 73.347317], [71.216807, 73.386705], [71.249522, 73.417873], [71.298025, 73.416002], [71.34254, 73.402289], [71.353363, 73.385199], [71.329845, 73.367825]]], [[[60.048188, 75.992662], [60.322276, 75.998236], [60.347667, 76.005683], [60.345225, 76.016913], [60.298676, 76.028876], [60.084483, 76.036363], [60.042735, 76.054145], [60.083669, 76.069729], [60.268077, 76.110093], [60.83839, 76.122992], [60.818207, 76.110663], [60.767833, 76.104804], [60.481456, 76.027045], [60.468435, 76.013129], [60.55714, 76.020657], [60.549653, 76.013129], [60.603526, 75.998765], [60.66977, 75.99608], [60.734711, 76.005357], [60.783702, 76.026801], [60.796641, 76.047309], [60.81837, 76.060126], [60.897716, 76.069159], [60.964122, 76.065863], [61.08546, 76.08454], [61.145763, 76.116116], [61.154145, 76.129096], [61.146739, 76.1435], [61.119314, 76.15119], [60.947602, 76.140611], [60.919932, 76.14411], [60.89975, 76.157172], [61.023285, 76.218573], [60.993663, 76.23078], [60.995779, 76.246405], [61.043793, 76.273261], [61.076915, 76.279975], [61.48227, 76.294338], [61.560069, 76.283637], [61.584972, 76.286851], [61.636974, 76.311957], [61.675141, 76.315172], [61.718516, 76.311428], [61.756684, 76.294338], [61.927582, 76.297431], [61.978363, 76.263373], [62.093761, 76.253404], [62.382498, 76.271186], [62.404063, 76.263332], [62.406261, 76.251166], [62.373302, 76.221991], [62.388927, 76.197089], [62.503673, 76.17768], [62.514415, 76.197252], [62.554454, 76.219062], [62.651052, 76.209784], [62.647716, 76.231635], [62.77947, 76.270697], [62.843598, 76.261949], [62.866873, 76.245917], [62.846365, 76.231635], [62.921397, 76.231635], [62.901541, 76.218573], [62.956798, 76.206936], [63.170177, 76.243476], [63.220388, 76.262681], [63.462657, 76.286851], [63.529552, 76.316799], [63.620372, 76.32392], [63.719249, 76.349677], [63.859874, 76.341498], [63.956065, 76.363227], [64.034516, 76.315253], [64.090831, 76.312812], [64.164561, 76.324408], [64.312999, 76.363227], [64.435883, 76.363227], [64.475271, 76.398668], [64.523692, 76.401109], [64.626475, 76.374905], [64.676036, 76.383124], [64.654063, 76.393541], [64.65504, 76.405829], [64.66977, 76.418606], [64.719981, 76.445014], [64.806407, 76.451361], [64.785899, 76.471869], [64.825938, 76.484198], [65.031261, 76.501044], [65.068044, 76.494574], [65.073253, 76.478705], [65.102061, 76.46955], [65.168956, 76.475287], [65.338634, 76.513129], [65.403168, 76.558539], [65.484874, 76.574897], [65.610688, 76.58039], [65.99879, 76.533352], [66.032888, 76.547553], [65.997325, 76.56623], [65.941661, 76.579169], [65.919688, 76.613023], [65.888031, 76.636786], [65.753429, 76.682847], [65.761241, 76.693427], [65.823578, 76.709459], [65.888927, 76.739407], [65.944347, 76.749701], [66.108084, 76.753079], [66.235037, 76.794623], [66.351573, 76.80565], [66.409679, 76.849189], [66.461925, 76.8605], [66.571137, 76.864569], [66.622569, 76.876532], [66.654063, 76.900702], [66.879568, 76.923082], [66.918305, 76.944648], [66.943533, 76.948961], [67.210948, 76.952297], [67.345551, 76.985541], [67.399181, 76.986029], [67.478201, 77.004096], [67.588064, 77.013373], [68.034434, 76.998481], [68.158539, 76.967597], [68.294119, 76.959133], [68.462901, 76.966702], [68.513194, 76.952297], [68.478038, 76.931708], [68.488292, 76.926215], [68.569347, 76.925482], [68.593272, 76.920966], [68.67335, 76.880194], [68.782725, 76.877916], [68.808604, 76.869086], [68.76238, 76.842353], [68.759125, 76.827379], [68.785981, 76.812812], [68.89796, 76.798733], [68.930919, 76.787177], [68.893565, 76.748358], [68.903005, 76.732611], [68.930675, 76.719387], [69.033946, 76.712063], [68.893891, 76.679145], [68.855154, 76.657416], [68.839041, 76.62641], [68.787608, 76.588568], [68.904307, 76.578803], [68.938324, 76.568061], [68.747325, 76.510484], [68.623057, 76.453355], [68.549653, 76.429389], [68.417003, 76.417222], [68.406261, 76.407213], [68.40919, 76.400946], [68.437348, 76.396715], [68.391368, 76.367133], [68.343516, 76.349921], [68.207042, 76.330471], [68.181326, 76.322821], [68.177745, 76.314602], [68.301606, 76.303412], [68.327485, 76.294338], [68.287934, 76.281317], [67.912364, 76.25849], [67.602061, 76.198147], [67.540538, 76.199774], [67.366059, 76.167304], [67.146495, 76.104641], [66.980317, 76.095364], [66.806, 76.062812], [66.68629, 76.060248], [66.430186, 75.998847], [66.29184, 75.996487], [66.178559, 75.961982], [65.216645, 75.854193], [65.078298, 75.80744], [65.029552, 75.802191], [64.889171, 75.808783], [64.310557, 75.72248], [64.10377, 75.71894], [64.031993, 75.69538], [63.856456, 75.669135], [63.761729, 75.641588], [63.709646, 75.63581], [63.725922, 75.666571], [63.716482, 75.677965], [63.66212, 75.688178], [63.675548, 75.704657], [63.648448, 75.71955], [63.552013, 75.711493], [63.613292, 75.702338], [63.620372, 75.691067], [63.521332, 75.632717], [63.304373, 75.588609], [63.221039, 75.588609], [63.170909, 75.58039], [63.029959, 75.587714], [62.734711, 75.518866], [62.621349, 75.51557], [62.272797, 75.44009], [62.22462, 75.435981], [62.154307, 75.453803], [62.097016, 75.445054], [62.028819, 75.448798], [61.993175, 75.427232], [61.855642, 75.381008], [61.845714, 75.362047], [61.810069, 75.356838], [61.732188, 75.380601], [61.694184, 75.375678], [61.712657, 75.360785], [61.70338, 75.3487], [61.660167, 75.327867], [61.687999, 75.314276], [61.632823, 75.299994], [61.653982, 75.279527], [61.579112, 75.275051], [61.55836, 75.266506], [61.533376, 75.237982], [61.4817, 75.223456], [61.44158, 75.224799], [61.405121, 75.236314], [61.379649, 75.25967], [61.387055, 75.299994], [61.366222, 75.322089], [61.379649, 75.334174], [61.276622, 75.327867], [61.295584, 75.300727], [61.292491, 75.279731], [61.271658, 75.263495], [61.107432, 75.197659], [60.812755, 75.146145], [60.798025, 75.120836], [60.749685, 75.108222], [60.803722, 75.085924], [60.766856, 75.044501], [60.724783, 75.027655], [60.591482, 75.034166], [60.57016, 75.04678], [60.569591, 75.061998], [60.611827, 75.101386], [60.594737, 75.114244], [60.571056, 75.117906], [60.493826, 75.110256], [60.490245, 75.103746], [60.502615, 75.09516], [60.441091, 75.067288], [60.454763, 75.054185], [60.434337, 75.04678], [60.468435, 75.032457], [60.416026, 75.010932], [60.264659, 74.991604], [60.235037, 74.991523], [60.262462, 75.005805], [60.233409, 75.019355], [60.111827, 74.991523], [60.0, 75.00017615714363], [60.0, 75.98267459205472], [60.048188, 75.992662]]], [[[60.011241, 74.979804], [60.621267, 74.968411], [60.687511, 74.923814], [60.560557, 74.866278], [60.324474, 74.854967], [60.223481, 74.864325], [60.194102, 74.854967], [60.254242, 74.824286], [60.325043, 74.81387], [60.372325, 74.793524], [60.329845, 74.766588], [60.276378, 74.749661], [60.0, 74.72999894194582], [60.0, 74.98192416461563], [60.011241, 74.979804]]], [[[60.010265, 70.104071], [60.036469, 70.098578], [60.067882, 70.073472], [60.249290435403466, 70.0], [60.0, 70.0], [60.0, 70.10339172035226], [60.010265, 70.104071]]], [[[78.366954, 72.51203], [78.394542, 72.4914], [78.355724, 72.472805], [78.266612, 72.45425], [78.180186, 72.42178], [78.077159, 72.398505], [77.983897, 72.389106], [77.811371, 72.31509], [77.770763, 72.304999], [77.586436, 72.285305], [77.200938, 72.289944], [77.127126, 72.277899], [76.917979, 72.293036], [76.869884, 72.30744], [76.852712, 72.333075], [76.912608, 72.372138], [77.24879, 72.469387], [77.277354, 72.518052], [77.312999, 72.545233], [77.444021, 72.577867], [77.568126, 72.62816], [77.610199, 72.634711], [77.794688, 72.628607], [78.023611, 72.589667], [78.131358, 72.585395], [78.230805, 72.569159], [78.366954, 72.51203]]], [[[79.572032, 72.740546], [79.536876, 72.726467], [79.395274, 72.704047], [79.001231, 72.744574], [78.909923, 72.741278], [78.792491, 72.778754], [78.710216, 72.78974], [78.67156, 72.803534], [78.650238, 72.84512], [78.638682, 72.849433], [78.614268, 72.840237], [78.609141, 72.806342], [78.584646, 72.841864], [78.592296, 72.862128], [78.639903, 72.891669], [79.140391, 73.095404], [79.173106, 73.101386], [79.236176, 73.087104], [79.320567, 73.046291], [79.3685, 73.034735], [79.388927, 73.018459], [79.40211, 72.988186], [79.443533, 72.96369], [79.541352, 72.925523], [79.559581, 72.908433], [79.506847, 72.915432], [79.490733, 72.908433], [79.520681, 72.883734], [79.525645, 72.866645], [79.519216, 72.846991], [79.536388, 72.834052], [79.545909, 72.812323], [79.532237, 72.792426], [79.562999, 72.768256], [79.572032, 72.740546]]], [[[74.845225, 73.093695], [74.961599, 73.066107], [74.961599, 73.059963], [74.872813, 73.079779], [74.76824, 73.091783], [74.734223, 73.092475], [74.702647, 73.078762], [74.685395, 73.054999], [74.694591, 73.025784], [74.639415, 72.960273], [74.646495, 72.936754], [74.66391, 72.921576], [74.708263, 72.901679], [74.680349, 72.864081], [74.656261, 72.858629], [74.584727, 72.874986], [74.598399, 72.895453], [74.465017, 72.899604], [74.344086, 72.92768], [74.324718, 72.947455], [74.200531, 72.966132], [74.120779, 72.998847], [74.098481, 73.01203], [74.093272, 73.027777], [74.158702, 73.088568], [74.184581, 73.107001], [74.211681, 73.114569], [74.47462, 73.134426], [74.845225, 73.093695]]], [[[76.732188, 73.16592], [76.736583, 73.155504], [76.728852, 73.143988], [76.632579, 73.131252], [76.31837, 73.148098], [76.170909, 73.181627], [76.133311, 73.208319], [76.184581, 73.216986], [76.527517, 73.189643], [76.655772, 73.197008], [76.732188, 73.16592]]], [[[71.677745, 73.19359], [71.750126, 73.042112], [71.730236, 73.034409], [71.494677, 73.150117], [71.374501, 73.178934], [71.340994, 73.176581], [71.279307, 73.143134], [70.661957, 73.102851], [70.461925, 73.051174], [70.256602, 73.038275], [70.203868, 73.046576], [70.161143, 73.069525], [70.140391, 73.09101], [70.109548, 73.100898], [70.08546, 73.097968], [69.99936, 73.060981], [70.085216, 73.037543], [70.101248, 73.025784], [70.100841, 73.017971], [70.013194, 73.032416], [69.910981, 73.02558], [69.874848, 73.038275], [69.891368, 73.087592], [69.911632, 73.114569], [70.020844, 73.182807], [70.064952, 73.237128], [70.068614, 73.25788], [70.057953, 73.279242], [70.021251, 73.310533], [70.004893, 73.343329], [69.967947, 73.376207], [69.959321, 73.39883], [70.469574, 73.499213], [70.524262, 73.480048], [70.563243, 73.481024], [70.650076, 73.500149], [70.948741, 73.517483], [71.229177, 73.464748], [71.267833, 73.443549], [71.238536, 73.43651], [71.147716, 73.449693], [71.111501, 73.447333], [71.109141, 73.439887], [71.137462, 73.408759], [71.136485, 73.392524], [71.086762, 73.357571], [71.083507, 73.332099], [71.096446, 73.313178], [71.065684, 73.29857], [70.997081, 73.288398], [70.980317, 73.265367], [71.062348, 73.279039], [71.211925, 73.2744], [71.28891, 73.251695], [71.276866, 73.277981], [71.296397, 73.29564], [71.402354, 73.319159], [71.418712, 73.327582], [71.43572, 73.352973], [71.459158, 73.348375], [71.607921, 73.275336], [71.630138, 73.251532], [71.669119, 73.227484], [71.677745, 73.19359]]], [[[76.754405, 73.429877], [76.562755, 73.486314], [76.277354, 73.518622], [76.116873, 73.513414], [76.071951, 73.525458], [76.16212, 73.562567], [76.250743, 73.554185], [76.731212, 73.469794], [76.756602, 73.449693], [76.754405, 73.429877]]], [[[75.873057, 73.509996], [75.865896, 73.501532], [75.900645, 73.470852], [75.802582, 73.453843], [75.49643, 73.449693], [75.535004, 73.469184], [75.530772, 73.477688], [75.544281, 73.498114], [75.379731, 73.449693], [75.362966, 73.435248], [75.373057, 73.408759], [75.360037, 73.396959], [75.321137, 73.397366], [75.30421, 73.408759], [75.335297, 73.450914], [75.420909, 73.498114], [75.619395, 73.553412], [76.033865, 73.579047], [76.079356, 73.559556], [76.042247, 73.544379], [75.873057, 73.509996]]], [[[79.521251, 74.550035], [79.532237, 74.526028], [79.490001, 74.516913], [79.429047, 74.52265], [79.190684, 74.58808], [79.148692, 74.607896], [79.20102, 74.602484], [79.283214, 74.579495], [79.316905, 74.590806], [79.31072, 74.60871], [79.182791, 74.629055], [79.203787, 74.651435], [79.244314, 74.658637], [79.320567, 74.656317], [79.292735, 74.635891], [79.333751, 74.625312], [79.563324, 74.61225], [79.614106, 74.601752], [79.521251, 74.550035]]], [[[77.61378, 79.508979], [77.582856, 79.49551], [76.696056, 79.477607], [76.640961, 79.487128], [76.698741, 79.518215], [76.620616, 79.54857], [76.552013, 79.5362], [76.174327, 79.569078], [76.092052, 79.603705], [76.052013, 79.629299], [76.051443, 79.648505], [76.103038, 79.661933], [76.224376, 79.657375], [76.277354, 79.645453], [76.140147, 79.638617], [76.199474, 79.608588], [76.268809, 79.604315], [76.406993, 79.617499], [76.423025, 79.63703], [76.48227, 79.643744], [77.594737, 79.533189], [77.613617, 79.521918], [77.61378, 79.508979]]], [[[62.232677, 80.798407], [62.275238, 80.783881], [62.27711, 80.76203], [62.259451, 80.741441], [62.037446, 80.665839], [62.147309, 80.639146], [62.115977, 80.622382], [62.072276, 80.614163], [61.706228, 80.59748], [61.687999, 80.577094], [61.60963, 80.567206], [61.587657, 80.555976], [61.606212, 80.529283], [61.310802, 80.510728], [61.276622, 80.50137], [61.383067, 80.49079], [61.365245, 80.474066], [61.327403, 80.457465], [61.154307, 80.434516], [61.084483, 80.41059], [61.044607, 80.405178], [60.560802, 80.446479], [60.307384, 80.495551], [60.180431, 80.488349], [60.187266, 80.481513], [60.157563, 80.469062], [60.029145, 80.457221], [60.0, 80.4509779798841], [60.0, 80.80996499085231], [60.312022, 80.810777], [60.351736, 80.803656], [60.350597, 80.791571], [60.36199, 80.789984], [60.563975, 80.822821], [61.544688, 80.865058], [61.530447, 80.87873], [61.56129, 80.892483], [61.60255, 80.895657], [62.067719, 80.879869], [62.221934, 80.813218], [62.232677, 80.798407]]], [[[60.170909, 80.853949], [60.224376, 80.848375], [60.256196, 80.830959], [60.039317, 80.82392], [60.0, 80.81616890746696], [60.0, 80.84774597349913], [60.170909, 80.853949]]], [[[80.0, 80.96487328570802], [80.0, 80.84588270104153], [79.127615, 80.806708], [79.011485, 80.824123], [78.97462, 80.842597], [78.986583, 80.861029], [79.075938, 80.900336], [79.121104, 80.929918], [79.210704, 80.96133], [79.237804, 80.953111], [79.729991, 80.980129], [80.0, 80.96487328570802]]], [[[62.517345, 81.660142], [62.106456, 81.673245], [62.106456, 81.68008], [62.224864, 81.70185], [62.461274, 81.716498], [62.538341, 81.705715], [62.647716, 81.721625], [62.804698, 81.721625], [62.765961, 81.70661], [63.677582, 81.694973], [63.805919, 81.660142], [63.780284, 81.638902], [63.712169, 81.614732], [63.467459, 81.589057], [62.690929, 81.614163], [62.533865, 81.637926], [62.503673, 81.652777], [62.517345, 81.660142]]], [[[60.304535, 81.051215], [60.508311, 81.069037], [60.612804, 81.092475], [61.679942, 81.113715], [61.701671, 81.105292], [61.651378, 81.098456], [61.606212, 81.077379], [61.62143, 81.073879], [61.628266, 81.055121], [61.599783, 81.031399], [60.987804, 80.922024], [60.343272, 80.948554], [60.254405, 80.972113], [60.069998, 80.979641], [60.022716, 80.995429], [60.062266, 81.008287], [60.208263, 81.022773], [60.304535, 81.051215]]], [[[62.938162, 80.910224], [63.036469, 80.948879], [63.142263, 80.971381], [64.036469, 80.986884], [64.169119, 81.010199], [64.186046, 81.019029], [64.202403, 81.053168], [64.216807, 81.056871], [64.198741, 81.070746], [64.13266, 81.082424], [64.120372, 81.093573], [64.154633, 81.114569], [64.190196, 81.121527], [64.27475, 81.169135], [64.422862, 81.193834], [64.704845, 81.205268], [64.785411, 81.190985], [64.867931, 81.193427], [65.229828, 81.136705], [65.375255, 81.060289], [65.43629, 81.037055], [65.450043, 81.022773], [65.306163, 80.995429], [65.388682, 80.986151], [65.423025, 80.97248], [65.465668, 80.934882], [65.461681, 80.925482], [65.445811, 80.919623], [65.154552, 80.849921], [65.078298, 80.841376], [64.999766, 80.808824], [64.668956, 80.776435], [64.586681, 80.755194], [64.502615, 80.755316], [64.425629, 80.740871], [63.775157, 80.713568], [63.685802, 80.727281], [63.130707, 80.683092], [62.616547, 80.798082], [62.530772, 80.804755], [62.510509, 80.810126], [62.503673, 80.824123], [62.508637, 80.834174], [62.529796, 80.843817], [62.938162, 80.910224]]], [[[62.010997, 81.602932], [62.141124, 81.586086], [62.1963, 81.564846], [62.068044, 81.547309], [61.828136, 81.564399], [61.712657, 81.597073], [61.653982, 81.604926], [61.684337, 81.610419], [62.010997, 81.602932]]], [[[66.867524, 70.380805], [66.763682, 70.403144], [66.590343, 70.473049], [66.596446, 70.489407], [66.640147, 70.526313], [66.668468, 70.538275], [66.675548, 70.535468], [66.666759, 70.520657], [66.671153, 70.507554], [66.700857, 70.490058], [66.699718, 70.477484], [66.732432, 70.463284], [66.752696, 70.436225], [66.807384, 70.400824], [66.867524, 70.380805]]], [[[66.58253, 70.501654], [66.528331, 70.506781], [66.478201, 70.535061], [66.438813, 70.568264], [66.397309, 70.630316], [66.388357, 70.710639], [66.405528, 70.769232], [66.427989, 70.799506], [66.441173, 70.797919], [66.479828, 70.763861], [66.482188, 70.753241], [66.460704, 70.720282], [66.454356, 70.684027], [66.490245, 70.655911], [66.509451, 70.624945], [66.546235, 70.603339], [66.559255, 70.544257], [66.58253, 70.501654]]], [[[66.551117, 70.878648], [66.53061, 70.841376], [66.508474, 70.827948], [66.447276, 70.818915], [66.43393, 70.827135], [66.442882, 70.846625], [66.519054, 70.926703], [66.523448, 70.942694], [66.59962, 71.004381], [66.614268, 70.995551], [66.613048, 70.982856], [66.583832, 70.946845], [66.600434, 70.913764], [66.551117, 70.878648]]], [[[60.21046, 80.149156], [60.173025, 80.138658], [60.0, 80.1466439912427], [60.0, 80.18610043215722], [60.052257, 80.18769], [60.167247, 80.168524], [60.21046, 80.149156]]], [[[60.571462, 81.268134], [60.432302, 81.244371], [60.0, 81.27885492283448], [60.0, 81.30783827853881], [60.031993, 81.311103], [60.514008, 81.289537], [60.571462, 81.268134]]]]}}]}