{"type": "FeatureCollection", "features": [{"type": "Feature", "properties": {"name": "China"}, "geometry": {"type": "MultiPolygon", "coordinates": [[[[100.016975, 42.676518], [101.21871, 42.529834], [101.41074, 42.544872], [101.524945, 42.537456], [101.637599, 42.515442], [101.735371, 42.461156], [101.886473, 42.278015], [101.97422, 42.20789], [102.034164, 42.18461], [103.073481, 42.004517], [103.691427, 41.759235], [103.720986, 41.755566], [104.500784, 41.870598], [104.497993, 41.665778], [104.504918, 41.656554], [104.601243, 41.645444], [104.892336, 41.644772], [104.913678, 41.638338], [104.97383, 41.586145], [105.014809, 41.596144], [105.200896, 41.743474], [105.274483, 41.755463], [105.358199, 41.785848], [105.402744, 41.811532], [105.868607, 41.993484], [106.767829, 42.286619], [108.177355, 42.454309], [108.319775, 42.432553], [108.536455, 42.435111], [108.796852, 42.398369], [108.862688, 42.40886], [108.961287, 42.447539], [109.253414, 42.425939], [109.328551, 42.440486], [109.485131, 42.449296], [109.500013, 42.463327], [109.667342, 42.54898], [109.912701, 42.62882], [110.060186, 42.638355], [110.139871, 42.682615], [110.406728, 42.768605], [110.424815, 42.785245], [110.449413, 42.837335], [110.566718, 42.91056], [110.608163, 42.944667], [110.680096, 43.057657], [110.796989, 43.148918], [110.933724, 43.287772], [110.973412, 43.3156], [111.096092, 43.366656], [111.338558, 43.438177], [111.401396, 43.475513], [111.428681, 43.483936], [111.535031, 43.490732], [111.567691, 43.50254], [111.753829, 43.663202], [111.77264, 43.669299], [111.845813, 43.666922], [111.933353, 43.696636], [111.945136, 43.72387], [111.944309, 43.786372], [111.930563, 43.820143], [111.838785, 43.938792], [111.780701, 43.986205], [111.66815, 44.041344], [111.634457, 44.065942], [111.543816, 44.156737], [111.519425, 44.18857], [111.503715, 44.225725], [111.49059, 44.282621], [111.473226, 44.298848], [111.410595, 44.326081], [111.396435, 44.346597], [111.397055, 44.387369], [111.424134, 44.448037], [111.483768, 44.506432], [111.538235, 44.58343], [111.544436, 44.618105], [111.541026, 44.668231], [111.551361, 44.69319], [111.738533, 44.9663], [111.786489, 45.008572], [111.843333, 45.039526], [111.926739, 45.06092], [111.958261, 45.084536], [112.011488, 45.087482], [112.107606, 45.067379], [112.412807, 45.066036], [112.523912, 44.993275], [112.586027, 44.923822], [112.748497, 44.865273], [112.973186, 44.821245], [113.016905, 44.82109], [113.104858, 44.794373], [113.473208, 44.770705], [113.532429, 44.74528], [113.604776, 44.739699], [113.635058, 44.746262], [113.672472, 44.768173], [113.735621, 44.815922], [113.83763, 44.867908], [113.889306, 44.908268], [114.01705, 44.927285], [114.089294, 44.961753], [114.149342, 45.030069], [114.211767, 45.06216], [114.418886, 45.20148], [114.473043, 45.259202], [114.502292, 45.303231], [114.519449, 45.370927], [114.533711, 45.3855], [114.703313, 45.427151], [114.737317, 45.425032], [114.938855, 45.373769], [115.126337, 45.39444], [115.33728, 45.394698], [115.472982, 45.412785], [115.667389, 45.454281], [115.767331, 45.530142], [116.002149, 45.675559], [116.094856, 45.676541], [116.169891, 45.709097], [116.230352, 45.769766], [116.251643, 45.803252], [116.207098, 45.88087], [116.213195, 45.908155], [116.357166, 46.105559], [116.525114, 46.226792], [116.568316, 46.290871], [116.603559, 46.309319], [116.722002, 46.328698], [116.814606, 46.38673], [116.957853, 46.366422], [117.301708, 46.350144], [117.337468, 46.357275], [117.353074, 46.379496], [117.357518, 46.448406], [117.369197, 46.475691], [117.412502, 46.524629], [117.393795, 46.57137], [117.47286, 46.584677], [117.510067, 46.578476], [117.568151, 46.603539], [117.625202, 46.535662], [117.673365, 46.516025], [117.797595, 46.520262], [117.817025, 46.527471], [117.859297, 46.580285], [117.900638, 46.607596], [118.005541, 46.626974], [118.083882, 46.668264], [118.169045, 46.678496], [118.238291, 46.715393], [118.268987, 46.722937], [118.335547, 46.722162], [118.472799, 46.685679], [118.551967, 46.685756], [118.60938, 46.705781], [118.720071, 46.676739], [118.753816, 46.691156], [118.816241, 46.758181], [118.846523, 46.765493], [118.867452, 46.758336], [118.890551, 46.713532], [118.907088, 46.709398], [118.947034, 46.737148], [118.967239, 46.740456], [119.014058, 46.683301], [119.036951, 46.668729], [119.316934, 46.611678], [119.501263, 46.628008], [119.623478, 46.616329], [119.680116, 46.591628], [119.740267, 46.613254], [119.782228, 46.655629], [119.834421, 46.650952], [119.85442, 46.65966], [119.907027, 46.718312], [119.883101, 46.753013], [119.902893, 46.842413], [119.883101, 46.855436], [119.881447, 46.872851], [119.896433, 46.898586], [119.892919, 46.90551], [119.852301, 46.910729], [119.831683, 46.942149], [119.770136, 46.992998], [119.753961, 47.094439], [119.699959, 47.159526], [119.629421, 47.216086], [119.587356, 47.238358], [119.525086, 47.250812], [119.475994, 47.309206], [119.320654, 47.40703], [119.281897, 47.414859], [119.31776, 47.462117], [119.310112, 47.476095], [119.133896, 47.527539], [119.116532, 47.556039], [119.104233, 47.62774], [119.08346, 47.661562], [118.767406, 47.756156], [118.713301, 47.793621], [118.605246, 47.914673], [118.542252, 47.966246], [118.472799, 47.989449], [118.280046, 47.998131], [118.182481, 48.028206], [118.064039, 48.019577], [117.972778, 47.997898], [117.815165, 48.004823], [117.766899, 47.993144], [117.527224, 47.78649], [117.43648, 47.730499], [117.360826, 47.650865], [117.317107, 47.654069], [117.069681, 47.810158], [116.822047, 47.876304], [116.751664, 47.874133], [116.49969, 47.836358], [116.428893, 47.835143], [116.243891, 47.862894], [116.181569, 47.849587], [116.084314, 47.806928], [115.9729, 47.709053], [115.914506, 47.683912], [115.852701, 47.705565], [115.575715, 47.909738], [115.561866, 47.933199], [115.51422, 48.131637], [115.536441, 48.149155], [115.770845, 48.224086], [115.799991, 48.242328], [115.809292, 48.273954], [115.786555, 48.49301], [115.800404, 48.530372], [116.028194, 48.767464], [116.048038, 48.799761], [116.033568, 48.852368], [116.037806, 48.870145], [116.684278, 49.823265], [116.722312, 49.801664], [117.057588, 49.672886], [117.252925, 49.62245], [117.47286, 49.614285], [117.758838, 49.512741], [117.803589, 49.518891], [117.836869, 49.50902], [117.873766, 49.513206], [117.893816, 49.546641], [117.930713, 49.567312], [118.017116, 49.595785], [118.106413, 49.651802], [118.188475, 49.681258], [118.223409, 49.712109], [118.229403, 49.729214], [118.241702, 49.729162], [118.305161, 49.767093], [118.37296, 49.786316], [118.380918, 49.811483], [118.393734, 49.820009], [118.477037, 49.835977], [118.490783, 49.869515], [118.521272, 49.894062], [118.644365, 49.954575], [118.670565, 49.962068], [118.712939, 49.949459], [118.741465, 49.953076], [118.891378, 49.979328], [118.923779, 49.991627], [118.990442, 49.979328], [119.091676, 49.986562], [119.14661864338456, 50.0], [120.0, 50.0], [120.0, 40.069374825532854], [119.950277, 40.056502], [119.91531, 40.036153], [119.911998, 39.998088], [119.875501, 39.994739], [119.811046, 39.973049], [119.774425, 39.950507], [119.749649, 39.952397], [119.708217, 39.934935], [119.660899, 39.932685], [119.620616, 39.911038], [119.535592, 39.890826], [119.519867, 39.858303], [119.530699, 39.814702], [119.466795, 39.814848], [119.429406, 39.795306], [119.349864, 39.731757], [119.314057, 39.641181], [119.284923, 39.595445], [119.245372, 39.594468], [119.208588, 39.569566], [119.208995, 39.550198], [119.243012, 39.570705], [119.22934, 39.535956], [119.262397, 39.577512], [119.281398, 39.575014], [119.261981, 39.535084], [119.256425, 39.493111], [119.270763, 39.489061], [119.305075, 39.432978], [119.279429, 39.384006], [119.25566, 39.365522], [119.22585, 39.357767], [119.203345, 39.363438], [119.184804, 39.354814], [119.015636, 39.189765], [118.926036, 39.130601], [118.894298, 39.124416], [118.894298, 39.131822], [118.941987, 39.159125], [118.956309, 39.188056], [118.969981, 39.193305], [118.880626, 39.172797], [118.885509, 39.185248], [118.87143, 39.2001], [118.87379, 39.213813], [118.858979, 39.207506], [118.840535, 39.17563], [118.795991, 39.151777], [118.727779, 39.14725], [118.61936, 39.161042], [118.590151, 39.148312], [118.52711, 39.149237], [118.519379, 39.13935], [118.529146, 39.124653], [118.34427, 39.030709], [118.326096, 39.030932], [118.235285, 39.053098], [118.207122, 39.076706], [118.140528, 39.172835], [118.096404, 39.202392], [118.02802, 39.219798], [117.88559, 39.201117], [117.757335, 39.114447], [117.737559, 39.106391], [117.715424, 39.111396], [117.718272, 39.093004], [117.751478, 39.067914], [117.775264, 38.981058], [117.729503, 38.984361], [117.701915, 38.995307], [117.708751, 38.981024], [117.583995, 38.811591], [117.573222, 38.713748], [117.558778, 38.690941], [117.560473, 38.657097], [117.543549, 38.621324], [117.565971, 38.612507], [117.716082, 38.378511], [117.837169, 38.270901], [117.941698, 38.233946], [117.977544, 38.194837], [118.007197, 38.19701], [118.053727, 38.173253], [118.052408, 38.153659], [118.065214, 38.143082], [118.084809, 38.138739], [118.119233, 38.152289], [118.146088, 38.142483], [118.215831, 38.144965], [118.448928, 38.107787], [118.512299, 38.08808], [118.542979, 38.068345], [118.573009, 38.079901], [118.615777, 38.12512], [118.654871, 38.145695], [118.760353, 38.155132], [118.840099, 38.152574], [118.950037, 38.097262], [118.924815, 38.057766], [118.956147, 38.033596], [118.996593, 37.963121], [119.048405, 37.947978], [119.092493, 37.912773], [119.116942, 37.853271], [119.155697, 37.823964], [119.206836, 37.802839], [119.243083, 37.769482], [119.259597, 37.715847], [119.255664, 37.671867], [119.217736, 37.675248], [119.189313, 37.700735], [119.120141, 37.737508], [119.069472, 37.740631], [119.037128, 37.722089], [119.010753, 37.653754], [118.969981, 37.593451], [118.944591, 37.378119], [118.961192, 37.29564], [118.972423, 37.280666], [119.01474, 37.269843], [119.058604, 37.227607], [119.145518, 37.17886], [119.28712, 37.137274], [119.441173, 37.120551], [119.475108, 37.133287], [119.524506, 37.139065], [119.660737, 37.1376], [119.7706, 37.151842], [119.79184, 37.180569], [119.897309, 37.249416], [119.886729, 37.284654], [119.846283, 37.343695], [119.858897, 37.360175], [119.928966, 37.384589], [119.997813, 37.42182], [120.0, 37.42247583196801], [120.0, 35.72817914957978], [119.969981, 35.732367], [119.937755, 35.761135], [119.908214, 35.744859], [119.900157, 35.736274], [119.935639, 35.705024], [119.901622, 35.671536], [119.904552, 35.624579], [119.860199, 35.606106], [119.843272, 35.61579], [119.834076, 35.635321], [119.840099, 35.657904], [119.811615, 35.647895], [119.771007, 35.593329], [119.743907, 35.575914], [119.748383, 35.60932], [119.732514, 35.620836], [119.707123, 35.614163], [119.696788, 35.599433], [119.64796, 35.58393], [119.599864, 35.469184], [119.564545, 35.424709], [119.551524, 35.380032], [119.50766, 35.332343], [119.469574, 35.321479], [119.428722, 35.321479], [119.42392, 35.313463], [119.421886, 35.277411], [119.404552, 35.25373], [119.370616, 35.117418], [119.358002, 35.097113], [119.221202, 35.064032], [119.207286, 35.048407], [119.192882, 35.000434], [119.20338, 34.931627], [119.188698, 34.856274], [119.201915, 34.78498], [119.189057, 34.766547], [119.195323, 34.759711], [119.192231, 34.718207], [119.20338, 34.7119], [119.209809, 34.718573], [119.22934, 34.759711], [119.311778, 34.755072], [119.34669, 34.780829], [119.387706, 34.753485], [119.442231, 34.746039], [119.474213, 34.715277], [119.472748, 34.698147], [119.456554, 34.684556], [119.531749, 34.615709], [119.609223, 34.56273], [119.640961, 34.550523], [119.647716, 34.53384], [119.728852, 34.524115], [119.795258, 34.481676], [119.826182, 34.470404], [119.939952, 34.457913], [120.0, 34.43003749845798], [120.0, 32.009921568329936], [119.992035, 32.015855], [119.912201, 32.123725], [119.908458, 32.138861], [119.92213, 32.217434], [119.900483, 32.198188], [119.887543, 32.213853], [119.874278, 32.265123], [119.842133, 32.299058], [119.81837, 32.313707], [119.758067, 32.326972], [119.692393, 32.31977], [119.64088, 32.358832], [119.612885, 32.35456], [119.660737, 32.327216], [119.685395, 32.292426], [119.649018, 32.21955], [119.606049, 32.196926], [119.627696, 32.189399], [119.645274, 32.195217], [119.69044, 32.235338], [119.730235, 32.210598], [119.788585, 32.198635], [119.763764, 32.162502], [119.772472, 32.126776], [119.784923, 32.114325], [119.855561, 32.086982], [120.0, 31.95610064485696], [120.0, 30.0], [100.0, 30.0], [100.0, 42.67643092763738], [100.016975, 42.676518]]], [[[119.901866, 32.073391], [119.858735, 32.101549], [119.792003, 32.121772], [119.791026, 32.165473], [119.819347, 32.203762], [119.749848, 32.228013], [119.719493, 32.249579], [119.716156, 32.27265], [119.750824, 32.293118], [119.78533, 32.291693], [119.814301, 32.27558], [119.832856, 32.252143], [119.875011, 32.155219], [119.901866, 32.073391]]], [[[118.648672, 39.055851], [118.648736, 39.044651], [118.594321, 38.972197], [118.514308, 38.919445], [118.502699, 38.919028], [118.480276, 38.93482], [118.4909, 38.943187], [118.470698, 38.970551], [118.469477, 39.006319], [118.478483, 39.042858], [118.488193, 39.050492], [118.526381, 39.046694], [118.559718, 39.003125], [118.577812, 39.008619], [118.628711, 39.048554], [118.614637, 39.067649], [118.632743, 39.074581], [118.648672, 39.055851]]]]}}, {"type": "Feature", "properties": {"name": "Mongolia"}, "geometry": {"type": "Polygon", "coordinates": [[[116.037806, 48.870145], [116.033568, 48.852368], [116.048038, 48.799761], [116.028194, 48.767464], [115.800404, 48.530372], [115.786555, 48.49301], [115.809292, 48.273954], [115.799991, 48.242328], [115.770845, 48.224086], [115.536441, 48.149155], [115.51422, 48.131637], [115.561866, 47.933199], [115.575715, 47.909738], [115.852701, 47.705565], [115.914506, 47.683912], [115.9729, 47.709053], [116.084314, 47.806928], [116.181569, 47.849587], [116.243891, 47.862894], [116.428893, 47.835143], [116.49969, 47.836358], [116.751664, 47.874133], [116.822047, 47.876304], [117.069681, 47.810158], [117.317107, 47.654069], [117.360826, 47.650865], [117.43648, 47.730499], [117.527224, 47.78649], [117.766899, 47.993144], [117.815165, 48.004823], [117.972778, 47.997898], [118.064039, 48.019577], [118.182481, 48.028206], [118.280046, 47.998131], [118.472799, 47.989449], [118.542252, 47.966246], [118.605246, 47.914673], [118.713301, 47.793621], [118.767406, 47.756156], [119.08346, 47.661562], [119.104233, 47.62774], [119.116532, 47.556039], [119.133896, 47.527539], [119.310112, 47.476095], [119.31776, 47.462117], [119.281897, 47.414859], [119.320654, 47.40703], [119.475994, 47.309206], [119.525086, 47.250812], [119.587356, 47.238358], [119.629421, 47.216086], [119.699959, 47.159526], [119.753961, 47.094439], [119.770136, 46.992998], [119.831683, 46.942149], [119.852301, 46.910729], [119.892919, 46.90551], [119.896433, 46.898586], [119.881447, 46.872851], [119.883101, 46.855436], [119.902893, 46.842413], [119.883101, 46.753013], [119.907027, 46.718312], [119.872662, 46.673225], [119.834421, 46.650952], [119.782228, 46.655629], [119.740267, 46.613254], [119.680116, 46.591628], [119.623478, 46.616329], [119.501263, 46.628008], [119.316934, 46.611678], [119.036951, 46.668729], [119.014058, 46.683301], [118.967239, 46.740456], [118.947034, 46.737148], [118.907088, 46.709398], [118.890551, 46.713532], [118.867452, 46.758336], [118.846523, 46.765493], [118.816241, 46.758181], [118.753816, 46.691156], [118.720071, 46.676739], [118.60938, 46.705781], [118.551967, 46.685756], [118.472799, 46.685679], [118.335547, 46.722162], [118.268987, 46.722937], [118.238291, 46.715393], [118.169045, 46.678496], [118.083882, 46.668264], [118.005541, 46.626974], [117.900638, 46.607596], [117.859297, 46.580285], [117.817025, 46.527471], [117.797595, 46.520262], [117.673365, 46.516025], [117.625202, 46.535662], [117.568151, 46.603539], [117.510067, 46.578476], [117.47286, 46.584677], [117.393795, 46.57137], [117.412502, 46.524629], [117.369197, 46.475691], [117.357518, 46.448406], [117.353074, 46.379496], [117.337468, 46.357275], [117.301708, 46.350144], [116.957853, 46.366422], [116.814606, 46.38673], [116.722002, 46.328698], [116.603559, 46.309319], [116.568316, 46.290871], [116.525114, 46.226792], [116.357166, 46.105559], [116.213195, 45.908155], [116.207098, 45.88087], [116.251643, 45.803252], [116.230352, 45.769766], [116.169891, 45.709097], [116.094856, 45.676541], [116.002149, 45.675559], [115.767331, 45.530142], [115.667389, 45.454281], [115.472982, 45.412785], [115.33728, 45.394698], [115.126337, 45.39444], [114.938855, 45.373769], [114.737317, 45.425032], [114.703313, 45.427151], [114.533711, 45.3855], [114.519449, 45.370927], [114.502292, 45.303231], [114.473043, 45.259202], [114.418886, 45.20148], [114.211767, 45.06216], [114.149342, 45.030069], [114.089294, 44.961753], [114.01705, 44.927285], [113.889306, 44.908268], [113.83763, 44.867908], [113.735621, 44.815922], [113.672472, 44.768173], [113.635058, 44.746262], [113.604776, 44.739699], [113.532429, 44.74528], [113.473208, 44.770705], [113.104858, 44.794373], [113.016905, 44.82109], [112.973186, 44.821245], [112.748497, 44.865273], [112.586027, 44.923822], [112.523912, 44.993275], [112.412807, 45.066036], [112.107606, 45.067379], [112.011488, 45.087482], [111.958261, 45.084536], [111.926739, 45.06092], [111.843333, 45.039526], [111.786489, 45.008572], [111.738533, 44.9663], [111.551361, 44.69319], [111.541026, 44.668231], [111.544436, 44.618105], [111.538235, 44.58343], [111.483768, 44.506432], [111.424134, 44.448037], [111.397055, 44.387369], [111.396435, 44.346597], [111.410595, 44.326081], [111.473226, 44.298848], [111.49059, 44.282621], [111.503715, 44.225725], [111.519425, 44.18857], [111.543816, 44.156737], [111.634457, 44.065942], [111.66815, 44.041344], [111.780701, 43.986205], [111.838785, 43.938792], [111.930563, 43.820143], [111.944309, 43.786372], [111.945136, 43.72387], [111.933353, 43.696636], [111.845813, 43.666922], [111.77264, 43.669299], [111.753829, 43.663202], [111.567691, 43.50254], [111.535031, 43.490732], [111.428681, 43.483936], [111.401396, 43.475513], [111.338558, 43.438177], [111.096092, 43.366656], [110.973412, 43.3156], [110.933724, 43.287772], [110.796989, 43.148918], [110.680096, 43.057657], [110.608163, 42.944667], [110.566718, 42.91056], [110.449413, 42.837335], [110.424815, 42.785245], [110.406728, 42.768605], [110.139871, 42.682615], [110.060186, 42.638355], [109.912701, 42.62882], [109.667342, 42.54898], [109.500013, 42.463327], [109.485131, 42.449296], [109.328551, 42.440486], [109.253414, 42.425939], [108.961287, 42.447539], [108.862688, 42.40886], [108.796852, 42.398369], [108.536455, 42.435111], [108.319775, 42.432553], [108.177355, 42.454309], [106.767829, 42.286619], [105.868607, 41.993484], [105.402744, 41.811532], [105.358199, 41.785848], [105.274483, 41.755463], [105.200896, 41.743474], [105.014809, 41.596144], [104.97383, 41.586145], [104.913678, 41.638338], [104.892336, 41.644772], [104.601243, 41.645444], [104.504918, 41.656554], [104.497993, 41.665778], [104.500784, 41.870598], [103.720986, 41.755566], [103.691427, 41.759235], [103.073481, 42.004517], [102.034164, 42.18461], [101.97422, 42.20789], [101.886473, 42.278015], [101.735371, 42.461156], [101.637599, 42.515442], [101.524945, 42.537456], [101.41074, 42.544872], [101.21871, 42.529834], [100.016975, 42.676518], [100.0, 42.67643092763738], [100.0, 50.0], [107.21418524302081, 50.0], [107.224907, 49.997053], [107.24307138095605, 50.0], [107.32236001749314, 50.0], [107.364071, 49.976124], [107.729321, 49.971938], [107.80792, 49.943878], [107.850967, 49.946048], [107.946517, 49.933491], [107.95649, 49.923362], [107.952614, 49.897472], [107.930032, 49.851429], [107.955767, 49.745544], [107.926828, 49.68286], [107.927448, 49.670044], [107.939489, 49.663223], [108.002792, 49.663171], [108.015815, 49.65573], [108.005273, 49.617799], [108.015711, 49.602245], [108.106197, 49.554341], [108.23637, 49.532482], [108.277142, 49.48251], [108.334865, 49.436363], [108.538057, 49.32743], [108.60844, 49.323657], [108.751067, 49.341175], [108.858967, 49.340555], [108.930488, 49.348824], [109.032962, 49.327895], [109.160603, 49.346653], [109.286693, 49.33854], [109.411233, 49.303193], [109.450714, 49.305932], [109.462083, 49.300454], [109.474382, 49.269138], [109.51624, 49.255909], [109.728527, 49.266451], [109.784957, 49.251362], [109.81772, 49.227746], [110.181419, 49.161962], [110.268339, 49.177051], [110.30937, 49.195861], [110.371175, 49.24175], [110.451273, 49.194569], [110.508221, 49.184337], [110.603615, 49.145322], [110.644957, 49.136743], [110.731359, 49.137674], [110.841017, 49.162427], [110.965557, 49.207385], [111.13857, 49.291566], [111.273549, 49.32283], [111.338454, 49.36474], [111.362742, 49.367634], [111.429611, 49.346395], [111.479117, 49.343346], [111.661019, 49.396366], [112.030195, 49.411869], [112.432238, 49.529174], [112.473269, 49.534135], [112.58427, 49.526332], [112.701472, 49.491295], [112.777126, 49.501372], [112.868077, 49.531655], [112.947348, 49.576096], [113.06083, 49.595992], [113.087495, 49.687408], [113.182683, 49.801974], [113.415537, 49.92238], [113.458532, 49.957262], [113.54111916401577, 50.0], [115.17088401942684, 50.0], [115.210156, 49.97168], [115.387819, 49.891064], [115.508536, 49.886775], [115.578195, 49.893648], [115.716275, 49.877784], [116.053619, 49.998448], [116.06156483567133, 50.0], [116.27144626505083, 50.0], [116.575447, 49.92176], [116.617202, 49.897317], [116.684278, 49.823265], [116.037806, 48.870145]]]}}, {"type": "Feature", "properties": {"name": "Russia"}, "geometry": {"type": "MultiPolygon", "coordinates": [[[[119.091676, 49.986562], [118.990442, 49.979328], [118.923779, 49.991627], [118.891378, 49.979328], [118.741465, 49.953076], [118.712939, 49.949459], [118.670565, 49.962068], [118.644365, 49.954575], [118.521272, 49.894062], [118.490783, 49.869515], [118.477037, 49.835977], [118.393734, 49.820009], [118.380918, 49.811483], [118.37296, 49.786316], [118.305161, 49.767093], [118.241702, 49.729162], [118.229403, 49.729214], [118.223409, 49.712109], [118.188475, 49.681258], [118.106413, 49.651802], [118.054943, 49.614027], [117.893816, 49.546641], [117.873766, 49.513206], [117.836869, 49.50902], [117.795011, 49.519149], [117.758838, 49.512741], [117.47286, 49.614285], [117.252925, 49.62245], [117.057588, 49.672886], [116.722312, 49.801664], [116.684278, 49.823265], [116.617202, 49.897317], [116.575447, 49.92176], [116.27144626505083, 50.0], [119.14661864338456, 50.0], [119.091676, 49.986562]]], [[[116.053619, 49.998448], [115.716275, 49.877784], [115.578195, 49.893648], [115.508536, 49.886775], [115.387819, 49.891064], [115.210156, 49.97168], [115.17088401942684, 50.0], [116.06156483567133, 50.0], [116.053619, 49.998448]]], [[[113.458532, 49.957262], [113.415537, 49.92238], [113.182683, 49.801974], [113.087495, 49.687408], [113.06083, 49.595992], [112.947348, 49.576096], [112.868077, 49.531655], [112.777126, 49.501372], [112.701472, 49.491295], [112.58427, 49.526332], [112.473269, 49.534135], [112.432238, 49.529174], [112.030195, 49.411869], [111.661019, 49.396366], [111.479117, 49.343346], [111.429611, 49.346395], [111.362742, 49.367634], [111.338454, 49.36474], [111.273549, 49.32283], [111.13857, 49.291566], [110.965557, 49.207385], [110.841017, 49.162427], [110.731359, 49.137674], [110.644957, 49.136743], [110.603615, 49.145322], [110.508221, 49.184337], [110.451273, 49.194569], [110.371175, 49.24175], [110.30937, 49.195861], [110.268339, 49.177051], [110.181419, 49.161962], [109.81772, 49.227746], [109.784957, 49.251362], [109.728527, 49.266451], [109.51624, 49.255909], [109.474382, 49.269138], [109.462083, 49.300454], [109.450714, 49.305932], [109.411233, 49.303193], [109.286693, 49.33854], [109.160603, 49.346653], [109.032962, 49.327895], [108.930488, 49.348824], [108.858967, 49.340555], [108.751067, 49.341175], [108.60844, 49.323657], [108.538057, 49.32743], [108.334865, 49.436363], [108.277142, 49.48251], [108.23637, 49.532482], [108.106197, 49.554341], [108.015711, 49.602245], [108.005273, 49.617799], [108.015815, 49.65573], [108.002792, 49.663171], [107.939489, 49.663223], [107.927448, 49.670044], [107.926828, 49.68286], [107.955767, 49.745544], [107.930032, 49.851429], [107.952614, 49.897472], [107.95649, 49.923362], [107.946517, 49.933491], [107.850967, 49.946048], [107.80792, 49.943878], [107.729321, 49.971938], [107.364071, 49.976124], [107.32236001749314, 50.0], [113.54111916401577, 50.0], [113.458532, 49.957262]]], [[[107.224907, 49.997053], [107.21418524302081, 50.0], [107.24307138095605, 50.0], [107.224907, 49.997053]]]]}}]}