{"type": "FeatureCollection", "features": [{"type": "Feature", "properties": {"name": "Northern Province", "country": "LKA"}, "geometry": {"type": "MultiPolygon", "coordinates": [[[[79.9138052, 8.9418344], [79.9183484, 8.9548443], [79.9130655, 8.9568605], [79.90286, 8.9423908], [79.9062218, 8.9389512], [79.9138052, 8.9418344]]], [[[79.9022596, 8.9467792], [79.9091704, 8.9555697], [79.9027399, 8.9617231], [79.8913337, 8.9556745], [79.8921741, 8.952235], [79.9022596, 8.9467792]]], [[[79.8906581, 8.9555914], [79.8863855, 8.9650112], [79.8945222, 8.9622197], [79.8962958, 8.967948], [79.9126338, 8.9754797], [79.9265024, 8.9755012], [79.9265082, 8.9825301], [79.9014456, 8.9959248], [79.8826659, 9.0130669], [79.8716869, 9.029504], [79.8678799, 9.0426313], [79.8630733, 9.0443266], [79.853117, 9.0611094], [79.8599834, 9.05738], [79.8623867, 9.047039], [79.8697681, 9.0431399], [79.870503, 9.0373645], [79.9134619, 9.0169484], [79.9182684, 9.0103362], [79.9275382, 9.0096581], [79.9096854, 9.0238994], [79.8916582, 9.04777], [79.8621352, 9.0725532], [79.7981055, 9.0962843], [79.7499129, 9.1063893], [79.7313453, 9.1077931], [79.7098859, 9.1048341], [79.6987135, 9.1000134], [79.6928771, 9.0947588], [79.6968253, 9.0957758], [79.6952346, 9.0934543], [79.6897822, 9.0914795], [79.6909888, 9.0871311], [79.6937354, 9.0893347], [79.6980898, 9.082855], [79.6876901, 9.0812519], [79.6840616, 9.0784274], [79.6861967, 9.0759589], [79.6938189, 9.0784176], [79.7134935, 9.0768978], [79.74684, 9.0681512], [79.7738521, 9.056965], [79.811669, 9.0351078], [79.8611621, 8.9944877], [79.8906581, 8.9555914]]], [[[79.984047, 9.306677], [79.9782325, 9.2978697], [79.9717418, 9.2957346], [79.9718094, 9.2859261], [79.977624, 9.2801209], [79.9841146, 9.2845916], [79.9912138, 9.2841245], [79.996217, 9.2807882], [79.9998004, 9.2706457], [80.002119, 9.2714207], [80.0067644, 9.2772517], [80.005277, 9.2867935], [79.9980426, 9.2899963], [79.996217, 9.2857926], [79.9918899, 9.2883282], [79.9915519, 9.2914642], [79.9949093, 9.2927668], [79.9886446, 9.2997379], [79.9881713, 9.3048755], [79.984047, 9.306677]]], [[[80.0553715, 9.330921], [80.0606562, 9.3314358], [80.0577871, 9.3330528], [80.0594371, 9.340735], [80.0566149, 9.3482361], [80.051924, 9.3381612], [80.0553715, 9.330921]]], [[[80.0101454, 9.4724027], [80.0096422, 9.4669509], [80.0149194, 9.4670154], [80.0178055, 9.4812153], [80.0142903, 9.4846157], [80.0054224, 9.4846655], [80.0039873, 9.4801699], [80.0101454, 9.4724027]]], [[[79.7152019, 9.5294651], [79.6922388, 9.5313647], [79.6798555, 9.5402264], [79.6704832, 9.5539856], [79.6636981, 9.5524288], [79.6596306, 9.5560936], [79.6510158, 9.5472647], [79.6549573, 9.5051006], [79.7045812, 9.475815], [79.72006, 9.4744088], [79.7291783, 9.4826191], [79.7316122, 9.4921576], [79.7253926, 9.5239442], [79.7152019, 9.5294651]]], [[[80.9268903529539, 8.99208280768036], [80.9188495, 8.9921232], [80.9243426, 9.0048394], [80.9212527, 9.0102648], [80.9173045, 9.0121298], [80.9161029, 9.0060262], [80.9106097, 9.005348], [80.9080348, 8.9983966], [80.8766208, 9.0253538], [80.8781657, 9.0316266], [80.891212, 9.0373907], [80.8894954, 9.0434937], [80.8941302, 9.048749], [80.9015654, 9.0485017], [80.9267459, 9.021624], [80.9334407, 9.0089084], [80.950758, 8.9888795], [80.9643192, 8.9893882], [80.9361668, 9.0348255], [80.8991639, 9.1043047], [80.8788349, 9.1337571], [80.8595927, 9.1768502], [80.8446249, 9.2309761], [80.8192654, 9.2724297], [80.8107926, 9.293002], [80.7921429, 9.3124102], [80.7451076, 9.3473046], [80.670906, 9.4198962], [80.6712641, 9.4112019], [80.710874, 9.3727952], [80.7231866, 9.3556249], [80.7216522, 9.3501967], [80.7157766, 9.3541848], [80.7095267, 9.369472], [80.6650717, 9.4044533], [80.6630606, 9.409505], [80.669974, 9.4206546], [80.549757, 9.5120741], [80.3614445, 9.6645802], [80.333292, 9.6957162], [80.2881451, 9.7598404], [80.2670307, 9.7931666], [80.2520512, 9.8254653], [80.212085, 9.8357907], [80.1691365, 9.8248905], [80.1396555, 9.8253427], [80.1116928, 9.8108192], [80.1011388, 9.8088885], [80.0443859, 9.8161716], [80.0302985, 9.8234432], [80.026653, 9.8228792], [80.0309033, 9.8230472], [80.0363634, 9.8177752], [79.9920074, 9.8119279], [79.9705744, 9.8053785], [79.9480839, 9.7948582], [79.9432774, 9.7901217], [79.9436207, 9.7864001], [79.9256219, 9.7754664], [79.9144796, 9.7763322], [79.9070982, 9.7693962], [79.9088148, 9.7670278], [79.9052099, 9.7612758], [79.9081124, 9.7539813], [79.9139489, 9.7516128], [79.9255779, 9.7385507], [79.9232344, 9.7353909], [79.9326573, 9.7221023], [79.9318413, 9.7104257], [79.9395422, 9.6961367], [79.9445204, 9.6944446], [79.9421171, 9.6920756], [79.9546484, 9.6885222], [79.9672305, 9.7072589], [79.9673163, 9.7164381], [79.9730241, 9.7208351], [79.9717249, 9.7291785], [79.9733879, 9.7323625], [79.9742462, 9.7207304], [79.9674656, 9.7133301], [79.968311, 9.7075963], [79.9668053, 9.6981992], [79.9803794, 9.6847856], [79.9861068, 9.6857435], [79.9888322, 9.6918602], [79.9978778, 9.6880817], [80.0001446, 9.6785226], [79.9975582, 9.67197], [80.0193431, 9.6498965], [80.0398287, 9.6457534], [80.0467553, 9.6498373], [80.0712449, 9.638142], [80.0960972, 9.6189065], [80.124004, 9.6082151], [80.1342485, 9.6083132], [80.1344862, 9.610579], [80.1182622, 9.6137439], [80.1121724, 9.6233497], [80.1007433, 9.6296311], [80.0979514, 9.6349818], [80.0824881, 9.6405017], [80.0781172, 9.6444527], [80.0774502, 9.6595712], [80.0911437, 9.6486209], [80.1488648, 9.6187182], [80.1553649, 9.6099269], [80.1785153, 9.5925869], [80.1997535, 9.5807627], [80.2089106, 9.5837116], [80.2078674, 9.5865425], [80.184287, 9.5955226], [80.1727283, 9.6362435], [80.1693794, 9.6382937], [80.1624794, 9.6360891], [80.1611815, 9.6421449], [80.1565973, 9.6453793], [80.1615162, 9.6524876], [80.1697447, 9.6564968], [80.1740894, 9.6551593], [80.2268525, 9.6316065], [80.3076988, 9.5845432], [80.3534717, 9.5513157], [80.3526134, 9.5491151], [80.3719928, 9.5314234], [80.3846719, 9.5132329], [80.3929117, 9.5201741], [80.4049518, 9.5195728], [80.4057608, 9.5157486], [80.3992632, 9.5125557], [80.3906801, 9.5152645], [80.3970316, 9.5039212], [80.39274, 9.498842], [80.3895023, 9.4840185], [80.3755739, 9.4810642], [80.3680208, 9.4724291], [80.3520563, 9.4671801], [80.34004, 9.473445], [80.3362634, 9.4643016], [80.3386667, 9.4607458], [80.3324869, 9.4553273], [80.3118996, 9.4618146], [80.3058915, 9.4579201], [80.3134446, 9.4477603], [80.3058915, 9.4499616], [80.3088097, 9.4477603], [80.3070931, 9.4420029], [80.3021149, 9.4555495], [80.2921951, 9.4586805], [80.289865, 9.4551994], [80.2925142, 9.4515943], [80.2863221, 9.4504696], [80.2897553, 9.4533482], [80.2882104, 9.4560575], [80.2804856, 9.4548722], [80.2670839, 9.4593911], [80.253801, 9.4674007], [80.2442768, 9.4674253], [80.2358415, 9.4742916], [80.2453067, 9.4769073], [80.257323, 9.4711504], [80.2652867, 9.47677], [80.277739, 9.4750218], [80.2552631, 9.4884206], [80.2474799, 9.4976905], [80.2484926, 9.5060867], [80.2607563, 9.4972248], [80.2641895, 9.4992565], [80.2817687, 9.4950721], [80.2405699, 9.5202983], [80.2237991, 9.5346111], [80.2213588, 9.5350541], [80.2206102, 9.5275389], [80.1975191, 9.5382997], [80.1945386, 9.5418472], [80.1959801, 9.5454011], [80.1796063, 9.5409167], [80.1705749, 9.5436988], [80.1429965, 9.5591861], [80.126178, 9.5778397], [80.1199123, 9.5777956], [80.1206731, 9.5736252], [80.1134005, 9.5751257], [80.1030173, 9.5881883], [80.0656022, 9.599908], [80.061745, 9.60347], [80.0647576, 9.6082139], [80.06164, 9.6114559], [80.0519733, 9.5991965], [80.0899256, 9.5788748], [80.1470238, 9.5353411], [80.1753529, 9.50393], [80.1859642, 9.4855821], [80.180471, 9.4713594], [80.1699997, 9.4667877], [80.1451405, 9.4363706], [80.1216464, 9.4254837], [80.1109799, 9.4167268], [80.0726098, 9.4025959], [80.0536133, 9.3895675], [80.05313, 9.3796376], [80.0562199, 9.3743872], [80.0545033, 9.3652411], [80.062228, 9.3562642], [80.0587926, 9.3495067], [80.0634297, 9.3425444], [80.0611981, 9.3369546], [80.0634297, 9.3308567], [80.0728711, 9.3256055], [80.0891789, 9.3256055], [80.1142414, 9.3081576], [80.1227928, 9.2973941], [80.1097782, 9.2730899], [80.1199063, 9.2593667], [80.1207646, 9.2537757], [80.1163014, 9.2429322], [80.1204213, 9.2258191], [80.116988, 9.2168386], [80.1200462, 9.2123705], [80.1155472, 9.2094589], [80.1102932, 9.1973519], [80.107389, 9.2008296], [80.1056166, 9.1969406], [80.1066884, 9.1817617], [80.1011952, 9.1719328], [80.0999618, 9.1598379], [80.0861796, 9.1428949], [80.0810791, 9.1300095], [80.0762726, 9.1269588], [80.0788475, 9.1213656], [80.0747276, 9.1045856], [80.077134, 9.1013859], [80.0692345, 9.0883134], [80.071992, 9.0782743], [80.0513682, 9.041025], [80.0485272, 9.0298022], [80.0386186, 9.019195], [80.0415288, 9.0162523], [80.0158218, 9.0125568], [80.0145052, 9.0070135], [80.0102092, 9.0076294], [80.0059131, 9.0021544], [79.9905911, 8.9957202], [79.9870659, 8.9762841], [79.9680109, 8.9693713], [79.9475007, 8.9472633], [79.931677, 8.9429247], [79.920589, 8.9455591], [79.9111921, 8.9388441], [79.9145818, 8.9384032], [79.9164887, 8.9302549], [79.9184843, 8.9320072], [79.9178191, 8.9271006], [79.932143, 8.9163672], [79.9271948, 8.9114791], [79.9287398, 8.907409], [79.9332516, 8.9083936], [79.935602, 8.9012085], [79.9277527, 8.90226], [79.9314778, 8.8984921], [79.9285509, 8.8957757], [79.9294264, 8.8734892], [79.9155219, 8.8263355], [79.9150069, 8.8125953], [79.9174101, 8.8036045], [79.9346927, 8.780523], [79.938983, 8.7651329], [79.959799, 8.7241418], [79.950265, 8.7117337], [79.9523307, 8.6798476], [79.9424788, 8.6514148], [79.9476225, 8.6322297], [79.9408898, 8.6160672], [79.9320788, 8.6104179], [79.9203916, 8.5939144], [79.9198255, 8.567336], [79.9376113, 8.5560215], [79.9490107, 8.5592928], [79.9566086, 8.5525602], [79.9650828, 8.5501444], [79.9776032, 8.5529377], [79.9918771, 8.5418795], [80.0008878, 8.5445471], [80.0080397, 8.5357345], [80.0227681, 8.5325571], [80.0336317, 8.5243548], [80.050367, 8.521947], [80.055308, 8.636987], [80.044434, 8.673234], [80.080107, 8.653638], [80.086572, 8.656245], [80.113817, 8.649437], [80.235407, 8.680412], [80.237993, 8.663385], [80.233439, 8.652087], [80.239039, 8.637341], [80.237178, 8.628994], [80.24067, 8.628908], [80.249907, 8.616178], [80.259665, 8.618023], [80.27445, 8.610996], [80.273881, 8.600632], [80.278328, 8.590343], [80.281783, 8.590338], [80.279723, 8.584603], [80.284706, 8.581213], [80.288499, 8.56056], [80.313513, 8.550678], [80.337964, 8.546199], [80.340437, 8.555807], [80.351778, 8.572791], [80.359556, 8.575982], [80.369593, 8.575012], [80.379989, 8.583782], [80.381464, 8.591378], [80.378632, 8.597596], [80.382746, 8.602145], [80.378943, 8.611264], [80.380998, 8.621773], [80.399419, 8.634063], [80.410545, 8.659506], [80.421912, 8.662049], [80.424203, 8.673985], [80.427732, 8.673137], [80.451309, 8.692514], [80.46898, 8.684918], [80.506734, 8.658417], [80.519716, 8.658761], [80.530182, 8.672773], [80.545396, 8.67973], [80.550674, 8.68812], [80.569975, 8.70041], [80.573634, 8.716739], [80.589287, 8.722125], [80.601212, 8.744393], [80.618475, 8.752617], [80.623743, 8.766848], [80.633919, 8.779927], [80.65138, 8.79042], [80.651262, 8.803369], [80.637175, 8.815402], [80.627058, 8.837058], [80.599571, 8.842964], [80.592324, 8.847878], [80.595376, 8.869684], [80.646032, 8.868048], [80.667533, 8.87139], [80.692139, 8.889323], [80.71187, 8.898534], [80.725983, 8.897976], [80.7530425, 8.9051453], [80.762102, 8.936117], [80.7754608, 8.9467308], [80.8276211, 8.9554674], [80.8334397, 8.9604625], [80.8697081, 8.9595301], [80.8741613, 8.9684084], [80.8830636, 8.969243], [80.8871143, 8.9728797], [80.8895517, 8.9812029], [80.9001328, 8.9787494], [80.9018097, 8.9848593], [80.9171988, 8.9846422], [80.9268903529539, 8.99208280768036]]], [[[79.7738677, 9.5846116], [79.7753603, 9.6195431], [79.7705921, 9.6220471], [79.7627635, 9.6133544], [79.763483, 9.5897138], [79.7738677, 9.5846116]]], [[[79.8392725, 9.6116488], [79.8416689, 9.6065473], [79.8541957, 9.604077], [79.8419412, 9.6056344], [79.8411787, 9.6015531], [79.8500967, 9.5958496], [79.8368216, 9.5989217], [79.8346975, 9.5915645], [79.820101, 9.6015531], [79.8204113, 9.6259346], [79.8181882, 9.6206799], [79.8135108, 9.6268455], [79.8104089, 9.6248872], [79.8068985, 9.6109381], [79.8086005, 9.6057988], [79.8050901, 9.6013937], [79.8106217, 9.5986666], [79.8088133, 9.5896463], [79.8030537, 9.5900071], [79.8031626, 9.5775477], [79.8430382, 9.5675483], [79.8570372, 9.5680048], [79.861385, 9.571103], [79.8592609, 9.5772792], [79.862127, 9.5853142], [79.8585704, 9.5927924], [79.8642034, 9.6030809], [79.8623653, 9.6068695], [79.8436296, 9.6194352], [79.8428126, 9.6127228], [79.8392725, 9.6116488]]], [[[79.8620129, 9.626472], [79.855418, 9.6349076], [79.8521047, 9.6337687], [79.8541232, 9.6234306], [79.8596454, 9.6173853], [79.8610862, 9.6168158], [79.8620129, 9.626472]]], [[[79.9823777, 9.6221538], [79.9837468, 9.6357556], [79.980144, 9.6354774], [79.9808736, 9.6319424], [79.9631994, 9.6343415], [79.9231685, 9.6610559], [79.9263928, 9.6655562], [79.9319697, 9.6655001], [79.9279091, 9.6689635], [79.9311759, 9.6775584], [79.932525, 9.6738875], [79.935015, 9.67666], [79.9292247, 9.6799764], [79.9187553, 9.6802402], [79.9230813, 9.6767451], [79.9063921, 9.6717614], [79.9054235, 9.6680328], [79.9107796, 9.6662265], [79.9147261, 9.6602517], [79.908502, 9.6641756], [79.9064102, 9.6624749], [79.9100748, 9.6610854], [79.9145158, 9.6515661], [79.896434, 9.6741038], [79.8993722, 9.6839767], [79.8933932, 9.6879467], [79.8866366, 9.6991019], [79.8724545, 9.6931232], [79.8624088, 9.7035418], [79.850098, 9.7006862], [79.8413349, 9.7033766], [79.840904, 9.6978541], [79.8495234, 9.6910571], [79.8439208, 9.6853927], [79.8467939, 9.676188], [79.8571372, 9.6613183], [79.8619199, 9.657993], [79.8681987, 9.6586276], [79.8727958, 9.6696738], [79.877976, 9.6664166], [79.8732757, 9.6574472], [79.8644664, 9.6536536], [79.8688036, 9.6391224], [79.9003232, 9.6162801], [79.9081278, 9.6175223], [79.9180192, 9.6329041], [79.9354218, 9.6307134], [79.9488904, 9.6248764], [79.962214, 9.6142464], [79.9705985, 9.6124545], [79.9748238, 9.6122682], [79.9748464, 9.6158843], [79.9813466, 9.6217655], [79.9854377, 9.6128759], [79.9817253, 9.6126511], [79.9779702, 9.6054235], [79.9679865, 9.6056721], [79.9656302, 9.6109044], [79.9649748, 9.6079054], [79.9754504, 9.5999652], [79.9878276, 9.5971445], [80.0006863, 9.60364], [80.0066029, 9.6151802], [80.0039077, 9.6131627], [80.0042509, 9.6162781], [80.0029413, 9.6169122], [80.0026514, 9.6146495], [80.0030349, 9.619679], [80.0083738, 9.6286754], [80.0039106, 9.642553], [79.9947157, 9.6508025], [79.9912077, 9.6410299], [79.9855429, 9.6428915], [79.9888044, 9.639676], [79.9900061, 9.6296908], [79.9823777, 9.6221538]]], [[[79.7827177, 9.6872897], [79.7710678, 9.6751148], [79.7640954, 9.6604953], [79.7646275, 9.6538468], [79.769788, 9.6510574], [79.7800077, 9.6554912], [79.7796698, 9.6587634], [79.7869883, 9.6657591], [79.7833848, 9.6699929], [79.7827177, 9.6872897]]], [[[79.8118513, 9.6853511], [79.8118224, 9.7024616], [79.8140034, 9.7159004], [79.8072643, 9.6950997], [79.8118513, 9.6853511]]], [[[79.8553051, 9.7457443], [79.860454, 9.7371875], [79.8612607, 9.7265847], [79.8501993, 9.7131081], [79.880254, 9.7036983], [79.8926522, 9.7136683], [79.8883253, 9.7275777], [79.8972565, 9.753948], [79.8918964, 9.7636646], [79.899875, 9.7628769], [79.9018876, 9.7668335], [79.8799381, 9.7613594], [79.8632262, 9.7619866], [79.8553856, 9.7515166], [79.8553051, 9.7457443]]]]}}, {"type": "Feature", "properties": {"name": "North Central Province", "country": "LKA"}, "geometry": {"type": "Polygon", "coordinates": [[[80.0323733, 8.5272106], [80.0428033, 8.4934281], [80.0318572, 8.4653497], [80.0205423, 8.4505212], [80.0197055, 8.445048], [80.0075053, 8.439014], [80.0059938, 8.4342081], [80.0005685, 8.4339411], [79.9963039, 8.4265952], [79.9901498, 8.4231776], [79.9905266, 8.4138819], [79.9852589, 8.4120883], [79.9770942, 8.3974791], [79.9618059, 8.3980296], [79.9561917, 8.3942913], [79.9523049, 8.3750651], [79.9527926, 8.3694004], [79.974768, 8.3370911], [79.9816894, 8.3076493], [79.9781012, 8.3028901], [79.9840711, 8.2842875], [79.9819041, 8.2773426], [79.9957497, 8.2541694], [80.0001013, 8.2284807], [80.0082592, 8.2296641], [80.017813, 8.2247783], [80.0275527, 8.2270245], [80.0377763, 8.2378934], [80.0618571, 8.2198122], [80.0794604, 8.2235674], [80.0864973, 8.2106829], [80.0966825, 8.2094924], [80.1019144, 8.1972597], [80.1076526, 8.1958719], [80.1100956, 8.1887688], [80.1230359, 8.1813256], [80.1508603, 8.1755896], [80.1654877, 8.1640604], [80.1838519, 8.1620737], [80.1881539, 8.1514702], [80.2071226, 8.1535406], [80.2150666, 8.1436263], [80.2524023, 8.1325568], [80.2663622, 8.1154411], [80.2859589, 8.1187676], [80.3011939, 8.1155226], [80.308103, 8.1171475], [80.3171817, 8.1122384], [80.324074, 8.0971117], [80.3440497, 8.0809527], [80.348962, 8.0810199], [80.3700176, 8.057803], [80.3803797, 8.0564952], [80.3923863, 8.048025], [80.3961653, 8.0532219], [80.4046776, 8.0549038], [80.4193718, 8.0436275], [80.4180693, 8.0125293], [80.4153729, 8.0072176], [80.4221966, 7.9921457], [80.4259968, 7.9628568], [80.4186836, 7.9532923], [80.4335672, 7.9478962], [80.4474999, 7.9550791], [80.4611046, 7.9452883], [80.4658722, 7.9047216], [80.4743756, 7.8958172], [80.4798434, 7.8772801], [80.4752548, 7.8563714], [80.4690961, 7.8500028], [80.4789648, 7.8410213], [80.4839329, 7.8231392], [80.4997697, 7.8163635], [80.499932, 7.826058], [80.524415, 7.827319], [80.565217, 7.848916], [80.570372, 7.862445], [80.575951, 7.868357], [80.590215, 7.867187], [80.593053, 7.858105], [80.599818, 7.855761], [80.615922, 7.868566], [80.622767, 7.868571], [80.622879, 7.88261], [80.638983, 7.888522], [80.632444, 7.900152], [80.654089, 7.915242], [80.652925, 7.94665], [80.656477, 7.948335], [80.658708, 7.960094], [80.668547, 7.963441], [80.682306, 7.956687], [80.705878, 7.991824], [80.713012, 7.991534], [80.719047, 7.999012], [80.75611, 8.012348], [80.77112, 8.000498], [80.772321, 7.995595], [80.77437, 7.998535], [80.779488, 7.994817], [80.778421, 7.968242], [80.787867, 7.962465], [80.798537, 7.960625], [80.799074, 7.976573], [80.814802, 7.983504], [80.820494, 7.980897], [80.82559, 7.971321], [80.840042, 7.972196], [80.853335, 7.962711], [80.834039, 7.954236], [80.829758, 7.939913], [80.819635, 7.924474], [80.81941, 7.909207], [80.80992, 7.862654], [80.811042, 7.851952], [80.802362, 7.821954], [80.793462, 7.817261], [80.795608, 7.804863], [80.785673, 7.800062], [80.781639, 7.805636], [80.77643, 7.802181], [80.768797, 7.802283], [80.761179, 7.792177], [80.765884, 7.786818], [80.763824, 7.733999], [80.774488, 7.701926], [80.769838, 7.690494], [80.761045, 7.695622], [80.767853, 7.691331], [80.770766, 7.683805], [80.778818, 7.677941], [80.804792, 7.679631], [80.809282, 7.671719], [80.820869, 7.679851], [80.836877, 7.681283], [80.841903, 7.692291], [80.846388, 7.693176], [80.853066, 7.701083], [80.855507, 7.690929], [80.860877, 7.68779], [80.870276, 7.689502], [80.876938, 7.679674], [80.88359, 7.715106], [80.906507, 7.715873], [80.927863, 7.708277], [80.942582, 7.713631], [80.980262, 7.716098], [80.98913, 7.721694], [81.010775, 7.71826], [81.024025, 7.723056], [81.04927, 7.71885], [81.068743, 7.730786], [81.094353, 7.725186], [81.117607, 7.689931], [81.145073, 7.676268], [81.151886, 7.679647], [81.197886, 7.661145], [81.213952, 7.646962], [81.217895, 7.648094], [81.222627, 7.672089], [81.239358, 7.679781], [81.236547, 7.687855], [81.240351, 7.69507], [81.23961, 7.711372], [81.233817, 7.724124], [81.2413298, 7.7391082], [81.2371341, 7.7484107], [81.2374721, 7.7604867], [81.2270171, 7.7809727], [81.2299571, 7.7951087], [81.2249571, 7.8234967], [81.2327411, 7.8435227], [81.2315231, 7.8612897], [81.2278431, 7.8670617], [81.2289431, 7.8760787], [81.2370061, 7.8886637], [81.2368661, 7.9197717], [81.2530561, 7.9363217], [81.2628251, 7.9400017], [81.2747341, 7.9367987], [81.2892931, 7.9465887], [81.2981331, 7.9460627], [81.3079451, 7.9374477], [81.3165441, 7.9403817], [81.3281631, 7.9351407], [81.3400031, 7.9374427], [81.3400561, 7.9570387], [81.3063731, 8.0294477], [81.3132451, 8.2465777], [81.3115711, 8.2519667], [81.288078, 8.261059], [81.285921, 8.257143], [81.282365, 8.257406], [81.279983, 8.249751], [81.272462, 8.245888], [81.272553, 8.241237], [81.265757, 8.241017], [81.270118, 8.237869], [81.269007, 8.2348], [81.266084, 8.235347], [81.263375, 8.231249], [81.258659, 8.232118], [81.256385, 8.225064], [81.250312, 8.226126], [81.251412, 8.209979], [81.243086, 8.196434], [81.237577, 8.194267], [81.24285, 8.179064], [81.236869, 8.178527], [81.234519, 8.17408], [81.232626, 8.156544], [81.217391, 8.154742], [81.207976, 8.14883], [81.192994, 8.151206], [81.19206, 8.154253], [81.197328, 8.160149], [81.206925, 8.162981], [81.213416, 8.179488], [81.210562, 8.183323], [81.2045, 8.183951], [81.201501, 8.197131], [81.206185, 8.215595], [81.204447, 8.226914], [81.199431, 8.231351], [81.18691, 8.22736], [81.172716, 8.235347], [81.166182, 8.234645], [81.13936, 8.260855], [81.124109, 8.263044], [81.105645, 8.256016], [81.090066, 8.262244], [81.077642, 8.271568], [81.050059, 8.272244], [81.036256, 8.278901], [81.025978, 8.276868], [81.017352, 8.279014], [80.998995, 8.272684], [80.988824, 8.273097], [80.980133, 8.312482], [80.967355, 8.317943], [80.962324, 8.323689], [80.952051, 8.322895], [80.940839, 8.342534], [80.9307937, 8.3451085], [80.924231, 8.336917], [80.929193, 8.357956], [80.927315, 8.37347], [80.933152, 8.389558], [80.941375, 8.397825], [80.953789, 8.439179], [80.962898, 8.453813], [80.972639, 8.460106], [80.971679, 8.468592], [80.982918, 8.468093], [80.990916, 8.474826], [80.986276, 8.484691], [80.963289, 8.485672], [80.963348, 8.498644], [80.94725, 8.507463], [80.943993, 8.55181], [80.917112, 8.584823], [80.915857, 8.605138], [80.893943, 8.621907], [80.897103, 8.631499], [80.891701, 8.636702], [80.893423, 8.646063], [80.899994, 8.662543], [80.913717, 8.673422], [80.913443, 8.680969], [80.911635, 8.689215], [80.891449, 8.722544], [80.893273, 8.732221], [80.890564, 8.743449], [80.882184, 8.746925], [80.878837, 8.752724], [80.879556, 8.768544], [80.883123, 8.788585], [80.892447, 8.799373], [80.901008, 8.816373], [80.910922, 8.823566], [80.912606, 8.836859], [80.908867, 8.836479], [80.891052, 8.857486], [80.887291, 8.869448], [80.871488, 8.88213], [80.853506, 8.887017], [80.812308, 8.915255], [80.7830074, 8.9202176], [80.781035, 8.9166749], [80.7530425, 8.9051453], [80.725983, 8.897976], [80.71187, 8.898534], [80.692139, 8.889323], [80.667533, 8.87139], [80.646032, 8.868048], [80.595376, 8.869684], [80.592324, 8.847878], [80.599571, 8.842964], [80.627058, 8.837058], [80.637175, 8.815402], [80.651262, 8.803369], [80.65138, 8.79042], [80.633919, 8.779927], [80.623743, 8.766848], [80.618475, 8.752617], [80.601212, 8.744393], [80.589287, 8.722125], [80.573634, 8.716739], [80.569975, 8.70041], [80.550674, 8.68812], [80.545396, 8.67973], [80.530182, 8.672773], [80.519716, 8.658761], [80.506734, 8.658417], [80.46898, 8.684918], [80.451309, 8.692514], [80.427732, 8.673137], [80.424203, 8.673985], [80.421912, 8.662049], [80.410545, 8.659506], [80.399419, 8.634063], [80.380998, 8.621773], [80.378943, 8.611264], [80.382746, 8.602145], [80.378632, 8.597596], [80.381464, 8.591378], [80.379989, 8.583782], [80.369593, 8.575012], [80.359556, 8.575982], [80.351778, 8.572791], [80.340437, 8.555807], [80.337964, 8.546199], [80.313513, 8.550678], [80.288499, 8.56056], [80.284706, 8.581213], [80.279723, 8.584603], [80.281783, 8.590338], [80.278328, 8.590343], [80.273881, 8.600632], [80.27445, 8.610996], [80.259665, 8.618023], [80.249907, 8.616178], [80.24067, 8.628908], [80.237178, 8.628994], [80.239039, 8.637341], [80.233439, 8.652087], [80.237993, 8.663385], [80.235407, 8.680412], [80.113817, 8.649437], [80.086572, 8.656245], [80.080107, 8.653638], [80.044434, 8.673234], [80.055308, 8.636987], [80.050367, 8.521947], [80.0336317, 8.5243548], [80.0323733, 8.5272106]]]}}, {"type": "Feature", "properties": {"name": "North Western Province", "country": "LKA"}, "geometry": {"type": "MultiPolygon", "coordinates": [[[[79.7799365, 8.26209], [79.7854296, 8.2678659], [79.7732417, 8.2790776], [79.774615, 8.2695646], [79.7799365, 8.26209]]], [[[79.9198255, 8.567336], [79.9157835, 8.5485049], [79.9013235, 8.5458336], [79.8846776, 8.5366403], [79.8774692, 8.5366112], [79.874322, 8.5402415], [79.870915, 8.5363903], [79.8668419, 8.5169193], [79.865094, 8.4782588], [79.861916, 8.4749583], [79.8635405, 8.4513554], [79.8473403, 8.440721], [79.8431548, 8.4231467], [79.8465914, 8.3509877], [79.8395032, 8.3463729], [79.8371195, 8.341404], [79.8391646, 8.3341775], [79.8326415, 8.3253453], [79.8376956, 8.3114512], [79.8316115, 8.300546], [79.8312682, 8.2920528], [79.817192, 8.2675912], [79.8104371, 8.2388871], [79.7895395, 8.233578], [79.7909557, 8.2310296], [79.7967815, 8.2340473], [79.8035277, 8.2307748], [79.8044719, 8.2236817], [79.8008241, 8.2224074], [79.7923011, 8.2281777], [79.7981375, 8.2215518], [79.8089976, 8.2162804], [79.8201102, 8.2028626], [79.8222155, 8.1906248], [79.8180503, 8.1698997], [79.8201102, 8.1622532], [79.8341864, 8.1517179], [79.8321265, 8.1447508], [79.8356051, 8.1370995], [79.8292083, 8.1274176], [79.8207968, 8.1228293], [79.8153037, 8.1002267], [79.8029441, 8.0844212], [79.8000258, 8.0822118], [79.7955626, 8.0861208], [79.7916144, 8.0847611], [79.7914427, 8.0800023], [79.7983092, 8.0771131], [79.7979659, 8.0721842], [79.7914881, 8.0738794], [79.7906298, 8.0779584], [79.7894282, 8.075579], [79.7931594, 8.0660656], [79.7966819, 8.0621602], [79.8020858, 8.0619865], [79.8099822, 8.0492389], [79.825521, 8.034115], [79.8357314, 8.0142235], [79.836418, 8.0050443], [79.8335891, 8.0009682], [79.8291259, 7.9975684], [79.8193412, 7.9970584], [79.8264567, 7.9703], [79.8219935, 7.9580596], [79.8252551, 7.9553394], [79.8219935, 7.9498991], [79.8257701, 7.9230364], [79.8203606, 7.9137109], [79.8235358, 7.9267642], [79.8194186, 7.9400383], [79.8211352, 7.9611197], [79.8136809, 7.95101], [79.8090929, 7.9526089], [79.8170153, 7.9651998], [79.8218218, 7.9674099], [79.8226736, 7.9796075], [79.8153328, 7.9763826], [79.7842279, 7.9793892], [79.7572399, 7.987631], [79.7465969, 7.9939208], [79.7366828, 8.0138836], [79.7450942, 8.0356411], [79.7417904, 8.0525643], [79.7555233, 8.0632722], [79.7373694, 8.0726941], [79.7320479, 8.0849311], [79.7361678, 8.1128028], [79.727112, 8.1228918], [79.7310179, 8.1416921], [79.7394294, 8.1440711], [79.7407265, 8.1588376], [79.7465158, 8.1667188], [79.7433946, 8.1762298], [79.7493471, 8.181577], [79.7476745, 8.1886592], [79.7399283, 8.1944149], [79.7378254, 8.2017209], [79.7432875, 8.2046518], [79.7422886, 8.2083578], [79.7559259, 8.2244832], [79.7606457, 8.2225338], [79.7638493, 8.2161472], [79.7691236, 8.2172441], [79.7703123, 8.2212383], [79.765817, 8.2414874], [79.7724935, 8.2492831], [79.7767897, 8.2614389], [79.767318, 8.2622968], [79.7637644, 8.2593652], [79.764509, 8.2559127], [79.7476861, 8.2416423], [79.740116, 8.2307261], [79.7315329, 8.2281777], [79.7403588, 8.2423035], [79.7393118, 8.2502989], [79.747388, 8.2515394], [79.7528189, 8.2478849], [79.7605608, 8.2616886], [79.760138, 8.2662772], [79.7639039, 8.2681034], [79.7615907, 8.2730704], [79.7565975, 8.2722866], [79.7589471, 8.2679759], [79.7562692, 8.2642368], [79.7510078, 8.2645784], [79.7542093, 8.2737499], [79.7586725, 8.2764679], [79.753791, 8.2815271], [79.7541772, 8.2901055], [79.7675668, 8.3013591], [79.7587692, 8.3034399], [79.778766, 8.3481642], [79.7855484, 8.3703173], [79.7793944, 8.37706], [79.7861492, 8.3840735], [79.7768752, 8.3788768], [79.7727596, 8.3683642], [79.7710451, 8.3429018], [79.7623999, 8.3230503], [79.7602283, 8.3081535], [79.7433776, 8.2742164], [79.734902, 8.2355121], [79.7293883, 8.2274243], [79.7251965, 8.2276193], [79.7157433, 8.2187385], [79.7099506, 8.2178361], [79.7135482, 8.2171557], [79.6958425, 8.2102795], [79.7093432, 8.2183646], [79.7029075, 8.2192025], [79.6927375, 8.2106782], [79.6971686, 8.183576], [79.7033975, 8.1704526], [79.706095, 8.147043], [79.7016589, 8.1149469], [79.7075003, 8.0944485], [79.7061221, 8.0569923], [79.7450892, 7.9340877], [79.7844046, 7.7751553], [79.7944905, 7.7194604], [79.7996403, 7.6818654], [79.8006703, 7.6400136], [79.7972792, 7.6126946], [79.7861323, 7.6064257], [79.7893172, 7.5389366], [79.8022235, 7.4663922], [79.8194689, 7.3992715], [79.8420152, 7.2733931], [79.8522235, 7.2728113], [79.8533699, 7.2773386], [79.8586935, 7.2703218], [79.8662997, 7.2708982], [79.8709533, 7.2809179], [79.8757644, 7.2827093], [79.8847917, 7.2739221], [79.8978644, 7.2748065], [79.8992346, 7.2814076], [79.905401, 7.2740381], [79.9075091, 7.2805354], [79.909567, 7.2752841], [79.9052825, 7.2677159], [79.9078575, 7.2653277], [79.9162019, 7.2698133], [79.9150331, 7.2769364], [79.9247023, 7.2776609], [79.9244511, 7.2719502], [79.9273401, 7.2718671], [79.9248717, 7.2847194], [79.933872, 7.2782145], [79.9384805, 7.2806638], [79.9459306, 7.2739203], [79.9471016, 7.2794833], [79.9560032, 7.2826475], [79.9513272, 7.289973], [79.9566884, 7.2901096], [79.9572035, 7.2942045], [79.9670415, 7.2891965], [79.9775955, 7.2925073], [79.9821187, 7.301434], [79.9943845, 7.3032365], [79.9946799, 7.305859], [79.9881484, 7.3066354], [79.9990801, 7.3144635], [80.0042743, 7.3148627], [80.0067875, 7.3212338], [80.0148433, 7.3145245], [80.0266558, 7.317934], [80.024947, 7.3123025], [80.0291491, 7.3097407], [80.0308335, 7.3025615], [80.0382356, 7.3034767], [80.0466942, 7.2995941], [80.054259, 7.2844142], [80.0591914, 7.2838795], [80.0821473, 7.2985159], [80.0839922, 7.3045749], [80.0942979, 7.3073044], [80.1077564, 7.3210831], [80.1241566, 7.3305292], [80.1393661, 7.3231522], [80.148773, 7.3123973], [80.1430254, 7.3061034], [80.1441614, 7.3032124], [80.1686896, 7.2854228], [80.1850641, 7.2612115], [80.1904851, 7.2637996], [80.1956411, 7.2582185], [80.2039118, 7.259098], [80.213774, 7.2746805], [80.2547538, 7.3045495], [80.2793278, 7.3183746], [80.2884659, 7.3149671], [80.3117672, 7.3227922], [80.3166799, 7.3211567], [80.3214566, 7.3288349], [80.3382008, 7.3212043], [80.34996, 7.3391647], [80.3442756, 7.3438387], [80.3423808, 7.3511147], [80.3537865, 7.3562898], [80.3559096, 7.3610506], [80.3499998, 7.3775918], [80.3453276, 7.3821401], [80.3469566, 7.3876861], [80.3569284, 7.386572], [80.3922926, 7.3965295], [80.4010379, 7.3875548], [80.411577, 7.3829819], [80.4166532, 7.3730373], [80.4144125, 7.3566872], [80.422148, 7.35518], [80.4262087, 7.3596149], [80.4373345, 7.3533028], [80.4452051, 7.3573502], [80.457011, 7.3500262], [80.4597803, 7.3526282], [80.4580798, 7.3565793], [80.4514108, 7.3617441], [80.4579232, 7.3745125], [80.464312, 7.3765747], [80.4722392, 7.3937267], [80.4696788, 7.4021601], [80.4618531, 7.4053012], [80.4615704, 7.410967], [80.4703242, 7.4128286], [80.473628, 7.4065414], [80.4780734, 7.408059], [80.4934745, 7.3946314], [80.5101362, 7.3857395], [80.5182178, 7.3895275], [80.5149677, 7.394702], [80.5194061, 7.3993049], [80.5154715, 7.4062897], [80.5167608, 7.4136881], [80.5293504, 7.4121557], [80.5290932, 7.4182961], [80.5379784, 7.4156435], [80.5385447, 7.4218044], [80.5489602, 7.4149027], [80.554927, 7.4177536], [80.5538336, 7.4264806], [80.5460009, 7.4371431], [80.5489072, 7.4409068], [80.5402967, 7.4497279], [80.5430455, 7.4522858], [80.5551867, 7.4496156], [80.5577019, 7.456172], [80.5663163, 7.4575032], [80.5648272, 7.4693988], [80.5699575, 7.4778281], [80.576422, 7.4787239], [80.5710468, 7.4870505], [80.5742874, 7.4910129], [80.5714427, 7.4923845], [80.5709687, 7.5011078], [80.5737084, 7.5090968], [80.5690492, 7.5110919], [80.568944, 7.5167096], [80.5630983, 7.5139162], [80.5656634, 7.5241726], [80.5570985, 7.5377568], [80.5527584, 7.5385713], [80.5527295, 7.551142], [80.5625512, 7.5728265], [80.5712593, 7.5765574], [80.575061, 7.574903], [80.5737022, 7.5867142], [80.5690212, 7.5939848], [80.5742846, 7.5969349], [80.5779194, 7.6050452], [80.5662517, 7.6207144], [80.5657917, 7.6311272], [80.5544442, 7.6351116], [80.5491405, 7.6421609], [80.5453146, 7.6612424], [80.5518571, 7.6620419], [80.5534737, 7.6736572], [80.5494733, 7.6789873], [80.5474453, 7.6977519], [80.5495459, 7.7052545], [80.5454233, 7.7087346], [80.5366056, 7.7088859], [80.5372616, 7.7389458], [80.5295018, 7.7444371], [80.5210295, 7.7608231], [80.5196695, 7.7724423], [80.5167544, 7.7748224], [80.5035517, 7.7743954], [80.5032108, 7.779665], [80.499135, 7.7826068], [80.4965359, 7.8092509], [80.4997697, 7.8163635], [80.4839329, 7.8231392], [80.4789648, 7.8410213], [80.4690961, 7.8500028], [80.4752548, 7.8563714], [80.4798434, 7.8772801], [80.4743756, 7.8958172], [80.4658722, 7.9047216], [80.4611046, 7.9452883], [80.4474999, 7.9550791], [80.4335672, 7.9478962], [80.4186836, 7.9532923], [80.4259968, 7.9628568], [80.4221966, 7.9921457], [80.4153729, 8.0072176], [80.4180693, 8.0125293], [80.4193718, 8.0436275], [80.4046776, 8.0549038], [80.3961653, 8.0532219], [80.3923863, 8.048025], [80.3803797, 8.0564952], [80.3700176, 8.057803], [80.348962, 8.0810199], [80.3440497, 8.0809527], [80.324074, 8.0971117], [80.3171817, 8.1122384], [80.308103, 8.1171475], [80.3011939, 8.1155226], [80.2859589, 8.1187676], [80.2663622, 8.1154411], [80.2524023, 8.1325568], [80.2150666, 8.1436263], [80.2071226, 8.1535406], [80.1881539, 8.1514702], [80.1838519, 8.1620737], [80.1654877, 8.1640604], [80.1508603, 8.1755896], [80.1230359, 8.1813256], [80.1100956, 8.1887688], [80.1076526, 8.1958719], [80.1019144, 8.1972597], [80.0966825, 8.2094924], [80.0864973, 8.2106829], [80.0794604, 8.2235674], [80.0618571, 8.2198122], [80.0377763, 8.2378934], [80.0275527, 8.2270245], [80.017813, 8.2247783], [80.0082592, 8.2296641], [80.0001013, 8.2284807], [79.9957497, 8.2541694], [79.9819041, 8.2773426], [79.9840711, 8.2842875], [79.9781012, 8.3028901], [79.9816894, 8.3076493], [79.974768, 8.3370911], [79.9527926, 8.3694004], [79.9523049, 8.3750651], [79.9561917, 8.3942913], [79.9618059, 8.3980296], [79.9770942, 8.3974791], [79.9852589, 8.4120883], [79.9905266, 8.4138819], [79.9901498, 8.4231776], [79.9963039, 8.4265952], [80.0005685, 8.4339411], [80.0059938, 8.4342081], [80.0075053, 8.439014], [80.0197055, 8.445048], [80.0205423, 8.4505212], [80.0318572, 8.4653497], [80.0428033, 8.5000486], [80.0323733, 8.5272106], [80.0080397, 8.5357345], [80.0008878, 8.5445471], [79.9918771, 8.5418795], [79.9776032, 8.5529377], [79.9650828, 8.5501444], [79.9566086, 8.5525602], [79.9490107, 8.5592928], [79.9376113, 8.5560215], [79.9198255, 8.567336]]], [[[79.8009012, 8.3406749], [79.8065169, 8.3198231], [79.8113234, 8.3181246], [79.8137267, 8.3211819], [79.8066885, 8.3244092], [79.8128684, 8.3330716], [79.8042853, 8.3362987], [79.8114951, 8.3378273], [79.8009012, 8.3406749]]], [[[79.7979021, 8.4517924], [79.8065967, 8.4492698], [79.7965331, 8.4536421], [79.7903747, 8.4628322], [79.7919186, 8.4699968], [79.7856822, 8.4722739], [79.7799087, 8.4927729], [79.7837606, 8.5085639], [79.787435, 8.510074], [79.7890139, 8.5248896], [79.7857392, 8.5335183], [79.7865405, 8.5199814], [79.7776509, 8.4979246], [79.7795825, 8.4877245], [79.7875852, 8.4667056], [79.792027, 8.4593727], [79.7979021, 8.4517924]]]]}}, {"type": "Feature", "properties": {"name": "Southern Province", "country": "LKA"}, "geometry": {"type": "Polygon", "coordinates": [[[81.608309, 6.5800406], [81.599724, 6.561268], [81.588721, 6.560839], [81.581093, 6.550759], [81.56523, 6.554509], [81.546938, 6.536452], [81.539031, 6.538153], [81.532883, 6.535867], [81.523989, 6.519672], [81.502113, 6.510714], [81.482103, 6.495849], [81.47837, 6.486799], [81.479293, 6.473093], [81.48617, 6.46429], [81.47624, 6.448824], [81.479797, 6.419283], [81.472077, 6.408135], [81.466729, 6.407127], [81.461016, 6.413333], [81.448141, 6.413746], [81.439698, 6.419894], [81.436356, 6.416756], [81.427569, 6.418054], [81.419935, 6.40924], [81.400779, 6.406397], [81.398751, 6.413859], [81.393328, 6.414691], [81.383988, 6.398474], [81.373259, 6.398109], [81.367262, 6.390567], [81.351957, 6.389751], [81.340574, 6.38222], [81.332061, 6.379768], [81.327372, 6.38229], [81.316987, 6.375332], [81.31247, 6.380015], [81.278422, 6.369098], [81.273497, 6.35507], [81.253515, 6.340839], [81.225577, 6.344712], [81.221087, 6.349518], [81.224365, 6.357763], [81.210991, 6.367205], [81.203384, 6.383271], [81.197473, 6.386817], [81.190215, 6.401719], [81.184266, 6.40548], [81.170114, 6.402819], [81.1661016, 6.3928503], [81.156891, 6.392573], [81.1505871, 6.3996634], [81.144617, 6.39753], [81.136866, 6.421058], [81.101235, 6.41829], [81.089095, 6.424132], [81.07091, 6.423799], [81.067289, 6.413886], [81.061608, 6.411316], [81.049066, 6.421777], [81.051233, 6.417448], [81.049436, 6.4068], [81.037018, 6.391296], [81.013232, 6.395996], [81.00827, 6.387777], [81.00746, 6.369184], [81.01504, 6.368701], [81.02255, 6.358917], [81.018172, 6.344696], [80.982515, 6.328313], [80.967951, 6.325389], [80.965301, 6.319665], [80.956063, 6.313722], [80.929166, 6.303347], [80.921388, 6.296472], [80.9310675, 6.2883045], [80.9341496, 6.272917], [80.941263, 6.270581], [80.941719, 6.2593066], [80.9531412, 6.2388464], [80.9505, 6.234843], [80.9458556, 6.2361915], [80.93968, 6.22795], [80.931092, 6.240073], [80.910353, 6.238062], [80.89257, 6.24908], [80.881986, 6.24635], [80.869181, 6.266719], [80.857932, 6.272002], [80.83162, 6.269095], [80.82464, 6.265442], [80.798017, 6.267094], [80.770959, 6.279647], [80.759763, 6.281101], [80.732394, 6.296566], [80.711805, 6.300777], [80.703989, 6.306506], [80.670059, 6.306029], [80.669684, 6.318748], [80.675161, 6.321843], [80.670816, 6.326961], [80.664475, 6.327304], [80.657228, 6.337191], [80.663359, 6.339777], [80.66131, 6.353762], [80.631403, 6.351476], [80.611158, 6.34587], [80.606528, 6.359679], [80.609581, 6.365751], [80.617499, 6.371073], [80.615616, 6.381147], [80.620095, 6.386737], [80.618845, 6.396264], [80.59698, 6.397541], [80.578784, 6.39061], [80.565324, 6.3943], [80.554939, 6.389489], [80.549623, 6.396135], [80.54524, 6.394585], [80.544677, 6.389113], [80.533835, 6.388185], [80.533739, 6.374323], [80.496225, 6.367398], [80.491006, 6.380128], [80.472059, 6.378239], [80.465235, 6.385959], [80.451304, 6.387724], [80.440527, 6.394665], [80.431525, 6.389344], [80.419069, 6.392391], [80.3812714, 6.4255777], [80.3689369, 6.4267872], [80.3566649, 6.4173455], [80.3520793, 6.4191662], [80.3345532, 6.4109536], [80.3133426, 6.3969142], [80.2990209, 6.3976657], [80.2902483, 6.3917725], [80.2902964, 6.3704286], [80.3009134, 6.3354117], [80.2968083, 6.3248628], [80.2758815, 6.3490872], [80.2692509, 6.3499258], [80.253085, 6.3656449], [80.2473312, 6.3674808], [80.2411137, 6.3765716], [80.2174766, 6.3800778], [80.2119967, 6.371491], [80.2067353, 6.3719945], [80.2073992, 6.35964], [80.1894483, 6.3544984], [80.1868316, 6.3581229], [80.1692666, 6.3600565], [80.1545711, 6.367227], [80.132255, 6.3678628], [80.1306667, 6.3657195], [80.1221834, 6.3712108], [80.1137641, 6.3859751], [80.0874527, 6.401777], [80.0697045, 6.3980322], [80.0614118, 6.4084672], [80.0388377, 6.4197527], [80.0302274, 6.4196591], [80.0191431, 6.4341339], [80.0077624, 6.4370217], [80.0039939, 6.4292727], [79.9990444, 6.4269669], [79.9919936, 6.4398211], [79.98756813735636, 6.440351918041709], [79.9938362, 6.4296389], [79.994061, 6.416819], [80.0041856, 6.3995178], [80.010169, 6.3677061], [80.0284002, 6.3310224], [80.0304726, 6.3214694], [80.028379, 6.3138816], [80.0377645, 6.2927839], [80.0335257, 6.2843012], [80.0354423, 6.2760352], [80.0330248, 6.2694072], [80.0378519, 6.255693], [80.0516227, 6.2360887], [80.0635369, 6.2027852], [80.0629562, 6.1906684], [80.0886027, 6.1660992], [80.0913422, 6.1560017], [80.0987299, 6.1483567], [80.0988882, 6.141019], [80.0963833, 6.1428751], [80.0994728, 6.1399536], [80.0998221, 6.1312075], [80.1231446, 6.1111499], [80.124221, 6.1018158], [80.1739542, 6.0626112], [80.1799692, 6.0520904], [80.1985436, 6.038683], [80.2091548, 6.035912], [80.2174984, 6.0236074], [80.219898, 6.0274389], [80.2174544, 6.031201], [80.2223609, 6.0360852], [80.2312786, 6.0349069], [80.2323803, 6.0322056], [80.2268344, 6.0320055], [80.2292707, 6.0303891], [80.2386086, 6.0323672], [80.2425431, 6.0281981], [80.2395827, 6.0188143], [80.2348447, 6.0173874], [80.2431331, 6.0052659], [80.2494724, 6.0095505], [80.2645739, 5.9985718], [80.314905, 5.9913747], [80.3706433, 5.9672309], [80.3903449, 5.9650078], [80.4098272, 5.9571357], [80.4126831, 5.9588017], [80.4174394, 5.9546403], [80.4261748, 5.9703464], [80.4379645, 5.9724898], [80.4539415, 5.9632866], [80.4517504, 5.9478818], [80.4482948, 5.947712], [80.4506369, 5.9502619], [80.4437191, 5.9465199], [80.4538416, 5.9411972], [80.4574682, 5.9446997], [80.4742551, 5.9373885], [80.4855707, 5.9368189], [80.4938323, 5.9402331], [80.519666, 5.9354201], [80.5331255, 5.9375428], [80.5434913, 5.9431145], [80.5572993, 5.941494], [80.5777454, 5.9346396], [80.5843522, 5.9276337], [80.5825459, 5.9242607], [80.5851865, 5.924968], [80.5853637, 5.921071], [80.581901, 5.923199], [80.5839672, 5.9197634], [80.5914907, 5.9190173], [80.5943633, 5.9194519], [80.5949542, 5.926077], [80.6200236, 5.932513], [80.6172896, 5.9368815], [80.6212986, 5.9389133], [80.6226399, 5.9453031], [80.6338342, 5.9453879], [80.6361417, 5.9479658], [80.6402466, 5.9441929], [80.6436344, 5.952502], [80.6494757, 5.954787], [80.6730956, 5.9594741], [80.6861566, 5.9581452], [80.6882586, 5.9623843], [80.6973872, 5.963407], [80.6995445, 5.9592115], [80.7067186, 5.9592154], [80.7080689, 5.9627518], [80.7097956, 5.9596671], [80.7223105, 5.9599812], [80.7173058, 5.9645004], [80.720469, 5.9648883], [80.7184554, 5.9683589], [80.7232765, 5.973809], [80.72301, 5.9780228], [80.729489, 5.9794842], [80.7319479, 5.9782106], [80.7314388, 5.976656], [80.7315425, 5.9759852], [80.7319466, 5.9752248], [80.7330934, 5.9745622], [80.732075, 5.9780708], [80.7358786, 5.9761204], [80.7344468, 5.9720453], [80.7378487, 5.9720148], [80.7392058, 5.9782256], [80.7362419, 5.981687], [80.7411697, 5.9873265], [80.7501046, 5.9889135], [80.7450851, 5.9905926], [80.748577, 5.9982556], [80.7548297, 6.0014013], [80.7644567, 6.000536], [80.7670468, 6.0048704], [80.7705932, 6.002836], [80.7738711, 6.0061173], [80.7812215, 6.0062392], [80.7807295, 6.009296], [80.7871743, 6.0124775], [80.7899807, 6.018399], [80.8014315, 6.0227173], [80.7983647, 6.0246484], [80.7989974, 6.0303445], [80.8071399, 6.0372383], [80.8470795, 6.0454409], [80.8606638, 6.0420937], [80.8667241, 6.0469178], [80.8656034, 6.0503915], [80.8713016, 6.0581711], [80.9041341, 6.0638799], [80.9288052, 6.0747755], [80.936486, 6.0749129], [80.9364663, 6.0803516], [80.9433376, 6.0837875], [80.9770037, 6.0870519], [81.0009355, 6.1011803], [81.0505053, 6.106824], [81.0568794, 6.1106214], [81.0700759, 6.1092402], [81.0878318, 6.1130173], [81.0941501, 6.1089206], [81.0967149, 6.1143629], [81.1042535, 6.1128726], [81.0974699, 6.1144008], [81.1016317, 6.118309], [81.0972136, 6.1215776], [81.0971667, 6.1278378], [81.1059617, 6.1273602], [81.1062235, 6.116728], [81.1068294, 6.1192622], [81.1276357, 6.1199416], [81.1310555, 6.1212185], [81.126585, 6.1259707], [81.1303571, 6.1321211], [81.1444802, 6.1358159], [81.1507483, 6.1421982], [81.1685572, 6.1455481], [81.1784787, 6.1554644], [81.1875964, 6.1586273], [81.2261123, 6.1651201], [81.2270156, 6.1707223], [81.2327963, 6.1729772], [81.2358016, 6.1795051], [81.2707113, 6.1847535], [81.2946159, 6.1957414], [81.3240823, 6.1987826], [81.325531, 6.2048172], [81.339824, 6.214248], [81.3374018, 6.2165989], [81.3403527, 6.2195291], [81.3364945, 6.2175633], [81.3414799, 6.2235122], [81.3732004, 6.2350955], [81.3741937, 6.2408939], [81.3796909, 6.2441872], [81.4014737, 6.2506686], [81.4042737, 6.2563358], [81.4163827, 6.2647287], [81.4207695, 6.2748362], [81.4268486, 6.2777311], [81.4275415, 6.2840696], [81.4382651, 6.2941476], [81.4812681, 6.3107035], [81.4840992, 6.3142223], [81.4833089, 6.3220293], [81.4947308, 6.328943], [81.5009507, 6.3377934], [81.49772, 6.3431399], [81.5035435, 6.349855], [81.5198944, 6.3592127], [81.5569373, 6.3671979], [81.5670395, 6.3732336], [81.5635823, 6.3756917], [81.5674784, 6.3818932], [81.599675, 6.3995267], [81.6190642, 6.4165934], [81.6144728, 6.4224321], [81.6160315, 6.4281033], [81.6240914, 6.4347999], [81.649461, 6.4457348], [81.6585198, 6.4546296], [81.6613675, 6.4642945], [81.6931124, 6.4864659], [81.7046068, 6.501188], [81.7078823, 6.5107297], [81.6992962, 6.5146105], [81.6883852, 6.5135749], [81.6772046, 6.5196988], [81.6623456, 6.5403596], [81.655996, 6.540475], [81.650214, 6.545035], [81.63801, 6.542219], [81.63301, 6.552535], [81.6217012, 6.5643836], [81.6209117, 6.5711448], [81.6154176, 6.572341], [81.608309, 6.5800406]]]}}, {"type": "Feature", "properties": {"name": "Western Province", "country": "LKA"}, "geometry": {"type": "Polygon", "coordinates": [[[79.8420152, 7.2733931], [79.8389874, 7.223806], [79.8360379, 7.2154776], [79.8285511, 7.2078213], [79.8399746, 7.2065956], [79.8369034, 7.2012604], [79.8390377, 7.200031], [79.8359382, 7.2005004], [79.8364862, 7.1950458], [79.8445228, 7.1955908], [79.8480287, 7.199147], [79.8526079, 7.1950441], [79.8655583, 7.1694998], [79.8685681, 7.1555129], [79.8681585, 7.1533563], [79.8662617, 7.1566435], [79.8667169, 7.1419788], [79.8709386, 7.131728], [79.869411, 7.1235731], [79.8721431, 7.121518], [79.8700483, 7.1177369], [79.8744276, 7.113854], [79.8689006, 7.11625], [79.8677569, 7.1117333], [79.8652728, 7.1124447], [79.862762, 7.1261237], [79.858276, 7.1169744], [79.8595227, 7.1122635], [79.8556965, 7.1120626], [79.8576613, 7.1056348], [79.8534086, 7.1067527], [79.8561717, 7.1011752], [79.8534402, 7.1063741], [79.8446708, 7.1114859], [79.8472001, 7.12029], [79.8388813, 7.1316889], [79.8387062, 7.1459356], [79.8332377, 7.1499714], [79.8230942, 7.181664], [79.8303139, 7.2020186], [79.8257559, 7.2082415], [79.8194256, 7.2072564], [79.8168996, 7.2034556], [79.8285189, 7.152629], [79.8421472, 7.1124427], [79.8681542, 7.0006559], [79.8704003, 6.9784578], [79.8680792, 6.9684991], [79.8532651, 6.9610232], [79.8565936, 6.9607927], [79.8532018, 6.957727], [79.8565636, 6.9583856], [79.8538297, 6.9544653], [79.8570333, 6.9537167], [79.8537314, 6.9534718], [79.84987, 6.9425026], [79.8522937, 6.9417398], [79.8475674, 6.9376681], [79.8473972, 6.9419647], [79.845287, 6.9387236], [79.8429124, 6.9399576], [79.8462505, 6.9518114], [79.8448759, 6.9558056], [79.8398427, 6.9607573], [79.8445406, 6.955164], [79.8427909, 6.9454339], [79.8406114, 6.9495883], [79.8390214, 6.9445487], [79.8234801, 6.9453692], [79.8233464, 6.9573007], [79.8310814, 6.9659359], [79.822782, 6.9576481], [79.8224768, 6.9453159], [79.8253017, 6.9415548], [79.8367887, 6.9411743], [79.8404374, 6.9383103], [79.8578233, 6.871638], [79.8630095, 6.8246815], [79.8799176, 6.7704774], [79.8995015, 6.7159438], [79.9352848, 6.6413857], [79.9637111, 6.5536041], [79.9815376, 6.5115977], [79.9803062, 6.5072445], [79.9760329, 6.5055428], [79.9825679, 6.488474], [79.9827434, 6.4774778], [79.9733672, 6.4702828], [79.9772143, 6.4522821], [79.9877352, 6.4430514], [79.9862627, 6.4402821], [79.9919936, 6.4398211], [79.9990444, 6.4269669], [80.0039939, 6.4292727], [80.0077624, 6.4370217], [80.0191431, 6.4341339], [80.0302274, 6.4196591], [80.0388377, 6.4197527], [80.0614118, 6.4084672], [80.0697045, 6.3980322], [80.0874527, 6.401777], [80.1137641, 6.3859751], [80.1221834, 6.3712108], [80.1306667, 6.3657195], [80.132255, 6.3678628], [80.1545711, 6.367227], [80.1692666, 6.3600565], [80.1868316, 6.3581229], [80.1894483, 6.3544984], [80.2073992, 6.35964], [80.2067353, 6.3719945], [80.2119967, 6.371491], [80.2174766, 6.3800778], [80.2411137, 6.3765716], [80.2473312, 6.3674808], [80.253085, 6.3656449], [80.2692509, 6.3499258], [80.2758815, 6.3490872], [80.2936456, 6.3260727], [80.2990268, 6.3257593], [80.3009134, 6.3354117], [80.2902964, 6.3704286], [80.2902483, 6.3917725], [80.2990209, 6.3976657], [80.3133426, 6.3969142], [80.3345532, 6.4109536], [80.3520793, 6.4191662], [80.3566649, 6.4173455], [80.3689369, 6.4267872], [80.3812714, 6.4255777], [80.3802766, 6.4341801], [80.3380906, 6.4931319], [80.3130279, 6.5342018], [80.3045417, 6.5392015], [80.3046217, 6.5467724], [80.2952931, 6.5641098], [80.3145882, 6.5712008], [80.3032186, 6.5959194], [80.282514, 6.6178874], [80.2746851, 6.6177618], [80.2550261, 6.6270082], [80.2495389, 6.6370144], [80.2516891, 6.6485904], [80.2494364, 6.6585882], [80.2416909, 6.6703117], [80.2290426, 6.6779373], [80.2207048, 6.6904116], [80.2157834, 6.6918709], [80.2039643, 6.7225556], [80.198742, 6.7272807], [80.1992616, 6.7313558], [80.2057295, 6.7317402], [80.1925193, 6.7609674], [80.189644, 6.7721218], [80.1921171, 6.7817522], [80.1808819, 6.7967376], [80.1772424, 6.8095718], [80.1780029, 6.8165742], [80.1811362, 6.8141727], [80.1871867, 6.8187898], [80.1889638, 6.8149822], [80.1969075, 6.8145492], [80.2020667, 6.8194196], [80.2021563, 6.8316987], [80.1942261, 6.8515077], [80.1750087, 6.8599119], [80.1802948, 6.8679758], [80.1837307, 6.8865007], [80.190099, 6.8925985], [80.1888931, 6.8995193], [80.1945976, 6.9041493], [80.1998769, 6.903717], [80.2004756, 6.9086878], [80.2126704, 6.9199564], [80.2082019, 6.9379632], [80.2204167, 6.9366941], [80.2232037, 6.9416716], [80.2223599, 6.9503815], [80.2175331, 6.9563954], [80.217054, 6.975269], [80.2072449, 6.9787013], [80.1992354, 6.9761792], [80.1894238, 6.9783823], [80.1836128, 6.9750069], [80.1792142, 6.9776848], [80.1811091, 6.9961062], [80.1711369, 7.0219055], [80.1680551, 7.0475165], [80.1626661, 7.0570592], [80.1669891, 7.0673263], [80.1739608, 7.0729609], [80.1770116, 7.0826808], [80.1879625, 7.0899308], [80.1855536, 7.1052001], [80.1961665, 7.1023504], [80.1991752, 7.1171095], [80.2126845, 7.132019], [80.2022868, 7.1376332], [80.1980872, 7.1350223], [80.183295, 7.1383283], [80.1627211, 7.1269229], [80.154594, 7.1520157], [80.1572218, 7.1639513], [80.1534409, 7.1831558], [80.1453682, 7.1883156], [80.1519263, 7.1930653], [80.1552179, 7.1858653], [80.159493, 7.1846108], [80.160674, 7.1932497], [80.1705274, 7.1959641], [80.1815313, 7.1936299], [80.1842684, 7.1962712], [80.1864575, 7.2049079], [80.184632, 7.2132439], [80.1896003, 7.2264307], [80.1867086, 7.2361456], [80.2001867, 7.2448662], [80.2002833, 7.2493924], [80.1904851, 7.2637996], [80.1850641, 7.2612115], [80.1686896, 7.2854228], [80.1441614, 7.3032124], [80.1430254, 7.3061034], [80.148773, 7.3123973], [80.1393661, 7.3231522], [80.1241566, 7.3305292], [80.1077564, 7.3210831], [80.0942979, 7.3073044], [80.0839922, 7.3045749], [80.0821473, 7.2985159], [80.0591914, 7.2838795], [80.054259, 7.2844142], [80.0466942, 7.2995941], [80.0382356, 7.3034767], [80.0308335, 7.3025615], [80.0291491, 7.3097407], [80.024947, 7.3123025], [80.0266558, 7.317934], [80.0148433, 7.3145245], [80.0067875, 7.3212338], [80.0042743, 7.3148627], [79.9990801, 7.3144635], [79.9881484, 7.3066354], [79.9946799, 7.305859], [79.9943845, 7.3032365], [79.9821187, 7.301434], [79.9775955, 7.2925073], [79.9670415, 7.2891965], [79.9572035, 7.2942045], [79.9566884, 7.2901096], [79.9513272, 7.289973], [79.9560032, 7.2826475], [79.9471016, 7.2794833], [79.9459306, 7.2739203], [79.9384805, 7.2806638], [79.933872, 7.2782145], [79.9248717, 7.2847194], [79.9273401, 7.2718671], [79.9244511, 7.2719502], [79.9247023, 7.2776609], [79.9150331, 7.2769364], [79.9162019, 7.2698133], [79.9078575, 7.2653277], [79.9052825, 7.2677159], [79.909567, 7.2752841], [79.9075091, 7.2805354], [79.905401, 7.2740381], [79.8992346, 7.2814076], [79.8978644, 7.2748065], [79.8847917, 7.2739221], [79.8757644, 7.2827093], [79.8709533, 7.2809179], [79.8662997, 7.2708982], [79.8586935, 7.2703218], [79.8533699, 7.2773386], [79.8522235, 7.2728113], [79.8420152, 7.2733931]]]}}]}