{"type": "FeatureCollection", "features": [{"type": "Feature", "properties": {"name": "India"}, "geometry": {"type": "MultiPolygon", "coordinates": [[[[77.800346, 35.495406], [77.883132, 35.431068], [78.044259, 35.491633], [78.001161, 35.268908], [78.296027, 34.624658], [78.664583, 34.526421], [78.95118, 34.349171], [78.976192, 34.217163], [78.730109, 34.079265], [78.800905, 33.494236], [79.075048, 33.295743], [79.456096, 33.250399], [79.37317, 33.11214], [79.399273, 33.026878], [79.333586, 32.994292], [79.613913, 32.765035], [79.443497, 32.534773], [79.320466, 32.592267], [79.112928, 32.472386], [79.075307, 32.37079], [78.943429, 32.346373], [78.77145, 32.461663], [78.736827, 32.629844], [78.384807, 32.547549], [78.457981, 32.229662], [78.744578, 31.9642], [78.670887, 31.770517], [78.818889, 31.607374], [78.699516, 31.510016], [78.762561, 31.44511], [78.745095, 31.308116], [78.921008, 31.269685], [79.07021, 31.461381], [79.131397, 31.438433], [79.401592, 31.023637], [79.577809, 30.938371], [79.85035, 30.954494], [80.224591, 30.734094], [80.16661, 30.674408], [80.179839, 30.559479], [80.596351, 30.459796], [81.003303, 30.212731], [80.867911, 30.200173], [80.368975, 29.757926], [80.385201, 29.604835], [80.213739, 29.416888], [80.280092, 29.31015], [80.258181, 29.202456], [80.132607, 29.110214], [80.036386, 28.837026], [80.329701, 28.627479], [80.488451, 28.562444], [80.487624, 28.656469], [80.555837, 28.678948], [80.905273, 28.440849], [81.169701, 28.361319], [81.296205, 28.12831], [81.396044, 28.160634], [81.855654, 27.850937], [82.02722, 27.912406], [82.401926, 27.677175], [82.679687, 27.694409], [82.752137, 27.494964], [83.132786, 27.444217], [83.282441, 27.330943], [83.387034, 27.470469], [83.854602, 27.34505], [83.834087, 27.434037], [84.007668, 27.440807], [84.11717, 27.513283], [84.289408, 27.376108], [84.606546, 27.310479], [84.640239, 27.028377], [84.817489, 27.0106], [85.018562, 26.845804], [85.162016, 26.851024], [85.194934, 26.758885], [85.28728, 26.736974], [85.609379, 26.851024], [85.701828, 26.796608], [85.712887, 26.653206], [85.828538, 26.566131], [86.01137, 26.654447], [86.195855, 26.582668], [86.284428, 26.61202], [86.713601, 26.414565], [87.041333, 26.580187], [87.10629, 26.404746], [87.30049, 26.34599], [87.416452, 26.426967], [87.586984, 26.378029], [87.869809, 26.464639], [87.975488, 26.366557], [88.074189, 26.453942], [88.169067, 26.744002], [88.151394, 26.862806], [87.969183, 27.110801], [88.02334, 27.494912], [88.159662, 27.77412], [88.099924, 27.928322], [88.37877, 27.982634], [88.610488, 28.105831], [88.802931, 28.011005], [88.855072, 27.859179], [88.741642, 27.53168], [88.773578, 27.408509], [88.892331, 27.315543], [88.730067, 27.150954], [88.827632, 27.097882], [88.851713, 26.945437], [88.906645, 26.981093], [89.096504, 26.821413], [89.341657, 26.854331], [89.586087, 26.784051], [89.609806, 26.712221], [89.81367, 26.696149], [90.127191, 26.751392], [90.348831, 26.896654], [90.717077, 26.767049], [91.296577, 26.774594], [91.420187, 26.871539], [91.520646, 26.79759], [91.825123, 26.858465], [91.87866, 26.803016], [91.89313, 26.881358], [92.072757, 26.887766], [91.987904, 27.122273], [92.088776, 27.29234], [91.975088, 27.472433], [91.727092, 27.459942], [91.604465, 27.532145], [91.573252, 27.619711], [91.63577, 27.782525], [91.564355, 27.851372], [91.952247, 27.72482], [92.239568, 27.865277], [92.303854, 27.78616], [92.392841, 27.856027], [92.574977, 27.847806], [92.736392, 27.985909], [92.638924, 28.057487], [92.678611, 28.133064], [93.207825, 28.340539], [93.186286, 28.431995], [93.31717, 28.603463], [93.446213, 28.671894], [93.927786, 28.682752], [93.992019, 28.844649], [94.347311, 29.024349], [94.287505, 29.147938], [94.514778, 29.22106], [94.599941, 29.316635], [94.704224, 29.284699], [94.776571, 29.166696], [95.367406, 29.036496], [95.487577, 29.068994], [95.56443, 29.245606], [95.717165, 29.218284], [95.744781, 29.340432], [96.074536, 29.369286], [96.141966, 29.368467], [96.235293, 29.241214], [96.366241, 29.257233], [96.174625, 29.108845], [96.195323, 28.941106], [96.366568, 29.036537], [96.457605, 28.994588], [96.592584, 28.757884], [96.301852, 28.420711], [96.369644, 28.378116], [96.716924, 28.436539], [96.965791, 28.330468], [97.11555, 28.366564], [97.323496, 28.217478], [97.292903, 28.095082], [97.362253, 27.994881], [97.333521, 27.894164], [97.222933, 27.899719], [96.862129, 27.599298], [96.881352, 27.444114], [97.119167, 27.087288], [96.865332, 27.171624], [96.853757, 27.248725], [96.705239, 27.36076], [96.142586, 27.25751], [95.410641, 26.701627], [95.122803, 26.611607], [95.040638, 26.475594], [95.041775, 26.287596], [95.151225, 26.049936], [95.00064, 25.922036], [95.008805, 25.737138], [94.608003, 25.394627], [94.553329, 25.204147], [94.689135, 25.138518], [94.708565, 25.02589], [94.581544, 24.73012], [94.29536, 24.332599], [94.131856, 23.856969], [93.711106, 24.005461], [93.456652, 23.95996], [93.368285, 24.07848], [93.309684, 24.063984], [93.430297, 23.680339], [93.3749, 23.129726], [93.272787, 23.00591], [93.140082, 23.031903], [93.175532, 22.881705], [93.070835, 22.69288], [93.173672, 22.259418], [93.141735, 22.187277], [93.024533, 22.201902], [92.978955, 21.995351], [92.906194, 22.017314], [92.877462, 21.957007], [92.683779, 22.154308], [92.650913, 22.019174], [92.575879, 21.977574], [92.495883, 22.695618], [92.359871, 22.926612], [92.348606, 23.354105], [92.259309, 23.706487], [92.1943, 23.648144], [92.150788, 23.731653], [92.019013, 23.640057], [91.922688, 23.722972], [91.940775, 23.495182], [91.743681, 23.272327], [91.795564, 23.089496], [91.586068, 22.944466], [91.394349, 23.262664], [91.370887, 23.062779], [91.313527, 23.101046], [91.287275, 23.355552], [91.136276, 23.629515], [91.216272, 23.908387], [91.339055, 23.995229], [91.363033, 24.099848], [91.581831, 24.096101], [91.629063, 24.215319], [91.703684, 24.142946], [91.732933, 24.234284], [91.87711, 24.158036], [91.899847, 24.33805], [91.972194, 24.316062], [91.949974, 24.375387], [92.107587, 24.405979], [92.223032, 24.891376], [92.380748, 24.836702], [92.477693, 24.86391], [92.483791, 24.928221], [92.033999, 25.181668], [91.638675, 25.124049], [91.235702, 25.201925], [90.364644, 25.149991], [89.819044, 25.284969], [89.783129, 25.814446], [89.828656, 25.979397], [89.653008, 26.22269], [89.562781, 26.142591], [89.611357, 26.072208], [89.541697, 25.959709], [89.335301, 25.998569], [89.11919, 26.146622], [89.043743, 26.381078], [88.94101, 26.439421], [88.891246, 26.385781], [89.019455, 26.234472], [88.663404, 26.264444], [88.712238, 26.328265], [88.656273, 26.415133], [88.372518, 26.611607], [88.315105, 26.465052], [88.461143, 26.45389], [88.497626, 26.352708], [88.431687, 26.362216], [88.326267, 26.21592], [88.163796, 26.140473], [88.087574, 25.830983], [88.127726, 25.774914], [88.259915, 25.789021], [88.530286, 25.500202], [88.772338, 25.501959], [88.841998, 25.332822], [88.984935, 25.284969], [88.924163, 25.167871], [88.441299, 25.18973], [88.322753, 24.874684], [88.20245, 24.9453], [88.114911, 24.916413], [88.140955, 24.844583], [88.02179, 24.645603], [88.10995, 24.500986], [88.475405, 24.315468], [88.634517, 24.294125], [88.660149, 24.338257], [88.737508, 24.287097], [88.67808, 24.154289], [88.71415, 23.925156], [88.577621, 23.85516], [88.540104, 23.649953], [88.719421, 23.468104], [88.770168, 23.488826], [88.69658, 23.252354], [88.959975, 23.202693], [88.838794, 22.975808], [88.944524, 22.848012], [88.927988, 22.548134], [89.078159, 22.150845], [89.060883, 21.938463], [89.009532, 21.904608], [88.90504, 21.969428], [89.01588, 21.853339], [89.082693, 21.617336], [88.891612, 21.65351], [88.858653, 21.766832], [88.858653, 21.636542], [88.805837, 21.62287], [88.810883, 21.691718], [88.790538, 21.568264], [88.70753, 21.578315], [88.694509, 21.83983], [88.763031, 22.017279], [88.708507, 22.072211], [88.763031, 22.130561], [88.694835, 22.081529], [88.689952, 21.94599], [88.63087, 21.945461], [88.660167, 22.205024], [88.567068, 21.850816], [88.564626, 21.766832], [88.632823, 21.750067], [88.572276, 21.557929], [88.487966, 21.556545], [88.532888, 21.795315], [88.495616, 21.951809], [88.456309, 21.62401], [88.393077, 21.600246], [88.392589, 21.698554], [88.331228, 21.719062], [88.309744, 21.610175], [88.261567, 21.798651], [88.305837, 21.571682], [88.254405, 21.554674], [88.181895, 21.665229], [88.209727, 21.78856], [88.146739, 21.959215], [88.222423, 22.077948], [88.198009, 22.167792], [88.009044, 22.240424], [87.906586, 22.42475], [87.965343, 22.244818], [88.132579, 22.179145], [88.164317, 22.089789], [88.043142, 22.017279], [87.983653, 21.854193], [87.833995, 21.729315], [87.200938, 21.551988], [86.917654, 21.327379], [86.844005, 21.082221], [86.965668, 20.805976], [86.878754, 20.780585], [86.986583, 20.751858], [86.940196, 20.697984], [87.043224, 20.697984], [86.751475, 20.489163], [86.72047, 20.368476], [86.809825, 20.415107], [86.693696, 20.293931], [86.754649, 20.314439], [86.495128, 20.184068], [86.42628, 19.999172], [86.209158, 20.066636], [86.152517, 20.143134], [86.167735, 20.072943], [86.372406, 19.964993], [85.480479, 19.666327], [85.427013, 19.704088], [85.576508, 19.745836], [85.570323, 19.875637], [85.440115, 19.896226], [85.268077, 19.780015], [85.102875, 19.529608], [85.124034, 19.478339], [85.233246, 19.554104], [85.193044, 19.580797], [85.247569, 19.65648], [85.391449, 19.690619], [85.37794, 19.614936], [85.288422, 19.601264], [85.330577, 19.576402], [85.576508, 19.690619], [85.180431, 19.475002], [84.791026, 19.120592], [84.73878, 19.14765], [84.740489, 19.073676], [84.78004, 19.097073], [84.741059, 19.028144], [84.423676, 18.636461], [84.246918, 18.52558], [84.349946, 18.552924], [84.113129, 18.298285], [83.451915, 17.922919], [83.341319, 17.717434], [83.246918, 17.716254], [83.299083, 17.664293], [83.212901, 17.634914], [83.238943, 17.592963], [82.387706, 17.126939], [82.252696, 16.929185], [82.31422, 16.846625], [82.362478, 16.859076], [82.348888, 16.956488], [82.366547, 16.908637], [82.365571, 16.811591], [82.338145, 16.678412], [82.280935, 16.620836], [82.307384, 16.579779], [81.76295, 16.322577], [81.416677, 16.340155], [81.411388, 16.382514], [81.259613, 16.332709], [81.14975, 15.969631], [80.998871, 15.846747], [81.012543, 15.777818], [80.910004, 15.852688], [80.896495, 16.031073], [80.80714, 15.716376], [80.776134, 15.884263], [80.670177, 15.907701], [80.279633, 15.70067], [80.052989, 15.092597], [80.108165, 14.714342], [80.178477, 14.60578], [80.141856, 14.571234], [80.196951, 14.565009], [80.174978, 14.34455], [80.046641, 14.20661], [80.13559, 14.229193], [80.313731, 13.440904], [80.141856, 13.728949], [80.13559, 13.619086], [80.094005, 13.69477], [80.052989, 13.619086], [80.119395, 13.500678], [80.326996, 13.430365], [80.332774, 13.198147], [80.179698, 12.53262], [79.943858, 12.217841], [80.005138, 12.241767], [79.785899, 11.769192], [79.751964, 11.576972], [79.819347, 11.381496], [79.749848, 11.373684], [79.67628, 11.296454], [79.833018, 11.341986], [79.8567, 10.29328], [79.556651, 10.298651], [79.586925, 10.343695], [79.286143, 10.252834], [79.236339, 10.166571], [79.279063, 10.035834], [78.980805, 9.667182], [78.913259, 9.47427], [79.074718, 9.299872], [79.341075, 9.315863], [79.453624, 9.159003], [79.292735, 9.250312], [78.988943, 9.278266], [78.41212, 9.09984], [78.182791, 8.877102], [78.162364, 8.753485], [78.21518, 8.765448], [78.114594, 8.657904], [78.128266, 8.488023], [78.055919, 8.363715], [77.510916, 8.075995], [77.308604, 8.130927], [76.99586, 8.368109], [76.543956, 8.912502], [76.668468, 9.007392], [76.528087, 8.946967], [76.482758, 9.17182], [76.414561, 9.246975], [76.442556, 9.145168], [76.362966, 9.325181], [76.311778, 9.492987], [76.236339, 9.952704], [76.251475, 9.963121], [76.338878, 9.699408], [76.332693, 9.870754], [76.394054, 9.678941], [76.357432, 9.520697], [76.503266, 9.53498], [76.406993, 9.569078], [76.394054, 9.842841], [76.245128, 10.1022], [76.215343, 10.138251], [76.242686, 9.987454], [76.182384, 10.105658], [76.240245, 10.238959], [76.153168, 10.22016], [75.735525, 11.371527], [75.324555, 11.899115], [75.400238, 11.920233], [75.393403, 11.97484], [75.302257, 11.966051], [75.30421, 12.043158], [75.276703, 11.967434], [75.193696, 12.022284], [75.139659, 12.248603], [75.105479, 12.221259], [74.827647, 12.824652], [74.940929, 12.878607], [74.817556, 12.861762], [74.689464, 13.381578], [74.666677, 13.632758], [74.735606, 13.653795], [74.687755, 13.711819], [74.660492, 13.660061], [74.495372, 14.030585], [74.429047, 14.240424], [74.508962, 14.250312], [74.415375, 14.301093], [74.351899, 14.530219], [74.427745, 14.476264], [74.358735, 14.571234], [74.300548, 14.527411], [74.339041, 14.612779], [74.27589, 14.610175], [74.25294, 14.71894], [74.096446, 14.793362], [74.235199, 14.876532], [74.111827, 14.846177], [73.913097, 15.078925], [73.962169, 15.152045], [73.891287, 15.343207], [73.782888, 15.407904], [73.967784, 15.373765], [73.796397, 15.448879], [73.865977, 15.537584], [73.766287, 15.49726], [73.736827, 15.571723], [73.838145, 15.661119], [73.718272, 15.627143], [73.447032, 16.068915], [73.487966, 16.189358], [73.447032, 16.113593], [73.302989, 16.533026], [73.378673, 16.518297], [73.314626, 16.599433], [73.371267, 16.610175], [73.312185, 16.644721], [73.275727, 17.078599], [73.187022, 17.305976], [73.249034, 17.284857], [73.125987, 17.556545], [73.200694, 17.586493], [73.121349, 17.62641], [73.005219, 18.012356], [73.043468, 18.066962], [72.987315, 18.066555], [72.926931, 18.223944], [72.939952, 18.286038], [73.057465, 18.185614], [73.071544, 18.273017], [72.977387, 18.295071], [72.891449, 18.429389], [72.924653, 18.535631], [73.014985, 18.469957], [72.851736, 18.719672], [72.926931, 18.826646], [72.995128, 18.731024], [72.9817, 18.871487], [72.896821, 18.894477], [73.056814, 19.015326], [72.988292, 18.998603], [72.974783, 19.163072], [72.8213, 18.903306], [72.770356, 18.948188], [72.824229, 19.053534], [72.785411, 19.31391], [72.972667, 19.293687], [73.049653, 19.217719], [72.987804, 19.300686], [72.763438, 19.380194], [72.754405, 19.481757], [72.879161, 19.532375], [72.741954, 19.580797], [72.722504, 19.536282], [72.686697, 19.724799], [72.72641, 19.705797], [72.732758, 19.779731], [72.677908, 19.746568], [72.649181, 19.851996], [72.946788, 20.759467], [72.900401, 20.868109], [72.836925, 20.835842], [72.888438, 20.982611], [72.771983, 21.023871], [72.849864, 21.048], [72.809581, 21.130032], [72.700369, 21.074774], [72.714041, 21.16413], [72.615001, 21.105862], [72.734548, 21.19892], [72.618419, 21.252916], [72.586762, 21.341213], [72.645763, 21.362779], [72.564626, 21.38581], [72.747081, 21.452867], [72.583669, 21.417426], [72.82309, 21.643948], [73.132009, 21.757799], [72.926931, 21.684963], [72.550304, 21.666693], [72.566905, 21.849351], [72.734548, 21.994045], [72.542735, 21.910834], [72.50172, 21.97602], [72.57545, 22.194525], [72.74822, 22.164049], [72.812266, 22.234117], [72.916026, 22.22309], [72.917491, 22.27143], [72.573741, 22.288235], [72.466156, 22.232571], [72.391856, 22.253485], [72.397227, 22.366767], [72.328298, 22.260728], [72.240408, 22.301907], [72.148774, 22.277899], [72.306488, 22.22956], [72.307628, 22.079006], [72.173106, 21.975653], [72.097016, 22.007025], [72.102061, 21.945054], [72.028656, 21.938788], [72.156505, 21.925849], [72.169444, 21.841376], [72.057953, 21.898749], [72.104503, 21.835761], [72.004161, 21.857733], [71.996104, 21.799506], [72.166026, 21.793931], [72.298839, 21.626288], [72.104503, 21.315009], [72.104747, 21.205064], [71.140636, 20.765692], [70.740245, 20.718492], [70.054445, 21.153155], [69.808604, 21.465806], [69.427419, 21.781236], [69.39088, 21.876695], [69.198416, 21.979722], [68.944591, 22.295071], [69.073578, 22.481879], [69.071788, 22.399482], [69.202159, 22.414862], [69.212087, 22.273912], [69.479666, 22.342231], [69.515961, 22.448147], [69.616059, 22.355902], [69.733409, 22.480048], [69.794932, 22.418606], [69.972992, 22.541449], [70.178477, 22.561957], [70.375255, 22.902655], [70.504731, 22.97956], [70.50294, 23.104397], [70.398774, 23.069037], [70.392426, 22.940863], [70.130626, 22.993964], [70.135427, 22.929999], [69.833181, 22.858466], [69.715831, 22.746894], [69.585704, 22.761176], [69.201915, 22.85224], [68.866222, 23.019965], [68.654063, 23.157782], [68.623057, 23.267646], [68.552257, 23.259711], [68.606944, 23.325588], [68.520681, 23.369208], [68.536388, 23.421332], [68.423676, 23.445787], [68.48585, 23.514106], [68.437348, 23.548814], [68.411632, 23.494696], [68.408865, 23.621324], [68.491466, 23.618842], [68.469412, 23.659247], [68.821625, 23.878404], [68.427745, 23.714301], [68.327322, 23.5869], [68.143403, 23.612698], [68.27589, 23.665839], [68.163748, 23.757717], [68.263926, 23.93593], [68.724466, 23.965179], [68.747307, 24.331177], [68.838774, 24.236455], [68.904197, 24.320584], [68.962643, 24.257228], [69.563071, 24.276762], [69.714587, 24.168578], [69.972039, 24.165219], [70.097871, 24.298828], [70.416353, 24.401948], [70.562907, 24.424092], [70.567661, 24.272809], [70.755453, 24.231442], [71.082772, 24.411508], [70.977145, 24.464942], [70.954821, 24.584521], [71.063858, 24.682577], [70.848574, 25.163323], [70.654478, 25.39659], [70.653857, 25.674455], [70.249231, 25.707683], [70.064643, 25.980327], [70.146912, 26.217419], [70.158074, 26.530113], [70.056064, 26.589076], [69.815562, 26.580291], [69.50416, 26.735165], [69.465093, 26.80777], [69.534443, 27.125581], [69.993536, 27.571083], [70.101953, 27.81174], [70.341939, 28.01147], [70.534898, 28.015965], [70.710391, 27.74115], [70.831573, 27.701463], [71.226329, 27.845356], [71.874403, 27.95969], [71.908303, 28.135571], [72.149942, 28.353774], [72.354581, 28.767186], [72.930359, 29.047685], [73.232873, 29.536596], [73.370332, 29.927322], [73.739716, 30.048451], [73.944354, 30.188288], [73.85175, 30.372669], [74.057526, 30.531367], [74.319215, 30.893413], [74.401277, 30.893103], [74.658833, 31.083789], [74.506387, 31.175411], [74.617181, 31.458908], [74.489437, 31.711192], [74.550415, 31.826999], [74.698417, 31.950247], [74.783683, 31.942858], [74.828641, 32.025437], [75.294659, 32.148892], [75.359048, 32.261675], [75.023668, 32.466262], [74.689322, 32.471352], [74.629584, 32.588089], [74.685291, 32.831227], [74.573773, 32.75255], [74.34619, 32.76689], [74.311257, 32.994292], [74.153851, 33.040181], [74.002335, 33.177692], [73.991793, 33.252571], [74.095973, 33.328484], [74.157778, 33.494236], [73.976704, 33.648387], [73.966162, 33.734531], [74.272293, 33.96214], [73.893711, 34.054305], [73.990553, 34.218507], [73.774856, 34.370952], [73.925957, 34.564971], [73.919343, 34.642538], [74.348877, 34.773434], [75.017777, 34.629722], [75.212907, 34.644967], [75.611643, 34.49836], [75.795818, 34.507921], [76.023401, 34.677161], [76.652613, 34.746976], [76.757619, 34.915131], [77.013108, 34.986393], [77.042426, 35.107014], [77.800346, 35.495406]]], [[[80.888357, 15.846747], [80.984874, 15.761786], [80.942638, 15.741034], [80.888357, 15.846747]]], [[[73.643891, 10.09455], [73.640961, 10.069322], [73.632579, 10.057278], [73.643891, 10.09455]]], [[[73.65561, 10.144761], [73.657888, 10.139065], [73.654633, 10.141506], [73.65561, 10.144761]]], [[[72.648611, 10.573961], [72.63852, 10.559394], [72.627452, 10.554755], [72.648611, 10.573961]]], [[[72.540863, 10.776516], [72.548757, 10.779324], [72.541189, 10.772895], [72.540863, 10.776516]]], [[[73.672862, 10.824693], [73.681244, 10.82807], [73.684418, 10.827541], [73.672862, 10.824693]]], [[[72.739513, 11.113959], [72.744965, 11.109524], [72.739513, 11.108832], [72.739513, 11.113959]]], [[[73.004405, 11.496487], [73.010916, 11.490139], [73.005626, 11.479641], [73.004405, 11.496487]]], [[[72.705089, 11.692328], [72.705251, 11.687323], [72.700938, 11.686428], [72.705089, 11.692328]]], [[[93.860606, 12.281195], [93.85377, 12.260565], [93.851899, 12.271552], [93.860606, 12.281195]]], [[[94.261892, 13.429267], [94.290782, 13.422919], [94.274913, 13.420315], [94.261892, 13.429267]]], [[[93.865001, 7.20067], [93.929861, 6.959052], [93.834239, 6.745551], [93.76531, 6.924302], [93.649181, 7.013088], [93.649669, 7.119615], [93.676443, 7.181871], [93.865001, 7.20067]]], [[[93.696951, 7.445054], [93.728526, 7.337104], [93.617931, 7.259955], [93.594005, 7.314765], [93.696951, 7.445054]]], [[[93.370291, 8.01732], [93.459809, 7.910793], [93.454438, 7.869289], [93.305024, 7.949937], [93.370291, 8.01732]]], [[[93.54835, 8.020087], [93.574229, 7.968817], [93.573985, 7.924872], [93.510753, 7.98017], [93.54835, 8.020087]]], [[[93.531912, 8.034735], [93.484386, 7.991889], [93.516938, 8.0633], [93.446625, 8.154364], [93.504649, 8.226996], [93.531912, 8.034735]]], [[[73.024099, 8.255439], [73.083995, 8.308498], [73.066091, 8.270453], [73.024099, 8.255439]]], [[[93.083751, 8.355902], [93.17628, 8.212877], [93.065766, 8.268134], [93.083751, 8.355902]]], [[[93.607677, 8.569159], [93.628184, 8.486558], [93.60141, 8.438178], [93.607677, 8.569159]]], [[[92.750987, 9.261217], [92.833849, 9.202359], [92.799565, 9.110154], [92.731212, 9.130845], [92.750987, 9.261217]]], [[[92.585092, 10.771269], [92.535423, 10.524861], [92.384111, 10.529328], [92.376721, 10.78402], [92.428966, 10.850816], [92.527592, 10.895466], [92.585092, 10.771269]]], [[[92.63559, 11.508043], [92.673188, 11.367336], [92.593516, 11.378363], [92.63559, 11.508043]]], [[[92.217296, 11.59809], [92.285004, 11.544013], [92.252126, 11.529242], [92.217296, 11.59809]]], [[[93.014659, 12.037177], [93.066417, 11.899115], [92.947032, 11.989691], [93.014659, 12.037177]]], [[[93.103282, 12.190497], [93.103282, 12.102037], [93.094249, 12.090969], [93.059337, 12.153551], [93.103282, 12.190497]]], [[[92.733084, 12.97248], [92.724376, 12.872382], [92.682791, 12.797309], [92.682791, 12.961737], [92.733084, 12.97248]]], [[[92.977061, 13.345364], [93.079438, 13.259833], [93.036794, 13.062161], [92.937022, 13.067084], [92.952647, 12.970771], [92.876313, 12.916653], [92.964041, 12.864936], [92.990571, 12.519232], [92.936046, 12.419908], [92.84669, 12.433539], [92.91505, 12.338365], [92.894216, 12.205024], [92.757498, 12.07746], [92.737478, 11.878648], [92.761974, 11.940131], [92.79949, 11.899115], [92.76002, 11.708686], [92.68393, 11.649888], [92.696788, 11.611233], [92.761485, 11.663642], [92.71697, 11.494452], [92.524913, 11.857489], [92.570567, 11.932603], [92.617686, 11.8664], [92.681814, 12.219631], [92.727794, 12.172838], [92.792654, 12.207668], [92.717784, 12.362494], [92.72169, 12.599433], [92.783214, 12.664984], [92.737478, 12.807196], [92.834727, 13.002021], [92.847423, 13.344916], [93.011729, 13.578111], [93.07838, 13.397121], [92.977061, 13.345364]]], [[[93.033214, 13.680243], [93.052745, 13.640204], [92.990571, 13.667467], [93.033214, 13.680243]]], [[[88.841319, 21.614], [88.911306, 21.566881], [88.90797, 21.530707], [88.838715, 21.531928], [88.841319, 21.614]]], [[[88.051768, 21.641588], [88.119314, 21.859524], [88.146739, 21.869859], [88.139415, 21.630316], [88.051768, 21.641588]]], [[[88.584972, 21.826606], [88.670584, 21.907416], [88.646332, 21.787909], [88.584972, 21.826606]]], [[[88.080903, 21.849351], [88.077322, 21.904608], [88.118907, 21.945014], [88.125011, 21.888658], [88.080903, 21.849351]]], [[[72.200043, 10.864447], [72.179047, 10.8487], [72.200043, 10.878079], [72.200043, 10.864447]]], [[[72.770356, 11.20364], [72.795584, 11.257229], [72.775401, 11.186591], [72.770356, 11.20364]]]]}}, {"type": "Feature", "properties": {"name": "New Zealand"}, "geometry": {"type": "MultiPolygon", "coordinates": [[[[165.924083, -50.851251], [166.226329, -50.885431], [165.985525, -50.904392], [165.924083, -50.851251]]], [[[169.293524, -52.520198], [169.195296, -52.600313], [169.015391, -52.542657], [169.113593, -52.546453], [169.186255, -52.469199], [169.293524, -52.520198]]], [[[166.287771, -50.542739], [166.164317, -50.686782], [166.226329, -50.693536], [166.122732, -50.700372], [166.232595, -50.75506], [166.240082, -50.851007], [166.061209, -50.830743], [166.083507, -50.786798], [166.040212, -50.752048], [165.992931, -50.776137], [166.021495, -50.836033], [165.896739, -50.851251], [165.925304, -50.754002], [166.078787, -50.675551], [166.095876, -50.535903], [166.287771, -50.542739]]], [[[178.839041, -49.629164], [178.822113, -49.719822], [178.719005, -49.700128], [178.770763, -49.627211], [178.839041, -49.629164]]], [[[-176.236073, -44.241957], [-176.113881, -44.265069], [-176.218984, -44.341241], [-176.236073, -44.241957]]], [[[-176.285105, -43.769708], [-176.398793, -43.907647], [-176.372263, -43.765883], [-176.53539, -43.755629], [-176.423044, -43.805841], [-176.501536, -43.864435], [-176.456532, -43.949802], [-176.395212, -43.938572], [-176.300038, -44.042576], [-176.51179, -44.121759], [-176.581492, -44.123142], [-176.664377, -44.01922], [-176.51594, -43.922296], [-176.566151, -43.837823], [-176.85497, -43.820082], [-176.580637, -43.703383], [-176.169138, -43.731378], [-176.285105, -43.769708]]], [[[-177.848134, -29.278578], [-177.924875, -29.284356], [-177.957997, -29.222752], [-177.889394, -29.233819], [-177.848134, -29.278578]]], [[[-171.185658, -9.361261], [-171.199696, -9.344334], [-171.2058, -9.330987], [-171.185658, -9.361261]]], [[[-172.483632, -8.586521], [-172.494944, -8.554783], [-172.502553, -8.543227], [-172.483632, -8.586521]]], [[[166.637218, -47.993585], [166.637218, -48.062433], [166.56837, -48.041925], [166.637218, -47.993585]]], [[[167.426768, -47.244561], [167.454275, -47.207452], [167.48699, -47.218927], [167.426768, -47.244561]]], [[[167.69337, -46.757257], [167.682628, -46.795099], [167.662852, -46.778497], [167.69337, -46.757257]]], [[[168.542166, -46.759698], [168.605724, -46.754571], [168.563243, -46.801202], [168.542166, -46.759698]]], [[[168.199474, -47.047621], [168.259288, -47.084731], [167.901866, -47.188409], [167.764903, -47.137465], [167.61671, -47.212172], [167.726573, -47.205255], [167.671886, -47.260512], [167.521007, -47.273045], [167.545584, -47.188246], [167.630382, -47.156915], [167.627452, -47.064711], [167.743826, -47.027276], [167.737071, -46.955173], [167.81422, -46.911228], [167.758311, -46.807387], [167.787446, -46.697198], [167.96754, -46.699802], [168.17921, -46.864435], [168.167328, -46.909845], [168.008149, -46.895115], [167.966645, -46.972589], [168.048676, -46.931573], [168.131114, -46.992446], [168.230235, -46.971612], [168.247325, -47.040785], [168.199474, -47.047621]]], [[[166.711436, -45.616306], [166.739268, -45.72796], [166.650076, -45.73919], [166.623057, -45.658298], [166.506196, -45.724867], [166.566661, -45.63714], [166.711436, -45.616306]]], [[[166.966156, -45.149591], [166.997081, -45.233168], [167.034434, -45.30047], [166.893321, -45.243422], [166.966156, -45.149591]]], [[[174.38087, -41.106378], [174.38087, -41.195082], [174.197276, -41.230076], [174.351248, -41.17547], [174.325694, -41.126886], [174.38087, -41.106378]]], [[[173.777599, -40.921482], [173.784434, -40.838962], [173.845876, -40.873142], [173.832286, -40.757582], [173.887462, -40.805352], [173.964854, -40.708754], [173.921641, -40.866795], [173.777599, -40.921482]]], [[[172.748694, -43.279694], [172.747732, -43.567153], [172.832286, -43.601658], [172.681407, -43.639337], [172.875743, -43.668878], [172.893809, -43.614516], [172.928396, -43.685724], [173.064952, -43.648126], [173.092947, -43.854181], [172.996837, -43.88893], [172.948578, -43.751153], [172.965587, -43.90545], [172.817231, -43.881443], [172.763438, -43.792739], [172.422618, -43.854587], [172.647716, -43.782647], [172.417328, -43.737481], [172.376313, -43.864435], [171.346002, -44.278631], [171.173839, -44.54697], [171.203136, -44.905532], [170.926117, -45.238377], [170.865977, -45.482029], [170.62672, -45.706313], [170.759288, -45.776788], [170.556814, -45.896254], [170.776622, -45.780206], [170.778575, -45.876153], [170.333751, -45.981541], [170.21697, -46.172947], [169.899425, -46.344903], [169.848969, -46.467543], [169.659353, -46.49212], [169.755544, -46.499607], [169.704112, -46.549005], [169.035981, -46.681899], [168.889171, -46.65602], [168.8449, -46.560154], [168.617849, -46.547459], [168.645193, -46.601983], [168.591482, -46.614353], [168.4192, -46.601983], [168.565115, -46.585056], [168.365733, -46.540216], [168.378103, -46.619806], [168.267833, -46.5263], [168.385102, -46.499607], [168.368907, -46.416925], [168.301931, -46.478448], [168.171153, -46.336684], [167.838634, -46.393243], [167.740245, -46.322035], [167.789236, -46.294122], [167.712901, -46.197931], [167.590017, -46.159601], [167.45281, -46.15016], [167.405772, -46.251153], [167.295177, -46.273614], [166.761974, -46.219985], [166.671235, -46.153578], [166.952485, -45.944024], [166.616059, -46.088067], [166.658539, -46.000177], [166.808604, -45.930434], [166.691254, -45.940199], [166.743907, -45.860935], [166.629242, -45.965265], [166.474783, -45.996026], [166.489757, -45.80755], [166.889659, -45.776462], [167.020844, -45.697686], [166.774262, -45.718845], [166.890961, -45.649835], [166.77768, -45.656671], [166.781993, -45.594171], [166.991954, -45.575453], [166.952485, -45.546808], [167.054942, -45.491632], [166.71461, -45.575616], [166.767589, -45.409601], [166.952485, -45.436944], [166.809255, -45.357192], [166.825531, -45.317153], [166.890961, -45.282973], [166.93214, -45.355076], [167.047537, -45.361912], [167.011078, -45.426446], [167.097179, -45.382094], [167.20574, -45.478611], [167.047537, -45.327081], [167.308849, -45.313409], [167.247244, -45.253106], [167.047537, -45.269708], [167.012055, -45.132908], [167.170746, -45.184747], [167.054942, -45.101739], [167.1185, -45.039239], [167.192149, -45.135919], [167.274669, -45.094415], [167.151541, -45.007582], [167.335704, -45.037205], [167.198985, -44.964044], [167.385753, -44.84238], [167.459646, -44.991876], [167.514171, -44.992608], [167.457693, -44.789321], [167.555186, -44.785821], [167.568126, -44.882013], [167.548839, -44.73447], [167.679373, -44.765395], [167.594737, -44.697686], [167.751964, -44.603204], [167.932628, -44.697035], [167.836436, -44.505304], [168.028168, -44.320408], [168.127452, -44.316583], [168.103282, -44.258233], [168.30714, -44.148858], [168.37086, -44.039158], [168.645844, -43.964532], [168.803722, -43.997247], [169.419607, -43.650567], [169.717784, -43.573663], [170.104991, -43.258071], [170.23878, -43.237888], [170.303559, -43.162205], [170.200531, -43.216729], [170.289317, -43.106866], [170.858409, -42.843357], [171.225413, -42.450689], [171.48878, -41.830336], [171.46811, -41.76629], [171.855235, -41.66546], [172.070811, -41.414239], [172.139659, -41.291436], [172.106781, -40.886895], [172.507091, -40.589451], [172.592621, -40.604099], [172.595876, -40.527765], [172.83961, -40.50213], [172.996837, -40.524184], [172.742198, -40.520929], [172.660411, -40.647719], [172.694509, -40.750177], [172.856456, -40.843683], [173.017345, -40.797296], [173.058279, -40.963067], [172.996837, -41.017022], [173.103852, -41.307794], [173.212738, -41.301853], [173.588634, -41.056329], [173.674571, -41.106378], [173.747569, -41.037205], [173.681407, -41.034438], [173.707286, -40.994236], [173.992035, -40.899998], [174.034841, -40.933526], [173.917979, -41.001886], [173.780528, -41.011407], [173.778656, -41.10768], [173.828868, -41.058689], [173.95574, -41.058689], [173.829112, -41.140069], [173.859548, -41.229913], [173.774262, -41.283949], [174.133962, -41.175388], [173.896332, -41.191664], [173.948904, -41.079034], [173.976329, -41.147393], [174.045665, -41.092869], [174.033702, -41.017185], [173.948904, -41.010837], [173.998546, -40.968845], [174.094249, -41.019138], [174.183116, -40.973077], [174.207205, -41.070571], [174.326427, -41.009373], [174.257335, -41.126886], [174.167328, -41.115899], [174.216482, -41.188897], [173.935232, -41.279555], [174.325694, -41.216241], [174.050629, -41.436944], [174.225922, -41.723403], [174.292166, -41.730157], [174.21518, -41.856703], [173.703624, -42.378595], [173.723155, -42.4367], [173.558604, -42.491143], [173.287283, -42.953871], [172.91505, -43.102797], [172.748694, -43.279694]]], [[[175.011729, -36.802667], [175.190603, -36.731215], [175.21518, -36.758477], [175.182628, -36.824965], [175.011729, -36.802667]]], [[[175.847667, -36.625095], [175.797537, -36.621759], [175.771983, -36.576593], [175.799164, -36.569757], [175.847667, -36.625095]]], [[[174.84547, -36.4485], [174.895518, -36.401544], [174.906016, -36.449151], [174.84547, -36.4485]]], [[[175.080821, -36.205662], [175.154959, -36.213556], [175.100352, -36.227797], [175.080821, -36.205662]]], [[[175.501801, -36.241306], [175.565929, -36.309747], [175.522797, -36.352146], [175.333751, -36.223728], [175.375499, -36.065851], [175.53061, -36.176365], [175.501801, -36.241306]]], [[[172.138882, -34.149129], [172.144776, -34.169046], [172.114697, -34.146487], [172.138882, -34.149129]]], [[[176.953712, -39.607513], [177.118907, -39.66725], [176.861827, -40.14072], [176.681814, -40.274591], [176.628429, -40.462091], [176.424815, -40.603936], [175.966807, -41.247003], [175.237478, -41.620294], [175.181814, -41.417901], [174.865571, -41.419529], [174.889659, -41.224542], [174.785411, -41.249444], [174.810069, -41.333754], [174.609386, -41.291925], [174.611501, -41.2374], [174.865977, -41.104181], [174.84197, -41.043715], [175.141287, -40.674412], [175.23878, -40.296319], [175.183767, -40.134454], [174.967296, -39.916436], [174.567638, -39.826755], [174.319021, -39.613865], [173.851248, -39.463962], [173.759288, -39.301365], [173.852712, -39.134454], [174.211599, -38.973321], [174.41505, -38.963067], [174.594005, -38.818617], [174.709809, -38.10475], [174.84669, -38.153741], [174.942638, -38.097345], [174.792003, -38.084731], [174.888031, -37.966892], [174.788097, -37.985284], [174.79184, -37.872003], [174.976817, -37.803806], [174.977061, -37.749933], [174.850352, -37.764907], [174.717784, -37.411879], [174.837901, -37.299005], [174.706391, -37.347833], [174.558279, -37.062758], [174.667328, -37.069513], [174.740001, -37.244399], [174.73585, -37.179457], [174.804861, -37.166274], [174.716645, -37.152602], [174.855968, -37.078302], [174.948416, -37.101739], [174.785818, -37.008477], [174.832774, -36.942804], [174.667328, -36.944106], [174.500336, -37.032159], [174.407563, -36.761489], [174.182302, -36.45322], [174.257172, -36.446954], [174.431407, -36.665623], [174.490733, -36.576593], [174.465994, -36.373224], [174.331228, -36.392511], [174.271007, -36.33766], [174.524913, -36.241469], [174.353038, -36.296075], [174.305186, -36.282403], [174.45045, -36.163263], [174.393891, -36.1242], [174.385509, -36.188735], [174.33253, -36.227797], [174.284679, -36.117934], [174.182302, -36.145196], [174.318858, -36.241469], [174.26059, -36.268243], [174.075206, -36.168064], [173.900564, -35.959649], [173.946788, -35.916436], [173.90797, -35.870294], [173.880138, -35.959649], [174.20281, -36.347589], [174.079845, -36.399509], [173.407237, -35.571222], [173.457856, -35.437921], [173.541515, -35.452569], [173.660899, -35.312921], [173.592621, -35.336521], [173.565278, -35.274509], [173.566417, -35.360528], [173.406993, -35.391209], [173.369965, -35.516534], [173.272146, -35.391371], [173.31837, -35.302341], [173.24936, -35.370701], [173.201671, -35.322849], [173.256847, -35.281345], [173.177501, -35.29046], [173.092947, -35.206801], [173.198416, -35.109063], [173.156749, -34.945001], [172.674083, -34.479913], [172.70281, -34.411798], [173.079275, -34.411716], [173.038097, -34.522068], [172.970063, -34.466567], [172.907481, -34.541436], [172.996837, -34.561782], [173.007498, -34.651137], [173.035818, -34.552341], [173.18865, -34.835626], [173.123057, -34.809666], [173.298188, -34.909438], [173.266612, -35.007745], [173.3685, -34.967218], [173.357921, -34.868748], [173.444102, -34.796319], [173.503184, -34.869806], [173.404063, -34.903416], [173.458751, -34.981215], [173.586436, -35.014907], [173.588227, -34.927504], [173.784434, -35.007501], [173.724457, -35.064223], [173.760265, -35.096938], [173.89088, -35.000665], [173.990001, -35.118748], [174.12794, -35.136489], [174.15504, -35.182306], [174.058116, -35.151544], [174.014985, -35.216974], [174.093516, -35.219822], [174.151134, -35.369724], [174.251638, -35.322524], [174.15504, -35.274509], [174.353038, -35.199395], [174.34018, -35.311782], [174.422374, -35.373712], [174.33253, -35.329034], [174.569509, -35.594334], [174.565278, -35.651788], [174.476573, -35.643243], [174.606781, -35.84352], [174.496918, -35.768487], [174.385509, -35.789483], [174.359874, -35.713311], [174.352712, -35.841974], [174.503754, -35.830011], [174.496918, -35.987563], [174.621104, -36.04225], [174.824474, -36.277032], [174.806407, -36.334893], [174.880544, -36.351332], [174.750743, -36.354425], [174.778819, -36.487237], [174.716645, -36.411554], [174.722911, -36.593683], [174.856944, -36.610935], [174.723481, -36.63128], [174.819102, -36.823663], [174.703624, -36.758477], [174.621104, -36.796319], [174.682628, -36.803155], [174.680186, -36.907403], [174.750743, -36.844822], [174.875662, -36.851007], [174.891449, -36.957778], [174.935232, -36.837335], [174.963145, -36.933526], [175.02711, -36.874607], [175.093435, -36.970473], [175.240977, -36.942315], [175.32602, -37.009454], [175.367198, -37.207208], [175.562755, -37.179946], [175.609548, -37.25156], [175.527843, -36.962498], [175.436209, -36.864679], [175.53712, -36.786065], [175.497569, -36.63128], [175.354259, -36.490981], [175.532237, -36.507745], [175.628103, -36.763849], [175.851736, -36.718357], [175.713552, -36.875177], [175.850759, -36.840997], [175.868012, -37.053399], [175.919688, -37.05462], [175.88795, -37.241957], [175.975434, -37.469903], [176.169119, -37.624933], [175.943126, -37.521905], [175.997244, -37.631768], [176.214122, -37.719496], [176.216807, -37.618259], [177.131033, -38.021661], [177.556814, -37.913832], [177.73878, -37.676202], [177.992035, -37.590916], [177.992035, -37.543064], [178.27768, -37.559259], [178.550548, -37.680597], [178.348318, -38.012628], [178.381114, -38.078709], [178.318533, -38.26572], [178.362071, -38.316502], [178.300141, -38.531671], [178.079845, -38.70908], [177.932384, -38.702407], [177.882823, -39.085545], [177.998871, -39.129815], [177.911957, -39.255955], [177.8685, -39.290216], [177.841156, -39.228936], [177.852061, -39.089288], [177.413259, -39.059015], [177.064952, -39.199395], [176.937511, -39.348728], [176.953712, -39.607513]]]]}}, {"type": "Feature", "properties": {"name": "Sri Lanka"}, "geometry": {"type": "MultiPolygon", "coordinates": [[[[81.82602, 7.474189], [81.884613, 6.98017], [81.775645, 6.610419], [81.650076, 6.430854], [81.324962, 6.20539], [80.590831, 5.923733], [80.203868, 6.02619], [80.094005, 6.136054], [79.863048, 6.807196], [79.820323, 7.205512], [79.848155, 7.122952], [79.861583, 7.167426], [79.696788, 8.219062], [79.778575, 8.350043], [79.731944, 8.013129], [79.810232, 7.986518], [79.806651, 8.24018], [79.941661, 8.642483], [79.915538, 8.938544], [80.048025, 9.026272], [80.105642, 9.192857], [80.052989, 9.391547], [80.197032, 9.473456], [80.052989, 9.596381], [80.233409, 9.534247], [80.286876, 9.452704], [80.426606, 9.50019], [80.614757, 9.446194], [80.094005, 9.644843], [80.13559, 9.603827], [79.909679, 9.768297], [80.122325, 9.818915], [80.130138, 9.77733], [80.444021, 9.575914], [80.138682, 9.798733], [80.246755, 9.825873], [80.823904, 9.270494], [80.882172, 9.145168], [80.834483, 9.14175], [80.958344, 9.01789], [80.875336, 9.04149], [80.914887, 8.943915], [80.978526, 8.979967], [81.2317, 8.651068], [81.249766, 8.545803], [81.21225, 8.572699], [81.210623, 8.507066], [81.159028, 8.534573], [81.133962, 8.501288], [81.365733, 8.482164], [81.448497, 8.127997], [81.403575, 8.191799], [81.396251, 8.136542], [81.56072, 7.999335], [81.587576, 7.855292], [81.713145, 7.711819], [81.626638, 7.760199], [81.59547, 7.726264], [81.749034, 7.622545], [81.771007, 7.456977], [81.807791, 7.410346], [81.82602, 7.474189]]], [[[81.807791, 7.479193], [81.725108, 7.739936], [81.806326, 7.598578], [81.807791, 7.479193]]], [[[79.909679, 8.973212], [79.698009, 9.089586], [79.841645, 9.077216], [79.909679, 8.973212]]], [[[79.719249, 9.524359], [79.666026, 9.491278], [79.658702, 9.555365], [79.719249, 9.524359]]], [[[79.895844, 9.617499], [79.840668, 9.699408], [79.882335, 9.760891], [79.977875, 9.624335], [79.895844, 9.617499]]]]}}, {"type": "Feature", "properties": {"name": "Kiribati"}, "geometry": {"type": "MultiPolygon", "coordinates": [[[[173.162934, 1.356513], [173.011241, 1.337348], [173.153168, 1.386542], [173.162934, 1.356513]]], [[[-151.819529, -11.420994], [-151.780955, -11.454685], [-151.800893, -11.461114], [-151.819529, -11.420994]]], [[[-155.906443, -5.635349], [-155.879628, -5.60947], [-155.859812, -5.625095], [-155.906443, -5.635349]]], [[[-155.010813, -4.060642], [-154.940297, -4.031996], [-154.953359, -4.094822], [-155.010813, -4.060642]]], [[[-171.625722, -2.86891], [-171.712717, -2.822198], [-171.626943, -2.855727], [-171.715077, -2.759047], [-171.649851, -2.797296], [-171.629628, -2.827244], [-171.62446, -2.856134], [-171.625722, -2.86891]]], [[[176.827322, -2.656183], [176.813162, -2.614435], [176.850922, -2.654067], [176.827322, -2.656183]]], [[[175.993175, -2.510349], [175.976817, -2.497817], [175.973155, -2.489679], [175.993175, -2.510349]]], [[[175.591482, -1.8742], [175.586274, -1.922459], [175.552257, -1.819268], [175.591482, -1.8742]]], [[[175.058767, -1.436293], [175.060557, -1.531671], [175.012543, -1.549249], [175.058279, -1.506768], [175.058767, -1.436293]]], [[[176.395681, -1.319594], [176.444835, -1.373793], [176.464041, -1.436293], [176.395681, -1.319594]]], [[[175.942149, -1.284845], [176.023448, -1.362888], [176.018321, -1.387872], [175.942149, -1.284845]]], [[[174.716645, -1.134698], [174.778819, -1.264418], [174.75587, -1.257501], [174.716645, -1.134698]]], [[[174.462901, -0.648126], [174.498383, -0.789158], [174.497325, -0.805108], [174.483409, -0.819431], [174.462901, -0.648126]]], [[[174.393891, -0.592869], [174.463634, -0.644789], [174.38087, -0.592869], [174.393891, -0.592869]]], [[[173.620616, 0.133368], [173.606212, 0.215969], [173.628673, 0.219143], [173.640798, 0.192125], [173.620616, 0.133368]]], [[[173.804942, 0.434394], [173.917247, 0.399482], [173.921641, 0.379788], [173.804942, 0.434394]]], [[[172.983409, 0.831285], [172.990245, 0.83397], [172.990001, 0.825426], [172.983409, 0.831285]]], [[[172.975759, 0.839667], [172.982432, 0.831163], [172.969412, 0.839667], [172.975759, 0.839667]]], [[[173.075938, 0.965888], [173.061209, 0.914211], [172.990977, 0.834418], [173.071788, 0.962592], [172.990001, 1.024075], [173.075938, 0.965888]]], [[[172.962901, 1.620592], [172.969412, 1.537991], [172.948985, 1.627346], [172.962901, 1.620592]]], [[[173.027354, 1.810452], [173.038341, 1.742377], [173.029307, 1.716295], [172.993175, 1.712063], [173.027354, 1.810452]]], [[[172.934744, 1.942694], [173.023448, 1.821438], [172.938487, 1.923163], [172.934744, 1.942694]]], [[[-157.347727, 1.860785], [-157.178782, 1.718492], [-157.246409, 1.713324], [-157.566029, 1.863756], [-157.578236, 1.907945], [-157.52123, 1.92768], [-157.537302, 1.86636], [-157.428538, 1.838568], [-157.475209, 1.880601], [-157.411977, 1.858466], [-157.419993, 1.929023], [-157.355051, 1.947659], [-157.509389, 2.024604], [-157.423818, 2.020453], [-157.310129, 1.97309], [-157.347727, 1.860785]]], [[[172.770274, 3.011461], [172.771495, 3.023871], [172.886974, 3.072943], [172.770274, 3.011461]]], [[[172.944184, 3.127387], [172.969412, 3.12816], [172.886974, 3.100246], [172.944184, 3.127387]]], [[[-159.37682, 3.933295], [-159.249989, 3.81977], [-159.308705, 3.784654], [-159.352854, 3.909003], [-159.367136, 3.840155], [-159.410024, 3.862047], [-159.37682, 3.933295]]], [[[-172.20344, -4.532159], [-172.202016, -4.520685], [-172.174387, -4.513116], [-172.20344, -4.532159]]], [[[-174.516713, -4.684259], [-174.501536, -4.697361], [-174.521555, -4.683852], [-174.516713, -4.684259]]], [[[-174.541737, -4.672784], [-174.527659, -4.683852], [-174.533884, -4.680759], [-174.541737, -4.672784]]], [[[-174.524403, -4.664483], [-174.513987, -4.676202], [-174.543406, -4.660252], [-174.524403, -4.664483]]], [[[-171.259633, -4.465265], [-171.244985, -4.441339], [-171.230051, -4.460545], [-171.259633, -4.465265]]], [[[-171.092478, -3.14544], [-171.090037, -3.120864], [-171.085439, -3.111261], [-171.092478, -3.14544]]], [[[169.555349, -0.866143], [169.522634, -0.860528], [169.545177, -0.847914], [169.555349, -0.866143]]], [[[173.289724, 2.03384], [173.257823, 1.997016], [173.278005, 2.058661], [173.31837, 1.976996], [173.304454, 1.961575], [173.257498, 1.974595], [173.307872, 1.973293], [173.289724, 2.03384]]], [[[-160.395375, 4.704779], [-160.401194, 4.72309], [-160.378896, 4.713284], [-160.395375, 4.704779]]]]}}, {"type": "Feature", "properties": {"name": "U.S. Minor Outlying Is."}, "geometry": {"type": "MultiPolygon", "coordinates": [[[[-169.539174, 16.754462], [-169.520823, 16.7626], [-169.517405, 16.762437], [-169.539174, 16.754462]]], [[[-160.029978, -0.376153], [-160.008901, -0.372491], [-160.02477, -0.388767], [-160.029978, -0.376153]]], [[[-176.479319, 0.190334], [-176.476877, 0.197455], [-176.47529, 0.193101], [-176.479319, 0.190334]]], [[[-176.459543, 0.225898], [-176.459177, 0.219224], [-176.463938, 0.221869], [-176.459543, 0.225898]]], [[[-176.636098, 0.803412], [-176.640492, 0.801988], [-176.639027, 0.806952], [-176.636098, 0.803412]]], [[[166.644216, 19.27558], [166.634776, 19.305732], [166.652354, 19.284247], [166.644216, 19.27558]]], [[[-177.335276, 28.204291], [-177.322865, 28.207668], [-177.321156, 28.205878], [-177.335276, 28.204291]]], [[[-177.378, 28.212836], [-177.372182, 28.202338], [-177.389597, 28.197659], [-177.378, 28.212836]]], [[[-169.547678, 16.727362], [-169.52241, 16.732164], [-169.549509, 16.723456], [-169.547678, 16.727362]]], [[[-169.513661, 16.743964], [-169.513661, 16.745592], [-169.512766, 16.74433], [-169.513661, 16.743964]]], [[[-75.017812, 18.396674], [-75.006988, 18.415147], [-75.003163, 18.397732], [-75.017812, 18.396674]]], [[[-162.07136, 5.890163], [-162.073069, 5.869371], [-162.103627, 5.888577], [-162.07136, 5.890163]]], [[[-162.400177, 6.430243], [-162.385284, 6.445136], [-162.385284, 6.430243], [-162.400177, 6.430243]]]]}}, {"type": "Feature", "properties": {"name": "Br. Indian Ocean Ter."}, "geometry": {"type": "MultiPolygon", "coordinates": [[[[72.432872, -7.425388], [72.480317, -7.364679], [72.432872, -7.432224], [72.357677, -7.268324], [72.432872, -7.316095], [72.432872, -7.425388]]], [[[72.439708, -7.226739], [72.49464, -7.296157], [72.479015, -7.361912], [72.486501, -7.302423], [72.439708, -7.226739]]], [[[71.350352, -6.65252], [71.362071, -6.652927], [71.355235, -6.656345], [71.350352, -6.65252]]], [[[71.267589, -6.382745], [71.260997, -6.378025], [71.267345, -6.37005], [71.267589, -6.382745]]], [[[71.351085, -6.200291], [71.347016, -6.182224], [71.360525, -6.177341], [71.351085, -6.200291]]], [[[71.771739, -5.433364], [71.764659, -5.433852], [71.76238, -5.431736], [71.771739, -5.433364]]], [[[72.221446, -5.327813], [72.230968, -5.319268], [72.228282, -5.324802], [72.221446, -5.327813]]], [[[71.737071, -5.285252], [71.747081, -5.269952], [71.745453, -5.278741], [71.737071, -5.285252]]], [[[71.760265, -5.236586], [71.768565, -5.234145], [71.766449, -5.23919], [71.760265, -5.236586]]], [[[71.966482, -5.227472], [71.961681, -5.230076], [71.962738, -5.226983], [71.966482, -5.227472]]]]}}, {"type": "Feature", "properties": {"name": "Maldives"}, "geometry": {"type": "MultiPolygon", "coordinates": [[[[73.163097, -0.681817], [73.172537, -0.688572], [73.165863, -0.688409], [73.163097, -0.681817]]], [[[73.19516, -0.674493], [73.196462, -0.681329], [73.191417, -0.682794], [73.19516, -0.674493]]], [[[73.124278, -0.656183], [73.126964, -0.666274], [73.123871, -0.664727], [73.124278, -0.656183]]], [[[73.240001, -0.625584], [73.227306, -0.642836], [73.229991, -0.623305], [73.240001, -0.625584]]], [[[73.246755, -0.588637], [73.24464, -0.607192], [73.247325, -0.577895], [73.246755, -0.588637]]], [[[73.435232, -0.293634], [73.443044, -0.292739], [73.444509, -0.304295], [73.435232, -0.293634]]], [[[73.098888, 0.216376], [73.10434, 0.219631], [73.102875, 0.213446], [73.098888, 0.216376]]], [[[73.208995, 0.239976], [73.217459, 0.237738], [73.210948, 0.232164], [73.208995, 0.239976]]], [[[73.036143, 0.260932], [73.036794, 0.26968], [73.040375, 0.259345], [73.036143, 0.260932]]], [[[73.371104, 0.285956], [73.37908, 0.285183], [73.36964, 0.280015], [73.371104, 0.285956]]], [[[72.981212, 0.302069], [72.988129, 0.301907], [72.986013, 0.299547], [72.981212, 0.302069]]], [[[73.506602, 0.387763], [73.513357, 0.387681], [73.508556, 0.380561], [73.506602, 0.387763]]], [[[72.957774, 0.396796], [72.958425, 0.403144], [72.961192, 0.394029], [72.957774, 0.396796]]], [[[72.940929, 0.496283], [72.940603, 0.487291], [72.937022, 0.493638], [72.940929, 0.496283]]], [[[73.489757, 0.50259], [73.492035, 0.507799], [73.49464, 0.498969], [73.489757, 0.50259]]], [[[73.383556, 0.638902], [73.386729, 0.635403], [73.384776, 0.635565], [73.383556, 0.638902]]], [[[73.368826, 0.760443], [73.371837, 0.756578], [73.369965, 0.757025], [73.368826, 0.760443]]], [[[73.349783, 0.844062], [73.352875, 0.841539], [73.351085, 0.840644], [73.349783, 0.844062]]], [[[72.827973, 3.505439], [72.835134, 3.505439], [72.831065, 3.503567], [72.827973, 3.505439]]], [[[72.791189, 3.510891], [72.795177, 3.514635], [72.798839, 3.511949], [72.791189, 3.510891]]], [[[72.919932, 3.552151], [72.911794, 3.541734], [72.911632, 3.541653], [72.919932, 3.552151]]], [[[72.938487, 3.613715], [72.945567, 3.613715], [72.94158, 3.611884], [72.938487, 3.613715]]], [[[72.689708, 3.717963], [72.697439, 3.718817], [72.694591, 3.714993], [72.689708, 3.717963]]], [[[73.469249, 3.936957], [73.469981, 3.935126], [73.46754, 3.933661], [73.469249, 3.936957]]], [[[72.699067, 3.999498], [72.706716, 3.997952], [72.7046, 3.996405], [72.699067, 3.999498]]], [[[73.502289, 4.100775], [73.508311, 4.093411], [73.508311, 4.093329], [73.502289, 4.100775]]], [[[72.972504, 4.260403], [72.975597, 4.262356], [72.975759, 4.260403], [72.972504, 4.260403]]], [[[73.70281, 4.434719], [73.700857, 4.432278], [73.697439, 4.431383], [73.70281, 4.434719]]], [[[73.699962, 4.451646], [73.702647, 4.452908], [73.69988, 4.449164], [73.699962, 4.451646]]], [[[73.37672, 4.474433], [73.377289, 4.465277], [73.373871, 4.466986], [73.37672, 4.474433]]], [[[73.401215, 4.629828], [73.405284, 4.628404], [73.403005, 4.627427], [73.401215, 4.629828]]], [[[73.486664, 4.718207], [73.490733, 4.716742], [73.488455, 4.715969], [73.486664, 4.718207]]], [[[72.972667, 4.894355], [72.97934, 4.895372], [72.969493, 4.88052], [72.972667, 4.894355]]], [[[72.917491, 4.898586], [72.922862, 4.899075], [72.920909, 4.897854], [72.917491, 4.898586]]], [[[73.447276, 4.97134], [73.436534, 4.969875], [73.441173, 4.974921], [73.447276, 4.97134]]], [[[72.910167, 5.032701], [72.909434, 5.030788], [72.90919, 5.030585], [72.910167, 5.032701]]], [[[72.927745, 5.036526], [72.927094, 5.033922], [72.924327, 5.033026], [72.927745, 5.036526]]], [[[73.04477, 5.121812], [73.043468, 5.118842], [73.04127, 5.118394], [73.04477, 5.121812]]], [[[73.045258, 5.128892], [73.051443, 5.126654], [73.047618, 5.12637], [73.045258, 5.128892]]], [[[73.091319, 5.161363], [73.090994, 5.158515], [73.087738, 5.157945], [73.091319, 5.161363]]], [[[73.107107, 5.170966], [73.104177, 5.172919], [73.110525, 5.170315], [73.107107, 5.170966]]], [[[72.860118, 5.237942], [72.859223, 5.2355], [72.856619, 5.234442], [72.860118, 5.237942]]], [[[73.131847, 5.244574], [73.131847, 5.242499], [73.128429, 5.241156], [73.131847, 5.244574]]], [[[73.499766, 5.246894], [73.497244, 5.245022], [73.493826, 5.245998], [73.499766, 5.246894]]], [[[73.582042, 5.281806], [73.582856, 5.27558], [73.569998, 5.27676], [73.582042, 5.281806]]], [[[73.109223, 5.296698], [73.112641, 5.298448], [73.109223, 5.295152], [73.109223, 5.296698]]], [[[73.467052, 5.308336], [73.470144, 5.307725], [73.464203, 5.30683], [73.467052, 5.308336]]], [[[73.629568, 5.332831], [73.627208, 5.331122], [73.623302, 5.331855], [73.629568, 5.332831]]], [[[73.643403, 5.34394], [73.640066, 5.34219], [73.639903, 5.34219], [73.643403, 5.34394]]], [[[72.953136, 5.352769], [72.952403, 5.350084], [72.949555, 5.349311], [72.953136, 5.352769]]], [[[73.396169, 5.357123], [73.398692, 5.359605], [73.401215, 5.356147], [73.396169, 5.357123]]], [[[73.319184, 5.362942], [73.32488, 5.366767], [73.330089, 5.366848], [73.319184, 5.362942]]], [[[73.347504, 5.428778], [73.3449, 5.426825], [73.344574, 5.426744], [73.347504, 5.428778]]], [[[73.537446, 5.451402], [73.534923, 5.449856], [73.531261, 5.450426], [73.537446, 5.451402]]], [[[73.362966, 5.46308], [73.363129, 5.459377], [73.360688, 5.457831], [73.362966, 5.46308]]], [[[72.937022, 5.465522], [72.940278, 5.462144], [72.938243, 5.461493], [72.937022, 5.465522]]], [[[73.009776, 5.490912], [73.013031, 5.487454], [73.010997, 5.486802], [73.009776, 5.490912]]], [[[73.462413, 5.543606], [73.459321, 5.541734], [73.456309, 5.54267], [73.462413, 5.543606]]], [[[72.99879, 5.711982], [73.002289, 5.707099], [72.999766, 5.706977], [72.99879, 5.711982]]], [[[72.948497, 6.344428], [72.953949, 6.345608], [72.953136, 6.343492], [72.948497, 6.344428]]], [[[72.89088, 6.448228], [72.897227, 6.447903], [72.896332, 6.445787], [72.89088, 6.448228]]], [[[73.0949, -0.604669], [73.111583, -0.61712], [73.118663, -0.64129], [73.0949, -0.604669]]], [[[73.368175, 1.782945], [73.365164, 1.791042], [73.375824, 1.78856], [73.368175, 1.782945]]], [[[73.394786, 1.798774], [73.40211, 1.7956], [73.394379, 1.794745], [73.394786, 1.798774]]], [[[73.452647, 1.826809], [73.463634, 1.826321], [73.456716, 1.82038], [73.452647, 1.826809]]], [[[73.502289, 1.834906], [73.499197, 1.827704], [73.498057, 1.828803], [73.502289, 1.834906]]], [[[73.531505, 1.863511], [73.53297, 1.86164], [73.5324, 1.860093], [73.531505, 1.863511]]], [[[73.25172, 1.892401], [73.243663, 1.888739], [73.243988, 1.89411], [73.25172, 1.892401]]], [[[73.549815, 1.924994], [73.548839, 1.911363], [73.540863, 1.892401], [73.549815, 1.924994]]], [[[73.547699, 1.968329], [73.549815, 1.965684], [73.549815, 1.965522], [73.547699, 1.968329]]], [[[73.31544, 1.985053], [73.323253, 1.986477], [73.31837, 1.9831], [73.31544, 1.985053]]], [[[73.542247, 2.024563], [73.542979, 2.022162], [73.540294, 2.022528], [73.542247, 2.024563]]], [[[73.386974, 2.033026], [73.386974, 2.028632], [73.386241, 2.030341], [73.386974, 2.033026]]], [[[73.55128, 2.07807], [73.551443, 2.072577], [73.551443, 2.072414], [73.55128, 2.07807]]], [[[73.561778, 2.094713], [73.585378, 2.109605], [73.58546, 2.109605], [73.561778, 2.094713]]], [[[73.038422, 2.164618], [73.041352, 2.1647], [73.038259, 2.164537], [73.038422, 2.164618]]], [[[73.098888, 2.184638], [73.102306, 2.180976], [73.099457, 2.181952], [73.098888, 2.184638]]], [[[73.115001, 2.191799], [73.116873, 2.197659], [73.12086, 2.191799], [73.115001, 2.191799]]], [[[72.948416, 2.274888], [72.9463, 2.272366], [72.943126, 2.273017], [72.948416, 2.274888]]], [[[72.926117, 2.32746], [72.927013, 2.316067], [72.922537, 2.319566], [72.926117, 2.32746]]], [[[73.344005, 2.348049], [73.343598, 2.344184], [73.342052, 2.342108], [73.344005, 2.348049]]], [[[73.353852, 2.429023], [73.366222, 2.411526], [73.362559, 2.384914], [73.353852, 2.429023]]], [[[73.311534, 2.499254], [73.315196, 2.494127], [73.315196, 2.494045], [73.311534, 2.499254]]], [[[73.145518, 2.55329], [73.143809, 2.55036], [73.140961, 2.55036], [73.145518, 2.55329]]], [[[72.901134, 2.676174], [72.906423, 2.679674], [72.90447, 2.675727], [72.901134, 2.676174]]], [[[72.866954, 2.688951], [72.873709, 2.683661], [72.873709, 2.68358], [72.866954, 2.688951]]], [[[73.022309, 2.741685], [73.032237, 2.745103], [73.028005, 2.738227], [73.022309, 2.741685]]], [[[73.348481, 2.775377], [73.353526, 2.771918], [73.35141, 2.770697], [73.348481, 2.775377]]], [[[73.399262, 2.785712], [73.390636, 2.775377], [73.391856, 2.78148], [73.399262, 2.785712]]], [[[73.549083, 2.888739], [73.551036, 2.890611], [73.549083, 2.888129], [73.549083, 2.888739]]], [[[73.35727, 2.899807], [73.362804, 2.898383], [73.360688, 2.897528], [73.35727, 2.899807]]], [[[73.008474, 2.953315], [73.014903, 2.947414], [73.009044, 2.946438], [73.008474, 2.953315]]], [[[73.56129, 2.948472], [73.56422, 2.954617], [73.562022, 2.946112], [73.56129, 2.948472]]], [[[73.578461, 2.957343], [73.585867, 2.961534], [73.577485, 2.951158], [73.578461, 2.957343]]], [[[72.864919, 2.960883], [72.867686, 2.960883], [72.865082, 2.958157], [72.864919, 2.960883]]], [[[72.899425, 3.078192], [72.906016, 3.08039], [72.899913, 3.07685], [72.899425, 3.078192]]], [[[73.613048, 3.106757], [73.612559, 3.102973], [73.608409, 3.100409], [73.613048, 3.106757]]], [[[72.975108, 3.104193], [72.981781, 3.105048], [72.978201, 3.102729], [72.975108, 3.104193]]], [[[73.040212, 3.199774], [73.046886, 3.202053], [73.040701, 3.198472], [73.040212, 3.199774]]], [[[73.028982, 3.246894], [73.035655, 3.247789], [73.031993, 3.245551], [73.028982, 3.246894]]], [[[72.831228, 3.30683], [72.837657, 3.309068], [72.831391, 3.305609], [72.831228, 3.30683]]], [[[73.516368, 3.361233], [73.518809, 3.359117], [73.519216, 3.356391], [73.516368, 3.361233]]], [[[73.748546, 3.448188], [73.747732, 3.450995], [73.753184, 3.446357], [73.748546, 3.448188]]], [[[73.506114, 3.497707], [73.508474, 3.496568], [73.508556, 3.496487], [73.506114, 3.497707]]], [[[72.948985, 3.728583], [72.955821, 3.728705], [72.951996, 3.726874], [72.948985, 3.728583]]], [[[72.942393, 3.766954], [72.949392, 3.766995], [72.945323, 3.765204], [72.942393, 3.766954]]], [[[72.941173, 3.831692], [72.94809, 3.831692], [72.944102, 3.829901], [72.941173, 3.831692]]], [[[73.432465, 3.846829], [73.435232, 3.844916], [73.432302, 3.841742], [73.432465, 3.846829]]], [[[73.443533, 3.920559], [73.443044, 3.918769], [73.438162, 3.916449], [73.443533, 3.920559]]], [[[73.341482, 3.943101], [73.3449, 3.944566], [73.341482, 3.942043], [73.341482, 3.943101]]], [[[73.422618, 4.118354], [73.421397, 4.11636], [73.418956, 4.115709], [73.422618, 4.118354]]], [[[73.546197, 4.243039], [73.510891, 4.162087], [73.431201, 4.184649], [73.512015, 4.186301], [73.546197, 4.243039]]], [[[72.94516, 4.266303], [72.958669, 4.262519], [72.954356, 4.261461], [72.94516, 4.266303]]], [[[73.595876, 4.342271], [73.592459, 4.340155], [73.589122, 4.340562], [73.595876, 4.342271]]], [[[73.607677, 4.3581], [73.611827, 4.356513], [73.609548, 4.355618], [73.607677, 4.3581]]], [[[73.631684, 4.368476], [73.637055, 4.364], [73.633637, 4.364691], [73.631684, 4.368476]]], [[[73.664317, 4.388332], [73.668305, 4.386868], [73.666189, 4.385932], [73.664317, 4.388332]]], [[[72.94337, 4.431586], [72.956065, 4.422105], [72.947113, 4.423082], [72.94337, 4.431586]]], [[[73.549815, 4.615383], [73.553884, 4.613918], [73.551606, 4.612982], [73.549815, 4.615383]]], [[[73.627778, 5.413275], [73.636729, 5.402899], [73.632498, 5.386054], [73.627778, 5.413275]]], [[[72.999034, 5.461086], [73.002615, 5.457587], [73.000987, 5.456244], [72.999034, 5.461086]]], [[[72.877696, 5.492092], [72.881114, 5.488471], [72.879161, 5.48786], [72.877696, 5.492092]]], [[[73.012869, 5.615709], [73.016124, 5.61225], [73.014008, 5.611558], [73.012869, 5.615709]]], [[[73.008556, 5.675035], [73.011892, 5.671536], [73.009776, 5.670844], [73.008556, 5.675035]]], [[[73.382579, 5.722113], [73.380707, 5.714586], [73.379568, 5.715155], [73.382579, 5.722113]]], [[[72.986827, 5.770738], [72.98585, 5.76557], [72.982758, 5.762519], [72.986827, 5.770738]]], [[[73.376801, 5.78734], [73.384532, 5.786933], [73.380707, 5.784125], [73.376801, 5.78734]]], [[[72.971039, 5.810452], [72.975108, 5.804551], [72.975108, 5.804429], [72.971039, 5.810452]]], [[[73.443126, 5.841254], [73.433767, 5.830878], [73.433442, 5.830715], [73.443126, 5.841254]]], [[[72.961925, 5.856676], [72.963715, 5.86404], [72.966482, 5.850287], [72.961925, 5.856676]]], [[[73.423188, 5.906887], [73.428477, 5.904446], [73.42628, 5.903266], [73.423188, 5.906887]]], [[[72.931651, 5.969062], [72.930186, 5.956936], [72.925792, 5.963284], [72.931651, 5.969062]]], [[[73.389822, 5.970282], [73.395333, 5.957802], [73.384532, 5.964748], [73.389822, 5.970282]]], [[[72.909679, 5.982123], [72.912852, 5.976304], [72.909841, 5.977932], [72.909679, 5.982123]]], [[[73.250743, 6.083401], [73.249034, 6.079535], [73.245453, 6.079779], [73.250743, 6.083401]]], [[[73.248871, 6.110175], [73.251964, 6.111151], [73.246837, 6.107733], [73.248871, 6.110175]]], [[[73.22047, 6.132066], [73.219005, 6.129299], [73.21518, 6.128567], [73.22047, 6.132066]]], [[[73.265391, 6.153551], [73.267263, 6.150946], [73.265147, 6.150621], [73.265391, 6.153551]]], [[[73.215831, 6.17121], [73.218923, 6.172268], [73.214041, 6.168769], [73.215831, 6.17121]]], [[[73.265961, 6.185004], [73.270844, 6.189358], [73.268077, 6.178697], [73.265961, 6.185004]]], [[[73.030447, 6.221015], [73.029145, 6.21898], [73.028982, 6.218817], [73.030447, 6.221015]]], [[[73.236339, 6.232123], [73.243907, 6.231635], [73.240245, 6.228949], [73.236339, 6.232123]]], [[[73.128429, 6.286851], [73.12615, 6.284003], [73.122895, 6.283352], [73.128429, 6.286851]]], [[[73.209321, 6.286851], [73.213064, 6.289211], [73.208751, 6.286444], [73.209321, 6.286851]]], [[[73.083344, 6.30858], [73.081391, 6.305609], [73.078136, 6.30508], [73.083344, 6.30858]]], [[[73.194184, 6.321601], [73.201915, 6.32217], [73.20102, 6.318264], [73.194184, 6.321601]]], [[[73.120942, 6.331041], [73.124197, 6.332261], [73.119314, 6.328925], [73.120942, 6.331041]]], [[[73.181, 6.34984], [73.18214, 6.34634], [73.180186, 6.347113], [73.181, 6.34984]]], [[[73.019298, 6.363593], [73.024913, 6.364814], [73.024181, 6.362698], [73.019298, 6.363593]]], [[[72.685883, 6.411607], [72.687185, 6.407416], [72.685883, 6.40648], [72.685883, 6.411607]]], [[[72.902029, 6.43476], [72.907481, 6.43594], [72.906586, 6.433824], [72.902029, 6.43476]]], [[[73.048813, 6.441342], [73.046235, 6.436265], [73.043142, 6.433702], [73.048813, 6.441342]]], [[[72.956798, 6.560004], [72.958018, 6.554348], [72.955821, 6.555325], [72.956798, 6.560004]]], [[[72.923106, 6.559882], [72.928722, 6.561103], [72.927745, 6.558905], [72.923106, 6.559882]]], [[[73.025564, 6.57925], [73.030447, 6.576077], [73.028168, 6.575181], [73.025564, 6.57925]]], [[[73.039399, 6.62287], [73.040701, 6.617174], [73.038422, 6.61815], [73.039399, 6.62287]]], [[[73.069509, 6.667955], [73.061778, 6.660956], [73.062266, 6.666897], [73.069509, 6.667955]]], [[[73.09669, 6.706122], [73.100434, 6.699774], [73.095876, 6.698432], [73.09669, 6.706122]]], [[[73.031993, 6.756578], [73.036876, 6.753485], [73.034679, 6.75259], [73.031993, 6.756578]]], [[[72.913259, 6.764879], [72.914317, 6.759223], [72.912283, 6.760159], [72.913259, 6.764879]]], [[[73.135997, 6.741197], [73.152843, 6.749213], [73.131684, 6.725043], [73.135997, 6.741197]]], [[[73.181651, 6.830512], [73.197276, 6.828111], [73.183767, 6.821112], [73.181651, 6.830512]]], [[[72.990245, 6.842434], [72.991547, 6.836737], [72.989431, 6.837633], [72.990245, 6.842434]]], [[[73.139008, 6.844428], [73.14031, 6.83869], [73.138031, 6.839667], [73.139008, 6.844428]]], [[[72.971528, 6.849758], [72.976329, 6.846666], [72.974132, 6.845852], [72.971528, 6.849758]]], [[[73.092947, 6.853095], [73.094005, 6.847561], [73.091807, 6.848334], [73.092947, 6.853095]]], [[[72.959239, 6.86164], [72.960623, 6.856065], [72.958344, 6.857001], [72.959239, 6.86164]]], [[[73.101736, 6.893541], [73.106619, 6.890448], [73.10434, 6.889553], [73.101736, 6.893541]]], [[[73.201915, 6.902248], [73.213064, 6.904608], [73.203949, 6.884955], [73.201915, 6.902248]]], [[[72.925955, 6.957424], [72.92628, 6.953803], [72.924585, 6.951704], [72.925955, 6.957424]]], [[[73.191905, 6.967597], [73.194672, 6.951239], [73.193207, 6.950995], [73.191905, 6.967597]]], [[[72.891938, 6.991034], [72.891938, 6.987698], [72.890473, 6.985419], [72.891938, 6.991034]]], [[[72.977306, 7.019029], [72.979747, 7.027533], [72.981456, 7.013983], [72.977306, 7.019029]]], [[[72.947765, 7.0539], [72.949962, 7.056423], [72.948497, 7.050849], [72.947765, 7.0539]]], [[[72.906586, 7.09101], [72.912852, 7.092597], [72.911876, 7.083197], [72.906586, 7.09101]]], [[[72.8838, 7.107245], [72.884532, 7.103705], [72.882498, 7.10163], [72.8838, 7.107245]]]]}}]}