{"type": "FeatureCollection", "features": [{"type": "Feature", "properties": {"name": "United States of America"}, "geometry": {"type": "MultiPolygon", "coordinates": [[[[-95.177106, 48.99267], [-95.161887, 49.001145], [-95.159329, 49.01179], [-95.160569, 49.369494], [-95.102821, 49.35394], [-94.982518, 49.356162], [-94.926087, 49.345568], [-94.839142, 49.308878], [-94.827256, 49.292858], [-94.806121, 49.210899], [-94.811185, 49.166561], [-94.711217, 48.914586], [-94.710907, 48.807513], [-94.688893, 48.778832], [-94.592852, 48.726433], [-94.519161, 48.70447], [-94.4795, 48.700698], [-94.292586, 48.711912], [-94.258454, 48.690828], [-94.251038, 48.65729], [-94.23215, 48.652019], [-93.874885, 48.636206], [-93.835741, 48.617137], [-93.809386, 48.543576], [-93.778664, 48.519468], [-93.756779, 48.516549], [-93.616297, 48.531302], [-93.599889, 48.526341], [-93.566584, 48.538279], [-93.491756, 48.542309], [-93.459924, 48.557399], [-93.451475, 48.597422], [-93.385716, 48.614863], [-93.25774, 48.630314], [-92.97972, 48.61768], [-92.884197, 48.579878], [-92.648604, 48.536263], [-92.630181, 48.519468], [-92.627468, 48.502777], [-92.710641, 48.482882], [-92.718909, 48.459782], [-92.704052, 48.445158], [-92.657053, 48.438233], [-92.526932, 48.445623], [-92.490629, 48.433117], [-92.467581, 48.394282], [-92.462465, 48.329299], [-92.371851, 48.222587], [-92.327874, 48.229435], [-92.291029, 48.249562], [-92.303095, 48.310928], [-92.281598, 48.33178], [-92.154732, 48.350125], [-92.070499, 48.346714], [-92.043421, 48.334596], [-92.007997, 48.262482], [-91.975492, 48.236566], [-91.852244, 48.195974], [-91.744137, 48.179593], [-91.695509, 48.13758], [-91.716438, 48.112051], [-91.692512, 48.097866], [-91.589676, 48.088332], [-91.579806, 48.070969], [-91.586989, 48.052572], [-91.574845, 48.048205], [-91.487098, 48.053476], [-91.427929, 48.036449], [-91.3654, 48.057843], [-91.276362, 48.064768], [-91.071103, 48.170859], [-90.923153, 48.227109], [-90.873802, 48.234344], [-90.840678, 48.220107], [-90.837939, 48.210547], [-90.849721, 48.189566], [-90.843003, 48.176983], [-90.812307, 48.160989], [-90.786469, 48.10045], [-90.750347, 48.083991], [-90.701307, 48.08456], [-90.586843, 48.104817], [-90.542014, 48.083733], [-90.490493, 48.096239], [-90.470623, 48.089882], [-90.178625, 48.116444], [-90.120386, 48.115359], [-90.073257, 48.101199], [-89.995329, 48.018595], [-89.92045, 47.98746], [-89.763302, 48.017303], [-89.712788, 48.003376], [-89.65659, 48.007975], [-89.593105, 47.996503], [-89.461847, 47.994539], [-89.363636, 47.979605], [-88.642724, 48.25659], [-88.376461, 48.305115], [-86.846555, 47.708743], [-86.00857, 47.370365], [-84.87869, 46.897914], [-84.854196, 46.861172], [-84.787456, 46.657179], [-84.773322, 46.633434], [-84.566565, 46.461196], [-84.541295, 46.452825], [-84.492176, 46.456881], [-84.42324, 46.511581], [-84.389702, 46.520262], [-84.352469, 46.522743], [-84.30534, 46.501607], [-84.197285, 46.546359], [-84.147676, 46.541346], [-84.110443, 46.526464], [-84.158812, 46.433343], [-84.147676, 46.399882], [-84.10543, 46.347741], [-84.119098, 46.314228], [-84.096774, 46.224828], [-84.086801, 46.201212], [-84.055821, 46.171446], [-84.021042, 46.151603], [-84.014169, 46.115998], [-83.964586, 46.063184], [-83.930738, 46.066957], [-83.872679, 46.107884], [-83.839296, 46.119202], [-83.766536, 46.106489], [-83.664837, 46.11915], [-83.613884, 46.115636], [-83.565437, 46.09078], [-83.462808, 46.007787], [-83.465857, 45.993111], [-83.556213, 45.869656], [-83.636867, 45.773944], [-83.483974, 45.771937], [-82.588778, 45.371805], [-82.54829, 45.334598], [-82.532141, 45.293516], [-82.147565, 43.611344], [-82.145653, 43.576411], [-82.411089, 43.051275], [-82.414603, 42.983243], [-82.453179, 42.918983], [-82.482325, 42.835113], [-82.485271, 42.818524], [-82.470982, 42.790568], [-82.48341, 42.719254], [-82.526224, 42.619906], [-82.575833, 42.571795], [-82.644331, 42.557817], [-82.800135, 42.41798], [-82.83282, 42.398008], [-82.943511, 42.355478], [-83.040353, 42.331862], [-83.079963, 42.305067], [-83.128513, 42.239955], [-83.139649, 42.115854], [-83.159493, 42.046324], [-83.157012, 42.000435], [-83.123449, 41.920336], [-83.097378, 41.875765], [-83.068413, 41.847731], [-82.711122, 41.680248], [-82.666913, 41.669086], [-82.424861, 41.676811], [-81.276662, 42.208665], [-80.246596, 42.365477], [-80.0, 42.453329783841745], [-80.0, 32.6489737027972], [-80.025706, 32.648749], [-80.0, 32.62349278910462], [-80.0, 32.615530155138444], [-80.005116, 32.611558], [-80.12564, 32.587958], [-80.177113, 32.567043], [-80.23233, 32.612982], [-80.251291, 32.623765], [-80.26594, 32.621405], [-80.201772, 32.571519], [-80.204457, 32.560614], [-80.323232, 32.48843], [-80.344472, 32.494818], [-80.355377, 32.526923], [-80.368967, 32.533352], [-80.369252, 32.498765], [-80.378163, 32.484117], [-80.409332, 32.481106], [-80.44343, 32.505357], [-80.487864, 32.512356], [-80.539662, 32.560614], [-80.547109, 32.560614], [-80.547271, 32.548896], [-80.532826, 32.519029], [-80.629018, 32.525865], [-80.669789, 32.521145], [-80.67748, 32.497952], [-80.659413, 32.506008], [-80.570953, 32.491685], [-80.529408, 32.497952], [-80.478179, 32.478095], [-80.478179, 32.470649], [-80.534901, 32.470771], [-80.587473, 32.456936], [-80.495229, 32.450751], [-80.469838, 32.442125], [-80.458363, 32.423163], [-80.46349, 32.40412], [-80.530385, 32.373521], [-80.547678, 32.357123], [-80.547109, 32.347113], [-80.476918, 32.371527], [-80.429799, 32.409817], [-80.45165, 32.350043], [-80.470774, 32.35456], [-80.478179, 32.347113], [-80.459869, 32.337307], [-80.470774, 32.32274], [-80.553293, 32.278795], [-80.587473, 32.278795], [-80.626047, 32.2626], [-80.63683, 32.266791], [-80.642201, 32.319241], [-80.629018, 32.381903], [-80.664418, 32.368232], [-80.669993, 32.373603], [-80.651194, 32.445543], [-80.657297, 32.462714], [-80.683665, 32.464423], [-80.679351, 32.454576], [-80.663157, 32.450751], [-80.67691, 32.425686], [-80.67748, 32.357652], [-80.663157, 32.323554], [-80.66747, 32.305365], [-80.691762, 32.309638], [-80.759348, 32.360785], [-80.79601, 32.453274], [-80.796946, 32.474351], [-80.785553, 32.496731], [-80.814036, 32.505357], [-80.835927, 32.540107], [-80.85497, 32.539496], [-80.82079, 32.484849], [-80.828928, 32.455268], [-80.787343, 32.357652], [-80.79894, 32.319729], [-80.775787, 32.305732], [-80.745107, 32.258979], [-80.72704, 32.265937], [-80.700185, 32.254462], [-80.677317, 32.225328], [-80.677846, 32.214748], [-80.737131, 32.152086], [-80.82079, 32.10814], [-80.811594, 32.14468], [-80.777211, 32.207261], [-80.779856, 32.244696], [-80.787994, 32.235826], [-80.793528, 32.196926], [-80.828236, 32.159084], [-80.841908, 32.115953], [-80.894521, 32.058824], [-80.889394, 32.030422], [-80.848134, 32.022162], [-80.835683, 32.002916], [-80.853912, 31.982164], [-80.903391, 31.950507], [-80.923818, 31.977769], [-80.937367, 31.976467], [-80.964752, 31.948798], [-80.963124, 31.93065], [-80.949534, 31.913723], [-80.923818, 31.908881], [-80.95816, 31.87934], [-80.995229, 31.864488], [-81.074696, 31.888414], [-81.095326, 31.916002], [-81.118235, 31.90766], [-81.09142, 31.884996], [-81.090321, 31.875718], [-81.130198, 31.866767], [-81.142974, 31.854926], [-81.087717, 31.84748], [-81.061025, 31.826972], [-81.039906, 31.826972], [-81.060902, 31.788153], [-81.10554, 31.742662], [-81.171376, 31.73664], [-81.204579, 31.741441], [-81.253163, 31.77025], [-81.266591, 31.772406], [-81.273305, 31.76553], [-81.269195, 31.751695], [-81.225494, 31.737616], [-81.196278, 31.717597], [-81.198964, 31.699449], [-81.251939, 31.647173], [-81.300933, 31.570787], [-81.331091, 31.552431], [-81.320196, 31.522447], [-81.331433, 31.467234], [-81.365277, 31.437887], [-81.363899, 31.41583], [-81.325657, 31.348929], [-81.336183, 31.34282], [-81.428863, 31.352851], [-81.47997, 31.374213], [-81.492421, 31.367662], [-81.46703, 31.347805], [-81.426503, 31.332953], [-81.328277, 31.315253], [-81.269887, 31.274848], [-81.26769, 31.258734], [-81.274648, 31.235541], [-81.288564, 31.220933], [-81.307485, 31.230455], [-81.34317, 31.18065], [-81.385976, 31.14175], [-81.417958, 31.148993], [-81.415517, 31.207221], [-81.423004, 31.219631], [-81.444651, 31.216783], [-81.454823, 31.206], [-81.446929, 31.130845], [-81.451731, 31.117092], [-81.487294, 31.133612], [-81.495839, 31.126207], [-81.492584, 31.113674], [-81.464019, 31.102607], [-81.430287, 31.073432], [-81.424916, 31.104722], [-81.403676, 31.121283], [-81.405385, 31.094794], [-81.424143, 31.025051], [-81.46345, 31.067328], [-81.488108, 31.085842], [-81.513539, 31.093329], [-81.450795, 31.021918], [-81.456776, 31.001654], [-81.472483, 30.991889], [-81.519683, 30.984076], [-81.519683, 30.97663], [-81.450795, 30.963568], [-81.499257, 30.905585], [-81.506012, 30.881659], [-81.492421, 30.846869], [-81.533355, 30.853705], [-81.533355, 30.846869], [-81.519032, 30.841783], [-81.513539, 30.805976], [-81.492421, 30.771796], [-81.499257, 30.704332], [-81.475657, 30.696031], [-81.440256, 30.700751], [-81.428578, 30.681708], [-81.437815, 30.637763], [-81.437815, 30.524115], [-81.461903, 30.548529], [-81.466949, 30.600002], [-81.489003, 30.620998], [-81.499989, 30.609361], [-81.500315, 30.551256], [-81.492584, 30.537258], [-81.447743, 30.508002], [-81.40982, 30.456488], [-81.40982, 30.411444], [-81.389394, 30.384223], [-81.394928, 30.29857], [-81.30893186094372, 30.0], [-83.85015689178252, 30.0], [-83.856435, 30.002387], [-83.950592, 30.054429], [-84.024037, 30.106594], [-84.075754, 30.093329], [-84.147613, 30.087877], [-84.178334, 30.072821], [-84.18814, 30.093573], [-84.209137, 30.107082], [-84.227162, 30.093329], [-84.26065, 30.099555], [-84.285227, 30.066067], [-84.328521, 30.065985], [-84.364369, 30.048529], [-84.370513, 30.024482], [-84.383616, 30.031928], [-84.391021, 30.024482], [-84.38581019231985, 30.0], [-84.43775355777343, 30.0], [-84.453521, 30.005194], [-84.45774709275624, 30.0], [-85.5044307028547, 30.0], [-85.621205, 30.079739], [-85.679555, 30.134345], [-85.610666, 30.126899], [-85.61144, 30.108466], [-85.54601, 30.09101], [-85.512685, 30.055325], [-85.442372, 30.020168], [-85.390492, 30.044745], [-85.395009, 30.055569], [-85.42634, 30.058661], [-85.430979, 30.070502], [-85.462066, 30.034898], [-85.476918, 30.041571], [-85.485911, 30.058173], [-85.487782, 30.107082], [-85.505605, 30.09927], [-85.512685, 30.108344], [-85.494618, 30.14057], [-85.54426, 30.128079], [-85.562856, 30.134345], [-85.569692, 30.113918], [-85.605214, 30.136868], [-85.628285, 30.144599], [-85.645416, 30.14057], [-85.72053, 30.195787], [-85.699208, 30.206529], [-85.657297, 30.252102], [-85.618072, 30.245836], [-85.579213, 30.286119], [-85.555491, 30.285142], [-85.586781, 30.326117], [-85.620758, 30.28205], [-85.63858, 30.27147], [-85.643381, 30.285102], [-85.654897, 30.283596], [-85.694732, 30.266018], [-85.708648, 30.247016], [-85.72053, 30.250434], [-85.720326, 30.267564], [-85.754709, 30.319281], [-85.777577, 30.29442], [-85.825551, 30.287177], [-85.85436, 30.264838], [-85.847157, 30.247301], [-85.831776, 30.235907], [-85.785715, 30.244208], [-85.755971, 30.231594], [-85.734202, 30.209418], [-85.749135, 30.190497], [-85.741363, 30.178371], [-85.706288, 30.154853], [-85.713735, 30.14057], [-85.726389, 30.152167], [-85.734446, 30.150214], [-85.72053, 30.134345], [-85.744252, 30.139472], [-85.864491, 30.216254], [-86.065989, 30.306057], [-86.364817, 30.380764], [-86.484975, 30.392768], [-86.510894, 30.40762], [-86.508778, 30.414944], [-86.412668, 30.408108], [-86.347157, 30.395006], [-86.334828, 30.400092], [-86.311676, 30.436469], [-86.28718, 30.40469], [-86.241933, 30.395006], [-86.226308, 30.412055], [-86.258453, 30.423041], [-86.260894, 30.429999], [-86.248158, 30.435981], [-86.117421, 30.37934], [-86.107777, 30.386705], [-86.106597, 30.40058], [-86.151479, 30.457261], [-86.138987, 30.466742], [-86.138254, 30.48314], [-86.182037, 30.468817], [-86.194936, 30.478217], [-86.207143, 30.504869], [-86.223256, 30.492255], [-86.286, 30.497463], [-86.367909, 30.48314], [-86.408355, 30.461412], [-86.426259, 30.463324], [-86.439809, 30.476142], [-86.412668, 30.517971], [-86.446401, 30.516343], [-86.460439, 30.50023], [-86.488352, 30.524115], [-86.484609, 30.480048], [-86.541656, 30.460028], [-86.554067, 30.445502], [-86.589915, 30.445217], [-86.590728, 30.425482], [-86.602284, 30.41828], [-86.680084, 30.422309], [-86.761383, 30.41474], [-86.782541, 30.422309], [-86.832916, 30.408515], [-87.044504, 30.389594], [-87.194081, 30.360297], [-87.183583, 30.375718], [-87.138092, 30.392646], [-87.077748, 30.406887], [-87.005238, 30.410224], [-86.940175, 30.456488], [-86.893788, 30.43891], [-86.892405, 30.449652], [-86.90453, 30.461615], [-86.964426, 30.476996], [-86.991363, 30.504869], [-87.013539, 30.511298], [-87.009348, 30.535386], [-86.960683, 30.559516], [-86.968129, 30.573188], [-86.987213, 30.562567], [-87.008453, 30.596422], [-87.029612, 30.607327], [-87.02123, 30.579657], [-87.077382, 30.449652], [-87.092926, 30.44892], [-87.098378, 30.460517], [-87.090972, 30.490627], [-87.109609, 30.535956], [-87.131337, 30.538398], [-87.125111, 30.559516], [-87.142242, 30.561835], [-87.166127, 30.586819], [-87.180572, 30.584662], [-87.180409, 30.542141], [-87.157338, 30.504584], [-87.156809, 30.474514], [-87.180409, 30.435981], [-87.194081, 30.442206], [-87.202382, 30.418931], [-87.262929, 30.401272], [-87.266021, 30.357164], [-87.310129, 30.346625], [-87.306549, 30.328559], [-87.328847, 30.319729], [-87.529205, 30.277737], [-87.529205, 30.285142], [-87.495717, 30.30565], [-87.447336, 30.313137], [-87.482045, 30.326117], [-87.421457, 30.340033], [-87.41454, 30.360256], [-87.426829, 30.374579], [-87.397369, 30.405341], [-87.345611, 30.42768], [-87.35851, 30.463324], [-87.387074, 30.463284], [-87.426829, 30.48314], [-87.419586, 30.468085], [-87.392079, 30.449652], [-87.443918, 30.40469], [-87.473704, 30.359198], [-87.51358, 30.348212], [-87.534088, 30.323554], [-87.5572, 30.319281], [-87.572865, 30.321519], [-87.583852, 30.339789], [-87.611806, 30.360297], [-87.599273, 30.322211], [-87.60558, 30.30565], [-87.564565, 30.313137], [-87.590159, 30.275377], [-87.65453, 30.252102], [-87.786488, 30.236762], [-87.910308, 30.236762], [-88.030141, 30.223782], [-87.93578, 30.264594], [-87.91454, 30.24787], [-87.875071, 30.241523], [-87.792348, 30.262885], [-87.764231, 30.279527], [-87.776235, 30.313137], [-87.830881, 30.364], [-87.821278, 30.40469], [-87.834462, 30.412502], [-87.850738, 30.386705], [-87.865631, 30.3876], [-87.887034, 30.393256], [-87.911366, 30.41356], [-87.923329, 30.458197], [-87.940745, 30.48314], [-87.930653, 30.51911], [-87.910308, 30.548977], [-87.912465, 30.583726], [-87.942535, 30.659735], [-87.975494, 30.68244], [-88.006256, 30.687812], [-88.009877, 30.72663], [-88.030141, 30.737698], [-88.02302, 30.709377], [-88.043813, 30.689195], [-88.037668, 30.675198], [-88.052561, 30.654364], [-88.062896, 30.604478], [-88.084584, 30.576158], [-88.084788, 30.548977], [-88.096303, 30.529731], [-88.109934, 30.470893], [-88.120107, 30.338324], [-88.137685, 30.31977], [-88.146148, 30.332343], [-88.194081, 30.337104], [-88.187123, 30.367743], [-88.303822, 30.401272], [-88.311269, 30.380764], [-88.317494, 30.380764], [-88.335439, 30.403876], [-88.403147, 30.3876], [-88.407541, 30.35932], [-88.47057, 30.323879], [-88.506256, 30.340806], [-88.567738, 30.353583], [-88.591217, 30.395006], [-88.598704, 30.395006], [-88.616933, 30.370347], [-88.662221, 30.35456], [-88.742055, 30.354071], [-88.845855, 30.422593], [-88.927642, 30.442206], [-88.982289, 30.428534], [-88.982289, 30.422309], [-88.859364, 30.408108], [-88.876088, 30.395209], [-88.968617, 30.395006], [-89.013417, 30.377427], [-89.253489, 30.319281], [-89.270985, 30.322821], [-89.273346, 30.330797], [-89.249745, 30.346625], [-89.30016, 30.376532], [-89.331939, 30.377143], [-89.35558, 30.350328], [-89.318674, 30.343207], [-89.320546, 30.312079], [-89.421051, 30.257799], [-89.413808, 30.244696], [-89.434722, 30.216254], [-89.442535, 30.189765], [-89.45519, 30.181545], [-89.462026, 30.188951], [-89.456776, 30.194648], [-89.468251, 30.203274], [-89.491078, 30.188666], [-89.523508, 30.195787], [-89.5655, 30.163479], [-89.595937, 30.155911], [-89.612904, 30.168524], [-89.585561, 30.175279], [-89.596018, 30.186998], [-89.6433, 30.175279], [-89.69225, 30.181301], [-89.708404, 30.175279], [-89.736073, 30.184963], [-89.748158, 30.197211], [-89.743235, 30.220038], [-89.751454, 30.237372], [-89.826243, 30.231594], [-89.86205, 30.258002], [-89.883778, 30.264716], [-89.924428, 30.257799], [-89.969146, 30.264716], [-90.003896, 30.322699], [-90.058502, 30.360297], [-90.189443, 30.390815], [-90.222401, 30.38758], [-90.245473, 30.373725], [-90.331166, 30.276028], [-90.405019, 30.22016], [-90.428456, 30.188951], [-90.432973, 30.143297], [-90.414052, 30.106594], [-90.379994, 30.08039], [-90.339101, 30.066067], [-90.266225, 30.060126], [-90.231028, 30.03974], [-90.168365, 30.024482], [-90.036977, 30.040269], [-89.996449, 30.052436], [-89.927317, 30.095526], [-89.880442, 30.154853], [-89.849273, 30.145331], [-89.840728, 30.120266], [-89.827626, 30.11107], [-89.788808, 30.098863], [-89.752838, 30.149115], [-89.743235, 30.175279], [-89.736399, 30.175279], [-89.728912, 30.161689], [-89.756907, 30.113918], [-89.743235, 30.099555], [-89.728912, 30.126899], [-89.70226, 30.126899], [-89.68342, 30.140041], [-89.683583, 30.154242], [-89.706451, 30.150214], [-89.708404, 30.161689], [-89.681142, 30.168524], [-89.667388, 30.164008], [-89.639556, 30.14057], [-89.67691, 30.101223], [-89.681142, 30.076361], [-89.718984, 30.062323], [-89.717926, 30.033271], [-89.728912, 30.024482], [-89.74767, 30.041002], [-89.800445, 30.051215], [-89.822092, 30.041571], [-89.840403, 30.01142], [-89.83761816379037, 30.0], [-100.0, 30.0], [-100.0, 48.99264289124664], [-95.177106, 48.99267]]], [[[-84.370513, 30.004055], [-84.36764080719719, 30.0], [-84.37421201594263, 30.0], [-84.370513, 30.004055]]], [[[-85.549184, 30.004055], [-85.562856, 30.031928], [-85.52692264634355, 30.0], [-85.543834011436, 30.0], [-85.549184, 30.004055]]], [[[-89.565582, 30.000922], [-89.503082, 30.030748], [-89.486236, 30.076361], [-89.479075, 30.079983], [-89.427317, 30.058661], [-89.434722, 30.052436], [-89.427317, 30.038072], [-89.386342, 30.058661], [-89.366038, 30.048651], [-89.380116, 30.031928], [-89.434722, 30.024482], [-89.440582, 30.014228], [-89.43718402632759, 30.0], [-89.56571410076577, 30.0], [-89.565582, 30.000922]]], [[[-88.850453, 30.04682], [-88.82627528312234, 30.0], [-88.83535200469862, 30.0], [-88.848012, 30.033108], [-88.872426, 30.058661], [-88.850453, 30.04682]]], [[[-89.424916, 30.142564], [-89.431264, 30.133368], [-89.439361, 30.136542], [-89.433013, 30.145697], [-89.424916, 30.142564]]], [[[-89.191762, 30.04914], [-89.201161, 30.041571], [-89.215647, 30.044989], [-89.222076, 30.033759], [-89.260365, 30.072903], [-89.276479, 30.058661], [-89.294423, 30.066067], [-89.311838, 30.052436], [-89.332102, 30.048977], [-89.345326, 30.066067], [-89.284901, 30.08397], [-89.276682, 30.089504], [-89.283925, 30.107082], [-89.254465, 30.117987], [-89.196401, 30.164984], [-89.180816, 30.168524], [-89.249908, 30.101996], [-89.218617, 30.086737], [-89.215647, 30.058661], [-89.188344, 30.079739], [-89.191762, 30.04914]]], [[[-88.927846, 30.217597], [-88.969309, 30.210639], [-88.967356, 30.214301], [-88.927846, 30.217597]]], [[[-88.503041, 30.223782], [-88.427358, 30.216254], [-88.434193, 30.209418], [-88.503041, 30.216254], [-88.503041, 30.223782]]], [[[-89.084625, 30.195787], [-89.098948, 30.203274], [-89.084625, 30.216254], [-89.092152, 30.223782], [-89.098948, 30.216254], [-89.121409, 30.230862], [-89.153554, 30.229926], [-89.153554, 30.236762], [-89.077016, 30.24079], [-89.057973, 30.257799], [-89.084625, 30.195787]]], [[[-88.621205, 30.231513], [-88.537913, 30.224433], [-88.556264, 30.216742], [-88.756337, 30.244208], [-88.756337, 30.250434], [-88.697825, 30.25788], [-88.621205, 30.231513]]], [[[-88.090972, 30.244696], [-88.311269, 30.236762], [-88.296986, 30.244696], [-88.204823, 30.257799], [-88.134633, 30.259996], [-88.109039, 30.276109], [-88.071116, 30.257799], [-88.071116, 30.250434], [-88.090972, 30.244696]]], [[[-86.65925, 30.415839], [-86.52184, 30.401272], [-87.2412, 30.326117], [-87.296498, 30.332343], [-87.081166, 30.356635], [-87.022776, 30.374579], [-86.951731, 30.373928], [-86.890696, 30.393134], [-86.83141, 30.393622], [-86.700592, 30.414944], [-86.693756, 30.408108], [-86.65925, 30.415839]]], [[[-81.478749, 30.840074], [-81.492421, 30.874213], [-81.482167, 30.904364], [-81.432688, 30.938788], [-81.424143, 30.970404], [-81.417307, 30.970404], [-81.431956, 30.863105], [-81.457021, 30.79975], [-81.450795, 30.754462], [-81.461659, 30.725816], [-81.469146, 30.729315], [-81.478749, 30.840074]]], [[[-81.234851, 31.526501], [-81.202909, 31.534334], [-81.17465, 31.521421], [-81.261718, 31.387792], [-81.279611, 31.385481], [-81.30032, 31.411516], [-81.234851, 31.526501]]], [[[-81.149258, 31.698339], [-81.136435, 31.69841], [-81.128169, 31.628596], [-81.16096, 31.567314], [-81.175071, 31.570503], [-81.16764, 31.600003], [-81.177992, 31.611944], [-81.179485, 31.635942], [-81.149258, 31.698339]]]]}}, {"type": "Feature", "properties": {"name": "Canada"}, "geometry": {"type": "Polygon", "coordinates": [[[-95.159329, 49.01179], [-95.161887, 49.001145], [-95.177106, 48.99267], [-100.0, 48.99264289124664], [-100.0, 50.0], [-80.0, 50.0], [-80.0, 42.453329783841745], [-80.246596, 42.365477], [-81.276662, 42.208665], [-82.424861, 41.676811], [-82.451319, 41.671902], [-82.666913, 41.669086], [-82.711122, 41.680248], [-83.068413, 41.847731], [-83.097378, 41.875765], [-83.123449, 41.920336], [-83.157012, 42.000435], [-83.159493, 42.046324], [-83.139649, 42.115854], [-83.128513, 42.239955], [-83.079963, 42.305067], [-83.040353, 42.331862], [-82.943511, 42.355478], [-82.83282, 42.398008], [-82.800135, 42.41798], [-82.644331, 42.557817], [-82.575833, 42.571795], [-82.526224, 42.619906], [-82.48341, 42.719254], [-82.470982, 42.790568], [-82.485271, 42.818524], [-82.482325, 42.835113], [-82.453179, 42.918983], [-82.414603, 42.983243], [-82.411089, 43.051275], [-82.145653, 43.576411], [-82.147565, 43.611344], [-82.532141, 45.293516], [-82.54829, 45.334598], [-82.588778, 45.371805], [-83.483974, 45.771937], [-83.636867, 45.773944], [-83.556213, 45.869656], [-83.465857, 45.993111], [-83.462808, 46.007787], [-83.565437, 46.09078], [-83.613884, 46.115636], [-83.664837, 46.11915], [-83.766536, 46.106489], [-83.839296, 46.119202], [-83.872679, 46.107884], [-83.930738, 46.066957], [-83.964586, 46.063184], [-84.014169, 46.115998], [-84.021042, 46.151603], [-84.055821, 46.171446], [-84.086801, 46.201212], [-84.096774, 46.224828], [-84.119098, 46.314228], [-84.10543, 46.347741], [-84.147676, 46.399882], [-84.158812, 46.433343], [-84.110443, 46.526464], [-84.147676, 46.541346], [-84.197285, 46.546359], [-84.30534, 46.501607], [-84.352469, 46.522743], [-84.389702, 46.520262], [-84.42324, 46.511581], [-84.492176, 46.456881], [-84.541295, 46.452825], [-84.566565, 46.461196], [-84.773322, 46.633434], [-84.787456, 46.657179], [-84.854196, 46.861172], [-84.87869, 46.897914], [-86.53231, 47.581903], [-88.347264, 48.298655], [-88.407906, 48.304055], [-88.642724, 48.25659], [-89.363636, 47.979605], [-89.461847, 47.994539], [-89.593105, 47.996503], [-89.65659, 48.007975], [-89.712788, 48.003376], [-89.763302, 48.017303], [-89.92045, 47.98746], [-89.995329, 48.018595], [-90.073257, 48.101199], [-90.120386, 48.115359], [-90.178625, 48.116444], [-90.470623, 48.089882], [-90.490493, 48.096239], [-90.542014, 48.083733], [-90.586843, 48.104817], [-90.701307, 48.08456], [-90.750347, 48.083991], [-90.786469, 48.10045], [-90.812307, 48.160989], [-90.843003, 48.176983], [-90.849721, 48.189566], [-90.837939, 48.210547], [-90.840678, 48.220107], [-90.873802, 48.234344], [-90.923153, 48.227109], [-91.071103, 48.170859], [-91.276362, 48.064768], [-91.3654, 48.057843], [-91.427929, 48.036449], [-91.487098, 48.053476], [-91.574845, 48.048205], [-91.586989, 48.052572], [-91.579806, 48.070969], [-91.589676, 48.088332], [-91.692512, 48.097866], [-91.716438, 48.112051], [-91.695509, 48.13758], [-91.744137, 48.179593], [-91.852244, 48.195974], [-91.975492, 48.236566], [-92.007997, 48.262482], [-92.043421, 48.334596], [-92.070499, 48.346714], [-92.154732, 48.350125], [-92.281598, 48.33178], [-92.303095, 48.310928], [-92.291029, 48.249562], [-92.327874, 48.229435], [-92.371851, 48.222587], [-92.462465, 48.329299], [-92.467581, 48.394282], [-92.490629, 48.433117], [-92.526932, 48.445623], [-92.657053, 48.438233], [-92.704052, 48.445158], [-92.718909, 48.459782], [-92.710641, 48.482882], [-92.627468, 48.502777], [-92.630181, 48.519468], [-92.648604, 48.536263], [-92.884197, 48.579878], [-92.97972, 48.61768], [-93.25774, 48.630314], [-93.385716, 48.614863], [-93.451475, 48.597422], [-93.459924, 48.557399], [-93.491756, 48.542309], [-93.566584, 48.538279], [-93.599889, 48.526341], [-93.616297, 48.531302], [-93.756779, 48.516549], [-93.778664, 48.519468], [-93.809386, 48.543576], [-93.835741, 48.617137], [-93.874885, 48.636206], [-94.23215, 48.652019], [-94.251038, 48.65729], [-94.258454, 48.690828], [-94.292586, 48.711912], [-94.4795, 48.700698], [-94.519161, 48.70447], [-94.592852, 48.726433], [-94.688893, 48.778832], [-94.710907, 48.807513], [-94.711217, 48.914586], [-94.811185, 49.166561], [-94.806121, 49.210899], [-94.827256, 49.292858], [-94.839142, 49.308878], [-94.926087, 49.345568], [-94.982518, 49.356162], [-95.102821, 49.35394], [-95.160569, 49.369494], [-95.159329, 49.01179]]]}}]}