{"type": "FeatureCollection", "features": [{"type": "Feature", "properties": {"name": "France"}, "geometry": {"type": "Polygon", "coordinates": [[[-54.148137, 2.114394], [-54.194491, 2.163073], [-54.263789, 2.14819], [-54.314019, 2.154857], [-54.373911, 2.196508], [-54.476644, 2.21413], [-54.545787, 2.268596], [-54.549146, 2.279449], [-54.526409, 2.282652], [-54.544289, 2.300222], [-54.588162, 2.324355], [-54.615292, 2.326267], [-54.599221, 2.345801], [-54.584751, 2.348333], [-54.551162, 2.338101], [-54.531576, 2.340168], [-54.520311, 2.348902], [-54.493387, 2.417063], [-54.472613, 2.42869], [-54.423469, 2.435925], [-54.375617, 2.483777], [-54.285338, 2.677977], [-54.212526, 2.776421], [-54.18891, 2.838277], [-54.170203, 2.853057], [-54.191339, 2.877345], [-54.162968, 2.955996], [-54.163433, 2.969742], [-54.185137, 2.997803], [-54.169169, 3.010722], [-54.177024, 3.048911], [-54.190667, 3.059143], [-54.177024, 3.072785], [-54.177076, 3.116555], [-54.18798, 3.130973], [-54.211182, 3.127407], [-54.176559, 3.200581], [-54.114289, 3.285382], [-54.080234, 3.309722], [-54.055688, 3.377676], [-54.019359, 3.415374], [-54.00303, 3.455397], [-54.006285, 3.531026], [-53.990266, 3.595699], [-53.994813, 3.623604], [-54.017861, 3.641458], [-54.050107, 3.634534], [-54.074033, 3.676107], [-54.094445, 3.747059], [-54.125503, 3.788736], [-54.18736, 3.814678], [-54.214541, 3.858215], [-54.241051, 3.876354], [-54.265804, 3.922527], [-54.293141, 3.949812], [-54.310194, 3.994202], [-54.353861, 4.041718], [-54.355153, 4.066523], [-54.334689, 4.131713], [-54.338565, 4.152332], [-54.38249, 4.169566], [-54.406571, 4.191528], [-54.41055, 4.208581], [-54.393187, 4.244393], [-54.394117, 4.269818], [-54.402954, 4.312942], [-54.433443, 4.376375], [-54.450806, 4.484224], [-54.447964, 4.509545], [-54.423469, 4.563392], [-54.423469, 4.604345], [-54.437732, 4.648735], [-54.435458, 4.709404], [-54.447344, 4.727852], [-54.475404, 4.741727], [-54.47866, 4.755189], [-54.47866, 4.87867], [-54.486721, 4.902958], [-54.450806, 4.936728], [-54.457576, 4.99135], [-54.448636, 5.024294], [-54.375617, 5.114883], [-54.365437, 5.138757], [-54.343577, 5.156379], [-54.332002, 5.196196], [-54.311331, 5.225806], [-54.170969, 5.348375], [-54.106679, 5.381171], [-54.061106, 5.43651], [-54.007192, 5.558173], [-53.991925, 5.661348], [-53.94435, 5.744641], [-53.934023, 5.744765], [-53.858883, 5.733766], [-53.808288, 5.714836], [-53.832423, 5.731694], [-53.810333, 5.73106], [-53.695596, 5.663456], [-53.582583, 5.617772], [-53.49521, 5.572105], [-53.448249, 5.560946], [-53.40781, 5.561832], [-53.30271, 5.535476], [-53.277452, 5.538192], [-53.230092, 5.495307], [-53.207916, 5.502346], [-53.207775, 5.514037], [-53.225208, 5.51706], [-53.264782, 5.545825], [-53.289512, 5.548902], [-53.28117, 5.561879], [-53.271476, 5.56036], [-53.130247, 5.50477], [-53.082509, 5.472154], [-53.005849, 5.450751], [-52.994581, 5.457624], [-52.896519, 5.405668], [-52.829102, 5.341883], [-52.783168, 5.316884], [-52.752949, 5.267352], [-52.526112, 5.070746], [-52.526723, 5.053616], [-52.504994, 5.053616], [-52.479726, 5.039618], [-52.402333, 4.973822], [-52.380035, 4.936835], [-52.388987, 4.895901], [-52.370717, 4.907213], [-52.345123, 4.942857], [-52.32372, 4.950588], [-52.279124, 4.93122], [-52.258616, 4.892483], [-52.343007, 4.761176], [-52.340484, 4.724595], [-52.313832, 4.761868], [-52.30016, 4.813381], [-52.242747, 4.856187], [-52.231923, 4.875434], [-52.19286, 4.849677], [-52.159495, 4.7956], [-52.094106, 4.758124], [-52.024526, 4.693549], [-51.996327, 4.652289], [-51.950754, 4.454006], [-51.961822, 4.408393], [-52.019928, 4.367011], [-52.046295, 4.333564], [-51.951405, 4.370673], [-51.936513, 4.391913], [-51.92276, 4.447089], [-51.931264, 4.590399], [-51.925404, 4.626207], [-51.909169, 4.655707], [-51.896392, 4.6647], [-51.864817, 4.664781], [-51.801503, 4.612698], [-51.79308, 4.601142], [-51.800771, 4.589667], [-51.765126, 4.529039], [-51.758046, 4.477769], [-51.747548, 4.45718], [-51.731028, 4.457099], [-51.7447, 4.436591], [-51.738433, 4.413031], [-51.730946, 4.399359], [-51.697621, 4.393052], [-51.690053, 4.385077], [-51.71227, 4.353746], [-51.71467, 4.316148], [-51.656728, 4.217271], [-51.649037, 4.15233], [-51.652496, 4.122056], [-51.683217, 4.039374], [-51.757947, 4.002522], [-51.783191, 3.980947], [-51.806239, 3.917514], [-51.83541, 3.867543], [-51.899721, 3.796669], [-51.93866, 3.773569], [-51.940081, 3.733959], [-51.948711, 3.725097], [-51.972844, 3.721686], [-51.988424, 3.704555], [-52.012764, 3.619108], [-52.074181, 3.516634], [-52.093586, 3.506867], [-52.092759, 3.481391], [-52.227918, 3.260112], [-52.251199, 3.243059], [-52.279466, 3.242491], [-52.299103, 3.225334], [-52.31936, 3.177637], [-52.355327, 3.151592], [-52.361114, 3.10932], [-52.351554, 3.065964], [-52.422196, 2.927471], [-52.409277, 2.897344], [-52.441626, 2.881324], [-52.455269, 2.865046], [-52.5333, 2.689863], [-52.542964, 2.651519], [-52.575778, 2.633742], [-52.55578, 2.598137], [-52.553454, 2.573384], [-52.590403, 2.504706], [-52.619187, 2.463468], [-52.656084, 2.430912], [-52.690603, 2.372983], [-52.819691, 2.291541], [-52.862738, 2.274229], [-52.880153, 2.26038], [-52.900306, 2.21413], [-52.917153, 2.195733], [-52.939064, 2.195733], [-52.959683, 2.175217], [-52.980922, 2.173253], [-53.061227, 2.186276], [-53.092233, 2.211907], [-53.113368, 2.219349], [-53.268501, 2.195733], [-53.279715, 2.204983], [-53.272222, 2.219969], [-53.234653, 2.24126], [-53.234188, 2.250975], [-53.29744, 2.303685], [-53.322554, 2.338566], [-53.344104, 2.349625], [-53.37852, 2.307561], [-53.462133, 2.258985], [-53.531792, 2.247047], [-53.579025, 2.270405], [-53.645997, 2.278467], [-53.713177, 2.307354], [-53.742167, 2.308542], [-53.748162, 2.319343], [-53.737361, 2.349057], [-53.748265, 2.364663], [-53.764801, 2.368694], [-53.800975, 2.353811], [-53.830896, 2.310144], [-53.866811, 2.304925], [-53.901227, 2.264514], [-53.932905, 2.26963], [-53.946134, 2.221984], [-53.963911, 2.209324], [-54.027989, 2.178576], [-54.048453, 2.188808], [-54.076669, 2.183692], [-54.098424, 2.127959], [-54.111527, 2.11427], [-54.148137, 2.114394]]]}}, {"type": "Feature", "properties": {"name": "Suriname"}, "geometry": {"type": "Polygon", "coordinates": [[[-54.114289, 3.285382], [-54.176559, 3.200581], [-54.211182, 3.127407], [-54.18798, 3.130973], [-54.177076, 3.116555], [-54.177024, 3.072785], [-54.190667, 3.059143], [-54.177024, 3.048911], [-54.169169, 3.010722], [-54.185137, 2.997803], [-54.163433, 2.969742], [-54.162968, 2.955996], [-54.191339, 2.877345], [-54.170203, 2.853057], [-54.18891, 2.838277], [-54.212526, 2.776421], [-54.285338, 2.677977], [-54.375617, 2.483777], [-54.423469, 2.435925], [-54.472613, 2.42869], [-54.493387, 2.417063], [-54.520311, 2.348902], [-54.531576, 2.340168], [-54.551162, 2.338101], [-54.584751, 2.348333], [-54.634128, 2.320118], [-54.67286, 2.315984], [-54.704124, 2.32482], [-54.715699, 2.375928], [-54.709963, 2.39479], [-54.695597, 2.403524], [-54.703194, 2.445847], [-54.743036, 2.466517], [-54.841919, 2.433496], [-54.880289, 2.447345], [-54.978577, 2.54305], [-54.979559, 2.566098], [-54.953669, 2.599067], [-54.959095, 2.608989], [-55.017748, 2.590592], [-55.076298, 2.54522], [-55.120894, 2.524808], [-55.136604, 2.5338], [-55.137793, 2.56217], [-55.171951, 2.559328], [-55.25192, 2.497885], [-55.275252, 2.499332], [-55.302795, 2.519692], [-55.32052, 2.518297], [-55.354523, 2.494888], [-55.37106, 2.442539], [-55.399585, 2.430189], [-55.608306, 2.433961], [-55.645384, 2.416649], [-55.724294, 2.396909], [-55.754602, 2.409415], [-55.773568, 2.440059], [-55.853769, 2.462642], [-55.925031, 2.515662], [-55.9472, 2.528167], [-55.971023, 2.530338], [-55.989239, 2.520829], [-55.996913, 2.503259], [-56.013346, 2.398821], [-56.050243, 2.347041], [-56.062155, 2.341564], [-56.10378, 2.349057], [-56.131995, 2.304357], [-56.146775, 2.256194], [-56.135251, 2.248546], [-56.072929, 2.241518], [-56.054016, 2.224051], [-56.044843, 2.184726], [-56.03133, 2.163487], [-55.995776, 2.13739], [-55.918262, 2.050393], [-55.922034, 1.886217], [-55.953815, 1.853273], [-56.019651, 1.833507], [-56.209768, 1.888542], [-56.273796, 1.887509], [-56.347951, 1.926602], [-56.429807, 1.9227], [-56.481819, 1.941614], [-56.499983, 1.969984], [-56.579772, 2.016803], [-56.677802, 2.018405], [-56.70519, 2.029645], [-56.801464, 2.165967], [-56.826191, 2.261672], [-56.838877, 2.281102], [-56.880141, 2.294796], [-56.883887, 2.339755], [-56.938458, 2.41143], [-56.930241, 2.436183], [-56.951635, 2.461246], [-56.959593, 2.483777], [-56.951274, 2.515455], [-56.959593, 2.524705], [-56.994113, 2.504861], [-57.000573, 2.514163], [-56.997111, 2.555142], [-57.027238, 2.59359], [-57.020468, 2.635447], [-57.027238, 2.648212], [-57.048012, 2.636481], [-57.05597, 2.642372], [-57.061964, 2.68175], [-57.102944, 2.740454], [-57.08987, 2.773889], [-57.099533, 2.778591], [-57.13705, 2.77115], [-57.143665, 2.790012], [-57.126405, 2.82603], [-57.133381, 2.832593], [-57.174619, 2.818951], [-57.186608, 2.82324], [-57.202266, 2.846236], [-57.219629, 2.908299], [-57.183818, 2.944679], [-57.188623, 2.95951], [-57.234615, 2.970362], [-57.22118, 2.992583], [-57.226451, 3.021264], [-57.205987, 3.028137], [-57.222213, 3.078263], [-57.248568, 3.112369], [-57.233324, 3.14167], [-57.239473, 3.147871], [-57.264898, 3.132626], [-57.286033, 3.142393], [-57.274923, 3.169007], [-57.287946, 3.203113], [-57.280452, 3.247813], [-57.292493, 3.276287], [-57.282778, 3.295045], [-57.280452, 3.329772], [-57.308409, 3.39491], [-57.340035, 3.370157], [-57.366752, 3.36561], [-57.425043, 3.387495], [-57.430934, 3.360623], [-57.459201, 3.353336], [-57.476254, 3.338945], [-57.482042, 3.348556], [-57.522401, 3.365248], [-57.535269, 3.36778], [-57.545036, 3.348143], [-57.554234, 3.346748], [-57.613249, 3.376643], [-57.649939, 3.385944], [-57.664615, 3.417544], [-57.660688, 3.469505], [-57.644048, 3.51666], [-57.660429, 3.535186], [-57.702856, 3.555676], [-57.72611, 3.607197], [-57.829773, 3.662439], [-57.846929, 3.702101], [-57.853854, 3.76667], [-57.875145, 3.812197], [-57.942117, 3.905447], [-58.007902, 3.957279], [-58.032138, 3.987716], [-58.067691, 4.151143], [-58.065934, 4.171839], [-57.953848, 4.299015], [-57.94527, 4.343922], [-57.956639, 4.391438], [-57.952659, 4.409732], [-57.92186, 4.450944], [-57.863311, 4.60773], [-57.837421, 4.65088], [-57.836026, 4.669845], [-57.871166, 4.721728], [-57.88455, 4.762863], [-57.91783, 4.782371], [-57.925374, 4.796142], [-57.918501, 4.829758], [-57.842795, 4.929881], [-57.773962, 4.926445], [-57.720477, 4.9898], [-57.686939, 5.006259], [-57.64937, 5.008429], [-57.610096, 4.99135], [-57.566223, 5.007086], [-57.517596, 5.012434], [-57.490259, 4.99135], [-57.381377, 5.005742], [-57.329442, 5.024087], [-57.290478, 5.020289], [-57.280452, 5.026103], [-57.321432, 5.070157], [-57.288979, 5.171029], [-57.277714, 5.17692], [-57.247276, 5.172373], [-57.233324, 5.142116], [-57.202008, 5.157619], [-57.184903, 5.183147], [-57.237613, 5.268723], [-57.26743, 5.266295], [-57.269187, 5.256709], [-57.253787, 5.234927], [-57.263037, 5.223997], [-57.280452, 5.225341], [-57.287274, 5.238699], [-57.288824, 5.30854], [-57.308409, 5.313475], [-57.331715, 5.30761], [-57.332284, 5.327867], [-57.265208, 5.403366], [-57.24767, 5.484931], [-57.225087, 5.507514], [-57.179514, 5.530585], [-57.163686, 5.557074], [-57.139638, 5.665107], [-57.12577, 5.818145], [-57.102283, 5.886416], [-57.066029, 5.9501], [-57.03482, 5.959906], [-56.994496, 5.992662], [-56.956537, 6.011574], [-56.830356, 5.985557], [-56.659512, 5.979716], [-56.57395, 5.940756], [-56.526859, 5.936549], [-56.355024, 5.89467], [-56.303807, 5.892508], [-55.999182, 5.810713], [-55.936006, 5.804661], [-55.897694, 5.763007], [-55.897694, 5.676703], [-55.890248, 5.676703], [-55.884999, 5.69245], [-55.884023, 5.741929], [-55.915362, 5.821771], [-55.899963, 5.841964], [-55.910003, 5.850918], [-55.933959, 5.849827], [-55.947872, 5.861521], [-55.951169, 5.881511], [-55.946669, 5.896493], [-55.900654, 5.951945], [-55.844382, 5.975962], [-55.637318, 5.985907], [-55.394988, 5.973876], [-55.335967, 5.962708], [-55.2329, 5.903266], [-55.188361, 5.897395], [-55.14784, 5.908177], [-55.110829, 5.881171], [-55.103107, 5.866412], [-55.129872, 5.820746], [-55.101039, 5.830499], [-55.08552, 5.882799], [-55.063423, 5.882883], [-55.030385, 5.859768], [-55.010121, 5.855536], [-54.981191, 5.865465], [-54.950307, 5.850287], [-54.900258, 5.875393], [-54.863026, 5.855536], [-54.882192, 5.878363], [-54.903472, 5.885403], [-54.933319, 5.869672], [-54.956207, 5.867575], [-54.985634, 5.880387], [-55.016591, 5.871975], [-55.047271, 5.892279], [-55.12564, 5.918647], [-55.142974, 5.930121], [-55.159966, 5.958114], [-55.1445, 5.974248], [-55.116851, 5.985256], [-55.044799, 5.993105], [-54.77359, 5.985256], [-54.471781, 5.94097], [-54.252699, 5.894808], [-54.097396, 5.847339], [-54.036731, 5.842351], [-54.014687, 5.820148], [-54.016307, 5.809704], [-53.986357, 5.745665], [-54.031148, 5.66931], [-54.061106, 5.512885], [-54.118479, 5.442776], [-54.128529, 5.414293], [-54.170969, 5.348375], [-54.19046, 5.325748], [-54.269163, 5.269085], [-54.332002, 5.196196], [-54.343577, 5.156379], [-54.365437, 5.138757], [-54.375617, 5.114883], [-54.448636, 5.024294], [-54.457576, 4.99135], [-54.450806, 4.936728], [-54.486721, 4.902958], [-54.47866, 4.87867], [-54.47866, 4.755189], [-54.475404, 4.741727], [-54.447344, 4.727852], [-54.435458, 4.709404], [-54.437732, 4.648735], [-54.423469, 4.604345], [-54.423469, 4.563392], [-54.447964, 4.509545], [-54.450806, 4.484224], [-54.433443, 4.376375], [-54.402954, 4.312942], [-54.394117, 4.269818], [-54.393187, 4.244393], [-54.41055, 4.208581], [-54.394892, 4.177911], [-54.338565, 4.152332], [-54.334689, 4.131713], [-54.355153, 4.066523], [-54.353861, 4.041718], [-54.310194, 3.994202], [-54.293141, 3.949812], [-54.265804, 3.922527], [-54.241051, 3.876354], [-54.214541, 3.858215], [-54.18736, 3.814678], [-54.125503, 3.788736], [-54.094445, 3.747059], [-54.074033, 3.676107], [-54.050107, 3.634534], [-54.017861, 3.641458], [-53.988819, 3.610995], [-54.006285, 3.531026], [-54.00303, 3.455397], [-54.019359, 3.415374], [-54.055688, 3.377676], [-54.080805, 3.309314], [-54.114289, 3.285382]]]}}, {"type": "Feature", "properties": {"name": "Guyana"}, "geometry": {"type": "MultiPolygon", "coordinates": [[[[-56.574862, 1.905466], [-56.620234, 1.93456], [-56.639561, 1.93686], [-56.683951, 1.912107], [-56.737643, 1.912985], [-56.780638, 1.87906], [-56.806476, 1.873582], [-56.890709, 1.890196], [-56.921921, 1.918101], [-57.011167, 1.918566], [-57.05597, 1.948073], [-57.074057, 1.997166], [-57.104494, 2.021454], [-57.152915, 2.002204], [-57.238439, 1.948539], [-57.258645, 1.952233], [-57.294818, 1.974842], [-57.319416, 1.977141], [-57.341482, 1.968847], [-57.384529, 1.925207], [-57.429487, 1.900299], [-57.464782, 1.81573], [-57.53129, 1.731549], [-57.561159, 1.708967], [-57.63857, 1.696177], [-57.758821, 1.713462], [-57.922222, 1.642485], [-57.985009, 1.657704], [-57.991003, 1.650417], [-57.986973, 1.586829], [-58.027229, 1.516859], [-58.069138, 1.509005], [-58.148616, 1.519082], [-58.162879, 1.549183], [-58.18727, 1.567606], [-58.219672, 1.556056], [-58.260548, 1.560319], [-58.299202, 1.575176], [-58.320492, 1.601221], [-58.331913, 1.593392], [-58.351395, 1.553317], [-58.390255, 1.53076], [-58.38638, 1.490194], [-58.413458, 1.47203], [-58.498879, 1.45738], [-58.513659, 1.43888], [-58.488079, 1.378883], [-58.481103, 1.333873], [-58.51893, 1.267262], [-58.556964, 1.286899], [-58.580528, 1.27274], [-58.69773, 1.28106], [-58.771938, 1.201271], [-58.834001, 1.18582], [-58.872138, 1.197241], [-58.897873, 1.217808], [-58.927484, 1.284212], [-58.966499, 1.310154], [-59.011096, 1.327569], [-59.177959, 1.357128], [-59.259918, 1.387436], [-59.293818, 1.452109], [-59.320328, 1.473529], [-59.326943, 1.509521], [-59.33857, 1.524637], [-59.380169, 1.523345], [-59.394639, 1.549441], [-59.416834, 1.555281], [-59.445514, 1.601015], [-59.502823, 1.657652], [-59.530729, 1.703075], [-59.572716, 1.727157], [-59.639662, 1.721756], [-59.680849, 1.757387], [-59.682476, 1.765604], [-59.645476, 1.827693], [-59.646458, 1.839966], [-59.705576, 1.857407], [-59.749682, 1.851309], [-59.758751, 1.862136], [-59.764539, 1.92053], [-59.743816, 1.961845], [-59.737098, 2.03042], [-59.752963, 2.075456], [-59.735393, 2.113516], [-59.744979, 2.153513], [-59.741698, 2.263791], [-59.763247, 2.287975], [-59.801203, 2.292729], [-59.903135, 2.359599], [-59.913444, 2.378719], [-59.901507, 2.404506], [-59.906778, 2.458766], [-59.935846, 2.523878], [-59.940729, 2.562997], [-59.953132, 2.583926], [-59.970986, 2.592556], [-59.965043, 2.613433], [-60.0, 2.6938649294460215], [-60.0, 2.6961036884832463], [-59.993724, 2.857294], [-59.972975, 2.939305], [-59.969229, 3.042709], [-59.932668, 3.110044], [-59.91161, 3.126425], [-59.921557, 3.150093], [-59.903212, 3.158671], [-59.916674, 3.194173], [-59.897631, 3.217376], [-59.84319, 3.349022], [-59.82177, 3.356592], [-59.828488, 3.383412], [-59.824044, 3.431678], [-59.841356, 3.425399], [-59.821357, 3.484388], [-59.829547, 3.509761], [-59.863034, 3.552368], [-59.862879, 3.58172], [-59.837661, 3.60929], [-59.755547, 3.638125], [-59.717642, 3.673214], [-59.686223, 3.690215], [-59.671805, 3.756232], [-59.598606, 3.802405], [-59.602507, 3.855683], [-59.581785, 3.899195], [-59.563155, 3.918186], [-59.534708, 3.9271], [-59.527654, 3.939528], [-59.536826, 3.957692], [-59.59628, 3.970637], [-59.595376, 3.996372], [-59.663253, 4.079726], [-59.646174, 4.134038], [-59.726737, 4.176465], [-59.738468, 4.202768], [-59.737951, 4.240001], [-59.724489, 4.264056], [-59.738468, 4.286587], [-59.693613, 4.340692], [-59.68674, 4.381181], [-59.713508, 4.389371], [-59.737951, 4.415571], [-59.796268, 4.448205], [-59.809626, 4.465749], [-59.82624, 4.454613], [-59.863241, 4.460659], [-59.87169, 4.46823], [-59.87293, 4.484689], [-59.914555, 4.474353], [-59.934296, 4.498254], [-59.953132, 4.505876], [-59.974552, 4.503706], [-59.984551, 4.488797], [-60.0, 4.493103727149496], [-60.0, 4.9669926118279095], [-59.999279, 4.99688], [-59.981502, 5.057419], [-59.983104, 5.085944], [-60.0, 5.0951286234603055], [-60.0, 8.114538775836973], [-59.99933, 8.115397], [-60.0, 8.134112632440518], [-60.0, 8.154366071971747], [-59.99331, 8.168521], [-59.957059, 8.200147], [-59.848461, 8.227742], [-59.829289, 8.245105], [-59.816654, 8.267197], [-59.815595, 8.287764], [-59.855618, 8.352127], [-59.959695, 8.468166], [-60.0, 8.527248434654915], [-60.0, 8.545916854870773], [-59.96817, 8.527574], [-59.932485, 8.491767], [-59.875315, 8.405219], [-59.837799, 8.369289], [-59.760569, 8.341498], [-59.651845, 8.273668], [-59.622182, 8.267524], [-59.609853, 8.242092], [-59.543446, 8.229478], [-59.433746, 8.130316], [-59.456776, 8.167222], [-59.491689, 8.201321], [-59.533559, 8.228909], [-59.608632, 8.259426], [-59.761301, 8.355455], [-59.78185, 8.394192], [-59.77953, 8.407131], [-59.755849, 8.410875], [-59.739369, 8.403632], [-59.703969, 8.375556], [-59.663238, 8.363471], [-59.5454, 8.283759], [-59.454091, 8.242621], [-59.34789, 8.166815], [-59.165151, 8.058743], [-59.104807, 8.013617], [-58.884752, 7.778688], [-58.833416, 7.7383], [-58.778617, 7.662364], [-58.73763, 7.588334], [-58.742004, 7.630278], [-58.703434, 7.620963], [-58.682377, 7.603534], [-58.646717, 7.565057], [-58.56818, 7.453341], [-58.489735, 7.376125], [-58.471588, 7.345404], [-58.464223, 7.312201], [-58.474192, 7.279975], [-58.467356, 7.287421], [-58.472524, 7.244452], [-58.467356, 7.116116], [-58.485015, 7.01081], [-58.550689, 6.947089], [-58.568186, 6.906806], [-58.574045, 6.868394], [-58.597727, 6.808295], [-58.597727, 6.721625], [-58.611399, 6.687812], [-58.611399, 6.509711], [-58.619944, 6.476874], [-58.686431, 6.382473], [-58.679596, 6.376207], [-58.628896, 6.423326], [-58.59024, 6.417222], [-58.597727, 6.423407], [-58.581166, 6.463446], [-58.577219, 6.594713], [-58.567006, 6.636705], [-58.461537, 6.821845], [-58.434885, 6.857815], [-58.398427, 6.883368], [-58.3544, 6.894355], [-58.312164, 6.892157], [-58.214101, 6.849189], [-58.169667, 6.813422], [-58.153717, 6.832221], [-58.067863, 6.821703], [-58.005675, 6.791758], [-57.891891, 6.696442], [-57.796986, 6.598147], [-57.778857, 6.590347], [-57.646819, 6.477809], [-57.598578, 6.427246], [-57.528913, 6.265709], [-57.520427, 6.277993], [-57.517037, 6.315076], [-57.490633, 6.338921], [-57.46637, 6.337906], [-57.408801, 6.312765], [-57.289824, 6.234739], [-57.207494, 6.151378], [-57.167307, 6.08511], [-57.143613, 5.977985], [-57.165761, 6.005683], [-57.141965, 5.955742], [-57.137259, 5.882092], [-57.170021, 5.799622], [-57.183055, 5.73141], [-57.159573, 5.692912], [-57.161518, 5.638906], [-57.196929, 5.564765], [-57.24767, 5.491848], [-57.265208, 5.403366], [-57.335695, 5.316886], [-57.331715, 5.30761], [-57.308409, 5.313475], [-57.288824, 5.30854], [-57.287274, 5.238699], [-57.280452, 5.225341], [-57.263037, 5.223997], [-57.253787, 5.234927], [-57.269187, 5.256709], [-57.26743, 5.266295], [-57.237613, 5.268723], [-57.192396, 5.203172], [-57.184903, 5.183147], [-57.189812, 5.16922], [-57.233324, 5.142116], [-57.247276, 5.172373], [-57.277714, 5.17692], [-57.288979, 5.171029], [-57.321432, 5.070157], [-57.280452, 5.026103], [-57.290478, 5.020289], [-57.329442, 5.024087], [-57.381377, 5.005742], [-57.490259, 4.99135], [-57.517596, 5.012434], [-57.566223, 5.007086], [-57.610096, 4.99135], [-57.64937, 5.008429], [-57.686939, 5.006259], [-57.720477, 4.9898], [-57.773962, 4.926445], [-57.798457, 4.92306], [-57.830238, 4.933059], [-57.85034, 4.922801], [-57.918501, 4.829758], [-57.925374, 4.796142], [-57.91783, 4.782371], [-57.88455, 4.762863], [-57.871166, 4.721728], [-57.836026, 4.669845], [-57.837421, 4.65088], [-57.863311, 4.60773], [-57.92186, 4.450944], [-57.952659, 4.409732], [-57.956639, 4.391438], [-57.94527, 4.343922], [-57.953848, 4.299015], [-58.052033, 4.193104], [-58.065934, 4.171839], [-58.067691, 4.151143], [-58.032138, 3.987716], [-58.007902, 3.957279], [-57.942117, 3.905447], [-57.875145, 3.812197], [-57.853854, 3.76667], [-57.846929, 3.702101], [-57.829773, 3.662439], [-57.72611, 3.607197], [-57.702856, 3.555676], [-57.660429, 3.535186], [-57.644048, 3.51666], [-57.660688, 3.469505], [-57.664615, 3.417544], [-57.654848, 3.39013], [-57.565138, 3.349822], [-57.545036, 3.348143], [-57.535269, 3.36778], [-57.487985, 3.351528], [-57.476254, 3.338945], [-57.459201, 3.353336], [-57.430934, 3.360623], [-57.425043, 3.387495], [-57.366752, 3.36561], [-57.340035, 3.370157], [-57.308409, 3.39491], [-57.280452, 3.329772], [-57.282778, 3.295045], [-57.292493, 3.276287], [-57.280452, 3.247813], [-57.287946, 3.203113], [-57.274923, 3.169007], [-57.286033, 3.142393], [-57.264898, 3.132626], [-57.239473, 3.147871], [-57.233324, 3.14167], [-57.248568, 3.112369], [-57.222213, 3.078263], [-57.205987, 3.028137], [-57.226451, 3.021264], [-57.22118, 2.992583], [-57.234615, 2.970362], [-57.188623, 2.95951], [-57.183818, 2.944679], [-57.219629, 2.908299], [-57.202266, 2.846236], [-57.186608, 2.82324], [-57.174619, 2.818951], [-57.133381, 2.832593], [-57.126405, 2.82603], [-57.143665, 2.790012], [-57.13705, 2.77115], [-57.099533, 2.778591], [-57.08987, 2.773889], [-57.102944, 2.740454], [-57.061964, 2.68175], [-57.05597, 2.642372], [-57.048012, 2.636481], [-57.027238, 2.648212], [-57.020468, 2.635447], [-57.027238, 2.59359], [-56.997111, 2.555142], [-57.000573, 2.514163], [-56.994113, 2.504861], [-56.959593, 2.524705], [-56.951274, 2.515455], [-56.959593, 2.483777], [-56.951635, 2.461246], [-56.930241, 2.436183], [-56.938458, 2.41143], [-56.930836, 2.393292], [-56.89505, 2.362079], [-56.883887, 2.339755], [-56.880141, 2.294796], [-56.838877, 2.281102], [-56.826191, 2.261672], [-56.801464, 2.165967], [-56.70519, 2.029645], [-56.677802, 2.018405], [-56.579772, 2.016803], [-56.499983, 1.969984], [-56.481819, 1.941614], [-56.574862, 1.905466]]], [[[-58.333608, 6.965277], [-58.391021, 6.919867], [-58.441029, 6.904771], [-58.46052, 6.883368], [-58.46349, 6.900295], [-58.447011, 6.943061], [-58.418935, 6.972113], [-58.333608, 6.965277]]]]}}, {"type": "Feature", "properties": {"name": "Brazil"}, "geometry": {"type": "MultiPolygon", "coordinates": [[[[-59.983104, 5.085944], [-59.981502, 5.057419], [-59.999279, 4.99688], [-60.0, 4.9669926118279095], [-60.0, 5.095954282629819], [-59.983104, 5.085944]]], [[[-59.984551, 4.488797], [-59.974552, 4.503706], [-59.953132, 4.505876], [-59.934296, 4.498254], [-59.914555, 4.474353], [-59.87293, 4.484689], [-59.87169, 4.46823], [-59.863241, 4.460659], [-59.82624, 4.454613], [-59.809626, 4.465749], [-59.796268, 4.448205], [-59.737951, 4.415571], [-59.713508, 4.389371], [-59.68674, 4.381181], [-59.693613, 4.340692], [-59.738468, 4.286587], [-59.724489, 4.264056], [-59.737951, 4.240001], [-59.738468, 4.202768], [-59.726737, 4.176465], [-59.646174, 4.134038], [-59.663253, 4.079726], [-59.595376, 3.996372], [-59.59628, 3.970637], [-59.536826, 3.957692], [-59.527654, 3.939528], [-59.534708, 3.9271], [-59.563155, 3.918186], [-59.581785, 3.899195], [-59.602507, 3.855683], [-59.598606, 3.802405], [-59.671805, 3.756232], [-59.686223, 3.690215], [-59.717642, 3.673214], [-59.755547, 3.638125], [-59.837661, 3.60929], [-59.862879, 3.58172], [-59.863034, 3.552368], [-59.829547, 3.509761], [-59.821357, 3.484388], [-59.841356, 3.425399], [-59.824044, 3.431678], [-59.828488, 3.383412], [-59.82177, 3.356592], [-59.84319, 3.349022], [-59.897631, 3.217376], [-59.916674, 3.194173], [-59.903212, 3.158671], [-59.921557, 3.150093], [-59.91161, 3.126425], [-59.932668, 3.110044], [-59.969229, 3.042709], [-59.972975, 2.939305], [-59.993724, 2.857294], [-60.0, 2.6961036884832463], [-60.0, 4.493103727149496], [-59.984551, 4.488797]]], [[[-59.965043, 2.613433], [-59.970986, 2.592556], [-59.953132, 2.583926], [-59.940729, 2.562997], [-59.935846, 2.523878], [-59.906778, 2.458766], [-59.901507, 2.404506], [-59.913444, 2.378719], [-59.903135, 2.359599], [-59.884066, 2.346008], [-59.801203, 2.292729], [-59.763247, 2.287975], [-59.741698, 2.263791], [-59.744979, 2.153513], [-59.735393, 2.113516], [-59.752963, 2.075456], [-59.737098, 2.03042], [-59.743816, 1.961845], [-59.764539, 1.92053], [-59.758751, 1.862136], [-59.749682, 1.851309], [-59.705576, 1.857407], [-59.646458, 1.839966], [-59.645476, 1.827693], [-59.682476, 1.765604], [-59.680849, 1.757387], [-59.639662, 1.721756], [-59.572716, 1.727157], [-59.530729, 1.703075], [-59.502823, 1.657652], [-59.445514, 1.601015], [-59.416834, 1.555281], [-59.394639, 1.549441], [-59.380169, 1.523345], [-59.33857, 1.524637], [-59.326943, 1.509521], [-59.320328, 1.473529], [-59.293818, 1.452109], [-59.259918, 1.387436], [-59.177959, 1.357128], [-59.011096, 1.327569], [-58.966499, 1.310154], [-58.927484, 1.284212], [-58.897873, 1.217808], [-58.872138, 1.197241], [-58.834001, 1.18582], [-58.771938, 1.201271], [-58.69773, 1.28106], [-58.580528, 1.27274], [-58.556964, 1.286899], [-58.51893, 1.267262], [-58.481103, 1.333873], [-58.488079, 1.378883], [-58.513659, 1.43888], [-58.498879, 1.45738], [-58.413458, 1.47203], [-58.38638, 1.490194], [-58.390255, 1.53076], [-58.351395, 1.553317], [-58.331913, 1.593392], [-58.320492, 1.601221], [-58.299202, 1.575176], [-58.260548, 1.560319], [-58.219672, 1.556056], [-58.18727, 1.567606], [-58.162879, 1.549183], [-58.148616, 1.519082], [-58.069138, 1.509005], [-58.027229, 1.516859], [-57.986973, 1.586829], [-57.991003, 1.650417], [-57.985009, 1.657704], [-57.922222, 1.642485], [-57.758821, 1.713462], [-57.63857, 1.696177], [-57.561159, 1.708967], [-57.53129, 1.731549], [-57.464782, 1.81573], [-57.429487, 1.900299], [-57.384529, 1.925207], [-57.341482, 1.968847], [-57.319416, 1.977141], [-57.294818, 1.974842], [-57.258645, 1.952233], [-57.238439, 1.948539], [-57.152915, 2.002204], [-57.104494, 2.021454], [-57.074057, 1.997166], [-57.05597, 1.948073], [-57.011167, 1.918566], [-56.921921, 1.918101], [-56.890709, 1.890196], [-56.806476, 1.873582], [-56.780638, 1.87906], [-56.737643, 1.912985], [-56.683951, 1.912107], [-56.639561, 1.93686], [-56.620234, 1.93456], [-56.574862, 1.905466], [-56.481819, 1.941614], [-56.415182, 1.919703], [-56.347951, 1.926602], [-56.273796, 1.887509], [-56.209768, 1.888542], [-56.019651, 1.833507], [-55.953815, 1.853273], [-55.922034, 1.886217], [-55.918262, 2.050393], [-55.995776, 2.13739], [-56.03133, 2.163487], [-56.044843, 2.184726], [-56.054016, 2.224051], [-56.072929, 2.241518], [-56.135251, 2.248546], [-56.146775, 2.256194], [-56.131995, 2.304357], [-56.10378, 2.349057], [-56.062155, 2.341564], [-56.050243, 2.347041], [-56.013346, 2.398821], [-55.996913, 2.503259], [-55.989239, 2.520829], [-55.971023, 2.530338], [-55.9472, 2.528167], [-55.925031, 2.515662], [-55.853769, 2.462642], [-55.773568, 2.440059], [-55.754602, 2.409415], [-55.724294, 2.396909], [-55.645384, 2.416649], [-55.608306, 2.433961], [-55.399585, 2.430189], [-55.37106, 2.442539], [-55.354523, 2.494888], [-55.32052, 2.518297], [-55.302795, 2.519692], [-55.275252, 2.499332], [-55.25192, 2.497885], [-55.171951, 2.559328], [-55.137793, 2.56217], [-55.136604, 2.5338], [-55.120894, 2.524808], [-55.076298, 2.54522], [-55.017748, 2.590592], [-54.959095, 2.608989], [-54.953669, 2.599067], [-54.979559, 2.566098], [-54.978577, 2.54305], [-54.880289, 2.447345], [-54.841919, 2.433496], [-54.743036, 2.466517], [-54.703194, 2.445847], [-54.695597, 2.403524], [-54.709963, 2.39479], [-54.715699, 2.375928], [-54.704124, 2.32482], [-54.67286, 2.315984], [-54.588162, 2.324355], [-54.564649, 2.314847], [-54.526409, 2.282652], [-54.549146, 2.279449], [-54.545787, 2.268596], [-54.476644, 2.21413], [-54.373911, 2.196508], [-54.314019, 2.154857], [-54.263789, 2.14819], [-54.188548, 2.161316], [-54.157387, 2.121655], [-54.134908, 2.110673], [-54.111395, 2.114291], [-54.098424, 2.127959], [-54.076669, 2.183692], [-54.048453, 2.188808], [-54.027989, 2.178576], [-53.963911, 2.209324], [-53.946134, 2.221984], [-53.932905, 2.26963], [-53.901227, 2.264514], [-53.866811, 2.304925], [-53.830896, 2.310144], [-53.800975, 2.353811], [-53.764801, 2.368694], [-53.748265, 2.364663], [-53.737361, 2.349057], [-53.748162, 2.319343], [-53.742167, 2.308542], [-53.713177, 2.307354], [-53.645997, 2.278467], [-53.579025, 2.270405], [-53.531792, 2.247047], [-53.462133, 2.258985], [-53.37852, 2.307561], [-53.344104, 2.349625], [-53.322554, 2.338566], [-53.29744, 2.303685], [-53.234188, 2.250975], [-53.234653, 2.24126], [-53.272222, 2.219969], [-53.279715, 2.204983], [-53.268501, 2.195733], [-53.113368, 2.219349], [-53.092233, 2.211907], [-53.061227, 2.186276], [-52.959683, 2.175217], [-52.939064, 2.195733], [-52.923147, 2.193666], [-52.906714, 2.204983], [-52.880153, 2.26038], [-52.862738, 2.274229], [-52.819691, 2.291541], [-52.690603, 2.372983], [-52.656084, 2.430912], [-52.619187, 2.463468], [-52.590403, 2.504706], [-52.551904, 2.586562], [-52.575778, 2.633742], [-52.542964, 2.651519], [-52.5333, 2.689863], [-52.455269, 2.865046], [-52.441626, 2.881324], [-52.409277, 2.897344], [-52.422196, 2.927471], [-52.351554, 3.065964], [-52.361114, 3.10932], [-52.355327, 3.151592], [-52.31936, 3.177637], [-52.299103, 3.225334], [-52.279466, 3.242491], [-52.251199, 3.243059], [-52.227918, 3.260112], [-52.092759, 3.481391], [-52.093586, 3.506867], [-52.074181, 3.516634], [-52.012764, 3.619108], [-51.988424, 3.704555], [-51.972844, 3.721686], [-51.948711, 3.725097], [-51.940081, 3.733959], [-51.93866, 3.773569], [-51.899721, 3.796669], [-51.83541, 3.867543], [-51.806239, 3.917514], [-51.783191, 3.980947], [-51.757947, 4.002522], [-51.651601, 4.047675], [-51.631744, 4.067816], [-51.595815, 4.157864], [-51.596906, 4.215504], [-51.585347, 4.233818], [-51.571604, 4.235419], [-51.559682, 4.2237], [-51.511871, 4.080308], [-51.450999, 3.970526], [-51.436838, 3.929511], [-51.428212, 3.95775], [-51.435414, 3.985907], [-51.498158, 4.105414], [-51.546702, 4.255032], [-51.560048, 4.369371], [-51.547683, 4.421785], [-51.516498, 4.441122], [-51.38923, 4.358902], [-51.224435, 4.165043], [-51.18693, 4.078849], [-51.179433, 4.025214], [-51.180231, 3.804444], [-51.197487, 3.699521], [-51.176137, 3.648342], [-51.155629, 3.737738], [-51.148834, 3.827094], [-51.136383, 3.867743], [-51.116363, 3.906195], [-51.093152, 3.907229], [-51.079905, 3.88227], [-51.090003, 3.724951], [-51.079385, 3.492087], [-51.096477, 3.449021], [-51.092742, 3.376329], [-51.036004, 3.229214], [-51.027816, 3.181613], [-51.040627, 3.150937], [-51.013983, 3.072386], [-51.016779, 3.035572], [-51.004019, 3.022652], [-50.97973, 2.93865], [-50.944201, 2.875178], [-50.949511, 2.847861], [-50.94454, 2.822201], [-50.902803, 2.793755], [-50.874985, 2.728656], [-50.865833, 2.684165], [-50.852247, 2.666133], [-50.818959, 2.552395], [-50.821929, 2.528388], [-50.836822, 2.514594], [-50.839467, 2.497463], [-50.823638, 2.489691], [-50.805531, 2.504381], [-50.791615, 2.494574], [-50.76299, 2.443562], [-50.761068, 2.418755], [-50.742421, 2.378485], [-50.733819, 2.313278], [-50.720527, 2.292556], [-50.712618, 2.236803], [-50.68603, 2.198477], [-50.67927, 2.171698], [-50.703196, 2.141303], [-50.737294, 2.134467], [-50.792551, 2.161811], [-50.785715, 2.141303], [-50.764556, 2.123969], [-50.779693, 2.07095], [-50.761545, 2.04385], [-50.751576, 2.045111], [-50.734731, 2.103827], [-50.702056, 2.130316], [-50.659983, 2.130683], [-50.619555, 2.105238], [-50.600141, 2.075202], [-50.589915, 2.017157], [-50.522206, 1.912502], [-50.509185, 1.857164], [-50.466542, 1.815416], [-50.393381, 1.797797], [-50.353098, 1.804877], [-50.330556, 1.818061], [-50.257883, 1.807807], [-50.164598, 1.815634], [-50.137875, 1.798935], [-50.004051, 1.751601], [-49.950597, 1.721326], [-49.910159, 1.664263], [-49.900789, 1.611651], [-49.873551, 1.392304], [-49.883026, 1.307714], [-49.912919, 1.272327], [-49.975328, 1.245033], [-50.102193, 1.214744], [-50.141273, 1.225412], [-50.149741, 1.221209], [-50.138189, 1.193712], [-50.120239, 1.185215], [-50.098017, 1.194664], [-50.067396, 1.18719], [-50.026165, 1.197641], [-49.975457, 1.197504], [-49.944763, 1.218545], [-49.921522, 1.218481], [-49.904856, 1.206773], [-49.887563, 1.174872], [-49.90807, 1.133287], [-49.938873, 1.097235], [-49.978831, 1.072211], [-50.014272, 1.070868], [-50.031565, 1.105943], [-50.060902, 1.018866], [-50.106109, 0.995307], [-50.141428, 0.941474], [-50.1704, 0.91649], [-50.261586, 0.869818], [-50.312489, 0.817206], [-50.353424, 0.726711], [-50.453359, 0.664049], [-50.499664, 0.555976], [-50.608957, 0.373928], [-50.693959, 0.286444], [-50.790639, 0.169501], [-50.853993, 0.173651], [-50.928944, 0.155422], [-50.979848, 0.120429], [-51.08141, -0.032525], [-51.201568, -0.049086], [-51.215199, -0.068658], [-51.265452, -0.083429], [-51.326975, -0.079522], [-51.317698, -0.090671], [-51.282216, -0.103123], [-51.266347, -0.12713], [-51.25121, -0.127374], [-51.322499, -0.215265], [-51.388417, -0.373712], [-51.443023, -0.428399], [-51.44518, -0.471449], [-51.453603, -0.486749], [-51.52184, -0.538263], [-51.58019, -0.52516], [-51.58019, -0.531996], [-51.552846, -0.538263], [-51.552846, -0.545587], [-51.587636, -0.551853], [-51.587636, -0.558689], [-51.561106, -0.558689], [-51.546702, -0.545587], [-51.532379, -0.551853], [-51.62857, -0.676039], [-51.656484, -0.695896], [-51.697499, -0.747166], [-51.713735, -0.793227], [-51.724192, -0.877699], [-51.710846, -0.978611], [-51.715484, -1.02752], [-51.800649, -1.092706], [-51.834096, -1.134698], [-51.908315, -1.157973], [-51.929351, -1.178318], [-51.930247, -1.223403], [-51.916005, -1.309177], [-51.93456, -1.339532], [-51.964426, -1.36061], [-51.995351, -1.396417], [-52.065785, -1.405043], [-52.151357, -1.380955], [-52.195383, -1.344985], [-52.214589, -1.34002], [-52.238108, -1.346368], [-52.285471, -1.390069], [-52.421986, -1.430352], [-52.457834, -1.458266], [-52.475087, -1.484063], [-52.558095, -1.518731], [-52.618276, -1.525649], [-52.697418, -1.552423], [-52.710032, -1.567804], [-52.708119, -1.60003], [-52.595041, -1.5735], [-52.423085, -1.566095], [-52.343902, -1.552423], [-52.279124, -1.518243], [-52.250396, -1.54225], [-52.231068, -1.602716], [-52.236806, -1.625584], [-52.258616, -1.65545], [-52.260243, -1.695245], [-52.248769, -1.703058], [-52.203969, -1.690199], [-52.197133, -1.669692], [-52.141957, -1.622735], [-52.077382, -1.62127], [-52.046295, -1.607599], [-52.00475, -1.607599], [-51.958648, -1.593357], [-51.914622, -1.570977], [-51.669545, -1.401625], [-51.595041, -1.386895], [-51.557973, -1.365411], [-51.462026, -1.32936], [-51.417714, -1.291681], [-51.399648, -1.251072], [-51.326975, -1.23089], [-51.347401, -1.257582], [-51.283437, -1.231378], [-51.187489, -1.121677], [-51.032948, -1.038018], [-51.003407, -1.013767], [-50.991119, -0.987237], [-51.009755, -0.935968], [-50.997304, -0.922459], [-50.976674, -0.92018], [-50.957428, -0.949884], [-50.935902, -0.956638], [-50.953277, -0.931329], [-50.942738, -0.908787], [-50.839589, -0.912774], [-50.821685, -0.935317], [-50.82665, -1.045343], [-50.833892, -1.058689], [-50.867665, -1.079522], [-50.901763, -1.121026], [-50.95641, -1.128513], [-50.847483, -1.197849], [-50.819936, -1.231703], [-50.829254, -1.312107], [-50.82665, -1.370864], [-50.805531, -1.401625], [-50.819203, -1.436293], [-50.778676, -1.49863], [-50.766713, -1.540785], [-50.679555, -1.629002], [-50.670481, -1.696466], [-50.654693, -1.73797], [-50.67394, -1.764744], [-50.691029, -1.765395], [-50.737294, -1.73797], [-50.709508, -1.790948], [-50.717283, -1.822473], [-50.758328, -1.845397], [-50.767009, -1.882057], [-50.787567, -1.89737], [-50.814905, -1.896456], [-50.879803, -1.851951], [-50.892734, -1.879235], [-50.853422, -1.908323], [-50.854385, -1.93308], [-50.844215, -1.955301], [-50.818607, -1.969007], [-50.82616, -1.930576], [-50.818441, -1.924616], [-50.737207, -1.921348], [-50.702144, -1.909472], [-50.698588, -1.854062], [-50.660044, -1.803004], [-50.610581, -1.814203], [-50.565338, -1.89072], [-50.547231, -1.906915], [-50.504506, -1.929132], [-50.466664, -1.92783], [-50.462961, -1.939711], [-50.484039, -1.977634], [-50.443023, -1.935968], [-50.443227, -1.956638], [-50.457509, -1.983819], [-50.428578, -2.062921], [-50.415761, -2.073175], [-50.403879, -2.035821], [-50.382476, -2.017185], [-50.372841, -1.973728], [-50.312539, -1.908774], [-50.28077, -1.893829], [-50.251332, -1.901788], [-50.231557, -1.895766], [-50.207346, -1.897149], [-50.161936, -1.915623], [-50.154775, -1.882745], [-50.136586, -1.861993], [-50.110422, -1.849216], [-50.024892, -1.826104], [-49.976918, -1.826104], [-49.93224, -1.84295], [-49.869293, -1.888767], [-49.870473, -1.919041], [-49.894399, -1.963311], [-49.86026, -1.922459], [-49.850168, -1.98268], [-49.887563, -2.087498], [-49.880727, -2.087498], [-49.86026, -2.045831], [-49.853424, -2.045831], [-49.837514, -2.08115], [-49.812489, -2.108005], [-49.839182, -2.004978], [-49.83788, -1.92669], [-49.846588, -1.901788], [-49.834706, -1.905938], [-49.830881, -1.918064], [-49.832346, -1.94964], [-49.810455, -1.900567], [-49.760487, -1.896742], [-49.723704, -1.929132], [-49.727895, -1.910821], [-49.721303, -1.904067], [-49.702626, -1.922459], [-49.694, -1.907322], [-49.676096, -1.908624], [-49.654205, -1.92018], [-49.604644, -1.967869], [-49.592763, -2.011651], [-49.579416, -1.994317], [-49.592926, -1.964044], [-49.634348, -1.909356], [-49.647369, -1.915623], [-49.654775, -1.895115], [-49.598012, -1.842706], [-49.563344, -1.835219], [-49.537465, -1.860935], [-49.522369, -1.795994], [-49.510813, -1.778985], [-49.485219, -1.76393], [-49.466461, -1.764337], [-49.457997, -1.778741], [-49.463002, -1.805759], [-49.422027, -1.778985], [-49.428212, -1.798761], [-49.451161, -1.82464], [-49.454213, -1.856134], [-49.434804, -1.879978], [-49.370432, -1.905043], [-49.36974, -1.940199], [-49.394114, -1.983819], [-49.394114, -1.991306], [-49.381093, -1.991306], [-49.422027, -2.038995], [-49.430491, -2.141209], [-49.445546, -2.18377], [-49.469838, -2.203546], [-49.503, -2.258396], [-49.506459, -2.319594], [-49.524403, -2.341241], [-49.531321, -2.380466], [-49.54894, -2.40309], [-49.545766, -2.516534], [-49.617258, -2.615004], [-49.640533, -2.619724], [-49.67691, -2.649102], [-49.688954, -2.669041], [-49.663686, -2.677667], [-49.619862, -2.67018], [-49.544911, -2.642348], [-49.527415, -2.628351], [-49.5183, -2.580255], [-49.482533, -2.556817], [-49.477284, -2.532485], [-49.442616, -2.492364], [-49.435699, -2.470392], [-49.435699, -2.395278], [-49.426829, -2.367283], [-49.331614, -2.204767], [-49.313954, -2.160414], [-49.300526, -2.090916], [-49.232004, -1.948175], [-49.204091, -1.907322], [-49.145569, -1.856758], [-49.123006, -1.768008], [-49.049648, -1.721792], [-49.008864, -1.681124], [-48.991543, -1.635484], [-48.965589, -1.599719], [-48.926079, -1.593599], [-48.856369, -1.559031], [-48.892851, -1.598252], [-48.911607, -1.67298], [-48.946201, -1.704705], [-48.943432, -1.742997], [-48.955599, -1.766329], [-48.968704, -1.785925], [-48.995815, -1.793368], [-49.011721, -1.80736], [-49.033269, -1.846568], [-49.002418, -1.84286], [-48.982755, -1.813926], [-48.929465, -1.787832], [-48.910733, -1.742097], [-48.881418, -1.713474], [-48.890736, -1.686456], [-48.856313, -1.665948], [-48.845082, -1.641371], [-48.815338, -1.63836], [-48.811879, -1.62127], [-48.736806, -1.511407], [-48.733062, -1.494317], [-48.715688, -1.490981], [-48.69933, -1.472914], [-48.656946, -1.38338], [-48.642121, -1.385675], [-48.535024, -1.581476], [-48.523915, -1.580336], [-48.490224, -1.619073], [-48.452626, -1.625665], [-48.428334, -1.662286], [-48.421457, -1.645115], [-48.43456, -1.590265], [-48.443023, -1.570001], [-48.478383, -1.535089], [-48.4829, -1.511407], [-48.464833, -1.522068], [-48.428049, -1.524184], [-48.355824, -1.500421], [-48.325307, -1.470473], [-48.377553, -1.469171], [-48.407216, -1.456231], [-48.455556, -1.472914], [-48.496571, -1.461358], [-48.503285, -1.4485], [-48.482753, -1.2813], [-48.435903, -1.218688], [-48.423173, -1.232516], [-48.425387, -1.297312], [-48.334584, -1.313653], [-48.320058, -1.229587], [-48.305043, -1.188246], [-48.281361, -1.167087], [-48.250152, -1.189386], [-48.277008, -1.149998], [-48.27066, -1.134698], [-48.278147, -1.128513], [-48.27066, -1.121026], [-48.258941, -1.126153], [-48.22289, -1.113539], [-48.274403, -1.113539], [-48.291127, -1.079522], [-48.291737, -1.043634], [-48.212514, -1.036554], [-48.187489, -1.01865], [-48.182932, -0.988214], [-48.160797, -0.960056], [-48.153961, -0.914972], [-48.140289, -0.9013], [-48.146555, -0.880792], [-48.140289, -0.84295], [-48.160797, -0.816013], [-48.154042, -0.781834], [-48.111562, -0.724542], [-48.037913, -0.661716], [-48.017445, -0.695896], [-48.02359, -0.72324], [-47.962148, -0.781834], [-47.946116, -0.740492], [-47.877919, -0.696873], [-47.866238, -0.673505], [-47.850087, -0.670994], [-47.802444, -0.690334], [-47.82223, -0.664893], [-47.825286, -0.639483], [-47.824616, -0.606652], [-47.809071, -0.565167], [-47.775045, -0.599292], [-47.770253, -0.63714], [-47.746816, -0.633884], [-47.725168, -0.644138], [-47.71642, -0.667739], [-47.715728, -0.712986], [-47.743398, -0.74627], [-47.728668, -0.756524], [-47.652821, -0.723891], [-47.610585, -0.693943], [-47.597279, -0.677341], [-47.588287, -0.641697], [-47.5781, -0.635407], [-47.587163, -0.613964], [-47.584514, -0.578247], [-47.53844, -0.61078], [-47.543009, -0.627007], [-47.487375, -0.728285], [-47.496693, -0.764744], [-47.424062, -0.764744], [-47.408599, -0.771091], [-47.406361, -0.801446], [-47.393056, -0.812595], [-47.390859, -0.789727], [-47.379384, -0.770929], [-47.393056, -0.747166], [-47.414133, -0.736912], [-47.448313, -0.695896], [-47.468739, -0.730645], [-47.470041, -0.62184], [-47.464426, -0.609063], [-47.448313, -0.60711], [-47.461903, -0.592869], [-47.430165, -0.580011], [-47.414377, -0.581231], [-47.39981, -0.592869], [-47.414133, -0.613946], [-47.414703, -0.66131], [-47.407338, -0.681573], [-47.407297, -0.660252], [-47.393056, -0.648126], [-47.385732, -0.672784], [-47.365712, -0.681573], [-47.380238, -0.658868], [-47.373158, -0.633884], [-47.359446, -0.630955], [-47.324696, -0.65488], [-47.345204, -0.60711], [-47.328847, -0.613458], [-47.294016, -0.592869], [-47.279124, -0.599216], [-47.276357, -0.648126], [-47.257883, -0.640883], [-47.250803, -0.647068], [-47.255849, -0.676039], [-47.238759, -0.664727], [-47.234486, -0.651056], [-47.242787, -0.620212], [-47.19811, -0.651544], [-47.199941, -0.676935], [-47.208608, -0.681817], [-47.22232, -0.669122], [-47.230621, -0.68727], [-47.249013, -0.695896], [-47.235951, -0.716404], [-47.208241, -0.699151], [-47.17394, -0.709568], [-47.171986, -0.692153], [-47.160878, -0.681573], [-47.154897, -0.697524], [-47.158437, -0.728774], [-47.167104, -0.743748], [-47.194407, -0.761], [-47.190826, -0.770196], [-47.167104, -0.757257], [-47.155751, -0.764093], [-47.13976, -0.798923], [-47.134674, -0.780532], [-47.139556, -0.741388], [-47.126088, -0.730645], [-47.119293, -0.750584], [-47.117828, -0.713149], [-47.098988, -0.665623], [-47.077545, -0.665704], [-47.078359, -0.695896], [-47.071523, -0.702732], [-47.079701, -0.709649], [-47.084543, -0.750584], [-47.078359, -0.757257], [-47.071523, -0.743748], [-47.059885, -0.789646], [-47.043568, -0.791436], [-47.078359, -0.826267], [-47.0572, -0.86712], [-47.04776, -0.810724], [-47.029897, -0.785252], [-47.016225, -0.791436], [-47.015248, -0.760024], [-46.984609, -0.7492], [-46.969106, -0.695896], [-46.956858, -0.710138], [-46.969106, -0.785252], [-46.961659, -0.785252], [-46.954823, -0.770929], [-46.946278, -0.776056], [-46.947377, -0.798923], [-46.92809, -0.798923], [-46.941151, -0.826267], [-46.92809, -0.819431], [-46.922231, -0.834568], [-46.963002, -0.865004], [-46.964996, -0.893324], [-46.947377, -0.9013], [-46.949127, -0.861505], [-46.934316, -0.853611], [-46.900787, -0.857354], [-46.900217, -0.839288], [-46.89273, -0.846775], [-46.89273, -0.785252], [-46.877675, -0.795668], [-46.872874, -0.812595], [-46.84557, -0.798923], [-46.872874, -0.778416], [-46.832916, -0.730076], [-46.818227, -0.72324], [-46.831288, -0.709568], [-46.819203, -0.711684], [-46.796539, -0.736912], [-46.810862, -0.746677], [-46.796539, -0.764744], [-46.818227, -0.770929], [-46.813344, -0.790785], [-46.831288, -0.805108], [-46.81786, -0.814142], [-46.824452, -0.833103], [-46.804433, -0.825128], [-46.796539, -0.805108], [-46.790354, -0.805108], [-46.799672, -0.865167], [-46.782867, -0.9013], [-46.778635, -0.885837], [-46.786366, -0.862726], [-46.776682, -0.846775], [-46.769887, -0.846775], [-46.769887, -0.86712], [-46.759633, -0.861505], [-46.755523, -0.819431], [-46.714589, -0.877699], [-46.749379, -0.942966], [-46.697865, -0.880792], [-46.697621, -0.843845], [-46.68871, -0.825779], [-46.667388, -0.833103], [-46.656972, -0.863946], [-46.63268, -0.863214], [-46.656733, -0.813973], [-46.655913, -0.80182], [-46.613796, -0.813236], [-46.598541, -0.86712], [-46.626454, -0.908787], [-46.611399, -0.903904], [-46.608754, -0.911065], [-46.619008, -0.935479], [-46.64623, -0.945408], [-46.656565, -0.939142], [-46.660024, -0.922459], [-46.667388, -0.922459], [-46.682281, -0.94671], [-46.737457, -0.984308], [-46.749379, -1.01865], [-46.720693, -0.983982], [-46.68106, -0.963474], [-46.653664, -0.967025], [-46.605055, -0.956564], [-46.581591, -0.970356], [-46.564562, -0.95095], [-46.561295, -0.92829], [-46.502948, -0.883844], [-46.475422, -0.883877], [-46.427629, -0.86855], [-46.416309, -0.880708], [-46.421187, -0.894466], [-46.480327, -0.919491], [-46.473063, -0.936499], [-46.488497, -0.976139], [-46.471507, -0.985876], [-46.480092, -1.022231], [-46.466786, -1.023126], [-46.462717, -1.031671], [-46.475006, -1.045343], [-46.453196, -1.043552], [-46.435658, -1.023858], [-46.406728, -1.039158], [-46.384511, -1.009861], [-46.364898, -1.008396], [-46.365793, -1.045343], [-46.356516, -1.075291], [-46.346181, -1.033949], [-46.322662, -1.020278], [-46.317372, -1.073337], [-46.324818, -1.107354], [-46.301259, -1.079197], [-46.296864, -1.031671], [-46.290028, -1.031671], [-46.248443, -1.093683], [-46.283315, -1.029392], [-46.283315, -1.022068], [-46.26415, -1.016697], [-46.281479, -0.997449], [-46.278979, -0.986261], [-46.250308, -0.930955], [-46.234242, -0.917087], [-46.200307, -0.907647], [-46.171783, -0.920994], [-46.17394, -0.956638], [-46.190012, -0.959161], [-46.221181, -1.011163], [-46.198598, -1.010512], [-46.214955, -1.024835], [-46.207509, -1.039158], [-46.221181, -1.059015], [-46.211497, -1.074802], [-46.262115, -1.183201], [-46.221181, -1.141534], [-46.182118, -1.153253], [-46.166493, -1.14837], [-46.147084, -1.11419], [-46.139231, -1.113539], [-46.146067, -1.176365], [-46.12682, -1.146091], [-46.122629, -1.09531], [-46.101674, -1.073337], [-46.090484, -1.082452], [-46.064687, -1.147638], [-46.085561, -1.162042], [-46.095326, -1.196547], [-46.084584, -1.210382], [-46.072377, -1.201593], [-46.050445, -1.162693], [-46.039703, -1.187107], [-46.050445, -1.210382], [-46.032216, -1.200779], [-46.036204, -1.14837], [-46.016672, -1.113214], [-46.015736, -1.093683], [-46.002675, -1.107354], [-45.990834, -1.104262], [-45.992583, -1.067618], [-45.979454, -1.055084], [-45.96415, -1.063861], [-45.96109, -1.086196], [-45.974436, -1.091241], [-45.96109, -1.107354], [-45.971913, -1.111098], [-45.981597, -1.141534], [-45.962758, -1.135431], [-45.948069, -1.141534], [-45.998891, -1.151788], [-46.002675, -1.192804], [-45.997955, -1.20143], [-45.96109, -1.210382], [-45.948069, -1.251397], [-45.934478, -1.240004], [-45.940663, -1.223403], [-45.926381, -1.217218], [-45.930531, -1.200942], [-45.923329, -1.173028], [-45.88989, -1.090745], [-45.867487, -1.063471], [-45.853842, -1.06786], [-45.853869, -1.101172], [-45.905873, -1.17254], [-45.905873, -1.210382], [-45.89802, -1.183038], [-45.879221, -1.162693], [-45.885365, -1.183201], [-45.872792, -1.202244], [-45.899648, -1.257582], [-45.864858, -1.23089], [-45.864858, -1.257582], [-45.885365, -1.284845], [-45.862538, -1.273126], [-45.838368, -1.234308], [-45.838206, -1.202895], [-45.827382, -1.21852], [-45.820546, -1.262791], [-45.840566, -1.279555], [-45.810902, -1.32643], [-45.819488, -1.296157], [-45.809804, -1.275079], [-45.793691, -1.267673], [-45.782948, -1.278009], [-45.762441, -1.210382], [-45.747914, -1.204034], [-45.721588, -1.134942], [-45.701039, -1.134698], [-45.696034, -1.160577], [-45.734527, -1.251397], [-45.688568, -1.202189], [-45.67965, -1.209955], [-45.675048, -1.25923], [-45.654118, -1.27438], [-45.659571, -1.292992], [-45.651809, -1.299986], [-45.651054, -1.317441], [-45.675535, -1.366316], [-45.640736, -1.370538], [-45.621571, -1.357192], [-45.610463, -1.320082], [-45.622955, -1.295994], [-45.61026, -1.275649], [-45.583241, -1.274347], [-45.579213, -1.281508], [-45.598012, -1.292413], [-45.58373, -1.298517], [-45.589467, -1.314223], [-45.58373, -1.32643], [-45.559804, -1.283136], [-45.543853, -1.270278], [-45.529693, -1.284845], [-45.549387, -1.289727], [-45.550201, -1.312188], [-45.529693, -1.305922], [-45.551015, -1.337498], [-45.550201, -1.353774], [-45.536529, -1.346368], [-45.522857, -1.312188], [-45.515452, -1.312188], [-45.512318, -1.36061], [-45.529693, -1.415785], [-45.471344, -1.350193], [-45.460805, -1.312188], [-45.41983, -1.292413], [-45.447133, -1.292413], [-45.415679, -1.287693], [-45.406158, -1.316013], [-45.412994, -1.350193], [-45.468251, -1.367446], [-45.484527, -1.430108], [-45.481313, -1.463637], [-45.504221, -1.458673], [-45.5183, -1.464532], [-45.542714, -1.490981], [-45.522206, -1.484145], [-45.515452, -1.463637], [-45.50178, -1.469985], [-45.498647, -1.493341], [-45.509267, -1.504571], [-45.491322, -1.503351], [-45.481313, -1.490981], [-45.464508, -1.500584], [-45.460805, -1.546157], [-45.449127, -1.52809], [-45.451039, -1.453709], [-45.423329, -1.428888], [-45.420318, -1.445001], [-45.432932, -1.463637], [-45.40274, -1.44256], [-45.35558, -1.349542], [-45.360219, -1.320245], [-45.346832, -1.3117], [-45.326161, -1.312921], [-45.309967, -1.32643], [-45.296295, -1.415785], [-45.309967, -1.40838], [-45.322377, -1.436782], [-45.391957, -1.484145], [-45.385732, -1.490981], [-45.369252, -1.472833], [-45.350942, -1.476739], [-45.371449, -1.535333], [-45.392568, -1.548028], [-45.40095, -1.560154], [-45.391957, -1.580336], [-45.385732, -1.546157], [-45.351064, -1.559991], [-45.340199, -1.583185], [-45.364613, -1.703871], [-45.350168, -1.730076], [-45.323638, -1.744806], [-45.284413, -1.732192], [-45.27123, -1.721612], [-45.276479, -1.703871], [-45.227895, -1.683038], [-45.221262, -1.672784], [-45.25536, -1.607599], [-45.247467, -1.579278], [-45.204172, -1.52516], [-45.179677, -1.525649], [-45.175852, -1.500421], [-45.163197, -1.482843], [-45.148671, -1.481541], [-45.138661, -1.504571], [-45.131825, -1.504571], [-45.127675, -1.486993], [-45.091379, -1.464125], [-45.081207, -1.481134], [-45.104563, -1.484145], [-45.078928, -1.483575], [-45.062978, -1.428888], [-45.056752, -1.476739], [-45.038686, -1.487563], [-45.006744, -1.490655], [-44.996449, -1.508722], [-44.998036, -1.524021], [-45.021962, -1.518243], [-45.009674, -1.533298], [-44.980458, -1.536065], [-44.967356, -1.546157], [-44.967356, -1.552423], [-45.020375, -1.578709], [-45.021962, -1.600844], [-45.015736, -1.600844], [-45.008941, -1.582696], [-44.967356, -1.594008], [-44.97175, -1.57936], [-44.953725, -1.531915], [-44.953847, -1.501723], [-44.947133, -1.492771], [-44.926381, -1.490981], [-44.933827, -1.476739], [-44.89509, -1.456231], [-44.868031, -1.421319], [-44.851308, -1.446222], [-44.851308, -1.484145], [-44.885365, -1.504571], [-44.913075, -1.547947], [-44.919789, -1.580336], [-44.912099, -1.600844], [-44.953725, -1.600844], [-44.921742, -1.629571], [-44.915273, -1.647231], [-44.933827, -1.65545], [-44.911936, -1.653578], [-44.900299, -1.609796], [-44.885365, -1.600844], [-44.847401, -1.64129], [-44.83019, -1.634942], [-44.847401, -1.629002], [-44.850697, -1.616143], [-44.837026, -1.586602], [-44.844472, -1.586602], [-44.837026, -1.566095], [-44.814076, -1.591241], [-44.810374, -1.628106], [-44.802887, -1.600844], [-44.791819, -1.618422], [-44.810374, -1.652032], [-44.782379, -1.682794], [-44.802887, -1.703871], [-44.773183, -1.724298], [-44.802887, -1.751642], [-44.824045, -1.751642], [-44.821929, -1.75921], [-44.816518, -1.765313], [-44.773997, -1.740655], [-44.767812, -1.726983], [-44.775543, -1.703871], [-44.724965, -1.723403], [-44.707875, -1.717462], [-44.720611, -1.749607], [-44.810374, -1.805759], [-44.810374, -1.813165], [-44.756825, -1.801853], [-44.730458, -1.785821], [-44.707875, -1.813165], [-44.679351, -1.81113], [-44.662587, -1.785414], [-44.652699, -1.717462], [-44.598012, -1.744806], [-44.625234, -1.76336], [-44.639027, -1.792657], [-44.644765, -1.83115], [-44.659535, -1.833591], [-44.659535, -1.839776], [-44.621002, -1.826104], [-44.598012, -1.847263], [-44.584828, -1.817966], [-44.573232, -1.813165], [-44.565012, -1.818455], [-44.576324, -1.854099], [-44.570139, -1.860935], [-44.542836, -1.826104], [-44.530181, -1.833754], [-44.521718, -1.847263], [-44.590647, -1.901788], [-44.521718, -1.895115], [-44.506663, -1.920099], [-44.488149, -1.987481], [-44.509592, -2.015558], [-44.563303, -2.011651], [-44.574574, -2.024021], [-44.617299, -2.038995], [-44.598012, -2.045831], [-44.580963, -2.034763], [-44.541005, -2.029229], [-44.504506, -2.031996], [-44.494374, -2.045831], [-44.554067, -2.087172], [-44.6079, -2.153741], [-44.639027, -2.148858], [-44.645253, -2.155694], [-44.598012, -2.155694], [-44.588612, -2.16546], [-44.655426, -2.231134], [-44.676259, -2.239841], [-44.707875, -2.237563], [-44.693593, -2.265558], [-44.751373, -2.252048], [-44.801178, -2.28574], [-44.824045, -2.279229], [-44.804311, -2.291436], [-44.717844, -2.265558], [-44.707875, -2.299737], [-44.70051, -2.299737], [-44.67927, -2.273858], [-44.665639, -2.270929], [-44.661855, -2.296482], [-44.710846, -2.368341], [-44.720937, -2.402114], [-44.714101, -2.408949], [-44.701405, -2.381768], [-44.663971, -2.356703], [-44.663482, -2.420587], [-44.652699, -2.429457], [-44.656239, -2.407485], [-44.644032, -2.37477], [-44.652699, -2.351251], [-44.64977, -2.30877], [-44.631581, -2.271742], [-44.584828, -2.230157], [-44.554026, -2.216404], [-44.539784, -2.185724], [-44.497304, -2.147882], [-44.461659, -2.144627], [-44.427113, -2.162367], [-44.398793, -2.197361], [-44.38561, -2.23797], [-44.384511, -2.275567], [-44.364654, -2.299737], [-44.363596, -2.333917], [-44.373402, -2.377374], [-44.395375, -2.402114], [-44.45344, -2.407485], [-44.473948, -2.402114], [-44.51065, -2.36712], [-44.551422, -2.391046], [-44.570139, -2.416436], [-44.523346, -2.38714], [-44.507436, -2.389825], [-44.50121, -2.419529], [-44.521596, -2.500095], [-44.53539, -2.518243], [-44.565175, -2.521173], [-44.59435, -2.566583], [-44.655995, -2.593194], [-44.659535, -2.608168], [-44.644765, -2.593032], [-44.580068, -2.563572], [-44.561431, -2.535252], [-44.540395, -2.538263], [-44.607533, -2.669692], [-44.631581, -2.696954], [-44.625234, -2.706638], [-44.64623, -2.768243], [-44.650136, -2.854669], [-44.686147, -2.916681], [-44.693593, -2.994887], [-44.684316, -3.012628], [-44.624745, -3.025974], [-44.622222, -3.051039], [-44.707875, -3.135837], [-44.720937, -3.176853], [-44.781565, -3.196954], [-44.787099, -3.233331], [-44.761301, -3.286065], [-44.79601, -3.300226], [-44.761586, -3.305597], [-44.753733, -3.289809], [-44.761301, -3.238214], [-44.742787, -3.207452], [-44.659983, -3.184666], [-44.644358, -3.169692], [-44.613596, -3.111993], [-44.573232, -3.101658], [-44.529164, -3.032159], [-44.473948, -3.001723], [-44.468617, -2.986586], [-44.432973, -2.950291], [-44.408844, -2.892185], [-44.40807, -2.826349], [-44.404286, -2.804864], [-44.391957, -2.793145], [-44.406239, -2.778904], [-44.364654, -2.628676], [-44.357818, -2.662774], [-44.350982, -2.662774], [-44.368072, -2.549574], [-44.352651, -2.529067], [-44.326487, -2.525079], [-44.312245, -2.531915], [-44.28893, -2.580255], [-44.288238, -2.551446], [-44.302602, -2.532485], [-44.300649, -2.494806], [-44.292633, -2.481052], [-44.220082, -2.470392], [-44.11148, -2.415785], [-44.082875, -2.416436], [-44.072987, -2.399509], [-44.053049, -2.399998], [-44.034413, -2.415216], [-44.02892, -2.443048], [-44.071401, -2.438084], [-44.092152, -2.443455], [-44.097157, -2.45672], [-44.063629, -2.462986], [-44.056223, -2.505141], [-44.049387, -2.470392], [-44.0419, -2.470392], [-44.032704, -2.513279], [-44.049387, -2.552911], [-44.082875, -2.560317], [-44.097157, -2.580255], [-44.12442, -2.594496], [-44.106557, -2.602309], [-44.137196, -2.67018], [-44.179677, -2.690118], [-44.197825, -2.685154], [-44.213857, -2.669041], [-44.200185, -2.696954], [-44.251698, -2.721124], [-44.285512, -2.752211], [-44.3131, -2.76214], [-44.33849, -2.784926], [-44.3485, -2.810235], [-44.329945, -2.827325], [-44.322743, -2.785089], [-44.312489, -2.778741], [-44.296376, -2.793145], [-44.310048, -2.814223], [-44.296376, -2.834161], [-44.28893, -2.806817], [-44.268463, -2.803399], [-44.255442, -2.765313], [-44.220082, -2.793145], [-44.226145, -2.776951], [-44.218373, -2.767755], [-44.186513, -2.759047], [-44.188547, -2.77809], [-44.174713, -2.807061], [-44.183095, -2.823907], [-44.218861, -2.84824], [-44.207021, -2.848403], [-44.200185, -2.86891], [-44.15925, -2.827325], [-44.151763, -2.834161], [-44.132721, -2.803643], [-44.12442, -2.768976], [-44.106028, -2.749607], [-44.098134, -2.748712], [-44.104604, -2.765313], [-44.082875, -2.752211], [-44.07665, -2.778904], [-44.069814, -2.765313], [-44.071929, -2.789483], [-44.082875, -2.806817], [-44.068105, -2.79518], [-44.060374, -2.717706], [-44.022939, -2.648858], [-44.01415, -2.634698], [-43.975901, -2.610284], [-43.94636, -2.628676], [-43.958363, -2.600681], [-43.923248, -2.546808], [-43.878041, -2.634942], [-43.874379, -2.622817], [-43.884877, -2.583673], [-43.879465, -2.571222], [-43.804921, -2.549249], [-43.766957, -2.5263], [-43.746409, -2.529229], [-43.738564, -2.517207], [-43.740102, -2.486912], [-43.72411, -2.477227], [-43.712514, -2.488539], [-43.706532, -2.513849], [-43.708567, -2.539727], [-43.721059, -2.560317], [-43.713612, -2.560317], [-43.713612, -2.552911], [-43.69929, -2.560317], [-43.693105, -2.539321], [-43.658315, -2.546157], [-43.680979, -2.529555], [-43.682444, -2.504653], [-43.668446, -2.483331], [-43.644643, -2.477227], [-43.665761, -2.511977], [-43.635732, -2.498305], [-43.621978, -2.505304], [-43.61734, -2.525079], [-43.597483, -2.516209], [-43.558176, -2.530857], [-43.542226, -2.525079], [-43.560455, -2.519301], [-43.563059, -2.509535], [-43.548451, -2.484633], [-43.548451, -2.505141], [-43.539133, -2.491143], [-43.542104, -2.466567], [-43.555898, -2.45672], [-43.537343, -2.435968], [-43.523671, -2.442641], [-43.517486, -2.464939], [-43.52184, -2.491469], [-43.508412, -2.491632], [-43.499827, -2.524835], [-43.48705, -2.532485], [-43.494496, -2.546157], [-43.476959, -2.537693], [-43.466542, -2.518243], [-43.45287, -2.552911], [-43.444203, -2.530857], [-43.465403, -2.486017], [-43.418772, -2.491469], [-43.418772, -2.484633], [-43.447255, -2.471612], [-43.459788, -2.443048], [-43.438629, -2.45672], [-43.411936, -2.45672], [-43.474029, -2.417739], [-43.48705, -2.395278], [-43.467373, -2.345767], [-43.426298, -2.33785], [-43.311766, -2.346467], [-43.199395, -2.379511], [-42.916305, -2.492437], [-42.819163, -2.546157], [-42.775054, -2.560317], [-42.700022, -2.563572], [-42.630483, -2.642348], [-42.580881, -2.672052], [-42.527455, -2.683282], [-42.487131, -2.669041], [-42.489491, -2.69964], [-42.49828, -2.704197], [-42.514394, -2.696954], [-42.507639, -2.721856], [-42.452992, -2.752211], [-42.418121, -2.731134], [-42.407338, -2.750177], [-42.378407, -2.75628], [-42.264272, -2.759047], [-42.254506, -2.766534], [-42.253977, -2.783461], [-42.267405, -2.814223], [-42.238637, -2.804783], [-42.23941, -2.834161], [-42.205922, -2.799981], [-42.176137, -2.811782], [-42.082387, -2.799981], [-42.089833, -2.806817], [-42.082387, -2.827325], [-42.067738, -2.820001], [-42.020904, -2.823907], [-42.01594, -2.811293], [-41.955434, -2.839044], [-41.943918, -2.83766], [-41.940419, -2.773696], [-41.958892, -2.778904], [-42.015314, -2.741134], [-42.010404, -2.727189], [-41.995623, -2.721435], [-41.838565, -2.72948], [-41.821265, -2.733567], [-41.842844, -2.765313], [-41.808705, -2.744806], [-41.778676, -2.782159], [-41.694056, -2.832882], [-41.657826, -2.86891], [-41.68517, -2.854669], [-41.678334, -2.86891], [-41.698842, -2.862074], [-41.686147, -2.875909], [-41.66393, -2.877862], [-41.65099, -2.86891], [-41.62328, -2.895603], [-41.516957, -2.906996], [-41.489613, -2.903578], [-41.465443, -2.888767], [-41.448557, -2.905938], [-41.458608, -2.929783], [-41.445546, -2.929783], [-41.451772, -2.943455], [-41.431874, -2.936619], [-41.440053, -2.914239], [-41.422109, -2.908787], [-41.343088, -2.920343], [-41.32901, -2.932224], [-41.332102, -2.947442], [-41.341908, -2.950291], [-41.337514, -2.954522], [-41.310658, -2.963474], [-41.300933, -2.977634], [-41.294749, -2.977634], [-41.294749, -2.9638], [-41.244537, -3.015232], [-41.243276, -2.972752], [-41.264027, -2.928399], [-41.287262, -2.903009], [-41.315256, -2.903009], [-41.256907, -2.875177], [-41.198557, -2.875177], [-41.137766, -2.885837], [-41.082509, -2.916681], [-41.103017, -2.875177], [-41.089263, -2.882501], [-40.938466, -2.86891], [-40.900014, -2.875177], [-40.887929, -2.864028], [-40.848988, -2.859308], [-40.835439, -2.882501], [-40.828603, -2.882501], [-40.752919, -2.840997], [-40.581614, -2.827325], [-40.509877, -2.799981], [-40.499623, -2.78631], [-40.403066, -2.805922], [-40.273752, -2.806817], [-40.188059, -2.820489], [-40.143422, -2.848403], [-40.12092, -2.828383], [-40.050608, -2.848403], [-40.0, -2.848403], [-40.0, -10.0], [-60.0, -10.0], [-60.0, 2.6938649294460215], [-59.965043, 2.613433]]], [[[-44.513743, -2.81463], [-44.514882, -2.834161], [-44.480784, -2.793145], [-44.488149, -2.872003], [-44.505686, -2.915134], [-44.497304, -2.949314], [-44.538197, -2.969985], [-44.585357, -3.035577], [-44.590647, -3.060154], [-44.598012, -3.060154], [-44.603424, -3.022149], [-44.578481, -2.981052], [-44.563303, -2.919854], [-44.585683, -2.84588], [-44.576324, -2.799981], [-44.547678, -2.744073], [-44.480784, -2.70436], [-44.483957, -2.761163], [-44.497792, -2.806817], [-44.513743, -2.81463]]], [[[-42.035268, -2.70436], [-42.027821, -2.744806], [-42.052358, -2.757094], [-42.085194, -2.758722], [-42.102895, -2.744806], [-42.082387, -2.738539], [-42.082387, -2.731134], [-42.105336, -2.724298], [-42.102895, -2.70436], [-42.144154, -2.70086], [-42.186025, -2.676446], [-42.091379, -2.678399], [-42.073476, -2.684503], [-42.048248, -2.710626], [-42.035268, -2.70436]]], [[[-43.607021, -2.256329], [-43.599993, -2.283722], [-43.626299, -2.316304], [-43.632595, -2.376224], [-43.641108, -2.382882], [-43.634805, -2.399895], [-43.686632, -2.401008], [-43.71254, -2.42653], [-43.7329, -2.419875], [-43.743263, -2.402861], [-43.730306, -2.374755], [-43.736608, -2.334071], [-43.715403, -2.289239], [-43.684478, -2.26336], [-43.627309, -2.252048], [-43.607021, -2.256329]]], [[[-49.277008, -1.767022], [-49.28189, -1.785821], [-49.367421, -1.895115], [-49.442494, -1.867771], [-49.452992, -1.850193], [-49.422027, -1.813165], [-49.411488, -1.775567], [-49.373647, -1.751642], [-49.352162, -1.722426], [-49.338124, -1.71266], [-49.319, -1.717462], [-49.309804, -1.744399], [-49.277008, -1.767022]]], [[[-44.876454, -1.296157], [-44.885365, -1.32643], [-44.919545, -1.305922], [-44.914052, -1.32171], [-44.898508, -1.332696], [-44.934682, -1.366632], [-44.961171, -1.367446], [-44.963857, -1.390558], [-44.980336, -1.396091], [-45.01891, -1.377699], [-45.026967, -1.360528], [-45.021962, -1.323419], [-45.015736, -1.312188], [-45.003285, -1.317478], [-44.995269, -1.353774], [-44.977935, -1.300958], [-44.991851, -1.292413], [-44.974355, -1.260349], [-44.947418, -1.272882], [-44.922963, -1.257582], [-44.892242, -1.271905], [-44.876454, -1.296157]]], [[[-48.324208, -1.07586], [-48.297353, -1.128513], [-48.319447, -1.159438], [-48.319081, -1.189386], [-48.334096, -1.205011], [-48.379872, -1.217218], [-48.392445, -1.204767], [-48.393544, -1.189386], [-48.402333, -1.202895], [-48.462066, -1.164483], [-48.465443, -1.157647], [-48.455678, -1.141534], [-48.428334, -1.117283], [-48.421498, -1.079522], [-48.383453, -1.065362], [-48.338979, -1.066502], [-48.324208, -1.07586]]], [[[-48.16275, -0.850193], [-48.155873, -0.866306], [-48.181264, -0.86712], [-48.181264, -0.874607], [-48.156728, -0.887791], [-48.162465, -0.920831], [-48.201894, -1.011489], [-48.237701, -1.027927], [-48.307118, -1.020685], [-48.319, -0.993341], [-48.312652, -0.953302], [-48.284535, -0.921482], [-48.24356, -0.841729], [-48.194936, -0.819431], [-48.16275, -0.850193]]], [[[-47.914622, -0.641697], [-47.895619, -0.653497], [-47.887074, -0.669122], [-47.895579, -0.691095], [-47.916371, -0.708591], [-47.962148, -0.730645], [-47.982655, -0.676039], [-47.966868, -0.658298], [-47.977935, -0.651788], [-47.969065, -0.633884], [-47.95523, -0.633071], [-47.948557, -0.64129], [-47.914622, -0.641697]]], [[[-50.813059, -0.669122], [-50.822255, -0.699884], [-50.843129, -0.715997], [-50.934316, -0.731703], [-50.976186, -0.769789], [-51.026723, -0.783787], [-51.100413, -0.826267], [-51.109731, -0.806736], [-51.108022, -0.755955], [-51.066274, -0.676039], [-51.03893, -0.681573], [-50.95641, -0.60711], [-50.860829, -0.565606], [-50.87914, -0.600274], [-50.881337, -0.613946], [-50.87442, -0.613946], [-50.840932, -0.558689], [-50.819203, -0.620212], [-50.813059, -0.669122]]], [[[-47.640777, -0.608494], [-47.643422, -0.692966], [-47.658315, -0.707696], [-47.701527, -0.709568], [-47.698964, -0.693943], [-47.71562, -0.636555], [-47.751536, -0.62225], [-47.761379, -0.575771], [-47.734682, -0.54173], [-47.715479, -0.547333], [-47.703752, -0.577714], [-47.687648, -0.584553], [-47.660512, -0.579197], [-47.640777, -0.608494]]], [[[-51.162913, -0.620538], [-51.151601, -0.63714], [-51.149973, -0.658949], [-51.230702, -0.839288], [-51.252309, -0.961847], [-51.275624, -1.02516], [-51.285959, -1.031671], [-51.310292, -1.00213], [-51.331451, -1.009942], [-51.434804, -1.1867], [-51.556264, -1.28867], [-51.610219, -1.315606], [-51.634836, -1.340102], [-51.669545, -1.353774], [-51.675771, -1.374282], [-51.700551, -1.384454], [-51.740834, -1.420017], [-51.785634, -1.449965], [-51.851959, -1.464044], [-51.892486, -1.483657], [-51.930287, -1.470798], [-51.943918, -1.456231], [-51.954091, -1.422459], [-51.941884, -1.391371], [-51.902943, -1.340102], [-51.884267, -1.25628], [-51.796498, -1.189386], [-51.781606, -1.153904], [-51.751454, -1.14837], [-51.717885, -1.129653], [-51.683949, -1.096938], [-51.668365, -1.05755], [-51.690053, -1.01865], [-51.686106, -0.884373], [-51.675771, -0.846775], [-51.623606, -0.790216], [-51.582143, -0.698663], [-51.534047, -0.634698], [-51.424794, -0.553806], [-51.347401, -0.531996], [-51.363026, -0.56227], [-51.365102, -0.61061], [-51.388417, -0.65488], [-51.381581, -0.65488], [-51.347401, -0.613946], [-51.353668, -0.580173], [-51.340647, -0.572931], [-51.340647, -0.592869], [-51.333119, -0.592869], [-51.333119, -0.572931], [-51.299631, -0.592869], [-51.329213, -0.53867], [-51.320139, -0.521417], [-51.308339, -0.518731], [-51.237538, -0.538263], [-51.203277, -0.604669], [-51.162913, -0.620538]]], [[[-51.120839, -0.140313], [-51.120269, -0.14544], [-51.133941, -0.160821], [-51.131703, -0.203058], [-51.144195, -0.211358], [-51.148834, -0.263849], [-51.166737, -0.305597], [-51.201283, -0.343683], [-51.278554, -0.401056], [-51.342193, -0.43377], [-51.3756, -0.460545], [-51.393788, -0.466485], [-51.4051, -0.459649], [-51.402008, -0.435724], [-51.361195, -0.407485], [-51.351471, -0.385919], [-51.330434, -0.366143], [-51.264272, -0.219496], [-51.232655, -0.179457], [-51.189768, -0.168227], [-51.165273, -0.140313], [-51.120839, -0.140313]]], [[[-48.4829, -0.627618], [-48.487172, -0.664727], [-48.496571, -0.676039], [-48.485829, -0.684747], [-48.496571, -0.743748], [-48.537506, -0.718927], [-48.572336, -0.681573], [-48.560862, -0.713962], [-48.523549, -0.77337], [-48.537506, -0.798923], [-48.526235, -0.820245], [-48.527659, -0.872654], [-48.537506, -0.894464], [-48.560129, -0.914321], [-48.612945, -0.932875], [-48.633168, -0.949151], [-48.630727, -0.968927], [-48.664784, -1.001235], [-48.654286, -1.011163], [-48.628774, -1.009698], [-48.626943, -1.024835], [-48.654286, -1.045343], [-48.654286, -1.05283], [-48.628285, -1.047784], [-48.628774, -1.063165], [-48.642812, -1.083591], [-48.717681, -1.134047], [-48.75829, -1.150649], [-48.796132, -1.192071], [-48.818715, -1.202895], [-48.849599, -1.198012], [-48.875885, -1.181248], [-48.914947, -1.134698], [-48.921132, -1.141534], [-48.894846, -1.181248], [-48.84203, -1.213311], [-48.837148, -1.233982], [-48.844553, -1.249282], [-48.867177, -1.24391], [-48.867177, -1.251397], [-48.811879, -1.257582], [-48.796254, -1.268487], [-48.802358, -1.339776], [-48.832997, -1.415785], [-48.858388, -1.399184], [-48.942209, -1.295831], [-48.963775, -1.282973], [-48.990061, -1.292413], [-48.957387, -1.295505], [-48.946034, -1.309015], [-48.954986, -1.324151], [-48.983266, -1.332696], [-48.976633, -1.356134], [-48.990061, -1.374282], [-48.945058, -1.346368], [-48.934967, -1.351495], [-48.921132, -1.387872], [-48.892405, -1.398045], [-48.887196, -1.412693], [-48.839223, -1.44256], [-48.839223, -1.449965], [-48.887563, -1.466729], [-48.91808, -1.504571], [-48.944447, -1.490981], [-48.956166, -1.508722], [-49.024892, -1.52158], [-49.048085, -1.533298], [-49.065785, -1.531915], [-49.073476, -1.51393], [-49.10676, -1.504571], [-49.151438, -1.401625], [-49.181874, -1.401625], [-49.197743, -1.38836], [-49.209096, -1.394708], [-49.19164, -1.408624], [-49.184397, -1.453383], [-49.204091, -1.529067], [-49.201527, -1.553155], [-49.181874, -1.566095], [-49.195465, -1.5735], [-49.202992, -1.559828], [-49.229604, -1.5735], [-49.222035, -1.583266], [-49.201568, -1.586602], [-49.195465, -1.600844], [-49.168202, -1.586602], [-49.187734, -1.607599], [-49.222768, -1.621189], [-49.293729, -1.617531], [-49.353179, -1.5735], [-49.394114, -1.528904], [-49.383534, -1.494236], [-49.387318, -1.484145], [-49.414631, -1.541702], [-49.409622, -1.563897], [-49.375365, -1.586142], [-49.354233, -1.614408], [-49.358306, -1.637587], [-49.372439, -1.646635], [-49.424862, -1.63243], [-49.443025, -1.635422], [-49.468228, -1.623278], [-49.483332, -1.602074], [-49.496571, -1.497735], [-49.531321, -1.497735], [-49.507558, -1.522638], [-49.503977, -1.586602], [-49.524403, -1.580336], [-49.513905, -1.592218], [-49.514068, -1.608087], [-49.521962, -1.622166], [-49.551259, -1.633071], [-49.556549, -1.64544], [-49.544911, -1.675958], [-49.559193, -1.675958], [-49.559193, -1.682794], [-49.5454, -1.6867], [-49.54426, -1.698337], [-49.558705, -1.724216], [-49.603261, -1.717462], [-49.623606, -1.724867], [-49.669057, -1.772149], [-49.688344, -1.769301], [-49.705922, -1.750584], [-49.727528, -1.677667], [-49.751047, -1.641778], [-49.73998, -1.595147], [-49.744211, -1.580336], [-49.764027, -1.645196], [-49.759755, -1.669366], [-49.729888, -1.730564], [-49.729644, -1.752618], [-49.736724, -1.772149], [-49.776438, -1.807224], [-49.809071, -1.819268], [-49.823557, -1.816583], [-49.853424, -1.792657], [-49.894399, -1.785821], [-49.925404, -1.761651], [-49.968129, -1.747003], [-50.002309, -1.745538], [-50.032338, -1.71559], [-50.028188, -1.65545], [-50.050282, -1.657403], [-50.054799, -1.664727], [-50.052073, -1.703871], [-50.059885, -1.717869], [-50.093007, -1.748224], [-50.155019, -1.778985], [-50.187001, -1.749119], [-50.224517, -1.739028], [-50.237172, -1.705336], [-50.23766, -1.62127], [-50.27359, -1.610528], [-50.278554, -1.597426], [-50.249623, -1.563084], [-50.264963, -1.518243], [-50.258168, -1.484145], [-50.27595, -1.497003], [-50.276845, -1.514581], [-50.258168, -1.559828], [-50.285227, -1.580743], [-50.292226, -1.597426], [-50.242584, -1.641534], [-50.264963, -1.744806], [-50.271799, -1.744806], [-50.299062, -1.65545], [-50.306508, -1.65545], [-50.284779, -1.75506], [-50.294179, -1.772719], [-50.316558, -1.778497], [-50.366689, -1.772149], [-50.296986, -1.803481], [-50.348744, -1.828709], [-50.405181, -1.830987], [-50.559722, -1.799493], [-50.603871, -1.772149], [-50.600087, -1.749282], [-50.586008, -1.734633], [-50.566558, -1.730564], [-50.58788, -1.684503], [-50.74234, -1.531183], [-50.768625, -1.478448], [-50.803212, -1.434991], [-50.799387, -1.401625], [-50.785715, -1.394708], [-50.799387, -1.381117], [-50.813059, -1.336358], [-50.778228, -1.17254], [-50.805816, -1.102309], [-50.792551, -1.086196], [-50.675852, -1.141534], [-50.613759, -1.155206], [-50.559722, -1.183201], [-50.571848, -1.158624], [-50.616689, -1.119887], [-50.569692, -1.100518], [-50.539296, -1.107354], [-50.522084, -1.096449], [-50.522206, -1.086602], [-50.552358, -1.073337], [-50.545522, -1.05283], [-50.530019, -1.038751], [-50.476633, -1.039158], [-50.512441, -1.023858], [-50.528472, -1.025323], [-50.576772, -1.063165], [-50.663808, -1.094903], [-50.755767, -1.082208], [-50.792551, -1.01865], [-50.798166, -0.91131], [-50.774159, -0.829848], [-50.778228, -0.819431], [-50.769276, -0.807306], [-50.757639, -0.806817], [-50.737294, -0.826267], [-50.74059, -0.802016], [-50.770741, -0.78574], [-50.787343, -0.763279], [-50.785715, -0.733657], [-50.772043, -0.716404], [-50.785715, -0.702732], [-50.779897, -0.660577], [-50.737294, -0.551853], [-50.711293, -0.586521], [-50.69636, -0.630629], [-50.684071, -0.639825], [-50.607533, -0.676039], [-50.577382, -0.682224], [-50.548451, -0.67783], [-50.560374, -0.659275], [-50.682688, -0.623793], [-50.723622, -0.479913], [-50.69636, -0.36004], [-50.675852, -0.33587], [-50.654693, -0.263849], [-50.598948, -0.219334], [-50.583363, -0.192153], [-50.539296, -0.188735], [-50.491282, -0.158868], [-50.466664, -0.154555], [-50.411488, -0.164483], [-50.394643, -0.154555], [-50.368153, -0.105645], [-50.327382, -0.100925], [-50.271799, -0.113702], [-50.095774, -0.132257], [-50.038442, -0.154555], [-50.008127, -0.153009], [-49.794545, -0.198826], [-49.653472, -0.241143], [-49.519846, -0.23561], [-49.459584, -0.223403], [-49.42516, -0.230401], [-49.387318, -0.257582], [-49.408437, -0.217462], [-49.405019, -0.199314], [-49.38683, -0.184747], [-49.326487, -0.154555], [-49.312856, -0.160089], [-49.206044, -0.140313], [-49.168202, -0.154555], [-49.131581, -0.152032], [-49.120351, -0.162042], [-49.091379, -0.153904], [-49.010607, -0.159889], [-48.979605, -0.186191], [-48.960501, -0.182637], [-48.927049, -0.158809], [-48.893612, -0.152886], [-48.880489, -0.163647], [-48.891957, -0.215916], [-48.816518, -0.207615], [-48.702016, -0.237237], [-48.623525, -0.223403], [-48.544423, -0.244073], [-48.427235, -0.259942], [-48.393544, -0.271254], [-48.368886, -0.297947], [-48.369781, -0.36061], [-48.388417, -0.395603], [-48.420644, -0.414972], [-48.454701, -0.48561], [-48.462514, -0.576104], [-48.4829, -0.627618]]], [[[-51.012807, -0.273614], [-51.037953, -0.235935], [-51.038686, -0.200291], [-51.00475, -0.188735], [-51.032786, -0.168227], [-50.982574, -0.085545], [-50.972406, -0.042814], [-50.947266, -0.011974], [-50.889768, 0.001109], [-50.817535, 0.034742], [-50.766004, 0.046367], [-50.73955, 0.034525], [-50.724906, 0.008007], [-50.655263, -0.023777], [-50.627431, -0.085707], [-50.628896, -0.104099], [-50.675852, -0.154555], [-50.781239, -0.210056], [-50.837229, -0.267673], [-50.923411, -0.330499], [-50.964955, -0.314223], [-50.973744, -0.291192], [-51.012807, -0.273614]]], [[[-49.823476, -0.070367], [-49.740468, -0.000339], [-49.628082, 0.057603], [-49.524526, 0.073879], [-49.496571, 0.085598], [-49.4829, 0.063788], [-49.442047, 0.07567], [-49.391265, 0.051093], [-49.369862, 0.028225], [-49.370513, -0.000339], [-49.347524, -0.009698], [-49.359975, -0.058445], [-49.381093, -0.052179], [-49.385854, -0.069635], [-49.419993, -0.09531], [-49.43871, -0.120538], [-49.463368, -0.128025], [-49.686879, -0.135431], [-49.716217, -0.147719], [-49.832346, -0.103123], [-49.823476, -0.070367]]], [[[-50.634267, 0.106106], [-50.648549, 0.150458], [-50.610585, 0.183417], [-50.583001, 0.184032], [-50.490224, 0.159362], [-50.446497, 0.125851], [-50.432508, 0.035917], [-50.437729, -3.3e-05], [-50.447499, -0.015151], [-50.487457, -0.017429], [-50.523061, -0.003839], [-50.559722, -0.003839], [-50.601715, 0.023993], [-50.609731, 0.053412], [-50.634267, 0.071275], [-50.634267, 0.106106]]], [[[-50.165648, 0.261734], [-50.220461, 0.246212], [-50.199371, 0.28852], [-50.113324, 0.338182], [-50.093321, 0.339013], [-50.086404, 0.320727], [-50.090784, 0.305945], [-50.165648, 0.261734]]], [[[-50.003812, 0.310123], [-49.959451, 0.308303], [-49.921622, 0.292786], [-49.859554, 0.301224], [-49.82576, 0.322207], [-49.650227, 0.386373], [-49.560157, 0.385757], [-49.530356, 0.35378], [-49.52895, 0.300815], [-49.601603, 0.265985], [-49.692372, 0.205024], [-49.764027, 0.133368], [-49.829701, 0.011298], [-49.867055, -0.010675], [-49.963124, -0.032769], [-50.004506, -0.052789], [-50.045074, -0.002862], [-50.097279, 0.030911], [-50.127797, 0.037177], [-50.174672, 0.029283], [-50.190094, 0.041327], [-50.297597, 0.01203], [-50.345123, 0.047431], [-50.353098, 0.078111], [-50.340077, 0.133368], [-50.357411, 0.116523], [-50.366689, 0.091783], [-50.383656, 0.129869], [-50.377797, 0.208319], [-50.254416, 0.229771], [-50.107289, 0.222154], [-50.06219, 0.262392], [-50.036888, 0.299741], [-50.003812, 0.310123]]], [[[-50.413975, 0.226343], [-50.41902, 0.167944], [-50.493153, 0.185492], [-50.516754, 0.208645], [-50.516347, 0.243354], [-50.505971, 0.266181], [-50.470367, 0.269924], [-50.432525, 0.413967], [-50.408315, 0.420722], [-50.407094, 0.43065], [-50.42809, 0.465481], [-50.430776, 0.548], [-50.366689, 0.61994], [-50.34732, 0.571275], [-50.353098, 0.400214], [-50.32315, 0.340644], [-50.31697, 0.308751], [-50.323285, 0.28696], [-50.349919, 0.252736], [-50.413975, 0.226343]]], [[[-50.315053, 0.49726], [-50.302887, 0.530992], [-50.251576, 0.575832], [-50.258168, 0.585191], [-50.242096, 0.592963], [-50.18692, 0.592231], [-50.167592, 0.605414], [-50.120351, 0.571601], [-50.115102, 0.586249], [-50.134755, 0.597561], [-50.134023, 0.612494], [-50.102895, 0.639838], [-50.065663, 0.647284], [-50.031361, 0.584866], [-50.02477, 0.541164], [-50.042714, 0.510321], [-50.166077, 0.413848], [-50.249595, 0.361016], [-50.281446, 0.356552], [-50.300689, 0.375474], [-50.312123, 0.413967], [-50.315053, 0.49726]]], [[[-50.275274, 0.745622], [-50.283364, 0.769186], [-50.274952, 0.809114], [-50.225476, 0.8592], [-50.158806, 0.88669], [-50.132123, 0.914214], [-50.111666, 0.918253], [-50.086114, 0.916156], [-50.058572, 0.901799], [-50.026916, 0.903756], [-50.015723, 0.892493], [-50.049673, 0.821063], [-50.076329, 0.798628], [-50.103383, 0.755683], [-50.275274, 0.745622]]], [[[-50.099347, 0.938643], [-50.100317, 0.959063], [-50.049184, 0.985582], [-50.03189, 1.01496], [-50.016672, 1.025214], [-49.96703, 1.043118], [-49.946817, 1.062771], [-49.92638, 1.069857], [-49.916208, 1.056563], [-49.964019, 0.973822], [-50.00829, 0.940985], [-50.062585, 0.923252], [-50.099347, 0.938643]]], [[[-50.399578, 2.115108], [-50.356934, 2.05944], [-50.353198, 2.034324], [-50.314027, 1.968266], [-50.312496, 1.947065], [-50.338951, 1.912668], [-50.376578, 1.878332], [-50.419119, 1.862978], [-50.458608, 1.881008], [-50.497632, 1.98456], [-50.523813, 2.001482], [-50.50423, 2.095692], [-50.470094, 2.097663], [-50.454358, 2.110941], [-50.399578, 2.115108]]], [[[-50.553523, 2.156309], [-50.513631, 2.187286], [-50.463348, 2.186938], [-50.43054, 2.164958], [-50.415158, 2.126931], [-50.424692, 2.119745], [-50.457621, 2.12052], [-50.473344, 2.107796], [-50.497932, 2.107398], [-50.520237, 2.115353], [-50.525685, 2.137707], [-50.553523, 2.156309]]], [[[-42.198939, -2.720112], [-42.149024, -2.735403], [-42.105776, -2.772749], [-42.170099, -2.768002], [-42.215222, -2.74408], [-42.249767, -2.736441], [-42.258415, -2.720161], [-42.258436, -2.69621], [-42.250775, -2.681833], [-42.239265, -2.680865], [-42.198939, -2.720112]]], [[[-43.848708, -2.42398], [-43.823499, -2.40771], [-43.813122, -2.409194], [-43.808182, -2.421034], [-43.813622, -2.454573], [-43.800782, -2.455066], [-43.775106, -2.428925], [-43.764243, -2.428925], [-43.756834, -2.447669], [-43.770658, -2.496004], [-43.809175, -2.512778], [-43.838326, -2.507358], [-43.844254, -2.480225], [-43.832879, -2.454079], [-43.848708, -2.42398]]], [[[-43.545983, -2.360292], [-43.542039, -2.371153], [-43.560809, -2.418036], [-43.573656, -2.423468], [-43.601815, -2.411639], [-43.611692, -2.385001], [-43.607746, -2.373163], [-43.545983, -2.360292]]], [[[-49.464769, -1.654266], [-49.422844, -1.674181], [-49.424018, -1.696843], [-49.431978, -1.70873], [-49.468287, -1.719436], [-49.508609, -1.744872], [-49.522774, -1.73521], [-49.529545, -1.717057], [-49.525482, -1.672855], [-49.501638, -1.658162], [-49.492, -1.662151], [-49.464769, -1.654266]]]]}}, {"type": "Feature", "properties": {"name": "Venezuela"}, "geometry": {"type": "MultiPolygon", "coordinates": [[[[-59.959695, 8.468166], [-59.855618, 8.352127], [-59.815595, 8.287764], [-59.816654, 8.267197], [-59.829289, 8.245105], [-59.848461, 8.227742], [-59.957059, 8.200147], [-59.99331, 8.168521], [-60.0, 8.154366071971747], [-60.0, 8.527248434654915], [-59.959695, 8.468166]]], [[[-59.99933, 8.115397], [-60.0, 8.114538775836973], [-60.0, 8.134112632440518], [-59.99933, 8.115397]]]]}}]}