{"type": "FeatureCollection", "features": [{"type": "Feature", "properties": {"name": "Indonesia"}, "geometry": {"type": "Polygon", "coordinates": [[[119.98040444523235, -10.0], [120.0, -10.0], [120.0, -10.024553406704891], [119.98040444523235, -10.0]]]}}, {"type": "Feature", "properties": {"name": "Australia"}, "geometry": {"type": "MultiPolygon", "coordinates": [[[[114.967459, -29.902439], [114.94752, -29.830011], [114.940684, -29.744073], [114.946056, -29.658136], [114.97934, -29.523207], [114.97877, -29.479913], [114.953787, -29.429376], [114.929698, -29.327813], [114.896251, -29.233657], [114.842459, -29.108575], [114.652599, -28.912367], [114.60377, -28.838556], [114.592784, -28.797784], [114.577485, -28.785089], [114.595551, -28.748305], [114.59783, -28.701837], [114.589854, -28.655857], [114.531098, -28.522393], [114.422862, -28.400974], [114.310069, -28.230157], [114.244884, -28.192478], [114.166026, -28.106703], [114.148692, -28.068536], [114.143891, -28.01865], [114.097911, -27.862726], [114.10255, -27.797947], [114.142345, -27.709161], [114.143891, -27.687758], [114.074474, -27.447198], [114.012543, -27.315362], [113.764415, -26.918145], [113.654528, -26.775586], [113.590579, -26.675651], [113.312625, -26.415946], [113.297782, -26.397289], [113.291987, -26.35335], [113.299489, -26.338721], [113.24467, -26.240098], [113.15698, -26.151926], [113.161495, -26.139953], [113.210216, -26.174493], [113.258252, -26.185559], [113.275971, -26.234857], [113.292614, -26.131083], [113.285324, -26.056503], [113.306224, -25.996651], [113.327998, -26.274896], [113.335335, -26.310837], [113.367905, -26.378743], [113.38427, -26.382755], [113.356187, -26.308203], [113.3533, -26.274944], [113.363828, -26.228399], [113.377253, -26.2098], [113.380398, -26.099378], [113.356698, -26.042086], [113.362674, -26.012815], [113.387871, -26.060804], [113.396642, -26.17658], [113.413015, -26.155328], [113.451631, -26.159384], [113.45009, -26.200609], [113.461911, -26.249829], [113.473775, -26.26314], [113.495963, -26.326983], [113.503317, -26.376189], [113.48988, -26.400128], [113.492788, -26.434715], [113.479319, -26.473292], [113.486755, -26.479943], [113.507623, -26.469296], [113.507715, -26.41077], [113.525653, -26.354918], [113.509363, -26.312363], [113.51387, -26.273809], [113.530216, -26.267172], [113.543565, -26.287118], [113.561326, -26.352265], [113.552377, -26.384173], [113.567155, -26.445347], [113.556743, -26.470604], [113.567114, -26.490561], [113.565507, -26.565081], [113.581834, -26.565109], [113.593765, -26.553117], [113.598283, -26.518507], [113.623608, -26.487886], [113.617716, -26.446654], [113.625147, -26.439997], [113.644426, -26.48122], [113.642887, -26.549073], [113.633933, -26.57304], [113.638379, -26.587683], [113.628754, -26.598077], [113.662177, -26.600975], [113.669586, -26.652893], [113.68629, -26.654229], [113.694918, -26.61424], [113.772271, -26.587507], [113.780447, -26.601251], [113.812432, -26.599415], [113.813879, -26.563486], [113.8525, -26.544772], [113.870286, -26.52213], [113.886567, -26.492838], [113.889479, -26.464915], [113.873031, -26.398493], [113.883369, -26.378543], [113.884773, -26.342673], [113.868411, -26.3188], [113.781749, -26.241388], [113.684138, -26.221604], [113.679971, -26.183827], [113.648878, -26.139386], [113.611082, -26.096482], [113.577239, -26.089343], [113.567356, -26.036602], [113.576347, -26.008898], [113.562426, -25.999964], [113.553517, -25.972261], [113.557553, -25.940989], [113.518765, -25.919536], [113.523766, -25.891846], [113.511872, -25.853422], [113.474111, -25.817632], [113.46046, -25.776625], [113.420781, -25.728215], [113.413528, -25.702047], [113.422647, -25.654663], [113.464457, -25.573011], [113.489869, -25.545269], [113.502548, -25.514213], [113.51525, -25.509337], [113.520796, -25.600955], [113.532888, -25.618259], [113.555919, -25.619561], [113.562511, -25.631524], [113.58434, -25.632113], [113.60798, -25.704015], [113.631033, -25.736261], [113.660641, -25.749767], [113.675184, -25.780791], [113.727832, -25.79544], [113.716977, -25.846074], [113.722341, -25.866632], [113.756951, -25.885217], [113.760609, -25.904793], [113.735216, -25.935815], [113.738886, -25.98477], [113.718913, -26.032116], [113.71346, -26.121914], [113.70436, -26.148046], [113.728013, -26.180685], [113.728004, -26.197035], [113.762605, -26.196973], [113.766251, -26.210034], [113.795386, -26.206715], [113.84807, -26.12171], [113.878842, -26.043321], [113.852875, -25.971287], [113.854503, -25.944268], [113.885509, -25.951755], [113.909577, -25.976373], [113.902433, -26.031854], [113.911637, -26.088939], [113.906016, -26.119317], [113.928096, -26.137868], [113.948087, -26.139464], [113.935469, -26.191722], [113.969981, -26.33172], [114.021534, -26.390888], [114.069083, -26.43656], [114.085537, -26.447952], [114.103776, -26.447882], [114.156421, -26.393729], [114.207361, -26.375541], [114.234371, -26.316584], [114.191895, -26.195862], [114.226817, -26.0888], [114.22755, -26.06463], [114.191742, -26.004002], [114.186534, -25.978936], [114.190766, -25.97088], [114.219574, -25.996759], [114.268565, -25.989516], [114.237478, -25.94964], [114.234223, -25.927423], [114.263194, -25.862237], [114.258556, -25.841892], [114.193126, -25.802179], [114.155284, -25.789727], [114.144867, -25.757013], [114.132009, -25.749933], [114.136485, -25.733331], [114.129161, -25.715265], [114.100597, -25.694757], [114.093028, -25.671645], [114.049327, -25.646905], [114.015636, -25.569594], [113.928396, -25.449802], [113.862071, -25.302667], [113.853282, -25.26393], [113.816661, -25.208754], [113.802419, -25.171808], [113.747325, -25.136651], [113.713064, -25.124933], [113.692149, -25.105239], [113.645763, -24.993097], [113.647309, -24.977309], [113.665212, -24.954848], [113.666759, -24.93377], [113.658214, -24.912042], [113.639659, -24.896173], [113.610606, -24.892755], [113.605154, -24.830499], [113.620942, -24.795831], [113.60434, -24.728285], [113.542491, -24.643487], [113.439464, -24.53281], [113.400238, -24.45794], [113.391449, -24.41367], [113.385265, -24.249119], [113.397227, -24.214125], [113.433279, -24.17018], [113.414561, -24.049412], [113.455333, -23.990655], [113.459727, -23.910333], [113.502126, -23.852797], [113.526378, -23.764744], [113.538341, -23.748468], [113.559337, -23.741957], [113.60434, -23.624688], [113.627696, -23.611912], [113.636241, -23.596856], [113.68214, -23.579685], [113.699962, -23.549574], [113.737559, -23.527032], [113.768809, -23.457696], [113.782481, -23.327081], [113.748302, -23.162286], [113.758311, -23.118829], [113.789317, -23.097101], [113.811534, -23.051365], [113.807384, -22.930597], [113.801768, -22.899835], [113.775401, -22.852472], [113.759776, -22.788751], [113.713634, -22.741469], [113.658946, -22.727797], [113.67213, -22.668715], [113.646658, -22.577732], [113.660818, -22.553399], [113.693126, -22.535414], [113.731456, -22.479587], [113.747732, -22.401544], [113.803966, -22.330824], [113.885509, -22.110935], [113.89796, -22.049249], [113.923106, -22.013116], [113.947032, -21.952569], [114.011485, -21.859959], [114.035818, -21.837823], [114.067149, -21.819024], [114.144705, -21.795505], [114.15919, -21.791925], [114.172211, -21.802992], [114.176036, -21.822198], [114.152517, -21.846368], [114.127696, -21.922784], [114.096446, -22.106378], [114.077485, -22.17547], [114.12436, -22.275323], [114.109711, -22.330987], [114.12436, -22.336684], [114.147472, -22.294529], [114.166026, -22.302667], [114.171397, -22.317478], [114.163829, -22.355564], [114.151866, -22.358005], [114.117686, -22.398858], [114.125743, -22.438165], [114.11085, -22.477716], [114.122406, -22.504164], [114.148123, -22.521417], [114.179698, -22.521742], [114.221934, -22.46795], [114.286632, -22.443292], [114.299815, -22.449802], [114.319835, -22.487563], [114.337413, -22.493829], [114.367035, -22.478285], [114.391938, -22.358005], [114.439789, -22.244561], [114.467621, -22.206476], [114.467621, -22.172296], [114.497813, -22.16367], [114.522309, -22.069268], [114.501801, -22.041925], [114.495616, -22.00449], [114.503184, -21.996026], [114.550304, -22.041925], [114.611095, -21.925226], [114.624766, -21.918552], [114.646739, -21.843357], [114.678233, -21.834568], [114.70045, -21.809259], [114.778982, -21.781345], [114.928966, -21.693943], [114.970714, -21.682061], [115.008962, -21.693129], [115.055186, -21.676528], [115.088634, -21.652765], [115.098643, -21.652765], [115.105154, -21.665216], [115.223888, -21.59881], [115.478526, -21.501153], [115.49464, -21.466078], [115.625987, -21.321954], [115.662283, -21.298028], [115.818696, -21.225763], [115.830414, -21.190851], [115.85906, -21.154962], [115.877615, -21.115167], [115.936697, -21.059015], [116.151541, -20.969985], [116.174083, -20.943048], [116.1963, -20.846856], [116.218598, -20.842869], [116.26588, -20.862563], [116.289399, -20.863214], [116.347992, -20.828546], [116.434744, -20.822361], [116.451508, -20.814711], [116.506196, -20.780857], [116.520518, -20.751153], [116.587087, -20.735284], [116.699392, -20.659356], [116.743175, -20.616876], [116.779307, -20.560235], [116.79713, -20.548598], [116.790863, -20.534926], [116.824474, -20.52809], [116.845388, -20.539321], [116.820323, -20.5499], [116.810802, -20.61004], [116.788748, -20.633722], [116.783946, -20.657159], [116.835948, -20.704278], [116.855479, -20.712091], [116.879649, -20.713067], [116.921641, -20.698337], [116.957042, -20.668064], [117.062511, -20.621677], [117.09547, -20.637384], [117.107677, -20.635186], [117.154063, -20.596368], [117.16863, -20.60947], [117.160167, -20.644789], [117.181326, -20.673517], [117.272472, -20.712986], [117.35377, -20.727716], [117.437511, -20.722589], [117.513438, -20.706313], [117.602712, -20.657322], [117.623302, -20.661554], [117.635753, -20.673272], [117.650645, -20.672133], [117.664236, -20.657322], [117.674815, -20.672133], [117.729503, -20.650974], [117.736339, -20.658461], [117.810069, -20.623224], [117.839366, -20.616876], [117.878754, -20.565118], [117.91863, -20.555108], [117.935313, -20.52988], [117.940684, -20.492771], [118.15089, -20.356134], [118.188731, -20.349298], [118.195079, -20.371352], [118.209239, -20.36297], [118.230805, -20.371677], [118.322276, -20.335707], [118.335297, -20.3388], [118.353282, -20.36297], [118.368826, -20.362074], [118.410818, -20.346449], [118.606293, -20.309503], [118.681814, -20.323663], [118.738048, -20.292169], [118.805675, -20.28102], [118.831798, -20.261977], [118.88087, -20.185479], [118.958832, -20.104181], [118.97462, -20.050388], [119.014903, -20.024347], [119.056163, -20.009861], [119.068533, -19.982843], [119.09547, -19.966729], [119.118337, -19.971612], [119.161388, -20.00742], [119.163259, -19.966241], [119.192393, -19.958917], [119.435802, -20.013604], [119.463064, -19.999933], [119.473969, -20.005466], [119.487153, -20.030938], [119.523448, -20.053155], [119.566661, -20.06878], [119.589854, -20.065851], [119.637869, -20.041599], [119.664806, -20.010431], [119.702647, -20.013604], [119.71754, -20.003676], [119.716156, -19.97324], [119.734386, -19.96266], [119.802257, -19.965753], [120.0, -19.933245645656143], [120.0, -30.0], [114.94862603415746, -30.0], [114.967459, -29.902439]]], [[[113.225108, -26.108331], [113.207042, -26.139744], [113.177257, -26.125584], [113.155699, -26.054059], [113.082698, -25.965498], [113.046153, -25.940037], [113.012426, -25.845132], [112.953868, -25.773045], [112.963552, -25.75449], [112.954791, -25.697521], [112.919599, -25.631555], [112.919444, -25.523614], [112.959483, -25.482517], [112.969005, -25.494317], [112.998383, -25.489923], [113.007823, -25.496189], [113.006064, -25.552923], [113.043379, -25.629647], [113.05128, -25.716974], [113.137543, -25.885919], [113.115245, -25.937758], [113.115571, -25.963311], [113.14503, -25.969008], [113.131358, -25.947931], [113.144705, -25.946222], [113.20338, -26.027032], [113.225108, -26.108331]]], [[[113.05128, -25.239679], [113.083018, -25.136651], [113.079112, -25.062433], [113.08839, -25.029067], [113.117686, -25.009454], [113.103363, -25.140395], [113.076182, -25.205011], [113.069347, -25.276462], [113.055675, -25.262791], [113.05128, -25.239679]]], [[[113.129568, -24.956231], [113.117686, -24.995212], [113.11085, -24.961114], [113.132823, -24.802341], [113.151866, -24.755629], [113.158458, -24.80169], [113.134939, -24.892022], [113.135997, -24.917169], [113.151866, -24.926935], [113.129568, -24.956231]]], [[[115.47047, -20.746189], [115.440278, -20.794366], [115.438487, -20.819024], [115.415375, -20.836196], [115.408051, -20.853692], [115.365245, -20.876886], [115.359386, -20.864516], [115.335704, -20.849705], [115.318126, -20.872735], [115.306977, -20.870538], [115.296397, -20.856541], [115.310557, -20.801853], [115.399425, -20.69378], [115.428966, -20.669122], [115.451182, -20.66839], [115.47047, -20.746189]]], [[[113.703351, -28.448421], [113.720213, -28.428124], [113.749539, -28.427576], [113.684598, -28.486277], [113.679618, -28.452241], [113.703351, -28.448421]]]]}}, {"type": "Feature", "properties": {"name": "Indian Ocean Ter."}, "geometry": {"type": "Polygon", "coordinates": [[[105.714692, -10.437188], [105.694591, -10.564874], [105.678722, -10.566013], [105.664073, -10.518487], [105.628184, -10.508966], [105.584972, -10.516371], [105.581798, -10.504815], [105.59962, -10.480564], [105.594249, -10.454034], [105.627126, -10.468927], [105.654552, -10.469903], [105.704112, -10.430841], [105.714692, -10.437188]]]}}]}