{"type": "FeatureCollection", "features": [{"type": "Feature", "properties": {"name": "Canada"}, "geometry": {"type": "MultiPolygon", "coordinates": [[[[-55.89037, 47.260891], [-55.92809, 47.273424], [-55.949941, 47.268134], [-55.948476, 47.276597], [-55.888051, 47.294908], [-55.863596, 47.29328], [-55.859242, 47.277086], [-55.843088, 47.273424], [-55.871002, 47.251654], [-55.877187, 47.266018], [-55.89037, 47.260891]]], [[[-54.151031, 47.587795], [-54.160308, 47.555732], [-54.156646, 47.533515], [-54.244049, 47.407701], [-54.27245, 47.395697], [-54.351064, 47.403022], [-54.362701, 47.40998], [-54.259674, 47.485745], [-54.217437, 47.5397], [-54.214019, 47.558539], [-54.246002, 47.553941], [-54.239858, 47.564399], [-54.170969, 47.62226], [-54.184641, 47.595526], [-54.170969, 47.58808], [-54.126047, 47.670111], [-54.122548, 47.642727], [-54.151031, 47.587795]]], [[[-55.937978, 47.656928], [-55.924143, 47.638739], [-55.877187, 47.616034], [-55.903635, 47.607082], [-55.957183, 47.605902], [-56.109975, 47.636542], [-56.108266, 47.65412], [-56.083485, 47.666164], [-55.969635, 47.685777], [-55.9405, 47.685614], [-55.925038, 47.677476], [-55.937978, 47.656928]]], [[[-54.081532, 47.650133], [-54.081532, 47.691148], [-54.061106, 47.656399], [-54.065012, 47.627997], [-54.081532, 47.609198], [-54.078603, 47.566067], [-54.062978, 47.543443], [-54.06664, 47.531724], [-54.081532, 47.526679], [-54.071034, 47.518256], [-54.081532, 47.478217], [-54.0985, 47.491848], [-54.088368, 47.546536], [-54.10204, 47.540269], [-54.095123, 47.619127], [-54.081532, 47.650133]]], [[[-53.543528, 48.207017], [-53.521474, 48.201239], [-53.514027, 48.186754], [-53.533518, 48.177191], [-53.520009, 48.158149], [-53.553944, 48.108222], [-53.533518, 48.108222], [-53.5655, 48.08218], [-53.618804, 48.082099], [-53.718414, 48.101996], [-53.810943, 48.095201], [-53.875234, 48.106513], [-53.88976, 48.143622], [-53.928375, 48.183336], [-53.931386, 48.208441], [-53.92101, 48.21662], [-53.862416, 48.177191], [-53.841298, 48.171373], [-53.769928, 48.177191], [-53.704416, 48.151597], [-53.67748, 48.149848], [-53.567698, 48.190823], [-53.543528, 48.207017]]], [[[-54.685455, 49.457587], [-54.677805, 49.438381], [-54.698557, 49.40766], [-54.730377, 49.411282], [-54.749908, 49.424262], [-54.753774, 49.445217], [-54.740387, 49.458889], [-54.699696, 49.472602], [-54.679596, 49.492906], [-54.64391, 49.475328], [-54.685455, 49.457587]]], [[[-55.65746, 49.561916], [-55.657094, 49.541449], [-55.678578, 49.520697], [-55.708485, 49.50849], [-55.733225, 49.513495], [-55.735992, 49.536851], [-55.725738, 49.561916], [-55.65746, 49.561916]]], [[[-55.572906, 49.598131], [-55.640533, 49.585517], [-55.670277, 49.571112], [-55.714467, 49.571479], [-55.725738, 49.581773], [-55.702545, 49.622545], [-55.671742, 49.63703], [-55.651275, 49.63703], [-55.65746, 49.623358], [-55.631418, 49.622463], [-55.625234, 49.615546], [-55.629547, 49.603461], [-55.578969, 49.609687], [-55.572906, 49.598131]]], [[[-54.897125, 49.581773], [-54.884999, 49.595201], [-54.851552, 49.59101], [-54.835683, 49.603461], [-54.795766, 49.60102], [-54.780629, 49.595893], [-54.795277, 49.563625], [-54.732655, 49.55508], [-54.672922, 49.578681], [-54.660227, 49.610907], [-54.633697, 49.633775], [-54.615956, 49.63703], [-54.630238, 49.623358], [-54.614084, 49.616116], [-54.539377, 49.661038], [-54.544057, 49.651801], [-54.529286, 49.625067], [-54.547719, 49.596015], [-54.546051, 49.584784], [-54.607737, 49.560736], [-54.718984, 49.534613], [-54.73644, 49.524359], [-54.744008, 49.493801], [-54.781077, 49.499823], [-54.852366, 49.486518], [-54.876617, 49.493598], [-54.84553, 49.509833], [-54.806874, 49.515611], [-54.840403, 49.529771], [-54.859609, 49.551663], [-54.883453, 49.55508], [-54.897125, 49.581773]]], [[[-54.291982, 49.587388], [-54.307485, 49.67178], [-54.252838, 49.677965], [-54.269928, 49.684475], [-54.280141, 49.698432], [-54.26651, 49.712714], [-54.287587, 49.712714], [-54.269846, 49.72724], [-54.244049, 49.72606], [-54.197621, 49.705268], [-54.205068, 49.698432], [-54.191396, 49.677965], [-54.182932, 49.691352], [-54.184641, 49.726386], [-54.172963, 49.733588], [-54.13679, 49.732611], [-54.150461, 49.75373], [-54.110219, 49.754462], [-54.09203, 49.750474], [-54.05427, 49.71894], [-54.035797, 49.714993], [-54.040598, 49.691636], [-54.029775, 49.675971], [-54.01651, 49.667792], [-53.978505, 49.664293], [-53.987172, 49.651068], [-54.030019, 49.657457], [-54.115712, 49.616523], [-54.222157, 49.596015], [-54.258697, 49.571479], [-54.291982, 49.587388]]], [[[-52.616607, 47.522691], [-52.628529, 47.485745], [-52.6433, 47.487535], [-52.690582, 47.464586], [-52.656606, 47.437079], [-52.674713, 47.412095], [-52.711049, 47.383246], [-52.738393, 47.320624], [-52.800445, 47.306952], [-52.759511, 47.300116], [-52.782379, 47.282213], [-52.814076, 47.273424], [-52.80191, 47.258775], [-52.846018, 47.173529], [-52.853017, 47.134263], [-52.868764, 47.101508], [-52.937611, 47.087836], [-52.849192, 47.06981], [-52.846303, 47.061469], [-52.856272, 47.055854], [-52.874908, 47.059882], [-52.854482, 47.026353], [-52.889272, 47.006822], [-52.89509, 46.995551], [-52.882395, 46.977973], [-52.898549, 46.966986], [-52.882192, 46.951117], [-52.909739, 46.912787], [-52.934071, 46.847113], [-52.930165, 46.827135], [-52.941274, 46.791327], [-52.96109, 46.782782], [-52.978627, 46.758857], [-53.006947, 46.753119], [-53.031321, 46.736029], [-53.066884, 46.665595], [-53.143056, 46.629136], [-53.19286, 46.627631], [-53.23233, 46.653754], [-53.253651, 46.683173], [-53.267486, 46.714545], [-53.265981, 46.739], [-53.298655, 46.720649], [-53.32433, 46.693996], [-53.331207, 46.693305], [-53.3485, 46.717271], [-53.389475, 46.683783], [-53.355336, 46.739], [-53.389394, 46.7237], [-53.440745, 46.680854], [-53.448801, 46.664008], [-53.482004, 46.652737], [-53.5183, 46.628567], [-53.554677, 46.618354], [-53.589996, 46.626166], [-53.622874, 46.655829], [-53.636464, 46.711371], [-53.601633, 46.764228], [-53.608551, 46.797065], [-53.600087, 46.812567], [-53.562489, 46.84634], [-53.544057, 46.878485], [-53.498606, 46.886786], [-53.485707, 46.902899], [-53.544057, 46.88581], [-53.611562, 46.814276], [-53.636871, 46.798896], [-53.644887, 46.801174], [-53.63622, 46.83869], [-53.61262, 46.869045], [-53.598704, 46.905951], [-53.521148, 46.944648], [-53.519195, 46.964301], [-53.542144, 46.944648], [-53.567698, 46.943834], [-53.561757, 46.960883], [-53.567698, 46.977973], [-53.574452, 46.977973], [-53.591868, 46.950019], [-53.608632, 46.953518], [-53.615224, 46.95897], [-53.600087, 46.986884], [-53.643381, 46.985419], [-53.605133, 47.036607], [-53.578114, 47.059516], [-53.570627, 47.072699], [-53.581899, 47.08161], [-53.498687, 47.135647], [-53.524322, 47.1435], [-53.519195, 47.169745], [-53.571034, 47.156155], [-53.56017, 47.204535], [-53.617299, 47.11933], [-53.650217, 47.108344], [-53.629058, 47.156155], [-53.64977, 47.147162], [-53.67748, 47.091254], [-53.704498, 47.077541], [-53.695424, 47.070136], [-53.70401, 47.061103], [-53.72525, 47.04682], [-53.766835, 47.040025], [-53.818471, 46.962592], [-53.869252, 46.943834], [-53.882924, 46.909084], [-53.934153, 46.886054], [-53.947825, 46.85814], [-53.992177, 46.848293], [-54.050364, 46.808051], [-54.098622, 46.800482], [-54.119049, 46.813463], [-54.188547, 46.828437], [-54.197621, 46.88581], [-54.185414, 46.927802], [-54.150461, 47.005316], [-54.100413, 47.059801], [-54.010406, 47.233873], [-53.931752, 47.234361], [-53.989084, 47.2626], [-53.999094, 47.281317], [-53.996205, 47.317206], [-53.971669, 47.314399], [-53.978505, 47.306952], [-53.961415, 47.30329], [-53.922271, 47.313218], [-53.92394, 47.32807], [-53.895253, 47.340481], [-53.876698, 47.361518], [-53.914296, 47.363471], [-53.892893, 47.39289], [-53.853139, 47.413479], [-53.807851, 47.423651], [-53.807851, 47.430487], [-53.835113, 47.430487], [-53.848785, 47.44477], [-53.902008, 47.431545], [-53.923451, 47.454088], [-53.887847, 47.516913], [-53.885854, 47.527493], [-53.903432, 47.533515], [-53.892568, 47.598822], [-53.903432, 47.616034], [-53.92394, 47.609198], [-53.939849, 47.634914], [-53.941274, 47.674058], [-53.971669, 47.742662], [-53.964711, 47.756903], [-53.975168, 47.764838], [-53.992177, 47.759426], [-54.000844, 47.771145], [-54.013295, 47.807196], [-54.005849, 47.820868], [-54.042144, 47.801988], [-54.060862, 47.80036], [-54.074696, 47.814032], [-54.061106, 47.828315], [-54.081532, 47.875474], [-54.098256, 47.837592], [-54.109486, 47.828315], [-54.125071, 47.828111], [-54.164133, 47.855048], [-54.170969, 47.875474], [-54.26651, 47.903469], [-54.253733, 47.887763], [-54.197621, 47.869289], [-54.198232, 47.833319], [-54.249135, 47.730129], [-54.280141, 47.697943], [-54.32726, 47.71015], [-54.321156, 47.667222], [-54.326568, 47.64765], [-54.411041, 47.530666], [-54.458363, 47.499416], [-54.444651, 47.485745], [-54.438466, 47.499416], [-54.417307, 47.459459], [-54.403676, 47.450914], [-54.452056, 47.423651], [-54.444325, 47.449449], [-54.465728, 47.450914], [-54.506093, 47.402533], [-54.491811, 47.398749], [-54.4794, 47.40998], [-54.472564, 47.402533], [-54.507965, 47.382229], [-54.523427, 47.376695], [-54.526601, 47.383246], [-54.605824, 47.352484], [-54.615956, 47.368964], [-54.575022, 47.396308], [-54.437164, 47.55565], [-54.411204, 47.601752], [-54.417348, 47.609198], [-54.472524, 47.549628], [-54.50414, 47.530463], [-54.543935, 47.468004], [-54.602935, 47.40998], [-54.664418, 47.3758], [-54.676096, 47.385443], [-54.677398, 47.402533], [-54.712148, 47.3758], [-54.698557, 47.361518], [-54.710927, 47.356024], [-54.730092, 47.362291], [-54.732655, 47.3758], [-54.759592, 47.362779], [-54.770009, 47.366523], [-54.77359, 47.383246], [-54.822011, 47.368964], [-54.795644, 47.394355], [-54.784901, 47.411282], [-54.787262, 47.423651], [-54.801503, 47.423], [-54.828236, 47.3758], [-54.840403, 47.384467], [-54.840321, 47.397447], [-54.822011, 47.423651], [-54.83788, 47.419257], [-54.866078, 47.379584], [-54.924428, 47.334906], [-54.928944, 47.311347], [-54.989247, 47.28026], [-55.027455, 47.238674], [-55.040598, 47.217719], [-55.020579, 47.207709], [-55.013173, 47.193996], [-55.026967, 47.172553], [-55.054189, 47.156155], [-55.073801, 47.156968], [-55.071848, 47.200751], [-55.088002, 47.206244], [-55.136098, 47.169745], [-55.088938, 47.169745], [-55.082753, 47.159084], [-55.088938, 47.128811], [-55.071767, 47.094957], [-55.074696, 47.081], [-55.10261, 47.08161], [-55.095123, 47.059882], [-55.134877, 47.047593], [-55.146311, 47.037665], [-55.154612, 47.0126], [-55.178334, 47.026353], [-55.171498, 47.067328], [-55.180084, 47.075019], [-55.196156, 47.069648], [-55.202626, 47.055854], [-55.191314, 47.02265], [-55.200185, 46.980536], [-55.213002, 46.965155], [-55.2329, 46.957465], [-55.229563, 46.936225], [-55.250885, 46.91885], [-55.311757, 46.902899], [-55.370107, 46.909084], [-55.359039, 46.874701], [-55.417836, 46.866604], [-55.452545, 46.876288], [-55.473256, 46.897528], [-55.465688, 46.930813], [-55.524159, 46.921698], [-55.527821, 46.943834], [-55.551259, 46.900946], [-55.561879, 46.909084], [-55.575917, 46.90762], [-55.649526, 46.867906], [-55.684804, 46.861884], [-55.728912, 46.869289], [-55.73941, 46.854438], [-55.776926, 46.867865], [-55.851308, 46.870998], [-55.950307, 46.904364], [-55.981313, 46.932034], [-55.98644, 46.946967], [-55.97997, 46.970364], [-55.869862, 47.075141], [-55.761138, 47.108344], [-55.684804, 47.09516], [-55.487172, 47.140286], [-55.461741, 47.180894], [-55.431549, 47.190863], [-55.396799, 47.218207], [-55.301259, 47.267646], [-55.287506, 47.286444], [-55.287506, 47.32807], [-55.255279, 47.411444], [-55.18399, 47.460354], [-55.108795, 47.483466], [-55.047963, 47.485745], [-54.985829, 47.506171], [-54.95519, 47.506171], [-54.947865, 47.510443], [-54.950999, 47.529242], [-54.892323, 47.536282], [-54.853179, 47.560126], [-54.84317, 47.571031], [-54.841908, 47.58808], [-54.869293, 47.571845], [-54.876617, 47.581244], [-54.841908, 47.616034], [-54.698557, 47.67064], [-54.77359, 47.67064], [-54.766754, 47.683743], [-54.826161, 47.644517], [-54.8933, 47.619208], [-54.963938, 47.605658], [-55.08849, 47.601711], [-55.078725, 47.619127], [-55.033559, 47.65762], [-55.021392, 47.685452], [-54.952545, 47.75137], [-54.9381, 47.78734], [-54.983388, 47.7508], [-55.058949, 47.658433], [-55.10261, 47.62226], [-55.094879, 47.600653], [-55.108551, 47.585435], [-55.131174, 47.583564], [-55.15038, 47.601752], [-55.129872, 47.663804], [-55.169749, 47.639879], [-55.194814, 47.63642], [-55.232737, 47.655178], [-55.322418, 47.6706], [-55.335927, 47.658677], [-55.362375, 47.65412], [-55.365387, 47.673041], [-55.376943, 47.680609], [-55.34968, 47.711168], [-55.363352, 47.718451], [-55.355824, 47.732123], [-55.390614, 47.718451], [-55.376943, 47.704169], [-55.391021, 47.697333], [-55.400217, 47.695868], [-55.408518, 47.710517], [-55.427317, 47.71955], [-55.431386, 47.672675], [-55.470204, 47.626899], [-55.459462, 47.616034], [-55.417877, 47.633612], [-55.396799, 47.616034], [-55.431549, 47.58808], [-55.390614, 47.595526], [-55.401723, 47.58275], [-55.396799, 47.567613], [-55.418528, 47.533515], [-55.402333, 47.520738], [-55.407053, 47.501451], [-55.437815, 47.471381], [-55.520904, 47.464586], [-55.555084, 47.44477], [-55.582387, 47.402533], [-55.5985, 47.399319], [-55.600494, 47.43891], [-55.589223, 47.45775], [-55.664296, 47.437242], [-55.637034, 47.45775], [-55.611806, 47.499457], [-55.589223, 47.512397], [-55.618764, 47.541693], [-55.638417, 47.545315], [-55.651275, 47.526679], [-55.623362, 47.526679], [-55.664296, 47.491889], [-55.712717, 47.506171], [-55.698476, 47.485745], [-55.774159, 47.45775], [-55.761301, 47.487006], [-55.771474, 47.504218], [-55.753733, 47.540269], [-55.786529, 47.513617], [-55.794504, 47.493598], [-55.787831, 47.478217], [-55.805247, 47.462226], [-55.85676, 47.478217], [-55.917592, 47.437242], [-55.916656, 47.457343], [-55.835601, 47.512397], [-55.746897, 47.58808], [-55.791249, 47.574449], [-55.817535, 47.556138], [-55.815785, 47.567613], [-55.833852, 47.566392], [-55.877187, 47.533515], [-55.89391, 47.541409], [-55.948883, 47.512397], [-56.020131, 47.499498], [-56.105784, 47.466702], [-56.161936, 47.491929], [-56.169423, 47.50373], [-56.15095, 47.519843], [-56.045522, 47.535793], [-55.938629, 47.567613], [-55.911366, 47.567613], [-55.863149, 47.598578], [-55.808258, 47.609198], [-55.742543, 47.644924], [-55.629547, 47.677476], [-55.680043, 47.678412], [-55.733225, 47.663804], [-55.81314, 47.62519], [-55.843088, 47.62226], [-55.894399, 47.640448], [-55.914418, 47.659247], [-55.917592, 47.683743], [-55.903554, 47.699652], [-55.828765, 47.738959], [-55.843088, 47.75259], [-55.815785, 47.776516], [-55.811879, 47.799872], [-55.802113, 47.801011], [-55.824818, 47.82038], [-55.816558, 47.839667], [-55.774159, 47.869289], [-55.795644, 47.877916], [-55.784779, 47.895006], [-55.73941, 47.923896], [-55.755279, 47.946234], [-55.780385, 47.958075], [-55.774037, 47.932807], [-55.828765, 47.896633], [-55.817047, 47.888658], [-55.835601, 47.862454], [-55.860015, 47.791205], [-55.885365, 47.777899], [-55.990224, 47.751532], [-56.059316, 47.69953], [-56.110829, 47.704047], [-56.096303, 47.711005], [-56.105784, 47.726874], [-56.055328, 47.779934], [-56.089508, 47.757473], [-56.101064, 47.759711], [-56.15095, 47.841986], [-56.155019, 47.826158], [-56.136098, 47.794664], [-56.132436, 47.755276], [-56.172027, 47.718451], [-56.150706, 47.713772], [-56.137278, 47.697333], [-56.149648, 47.687242], [-56.191884, 47.677476], [-56.172027, 47.67064], [-56.185658, 47.656399], [-56.158355, 47.642727], [-56.180776, 47.630683], [-56.193227, 47.630072], [-56.212392, 47.655748], [-56.22175, 47.655463], [-56.234975, 47.631985], [-56.301747, 47.629096], [-56.29955, 47.685289], [-56.288075, 47.697333], [-56.308095, 47.719184], [-56.308583, 47.75259], [-56.320709, 47.708441], [-56.335846, 47.704169], [-56.335846, 47.697333], [-56.315338, 47.685858], [-56.311025, 47.6612], [-56.319163, 47.634426], [-56.335846, 47.616034], [-56.389801, 47.606431], [-56.514027, 47.62226], [-56.565826, 47.616034], [-56.672027, 47.626695], [-56.699574, 47.62226], [-56.637563, 47.58808], [-56.676137, 47.577338], [-56.720815, 47.594672], [-56.754262, 47.636542], [-56.767893, 47.62226], [-56.730784, 47.582017], [-56.705881, 47.574449], [-56.705881, 47.567613], [-56.791493, 47.530097], [-56.810414, 47.539496], [-56.851226, 47.531724], [-56.857086, 47.537299], [-56.850453, 47.553941], [-56.869985, 47.545111], [-56.89391, 47.547512], [-56.957428, 47.583401], [-56.983876, 47.586982], [-57.120717, 47.567613], [-57.146596, 47.572333], [-57.168853, 47.584662], [-57.144643, 47.609198], [-57.171986, 47.636542], [-57.196156, 47.5987], [-57.206899, 47.594143], [-57.243967, 47.601752], [-57.314565, 47.583686], [-57.336415, 47.595526], [-57.341949, 47.608588], [-57.329661, 47.632799], [-57.332916, 47.642727], [-57.381174, 47.629096], [-57.419016, 47.636542], [-57.505279, 47.632758], [-57.535715, 47.636542], [-57.528879, 47.650133], [-57.556142, 47.642768], [-57.627838, 47.601752], [-57.646108, 47.604071], [-57.680816, 47.63996], [-57.733998, 47.656399], [-57.750722, 47.651068], [-57.767812, 47.616034], [-57.78954, 47.636542], [-57.816233, 47.629096], [-57.864003, 47.656399], [-57.918609, 47.650133], [-57.904449, 47.6789], [-57.884511, 47.697333], [-57.925933, 47.695217], [-57.939768, 47.677476], [-57.954823, 47.672675], [-58.004954, 47.677476], [-58.041982, 47.698554], [-58.058502, 47.675767], [-58.075103, 47.674628], [-58.083852, 47.680813], [-58.069447, 47.697333], [-58.097768, 47.695217], [-58.227162, 47.656399], [-58.280141, 47.675035], [-58.340728, 47.642727], [-58.354726, 47.649115], [-58.348053, 47.677314], [-58.313385, 47.72842], [-58.261301, 47.75259], [-58.324045, 47.749579], [-58.349721, 47.739651], [-58.371165, 47.718451], [-58.40095, 47.654527], [-58.425771, 47.636542], [-58.470693, 47.652004], [-58.508372, 47.642727], [-58.53189, 47.665676], [-58.54308, 47.663804], [-58.527211, 47.651068], [-58.535959, 47.645738], [-58.570424, 47.642727], [-58.627553, 47.612047], [-58.647939, 47.62637], [-58.703236, 47.601752], [-58.767161, 47.596015], [-58.921742, 47.601508], [-58.962758, 47.581448], [-58.988108, 47.58808], [-59.111643, 47.560777], [-59.146352, 47.560981], [-59.190989, 47.578315], [-59.227651, 47.574449], [-59.255605, 47.604926], [-59.301137, 47.614203], [-59.308461, 47.622504], [-59.307729, 47.699286], [-59.282867, 47.759426], [-59.310658, 47.761664], [-59.325063, 47.774482], [-59.33137, 47.81745], [-59.364858, 47.838284], [-59.405832, 47.896633], [-59.402659, 47.909613], [-59.367543, 47.931057], [-59.320383, 47.934475], [-59.303375, 47.964911], [-59.241689, 48.01553], [-59.168324, 48.058743], [-59.00178, 48.122504], [-58.970123, 48.141913], [-58.91039, 48.199774], [-58.856801, 48.216498], [-58.798655, 48.265815], [-58.723459, 48.305732], [-58.683013, 48.345038], [-58.666575, 48.383205], [-58.628733, 48.393744], [-58.570424, 48.440334], [-58.494618, 48.458319], [-58.494618, 48.451483], [-58.578196, 48.423407], [-58.604482, 48.403713], [-58.474192, 48.437812], [-58.406077, 48.49726], [-58.272206, 48.520901], [-58.27538, 48.527493], [-58.310292, 48.534003], [-58.375315, 48.525051], [-58.433217, 48.499335], [-58.447377, 48.513414], [-58.51891, 48.506741], [-58.540435, 48.51203], [-58.597727, 48.547065], [-58.703236, 48.554511], [-58.838002, 48.52558], [-59.078236, 48.51496], [-59.23648, 48.472846], [-59.262441, 48.472602], [-59.241322, 48.499335], [-59.226471, 48.539862], [-59.206899, 48.555325], [-59.113149, 48.608954], [-58.970815, 48.675035], [-58.803456, 48.77143], [-58.768951, 48.780463], [-58.814565, 48.737047], [-58.88801, 48.702216], [-58.918691, 48.678778], [-58.947174, 48.651435], [-58.960805, 48.629625], [-58.958852, 48.616156], [-58.899648, 48.586412], [-58.899403, 48.557603], [-58.89269, 48.5539], [-58.846995, 48.596381], [-58.850942, 48.636461], [-58.844106, 48.636461], [-58.838735, 48.588446], [-58.8131, 48.571601], [-58.763539, 48.562567], [-58.713735, 48.568183], [-58.685374, 48.601752], [-58.666575, 48.725816], [-58.624135, 48.775458], [-58.610748, 48.810858], [-58.544545, 48.871772], [-58.522084, 48.926256], [-58.512034, 48.931301], [-58.502105, 49.006415], [-58.455474, 49.041327], [-58.418935, 49.115627], [-58.398427, 49.136705], [-58.361195, 49.151028], [-58.348785, 49.144924], [-58.353383, 49.116929], [-58.371165, 49.109442], [-58.344472, 49.109442], [-58.36734, 49.083686], [-58.369618, 49.072414], [-58.357493, 49.061672], [-58.292592, 49.074652], [-58.213368, 49.074205], [-58.175852, 49.066474], [-58.145172, 49.047309], [-58.097727, 48.996894], [-58.068593, 48.979193], [-57.920725, 48.962063], [-57.884511, 48.972235], [-57.907948, 48.983059], [-58.009348, 48.983059], [-58.046213, 48.996405], [-58.107411, 49.037421], [-58.13622, 49.094875], [-58.135406, 49.126939], [-58.127065, 49.135159], [-58.061025, 49.127875], [-58.00121, 49.136705], [-57.934316, 49.126451], [-57.912465, 49.12995], [-57.850413, 49.184516], [-57.857818, 49.191962], [-57.915028, 49.15469], [-57.968373, 49.155748], [-57.968414, 49.165961], [-57.926096, 49.184516], [-57.926096, 49.191962], [-58.022572, 49.15705], [-58.079986, 49.146796], [-58.110463, 49.170844], [-58.100657, 49.182807], [-58.014882, 49.17829], [-57.966705, 49.204413], [-57.926096, 49.246568], [-58.008656, 49.219306], [-58.035756, 49.217678], [-58.137847, 49.227851], [-58.19343, 49.243069], [-58.229482, 49.268459], [-58.235178, 49.284613], [-58.228668, 49.370998], [-58.211985, 49.40941], [-58.185902, 49.442694], [-58.137034, 49.484198], [-58.00121, 49.561916], [-57.966786, 49.559556], [-57.920277, 49.531928], [-57.909413, 49.459133], [-57.89745, 49.439195], [-57.871449, 49.430894], [-57.89623, 49.473456], [-57.895863, 49.492499], [-57.871449, 49.506659], [-57.84435, 49.506252], [-57.761586, 49.465725], [-57.700307, 49.462836], [-57.797597, 49.509752], [-57.819163, 49.530585], [-57.823069, 49.561916], [-57.854563, 49.527737], [-57.877675, 49.532294], [-57.895619, 49.567328], [-57.926096, 49.58926], [-57.918609, 49.603461], [-57.943959, 49.614163], [-57.95165, 49.644273], [-57.94811, 49.679511], [-57.911936, 49.752346], [-57.864003, 49.787828], [-57.852528, 49.833238], [-57.824086, 49.861762], [-57.809397, 49.896918], [-57.761586, 49.944892], [-57.73564603429544, 50.0], [-56.74912497785945, 50.0], [-56.775746, 49.950751], [-56.781565, 49.918158], [-56.728139, 49.958808], [-56.719472, 49.948554], [-56.742421, 49.894965], [-56.74059, 49.877183], [-56.767893, 49.863593], [-56.770416, 49.853583], [-56.761098, 49.842434], [-56.768422, 49.830268], [-56.802073, 49.8015], [-56.881825, 49.770819], [-56.9051, 49.75373], [-56.82844, 49.745673], [-56.810374, 49.734036], [-56.781565, 49.729438], [-56.781809, 49.696601], [-56.823476, 49.593207], [-56.856679, 49.548245], [-56.821767, 49.570787], [-56.740834, 49.65648], [-56.725331, 49.690253], [-56.599721, 49.811713], [-56.572906, 49.826402], [-56.557769, 49.848131], [-56.518137, 49.863674], [-56.48526, 49.89289], [-56.466868, 49.89765], [-56.425282, 49.845689], [-56.418446, 49.852973], [-56.429107, 49.886949], [-56.426625, 49.902655], [-56.404775, 49.918158], [-56.363189, 49.89765], [-56.384389, 49.946357], [-56.34550179502664, 50.0], [-56.125356320277675, 50.0], [-56.137278, 49.973456], [-56.191884, 49.924994], [-56.154612, 49.934068], [-56.124135, 49.955552], [-56.08262692459371, 50.0], [-56.01114911697177, 50.0], [-56.034901, 49.979641], [-56.003407, 49.971584], [-55.98530636085411, 50.0], [-55.85310692722308, 50.0], [-55.842356, 49.98314], [-55.803538, 49.956366], [-55.777333, 49.956122], [-55.767323, 49.938666], [-55.746409, 49.931952], [-55.712636, 49.934475], [-55.684804, 49.959133], [-55.69225, 49.96662], [-55.666656, 49.97606], [-55.582387, 49.973456], [-55.52441740445595, 50.0], [-55.48524234628369, 50.0], [-55.465077, 49.962551], [-55.465688, 49.944892], [-55.495229, 49.919135], [-55.575836, 49.901679], [-55.648997, 49.858954], [-55.69225, 49.849311], [-55.714955, 49.822211], [-55.807851, 49.801907], [-55.961659, 49.741278], [-56.001943, 49.752509], [-56.014394, 49.739407], [-56.004872, 49.726508], [-56.069, 49.698432], [-56.062652, 49.682929], [-56.158681, 49.62344], [-56.170237, 49.600979], [-56.165435, 49.574652], [-56.097727, 49.637641], [-56.038197, 49.673285], [-55.968495, 49.702826], [-55.897694, 49.71894], [-55.890981, 49.71011], [-55.959137, 49.685452], [-55.959137, 49.677965], [-55.926137, 49.683051], [-55.897694, 49.698432], [-55.890981, 49.689439], [-55.835601, 49.691636], [-55.844635, 49.67829], [-55.867991, 49.66828], [-55.877187, 49.643866], [-55.938629, 49.609687], [-55.929514, 49.598293], [-55.913401, 49.594631], [-55.877187, 49.596015], [-55.900787, 49.562405], [-55.937367, 49.536322], [-56.076894, 49.491889], [-56.085764, 49.469143], [-56.130727, 49.429145], [-56.059967, 49.446194], [-55.952301, 49.499823], [-55.822011, 49.52204], [-55.774159, 49.513495], [-55.787831, 49.493598], [-55.757436, 49.493394], [-55.719228, 49.475653], [-55.767323, 49.472561], [-55.787831, 49.452053], [-55.734731, 49.453843], [-55.678578, 49.472561], [-55.698476, 49.42475], [-55.671742, 49.42475], [-55.678863, 49.396389], [-55.65746, 49.383734], [-55.644765, 49.390286], [-55.626454, 49.427802], [-55.582387, 49.472357], [-55.553822, 49.489814], [-55.520904, 49.493598], [-55.56371, 49.426011], [-55.561879, 49.411078], [-55.572825, 49.387437], [-55.569325, 49.362698], [-55.532297, 49.395982], [-55.520579, 49.435981], [-55.492991, 49.445217], [-55.500478, 49.458889], [-55.486195, 49.479967], [-55.473256, 49.460639], [-55.445221, 49.493598], [-55.370107, 49.506659], [-55.376943, 49.493598], [-55.355824, 49.499823], [-55.349599, 49.493598], [-55.431549, 49.42475], [-55.341664, 49.458197], [-55.314849, 49.452053], [-55.445221, 49.355862], [-55.39151, 49.369574], [-55.373647, 49.363105], [-55.383127, 49.335354], [-55.332509, 49.403144], [-55.314849, 49.404242], [-55.329091, 49.38996], [-55.3131, 49.388658], [-55.288564, 49.400784], [-55.296051, 49.371975], [-55.342152, 49.355862], [-55.314849, 49.314887], [-55.301178, 49.322333], [-55.307037, 49.345649], [-55.266265, 49.361151], [-55.236318, 49.38996], [-55.26769, 49.42475], [-55.273671, 49.452704], [-55.26769, 49.479967], [-55.314849, 49.534613], [-55.28718, 49.535793], [-55.260243, 49.548245], [-55.228179, 49.537055], [-55.219797, 49.530097], [-55.2329, 49.520941], [-55.198842, 49.506659], [-55.212473, 49.534613], [-55.15567, 49.549302], [-55.136098, 49.540758], [-55.15038, 49.540758], [-55.15038, 49.534613], [-55.124827, 49.498969], [-55.128163, 49.466376], [-55.171498, 49.430894], [-55.162099, 49.417914], [-55.172027, 49.400784], [-55.188547, 49.392035], [-55.198842, 49.404242], [-55.225006, 49.368069], [-55.229848, 49.34398], [-55.219594, 49.316352], [-55.22289, 49.264553], [-55.244211, 49.248765], [-55.294342, 49.232896], [-55.329091, 49.191962], [-55.365061, 49.172268], [-55.370107, 49.164008], [-55.364369, 49.159491], [-55.322336, 49.157172], [-55.342152, 49.123033], [-55.320709, 49.123725], [-55.312367, 49.115058], [-55.313954, 49.101793], [-55.337148, 49.076117], [-55.383127, 49.047309], [-55.319732, 49.074612], [-55.258209, 49.080715], [-55.184478, 49.123033], [-55.184478, 49.12995], [-55.259674, 49.103705], [-55.277659, 49.106024], [-55.287262, 49.126695], [-55.282297, 49.150336], [-55.253407, 49.191962], [-55.287506, 49.184516], [-55.288442, 49.194566], [-55.272572, 49.209947], [-55.054189, 49.294379], [-55.061635, 49.301825], [-55.054189, 49.308051], [-55.073883, 49.33393], [-55.082143, 49.362698], [-55.027211, 49.329413], [-55.013173, 49.349026], [-54.992747, 49.28384], [-55.014394, 49.253974], [-55.047963, 49.232896], [-55.034006, 49.230211], [-54.998402, 49.24787], [-54.961049, 49.294989], [-54.947255, 49.300523], [-54.92101, 49.301825], [-54.911977, 49.283515], [-54.900258, 49.280097], [-54.880483, 49.289008], [-54.869211, 49.304918], [-54.863759, 49.337958], [-54.888824, 49.351752], [-54.883453, 49.376288], [-54.857045, 49.406724], [-54.83373, 49.409613], [-54.834096, 49.304836], [-54.83019, 49.285956], [-54.816965, 49.275621], [-54.782094, 49.300482], [-54.773834, 49.347235], [-54.753774, 49.355862], [-54.759348, 49.329535], [-54.742909, 49.31977], [-54.719635, 49.363105], [-54.677398, 49.383734], [-54.645619, 49.415351], [-54.650136, 49.430894], [-54.636545, 49.446967], [-54.544749, 49.52912], [-54.469309, 49.546088], [-54.443715, 49.543524], [-54.496205, 49.510077], [-54.506093, 49.476264], [-54.534047, 49.445217], [-54.482981, 49.471096], [-54.452138, 49.476996], [-54.43102, 49.472561], [-54.455678, 49.448432], [-54.457753, 49.435452], [-54.444651, 49.42475], [-54.4794, 49.400539], [-54.485422, 49.380316], [-54.486969, 49.368109], [-54.460113, 49.355536], [-54.4558, 49.338609], [-54.484771, 49.278632], [-54.483469, 49.267646], [-54.476674, 49.269232], [-54.46345, 49.301011], [-54.39684, 49.335354], [-54.416412, 49.351304], [-54.372914, 49.422309], [-54.301259, 49.430894], [-54.304311, 49.4147], [-54.259674, 49.42475], [-54.258697, 49.407701], [-54.248769, 49.406236], [-54.21935, 49.417304], [-54.238596, 49.378607], [-54.23233, 49.362698], [-54.212026, 49.402086], [-54.197621, 49.411078], [-54.176015, 49.383775], [-54.16039, 49.400539], [-54.139231, 49.452826], [-54.08552, 49.46369], [-54.076894, 49.45539], [-54.044749, 49.481757], [-54.021108, 49.464667], [-53.985951, 49.458889], [-54.040598, 49.438381], [-54.01651, 49.43183], [-53.92394, 49.452053], [-53.873931, 49.422187], [-53.793568, 49.396796], [-53.773346, 49.399807], [-53.72525, 49.376288], [-53.679107, 49.366848], [-53.663726, 49.359442], [-53.67748, 49.349026], [-53.656117, 49.332221], [-53.594716, 49.324449], [-53.567698, 49.301825], [-53.547109, 49.301825], [-53.547109, 49.287543], [-53.522043, 49.280219], [-53.492543, 49.287543], [-53.478017, 49.268378], [-53.457753, 49.26024], [-53.453684, 49.242174], [-53.491851, 49.218736], [-53.492543, 49.198188], [-53.540395, 49.187812], [-53.533518, 49.164008], [-53.565989, 49.125963], [-53.605133, 49.136705], [-53.622304, 49.117174], [-53.622874, 49.109442], [-53.581899, 49.088324], [-53.579579, 49.066636], [-53.589915, 49.052069], [-53.608957, 49.043687], [-53.793568, 49.027533], [-53.838246, 49.033677], [-53.834584, 49.023749], [-53.810943, 49.013861], [-53.72525, 49.013861], [-53.74767, 48.998684], [-53.809438, 48.981269], [-53.838246, 48.979071], [-53.882924, 48.992743], [-53.896352, 48.980536], [-53.887929, 48.970893], [-53.810943, 48.931301], [-53.862131, 48.910834], [-53.92394, 48.91767], [-53.961049, 48.897121], [-53.978505, 48.896552], [-53.963857, 48.885932], [-53.882924, 48.896552], [-53.882924, 48.890326], [-53.958079, 48.869086], [-53.978505, 48.856187], [-53.964915, 48.841946], [-53.978586, 48.83633], [-54.042144, 48.833441], [-54.078114, 48.821438], [-54.13679, 48.821438], [-54.184641, 48.800971], [-54.18102, 48.783922], [-54.197621, 48.774237], [-54.197621, 48.767401], [-54.162587, 48.771226], [-54.020863, 48.815375], [-53.990956, 48.806138], [-53.990102, 48.795803], [-54.013295, 48.774237], [-53.990631, 48.768378], [-53.962026, 48.781684], [-53.978505, 48.787909], [-53.943023, 48.824286], [-53.895131, 48.841742], [-53.844472, 48.839057], [-53.800404, 48.814602], [-53.85733, 48.797919], [-53.917714, 48.800971], [-53.903066, 48.791002], [-53.900258, 48.767076], [-53.88976, 48.759955], [-53.856842, 48.779853], [-53.841379, 48.774237], [-53.877919, 48.747952], [-53.92394, 48.739488], [-53.994496, 48.753079], [-54.020131, 48.746324], [-54.020131, 48.739488], [-53.94518, 48.728664], [-53.944407, 48.712144], [-53.933258, 48.703518], [-53.951243, 48.6706], [-53.941518, 48.660834], [-53.895985, 48.650092], [-53.895985, 48.643256], [-53.931386, 48.629625], [-53.893544, 48.632025], [-53.793568, 48.678046], [-53.793568, 48.684882], [-53.916656, 48.672756], [-53.920766, 48.687974], [-53.835194, 48.750393], [-53.85497, 48.704739], [-53.750234, 48.712144], [-53.745107, 48.698554], [-53.704213, 48.691107], [-53.728993, 48.674302], [-53.733062, 48.664984], [-53.726186, 48.65998], [-53.704213, 48.660956], [-53.631215, 48.698798], [-53.606801, 48.696275], [-53.604115, 48.676703], [-53.659576, 48.647121], [-53.716176, 48.641832], [-53.784901, 48.622952], [-53.828277, 48.595445], [-53.903432, 48.58869], [-53.921498, 48.581488], [-53.958648, 48.547065], [-53.943471, 48.542385], [-53.903432, 48.568183], [-53.711008, 48.560736], [-53.774485, 48.550767], [-53.793568, 48.540229], [-53.766835, 48.540229], [-53.744008, 48.522895], [-53.748891, 48.519761], [-53.787668, 48.502427], [-53.895741, 48.484442], [-54.009877, 48.428941], [-54.043691, 48.42414], [-54.092112, 48.429877], [-54.164133, 48.390692], [-54.142486, 48.377916], [-54.13679, 48.355292], [-54.088043, 48.40119], [-54.067942, 48.409898], [-53.978505, 48.409898], [-53.89977, 48.458482], [-53.855377, 48.475246], [-53.814036, 48.465155], [-53.876698, 48.409898], [-53.881459, 48.388373], [-53.873036, 48.373481], [-53.856028, 48.368394], [-53.835113, 48.37641], [-53.852528, 48.383612], [-53.84557, 48.394965], [-53.814036, 48.417385], [-53.800893, 48.441107], [-53.779042, 48.447455], [-53.769928, 48.475735], [-53.700307, 48.528388], [-53.65685, 48.546576], [-53.622874, 48.540229], [-53.663197, 48.513577], [-53.636464, 48.513495], [-53.615387, 48.499335], [-53.700266, 48.455471], [-53.72525, 48.431586], [-53.718414, 48.42414], [-53.675404, 48.444159], [-53.632802, 48.451483], [-53.588124, 48.526597], [-53.581899, 48.526597], [-53.578114, 48.502631], [-53.588124, 48.478827], [-53.547109, 48.492418], [-53.615387, 48.409898], [-53.540924, 48.465155], [-53.530181, 48.457343], [-53.521474, 48.462226], [-53.498687, 48.513577], [-53.475006, 48.510972], [-53.457753, 48.543647], [-53.464223, 48.586819], [-53.444651, 48.598131], [-53.437245, 48.615912], [-53.414174, 48.623765], [-53.342193, 48.612738], [-53.301666, 48.579413], [-53.317616, 48.552314], [-53.309682, 48.548774], [-53.280263, 48.560736], [-53.268137, 48.531236], [-53.24352, 48.526353], [-53.231842, 48.554511], [-53.162953, 48.601711], [-53.1704, 48.609117], [-53.152333, 48.631171], [-53.098053, 48.646674], [-53.084543, 48.699856], [-53.076812, 48.703559], [-53.065094, 48.680854], [-53.033193, 48.6706], [-53.012766, 48.629625], [-52.9829, 48.604193], [-52.981272, 48.591051], [-53.005849, 48.575019], [-52.984771, 48.554511], [-53.02774, 48.535834], [-53.047475, 48.492418], [-53.047475, 48.461737], [-53.058461, 48.435858], [-53.084706, 48.417955], [-53.143056, 48.396877], [-53.187408, 48.355292], [-53.239329, 48.360175], [-53.269765, 48.38227], [-53.314361, 48.383205], [-53.331899, 48.375556], [-53.338206, 48.386176], [-53.354888, 48.386664], [-53.362172, 48.383205], [-53.35554, 48.3605], [-53.386545, 48.306057], [-53.369008, 48.29385], [-53.388417, 48.286119], [-53.445709, 48.285712], [-53.468088, 48.256537], [-53.540924, 48.239814], [-53.639475, 48.169338], [-53.68932, 48.170111], [-53.776479, 48.197089], [-53.845082, 48.190823], [-53.876698, 48.225531], [-53.925282, 48.237006], [-53.939361, 48.225531], [-53.941274, 48.176703], [-53.905181, 48.08511], [-53.804067, 48.074774], [-53.68399, 48.08039], [-53.663197, 48.061103], [-53.787343, 48.026313], [-53.85497, 48.026313], [-53.907623, 48.038398], [-53.92394, 48.033759], [-53.908355, 48.021064], [-53.77595, 47.999416], [-53.741119, 48.016791], [-53.684316, 48.020087], [-53.608551, 48.054267], [-53.622874, 48.033759], [-53.621571, 48.00495], [-53.697336, 47.896633], [-53.787343, 47.903469], [-53.787343, 47.896633], [-53.72525, 47.889797], [-53.741282, 47.817857], [-53.763173, 47.807196], [-53.791615, 47.774604], [-53.822133, 47.790188], [-53.844716, 47.824652], [-53.867502, 47.843451], [-53.917714, 47.862454], [-53.928944, 47.852444], [-53.877309, 47.828111], [-53.876698, 47.807196], [-53.858266, 47.801581], [-53.854156, 47.767524], [-53.833485, 47.751776], [-53.828928, 47.735745], [-53.834869, 47.721259], [-53.85497, 47.718451], [-53.793813, 47.664049], [-53.763173, 47.625678], [-53.737904, 47.619696], [-53.705719, 47.676093], [-53.684316, 47.691148], [-53.666168, 47.684027], [-53.668446, 47.669623], [-53.711741, 47.609931], [-53.703847, 47.58869], [-53.680735, 47.5987], [-53.670033, 47.595526], [-53.66039, 47.569973], [-53.652333, 47.57685], [-53.650217, 47.560777], [-53.670033, 47.526679], [-53.622874, 47.560777], [-53.605133, 47.539374], [-53.581899, 47.546536], [-53.553863, 47.539252], [-53.547109, 47.560777], [-53.550852, 47.588202], [-53.533518, 47.595526], [-53.560658, 47.623847], [-53.543202, 47.62873], [-53.51301, 47.616034], [-53.517445, 47.632717], [-53.508534, 47.654975], [-53.519195, 47.67064], [-53.502919, 47.673041], [-53.480336, 47.692572], [-53.497426, 47.716213], [-53.498687, 47.746405], [-53.467844, 47.77147], [-53.459543, 47.805487], [-53.441762, 47.820787], [-53.444081, 47.828315], [-53.420155, 47.861151], [-53.394154, 47.875556], [-53.355336, 47.869289], [-53.365102, 47.88703], [-53.36262, 47.899807], [-53.328765, 47.940985], [-53.303538, 47.988715], [-53.276479, 48.016425], [-53.239247, 48.020087], [-53.213857, 48.038275], [-53.184316, 48.042548], [-53.1704, 48.061103], [-53.148061, 48.064276], [-53.098053, 48.040595], [-53.061025, 48.051907], [-53.02953, 48.07099], [-52.952626, 48.153022], [-52.923329, 48.170966], [-52.900461, 48.161282], [-52.865834, 48.123969], [-52.834788, 48.112494], [-52.836741, 48.105455], [-52.858225, 48.095201], [-52.914418, 48.089586], [-52.954091, 48.045803], [-52.959706, 48.017483], [-52.979604, 47.987128], [-53.053578, 47.932563], [-53.070668, 47.853705], [-53.142323, 47.790961], [-53.161977, 47.756415], [-53.207387, 47.735907], [-53.193349, 47.724351], [-53.162953, 47.718451], [-53.18399, 47.691148], [-53.166615, 47.69717], [-53.156117, 47.683743], [-53.171783, 47.67475], [-53.194692, 47.643378], [-53.25182, 47.625393], [-53.262074, 47.614203], [-53.252309, 47.601752], [-53.204498, 47.616034], [-53.252309, 47.581244], [-53.21052, 47.589301], [-53.1704, 47.609198], [-53.207346, 47.577623], [-53.259755, 47.558539], [-53.228424, 47.546536], [-53.18399, 47.560777], [-53.18399, 47.512397], [-53.204498, 47.471381], [-53.162668, 47.500556], [-53.149281, 47.499416], [-53.149281, 47.478217], [-53.195221, 47.437079], [-53.187408, 47.430487], [-53.144195, 47.443671], [-53.121938, 47.437242], [-53.129384, 47.416815], [-53.078114, 47.470038], [-53.037953, 47.484442], [-52.911733, 47.556301], [-52.876373, 47.588284], [-52.848948, 47.629625], [-52.818471, 47.743638], [-52.798411, 47.788153], [-52.772532, 47.801011], [-52.752065, 47.773098], [-52.704213, 47.756008], [-52.697418, 47.714748], [-52.717926, 47.67064], [-52.708811, 47.661811], [-52.657541, 47.66059], [-52.656646, 47.603176], [-52.690582, 47.553941], [-52.67691, 47.560777], [-52.659901, 47.536811], [-52.616607, 47.522691]]], [[[-59.707184, 44.014416], [-59.757119, 43.966064], [-59.808162, 43.940226], [-59.90778, 43.916175], [-60.0, 43.91417733487718], [-60.0, 43.93799967324403], [-59.997814, 43.937868], [-59.87155, 43.942078], [-59.793511, 43.964571], [-59.707184, 44.014416]]], [[[-59.991363, 46.206936], [-59.944163, 46.196234], [-59.947662, 46.162421], [-59.933827, 46.158515], [-59.882192, 46.176663], [-59.810536, 46.169867], [-59.863352, 46.13642], [-59.882436, 46.111274], [-59.88561, 46.080471], [-59.851064, 46.104438], [-59.810536, 46.11522], [-59.810536, 46.107815], [-59.871938, 46.073635], [-59.90925, 46.041978], [-59.954213, 46.035793], [-59.957916, 46.027493], [-59.937123, 46.001654], [-59.920725, 45.994574], [-59.832102, 46.003119], [-59.824127, 45.997952], [-59.830312, 45.999335], [-59.830393, 45.978013], [-59.80309, 45.956936], [-59.805287, 45.935533], [-59.86205, 45.935696], [-59.93928, 45.904364], [-59.96817, 45.909735], [-59.988637, 45.888658], [-59.975657, 45.875067], [-60.0, 45.87416592449833], [-60.0, 46.20727440689731], [-59.991363, 46.206936]]], [[[-59.725901, 46.000434], [-59.780995, 46.004381], [-59.778147, 46.012437], [-59.69518, 46.034003], [-59.688629, 46.03026], [-59.70287, 46.022895], [-59.708079, 45.994696], [-59.725901, 46.000434]]], [[[-54.778136, 47.273564], [-54.812399, 47.231781], [-54.828253, 47.243141], [-54.830051, 47.267133], [-54.794227, 47.279388], [-54.778136, 47.273564]]], [[[-54.178042, 47.418193], [-54.158678, 47.41467], [-54.144589, 47.400445], [-54.153354, 47.368356], [-54.209626, 47.359903], [-54.220197, 47.368193], [-54.216702, 47.381274], [-54.195604, 47.393208], [-54.178042, 47.418193]]], [[[-52.91876, 47.652643], [-52.916443, 47.634456], [-52.976502, 47.596866], [-53.030336, 47.599156], [-53.019184, 47.61904], [-52.956475, 47.654806], [-52.91876, 47.652643]]]]}}, {"type": "Feature", "properties": {"name": "St. Pierre and Miquelon"}, "geometry": {"type": "MultiPolygon", "coordinates": [[[[-56.165191, 46.772528], [-56.144765, 46.765692], [-56.16808, 46.75727], [-56.221913, 46.754625], [-56.240305, 46.765692], [-56.191884, 46.806627], [-56.147532, 46.807847], [-56.165191, 46.772528]]], [[[-56.235504, 46.872016], [-56.249257, 46.842271], [-56.346262, 46.783596], [-56.370676, 46.7862], [-56.377919, 46.799018], [-56.375111, 46.813951], [-56.396352, 46.836371], [-56.342763, 46.875556], [-56.328277, 46.914944], [-56.336781, 46.95425], [-56.388173, 47.051825], [-56.395904, 47.113593], [-56.366282, 47.140204], [-56.342763, 47.135647], [-56.371693, 47.116156], [-56.371165, 47.105902], [-56.357004, 47.094672], [-56.304799, 47.083157], [-56.253326, 47.053697], [-56.256012, 47.018012], [-56.280344, 46.989691], [-56.297597, 46.987535], [-56.305165, 46.999091], [-56.350209, 46.994615], [-56.345774, 46.979926], [-56.308583, 46.971747], [-56.316029, 46.953803], [-56.311757, 46.900133], [-56.273793, 46.895453], [-56.235504, 46.872016]]]]}}]}