{"type": "FeatureCollection", "features": [{"type": "Feature", "properties": {"name": "Kostanay Region", "country": "KAZ"}, "geometry": {"type": "Polygon", "coordinates": [[[66.075413, 54.6404927], [65.998643, 54.625148], [65.9641858, 54.6378169], [65.981779, 54.7170406], [65.8452855, 54.6972432], [65.830768, 54.6531561], [65.799704, 54.624024], [65.782249, 54.624896], [65.779679, 54.612344], [65.74729, 54.607419], [65.633091, 54.640779], [65.553747, 54.636156], [65.530516, 54.649518], [65.489554, 54.655537], [65.464836, 54.642265], [65.456451, 54.624375], [65.494825, 54.596653], [65.495718, 54.578441], [65.50383, 54.570918], [65.481093, 54.565744], [65.464698, 54.566447], [65.425883, 54.581218], [65.379398, 54.573395], [65.357903, 54.577404], [65.328632, 54.570013], [65.306026, 54.568396], [65.263608, 54.54662], [65.238008, 54.549397], [65.2144536, 54.541393], [65.212465, 54.531772], [65.223337, 54.49007], [65.214483, 54.47715], [65.218309, 54.470354], [65.201278, 54.465849], [65.200908, 54.452181], [65.222007, 54.436988], [65.239194, 54.37575], [65.262715, 54.362419], [65.221956, 54.334286], [65.190936, 54.342863], [65.121107, 54.330386], [65.104243, 54.334534], [65.070199, 54.365518], [64.982881, 54.414965], [64.974791, 54.424178], [64.956087, 54.417224], [64.930787, 54.412756], [64.906689, 54.400694], [64.84468, 54.38422], [64.802019, 54.368287], [64.738648, 54.35392], [64.697139, 54.36464], [64.658518, 54.360553], [64.63507, 54.373669], [64.629117, 54.392533], [64.6241486, 54.3922269], [64.616461, 54.3984635], [64.6166613, 54.3941699], [64.604533, 54.3909009], [64.6044447, 54.3882716], [64.6112672, 54.3861796], [64.5996081, 54.3858926], [64.6011831, 54.3842382], [64.5966454, 54.3831669], [64.5992948, 54.3819939], [64.5906817, 54.3808967], [64.5991771, 54.3741484], [64.591404, 54.372981], [64.587333, 54.3757377], [64.5853903, 54.3699355], [64.5816505, 54.3754412], [64.5766234, 54.3741373], [64.5774715, 54.3720685], [64.564246, 54.3677298], [64.5657832, 54.3653519], [64.5689637, 54.3669887], [64.5680626, 54.3621708], [64.547135, 54.3607531], [64.5510152, 54.3638664], [64.5454387, 54.3648917], [64.5350536, 54.3605373], [64.5402174, 54.3579755], [64.5303778, 54.3589408], [64.5255408, 54.3570103], [64.5315374, 54.3553885], [64.5229236, 54.3543846], [64.5069549, 54.3574543], [64.5006933, 54.3637668], [64.4795127, 54.3663625], [64.4798929, 54.3620372], [64.4622084, 54.3591527], [64.4598852, 54.3527695], [64.4669432, 54.3534074], [64.4640278, 54.3503953], [64.464908, 54.3431728], [64.4572053, 54.3427142], [64.4517548, 54.3366548], [64.4569243, 54.3327102], [64.4425631, 54.3326968], [64.4194106, 54.3264645], [64.3558959, 54.3367742], [64.3324543, 54.3329388], [64.3307656, 54.330207], [64.3089971, 54.3322048], [64.2934883, 54.3291942], [64.2874867, 54.3310193], [64.2869985, 54.3274694], [64.2763152, 54.3294502], [64.2349368, 54.31727], [64.2275591, 54.319495], [64.2319515, 54.3204919], [64.2287169, 54.3212422], [64.2306868, 54.3238522], [64.2241591, 54.3239433], [64.2255191, 54.3217782], [64.2145076, 54.3237322], [64.2096899, 54.3219102], [64.2116195, 54.3175715], [64.2031511, 54.313995], [64.1983157, 54.3122023], [64.1934225, 54.3148959], [64.1900685, 54.313328], [64.1921131, 54.309991], [64.1710683, 54.3070535], [64.0985207, 54.3108411], [64.097673, 54.3145991], [64.0711171, 54.3178885], [64.0786627, 54.3129478], [64.0663031, 54.3097432], [64.0700797, 54.3081408], [64.0716246, 54.3028324], [64.0680197, 54.2986253], [64.0427855, 54.284398], [64.0288809, 54.2833959], [64.0118865, 54.2915123], [64.0202979, 54.2988256], [64.025791, 54.299627], [64.0177229, 54.3015302], [64.0232161, 54.3065383], [63.9988402, 54.3003282], [63.9868239, 54.3012297], [63.9815581, 54.2989835], [63.9854127, 54.2907495], [63.9761809, 54.291913], [63.9782408, 54.2786857], [64.0118865, 54.2482065], [64.021267, 54.2303322], [64.0174813, 54.2224248], [64.0062216, 54.2156973], [64.004505, 54.2113809], [63.9749793, 54.2023451], [63.961418, 54.2003369], [63.9598731, 54.2059597], [63.9571265, 54.2009393], [63.95129, 54.2020439], [63.950775, 54.2052568], [63.9420203, 54.2059597], [63.9337768, 54.1995363], [63.9277556, 54.2000176], [63.9310467, 54.2046114], [63.9122324, 54.1983883], [63.897723, 54.216433], [63.8741894, 54.2277189], [63.814722, 54.266136], [63.7940409, 54.2718611], [63.7938939, 54.2689419], [63.7834919, 54.2662373], [63.7583091, 54.2670315], [63.7527309, 54.2609922], [63.7401339, 54.2599156], [63.7323048, 54.2630501], [63.7265708, 54.2596151], [63.7302832, 54.2573821], [63.7143677, 54.2521858], [63.7047376, 54.2543546], [63.702142, 54.2499765], [63.6530345, 54.2408605], [63.6449928, 54.2426125], [63.6470383, 54.2397088], [63.6435731, 54.2370506], [63.6232075, 54.2281799], [63.6119913, 54.2290723], [63.5790229, 54.2177007], [63.5545579, 54.2161017], [63.5385028, 54.2094299], [63.5265937, 54.2160673], [63.51603, 54.2060009], [63.5094809, 54.206111], [63.5081565, 54.211407], [63.50057, 54.2152415], [63.4927961, 54.2157058], [63.4908766, 54.2082883], [63.4864917, 54.2105335], [63.4856637, 54.2075839], [63.4892292, 54.2061581], [63.4568291, 54.1960711], [63.4445311, 54.1990483], [63.4249604, 54.1963337], [63.4246161, 54.1941236], [63.4141122, 54.1958135], [63.411274, 54.1946905], [63.4154496, 54.1933701], [63.3982242, 54.1881359], [63.3802439, 54.1910498], [63.3801313, 54.1946566], [63.3712795, 54.1885884], [63.3545947, 54.1887823], [63.350031, 54.1912811], [63.3523437, 54.1938068], [63.3405195, 54.1950556], [63.3422617, 54.198032], [63.3394403, 54.1965078], [63.337143, 54.2007828], [63.3279271, 54.202077], [63.3141644, 54.1986198], [63.3133411, 54.1953996], [63.2800827, 54.1948909], [63.27933, 54.1977005], [63.2705009, 54.1925418], [63.2648625, 54.1944063], [63.2624032, 54.19067], [63.2493954, 54.1917182], [63.2463542, 54.1966947], [63.2318848, 54.1943078], [63.2339213, 54.1958959], [63.2313054, 54.198373], [63.2258855, 54.194839], [63.2243047, 54.1976244], [63.2198822, 54.1939472], [63.2252953, 54.1910448], [63.2209594, 54.1913972], [63.2231123, 54.1891333], [63.2058433, 54.1858027], [63.2004916, 54.1862501], [63.2005492, 54.1888536], [63.1976699, 54.1859355], [63.1863972, 54.1861007], [63.1815474, 54.192087], [63.1705991, 54.1936302], [63.1593618, 54.1906424], [63.1508457, 54.1821014], [63.1569302, 54.1768368], [63.1503181, 54.163048], [63.1578458, 54.1626486], [63.1597513, 54.1579242], [63.1637504, 54.1582548], [63.1649266, 54.1536814], [63.1690668, 54.1530064], [63.1622448, 54.1506919], [63.164362, 54.1472889], [63.1560815, 54.143045], [63.1604602, 54.1393068], [63.154011, 54.1407574], [63.15878, 54.1321856], [63.1556043, 54.1266168], [63.1491352, 54.1221777], [63.1333976, 54.1236254], [63.1329741, 54.1213229], [63.1268377, 54.1212692], [63.1266307, 54.1184125], [63.1226692, 54.1217214], [63.1221047, 54.117599], [63.1161531, 54.1195155], [63.1101309, 54.1155583], [63.1020151, 54.1161237], [63.0993334, 54.1115181], [63.0936406, 54.1121662], [63.0887961, 54.1098305], [63.0930598, 54.108042], [63.0812978, 54.104357], [63.0499149, 54.1007593], [63.0121034, 54.1087277], [63.0092805, 54.1081347], [63.0111154, 54.1053763], [63.0035407, 54.1087966], [62.9875448, 54.105213], [62.9780722, 54.1114964], [62.9624615, 54.1073897], [62.9517037, 54.1103174], [62.9526254, 54.1131832], [62.9425426, 54.1126788], [62.9374896, 54.1163074], [62.9321763, 54.1169651], [62.9291401, 54.1129705], [62.9247178, 54.1138991], [62.9263184, 54.1160269], [62.9203781, 54.1147212], [62.9231502, 54.1188414], [62.9048011, 54.1153692], [62.9057747, 54.1176808], [62.9026065, 54.1177195], [62.8980192, 54.1160269], [62.9016659, 54.1158625], [62.8995538, 54.1125255], [62.8919634, 54.1173597], [62.8769393, 54.1187331], [62.8731258, 54.1135893], [62.8590206, 54.1177098], [62.8546558, 54.1147743], [62.823478, 54.1153375], [62.8140017, 54.1112135], [62.8060618, 54.1118074], [62.8077893, 54.1083597], [62.7962798, 54.1028019], [62.7983014, 54.1004355], [62.7652795, 54.0924343], [62.7519239, 54.0949131], [62.7415968, 54.0911605], [62.7389386, 54.0940301], [62.7252946, 54.0905258], [62.7286586, 54.0934093], [62.7216249, 54.0942647], [62.7186609, 54.091671], [62.7080842, 54.0962357], [62.6755552, 54.090622], [62.6620759, 54.0923742], [62.6630404, 54.0889526], [62.6570435, 54.0851615], [62.6453791, 54.0808406], [62.6403808, 54.0838346], [62.6310971, 54.0768861], [62.6244145, 54.0781693], [62.6151928, 54.0721623], [62.5947674, 54.0738762], [62.5967246, 54.0718179], [62.5926145, 54.0704486], [62.5933576, 54.0657239], [62.5872361, 54.0640929], [62.5916359, 54.0620972], [62.5734858, 54.0576102], [62.568692, 54.0466654], [62.5770982, 54.0380609], [62.580955, 54.005843], [62.588362, 54.003664], [62.595045, 53.995508], [62.594407, 53.98974], [62.5982791, 53.988786], [62.5873921, 53.9867533], [62.58457, 53.9718839], [62.5783772, 53.9701885], [62.5841948, 53.9636683], [62.578373, 53.96345], [62.5779492, 53.9574502], [62.570482, 53.9561877], [62.5626214, 53.9486824], [62.560074, 53.9381564], [62.5261847, 53.923704], [62.5238802, 53.9182931], [62.5166073, 53.9135313], [62.5105842, 53.913221], [62.474798, 53.93145], [62.463959, 53.926894], [62.445827, 53.927128], [62.394684, 54.003391], [62.456713, 54.013784], [62.493913, 54.032485], [62.419255, 54.047207], [62.3893972, 54.0477956], [62.3717158, 54.0401689], [62.3684337, 54.0416965], [62.3648173, 54.0380901], [62.3528656, 54.0372272], [62.3516656, 54.0399744], [62.3452255, 54.0376559], [62.3492084, 54.0344764], [62.339218, 54.032274], [62.2958764, 54.0328321], [62.2811316, 54.0369511], [62.275415, 54.0337515], [62.260144, 54.0338776], [62.2553937, 54.0372191], [62.2281005, 54.0337459], [62.2254654, 54.036169], [62.2274417, 54.0391214], [62.2174216, 54.0393454], [62.211146, 54.0377369], [62.2057719, 54.0312005], [62.204593, 54.0336848], [62.190153, 54.030614], [62.1888563, 54.0336074], [62.1754592, 54.0285733], [62.1682475, 54.0317339], [62.1662504, 54.033754], [62.1689687, 54.0358228], [62.165446, 54.0373866], [62.154168, 54.0331603], [62.1434198, 54.0373956], [62.1302011, 54.0377034], [62.131948, 54.0414647], [62.1104749, 54.0427009], [62.108219, 54.0460191], [62.0898132, 54.043127], [62.087369, 54.0455624], [62.0891096, 54.0477368], [62.0751108, 54.0509981], [62.0692636, 54.0401014], [62.0615606, 54.0407104], [62.0602274, 54.0380789], [62.0528947, 54.0376657], [62.0502653, 54.0408626], [62.040118, 54.0381659], [62.0381182, 54.0344251], [62.0132898, 54.0398533], [62.006056, 54.037808], [62.015746, 54.008794], [62.044192, 53.948493], [61.931958, 53.950236], [61.926775, 53.955013], [61.8574503, 53.9620567], [61.8616988, 53.9693306], [61.870168, 53.9725761], [61.8762035, 53.9799332], [61.8736866, 53.9832672], [61.8929699, 54.0090828], [61.8895384, 54.0126688], [61.8718061, 54.0163811], [61.8642905, 54.0160469], [61.8581499, 54.0088154], [61.8502603, 54.008441], [61.8443082, 54.0133317], [61.8475795, 54.0217315], [61.8527234, 54.0250517], [61.8524529, 54.0291374], [61.8459145, 54.0317174], [61.818658, 54.019153], [61.7822031, 53.9845625], [61.746092, 54.000387], [61.741014, 54.016135], [61.72578, 54.029901], [61.7006455, 54.0188582], [61.6672257, 54.0170676], [61.6667528, 54.0270076], [61.6601845, 54.0298164], [61.6401807, 54.0157622], [61.6378847, 54.0102396], [61.6320697, 54.0076294], [61.6302102, 54.0000155], [61.6138549, 53.9904694], [61.6171472, 53.9821156], [61.611794, 53.968468], [61.571867, 53.968503], [61.569781, 54.007875], [61.5412652, 54.0079831], [61.550961, 54.012144], [61.479997, 54.029973], [61.483358, 54.050542], [61.473557, 54.070265], [61.480712, 54.075222], [61.4805654, 54.0827653], [61.4188761, 54.0823939], [61.400587, 54.0868636], [61.3793082, 54.0846949], [61.3669579, 54.0809892], [61.3606234, 54.0747179], [61.3532962, 54.0758432], [61.3489959, 54.0729878], [61.333357, 54.0791726], [61.3178721, 54.0771092], [61.306114, 54.0711065], [61.293575, 54.073881], [61.26595, 54.041204], [61.245586, 54.037656], [61.2424661, 54.0284814], [61.2599521, 54.0145334], [61.262417, 54.0108909], [61.258078, 54.00934], [61.27289, 53.991389], [61.264148, 53.968745], [61.279929, 53.928864], [61.206505, 53.918143], [61.171849, 53.94252], [61.1805948, 53.9722296], [61.099964, 53.974558], [61.099685, 53.970592], [61.080065, 53.970516], [61.0876261, 53.9637736], [61.088259, 53.956206], [61.079879, 53.944631], [61.064565, 53.944933], [61.055646, 53.958689], [61.036984, 53.958573], [60.997263, 53.936025], [60.9953754, 53.9066161], [61.036519, 53.908496], [61.057469, 53.894133], [61.135364, 53.904236], [61.179691, 53.85239], [61.207586, 53.847051], [61.210435, 53.838299], [61.236729, 53.841731], [61.227187, 53.79567], [61.196177, 53.77986], [61.169578, 53.772482], [61.115178, 53.721553], [61.05841, 53.721431], [61.04228, 53.652973], [60.998452, 53.650746], [60.995302, 53.672938], [60.8963394, 53.6676112], [60.900425, 53.627799], [61.090162, 53.61503], [61.12091, 53.615491], [61.126742, 53.589669], [61.16278, 53.577608], [61.162143, 53.574761], [61.1882527, 53.5723376], [61.2155517, 53.5636444], [61.2273077, 53.5644528], [61.2293495, 53.5676498], [61.2418171, 53.5640486], [61.2642776, 53.5639096], [61.2721665, 53.567125], [61.3068819, 53.5598862], [61.3179757, 53.561842], [61.3307712, 53.5585196], [61.3495092, 53.5587142], [61.3576544, 53.5614072], [61.390904, 53.601883], [61.507042, 53.595817], [61.510439, 53.589889], [61.552763, 53.592662], [61.564171, 53.538752], [61.580941, 53.540504], [61.592324, 53.525999], [61.558509, 53.507356], [61.568309, 53.504459], [61.566022, 53.49725], [61.55546, 53.497856], [61.556113, 53.502235], [61.5487, 53.5071], [61.531282, 53.504818], [61.515739, 53.492688], [61.517503, 53.473471], [61.489895, 53.47585], [61.464796, 53.461646], [61.454254, 53.468346], [61.426341, 53.46239], [61.427517, 53.455752], [61.366321, 53.467363], [61.367455, 53.48021], [61.357697, 53.493278], [61.313847, 53.506999], [61.323913, 53.5193674], [61.2988519, 53.5118912], [61.2929619, 53.5151071], [61.271013, 53.508282], [61.2586516, 53.5080373], [61.241934, 53.491914], [61.229117, 53.48413], [61.220976, 53.45522], [61.221847, 53.443194], [61.2157, 53.4314], [61.203215, 53.428994], [61.203843, 53.424877], [61.154711, 53.405554], [61.169066, 53.356881], [61.177053, 53.310963], [61.225143, 53.282833], [61.34094, 53.284915], [61.400363, 53.273691], [61.456472, 53.238647], [61.526708, 53.215251], [61.630162, 53.223282], [61.638342, 53.250086], [61.663598, 53.265264], [61.673097, 53.265905], [61.701827, 53.249818], [61.731507, 53.239049], [61.749954, 53.206602], [61.783362, 53.184299], [61.915054, 53.141813], [62.025112, 53.14246], [62.118862, 53.111967], [62.147035, 53.0683], [62.130271, 52.989365], [62.030006, 52.950947], [61.960691, 52.950035], [61.8497241, 53.0039684], [61.8412595, 52.9951724], [61.8341783, 52.992863], [61.8179649, 52.9938111], [61.8115962, 52.9981118], [61.7559363, 52.9962237], [61.7351386, 52.9914811], [61.7165561, 52.9914448], [61.701773, 52.998212], [61.673195, 52.968535], [61.657601, 52.967221], [61.63213, 52.953933], [61.557147, 53.0121159], [61.5239317, 53.0151487], [61.4932043, 53.0304302], [61.4696867, 53.036211], [61.389092, 52.991961], [61.30592, 52.996219], [61.250433, 53.035909], [61.2314207, 53.0250617], [61.2132246, 53.0245454], [61.20035, 53.0196924], [61.1921103, 53.0110176], [61.1656744, 53.0008948], [61.1437017, 52.9987253], [61.1207732, 52.9866642], [61.1122531, 52.9692051], [61.0921867, 52.967098], [61.0815458, 52.9746918], [61.0492948, 52.9808167], [61.0267942, 52.9772322], [61.007962, 52.978279], [61.029102, 52.950881], [61.076665, 52.92817], [61.0733206, 52.923242], [61.0468847, 52.9170321], [61.0372717, 52.9037812], [60.9842283, 52.8852438], [60.973757, 52.8676312], [60.9658606, 52.8664913], [60.9601957, 52.8578893], [60.9409697, 52.847938], [60.9255201, 52.8460718], [60.9023458, 52.8344585], [60.8908758, 52.8340836], [60.887919, 52.830686], [60.87222, 52.832784], [60.885258, 52.821674], [60.834147, 52.774146], [60.823079, 52.775306], [60.733815, 52.761], [60.712215, 52.764534], [60.714894, 52.662614], [60.744358, 52.651466], [60.744251, 52.631788], [60.7614617, 52.6266924], [60.77884, 52.6304123], [60.7992406, 52.6286798], [60.8170958, 52.631199], [60.843412, 52.6411053], [60.84144, 52.521735], [60.98097, 52.507692], [60.991177, 52.423632], [61.067349, 52.347597], [61.0344886, 52.3307546], [61.0106547, 52.32607], [61.0055941, 52.3145911], [60.9884733, 52.3062126], [60.9789521, 52.2883242], [60.944255, 52.2663666], [60.9277755, 52.2639503], [60.8967048, 52.2514463], [60.8745605, 52.2482934], [60.8498413, 52.2392541], [60.836795, 52.2301077], [60.7981712, 52.227374], [60.7804883, 52.2290635], [60.7700457, 52.2056464], [60.7425125, 52.1794787], [60.7273522, 52.1704215], [60.7243208, 52.1622553], [60.716655, 52.156056], [60.510395, 52.156918], [60.411924, 52.101862], [60.340247, 52.054854], [60.261571, 52.016318], [60.198105, 51.990784], [60.001687, 51.993295], [60.003386, 51.971174], [59.993452, 51.964978], [60.009622, 51.940114], [60.030312, 51.935845], [60.032716, 51.913518], [60.074519, 51.888273], [60.059702, 51.869999], [60.144215, 51.870322], [60.143237, 51.859158], [60.156951, 51.857665], [60.159401, 51.872768], [60.15559, 51.873105], [60.16176, 51.892194], [60.148375, 51.893833], [60.144722, 51.906717], [60.320541, 51.831509], [60.428865, 51.79832], [60.518456, 51.797917], [60.518878, 51.7733024], [60.4976237, 51.7718742], [60.4807176, 51.766472], [60.475454, 51.7685017], [60.4770386, 51.7631709], [60.4662997, 51.7594396], [60.4566057, 51.7486717], [60.451606, 51.7384588], [60.4537763, 51.7347852], [60.4318323, 51.7223684], [60.430301, 51.7183386], [60.41816, 51.7149302], [60.4165475, 51.7117762], [60.4060822, 51.7109142], [60.3998219, 51.7062121], [60.3950477, 51.707662], [60.3750655, 51.6954151], [60.3532495, 51.6890061], [60.3618574, 51.6771427], [60.3859164, 51.6719091], [60.3970836, 51.6638113], [60.3985041, 51.6580975], [60.4112028, 51.6534234], [60.41554, 51.6470009], [60.526161, 51.638128], [60.538034, 51.618012], [60.9356265, 51.6152641], [60.9300813, 51.6063076], [60.9354424, 51.6042147], [60.9346766, 51.6016459], [60.9240053, 51.592892], [60.9202269, 51.587531], [60.9213502, 51.5818521], [60.9154784, 51.5783302], [60.9091982, 51.5677311], [60.9106078, 51.5532476], [60.917112, 51.547202], [60.9170266, 51.5416407], [60.931697, 51.5302445], [60.9324407, 51.5262068], [60.9434643, 51.5216547], [60.9470974, 51.5146641], [60.9455199, 51.5088328], [60.9527383, 51.5033877], [60.9516388, 51.4983585], [60.9545549, 51.4945193], [60.9516866, 51.4909477], [60.9635899, 51.4923466], [60.9631597, 51.4891022], [60.9673187, 51.4873162], [60.9731986, 51.4916025], [60.9909341, 51.4879711], [60.994376, 51.4843096], [60.9925594, 51.4784149], [60.9982439, 51.4736335], [60.9991904, 51.4675272], [61.0087904, 51.4683695], [61.0201457, 51.461572], [61.0231152, 51.4621833], [61.0219315, 51.4662679], [61.0374483, 51.4634822], [61.0625467, 51.4663093], [61.0697862, 51.4636895], [61.0873885, 51.4680554], [61.0996976, 51.4611102], [61.1009492, 51.4542325], [61.1075644, 51.4477702], [61.1108233, 51.4526782], [61.1312906, 51.458118], [61.1336899, 51.4571285], [61.1319959, 51.454137], [61.1390194, 51.4523459], [61.1456827, 51.4560991], [61.149475, 51.450859], [61.1552796, 51.4568017], [61.1799347, 51.4543359], [61.2029797, 51.4610683], [61.2171986, 51.44915], [61.2353239, 51.4514111], [61.2510365, 51.4447982], [61.2527241, 51.4406873], [61.2616473, 51.4436858], [61.2776993, 51.4373379], [61.3026837, 51.4383582], [61.3190613, 51.4437617], [61.3418034, 51.438495], [61.3508104, 51.4397623], [61.3667842, 51.4266787], [61.3883879, 51.4276964], [61.3908843, 51.4198276], [61.4048341, 51.4166797], [61.4193462, 51.4195624], [61.4216981, 51.4230669], [61.4309504, 51.4209652], [61.4316542, 51.4177209], [61.4478472, 51.4095469], [61.4676641, 51.4072265], [61.4757086, 51.4109193], [61.500527, 51.409259], [61.505234, 51.406996], [61.549005, 51.323379], [61.689558, 51.255677], [61.7870868, 51.269131], [61.8521517, 51.3170692], [61.9041498, 51.2743663], [61.9136577, 51.2624587], [61.9421036, 51.1609173], [61.9519399, 51.1412059], [61.9976978, 51.1083931], [61.9947382, 51.0893369], [62.0732541, 51.0730547], [62.0810046, 51.1113456], [62.1041875, 51.1288912], [62.1311626, 51.1387589], [62.1810776, 51.129435], [62.2830313, 51.0801644], [62.275578, 51.0411558], [62.2084928, 51.0130433], [62.2285783, 50.978418], [62.256673, 50.9638071], [62.4302613, 50.8528345], [62.3114652, 50.8414364], [62.2764924, 50.801556], [62.2218367, 50.8136176], [62.2357091, 50.7855901], [62.2632601, 50.7561288], [62.2764607, 50.7218448], [62.2295418, 50.6760218], [62.2669253, 50.6415066], [62.3587597, 50.6641977], [62.4398026, 50.6887064], [62.497042, 50.590701], [62.4946316, 50.5562244], [62.5285129, 50.515611], [62.5253887, 50.5097805], [62.5010042, 50.500791], [62.5033645, 50.4934476], [62.5013046, 50.4900088], [62.5049524, 50.4874682], [62.5070209, 50.4778655], [62.5151748, 50.4731952], [62.5218181, 50.4632973], [62.5373621, 50.4588264], [62.5419025, 50.447969], [62.5509147, 50.4437331], [62.5498504, 50.4361716], [62.559721, 50.4229126], [62.5576095, 50.4163131], [62.5784235, 50.4067411], [62.5894956, 50.408683], [62.5921993, 50.404252], [62.6093225, 50.3967841], [62.6119918, 50.3907474], [62.628643, 50.3903096], [62.6346855, 50.3856485], [62.6431827, 50.3753587], [62.6401357, 50.3689538], [62.6419897, 50.3650762], [62.6390285, 50.3627492], [62.6415519, 50.3617267], [62.6396207, 50.3584139], [62.6437063, 50.3563426], [62.6388568, 50.3513318], [62.6447277, 50.3474062], [62.6429338, 50.3437734], [62.6500492, 50.3446402], [62.6560573, 50.3382037], [62.6633958, 50.3376285], [62.6624603, 50.3303515], [62.6672153, 50.3250817], [62.6645631, 50.3205977], [62.671421, 50.3173547], [62.67173, 50.3129248], [62.6677732, 50.3097909], [62.6823301, 50.3056618], [62.6905183, 50.3074338], [62.6948099, 50.3001973], [62.6928443, 50.2981509], [62.6900463, 50.3003344], [62.6882524, 50.2962319], [62.708929, 50.2899987], [62.7142505, 50.2828144], [62.7123622, 50.2802915], [62.7212457, 50.2783717], [62.7206878, 50.2754097], [62.7256231, 50.2728863], [62.7241296, 50.2694947], [62.7345924, 50.2648765], [62.7351074, 50.2504719], [62.7269105, 50.2458341], [62.7311592, 50.24287], [62.7241211, 50.2413605], [62.7265243, 50.2378472], [62.7212886, 50.2370786], [62.7285499, 50.2334373], [62.7243442, 50.2315157], [62.7299661, 50.2304725], [62.7282409, 50.2237913], [62.7403001, 50.2172012], [62.7366952, 50.2121208], [62.7497844, 50.2073419], [62.7586336, 50.1962263], [62.7843742, 50.1931946], [62.7861766, 50.1892656], [62.7917127, 50.1885787], [62.7927427, 50.1863805], [62.7870779, 50.1870949], [62.7857475, 50.1818188], [62.7812843, 50.1814341], [62.7820653, 50.1772939], [62.7976007, 50.1630278], [62.800476, 50.1722366], [62.8210754, 50.165282], [62.8224916, 50.1513698], [62.8351945, 50.1440547], [62.8358383, 50.1380037], [62.8318386, 50.1362061], [62.8416318, 50.1349779], [62.8405504, 50.1316947], [62.8472967, 50.1277428], [62.8466014, 50.1222029], [62.8422241, 50.1201392], [62.8485755, 50.1176627], [62.846816, 50.1152961], [62.8508071, 50.1112506], [62.8566436, 50.1132046], [62.8596477, 50.1023328], [62.865364, 50.1047922], [62.8805046, 50.0925061], [62.8852253, 50.0920656], [62.8848819, 50.0866689], [62.875698, 50.0795641], [62.8847103, 50.0760389], [62.8829078, 50.0692632], [62.8859977, 50.0686021], [62.8809337, 50.0618804], [62.8912334, 50.0578028], [62.8923149, 50.053926], [62.8892593, 50.0505836], [62.894289, 50.0407532], [62.8909759, 50.0385674], [62.910202, 50.0330545], [62.9136009, 50.0272459], [62.9111461, 50.0254455], [62.91632, 50.01849], [62.92588, 50.01903], [62.93614, 50.00932], [62.94914, 50.00457], [62.9454, 49.99945], [62.95298, 49.99744], [62.94798, 49.99517], [62.94717, 49.98766], [62.94044, 49.98807], [62.94871, 49.96771], [62.94853, 49.95512], [62.94262, 49.95571], [62.9332023, 49.9432811], [62.9204933, 49.9402083], [62.9252933, 49.9331583], [62.9197633, 49.9334783], [62.9230433, 49.9295683], [62.9169633, 49.9301083], [62.9214433, 49.9265083], [62.9173233, 49.9240883], [62.9197633, 49.9214383], [62.9105233, 49.9164284], [62.9318533, 49.9061184], [62.9248933, 49.9047984], [62.9292333, 49.9022784], [62.9227833, 49.8998984], [62.9302533, 49.8982385], [62.9272233, 49.8958985], [62.9360333, 49.8908085], [62.9260233, 49.8817585], [62.9235833, 49.8813485], [62.9232633, 49.8864485], [62.9045133, 49.8874985], [62.8964781, 49.8827279], [62.7906653, 49.936889], [62.7395891, 49.9401861], [62.6582898, 49.9084583], [62.6376926, 49.8854201], [62.5987272, 49.8625099], [62.593689, 49.8436132], [62.5963198, 49.8065164], [62.5550886, 49.7353049], [62.4837542, 49.7004747], [62.4379602, 49.6836636], [62.452104, 49.6249717], [62.4508357, 49.5802024], [62.4731744, 49.562053], [62.4336573, 49.5570087], [62.3673374, 49.5777718], [62.3048425, 49.4972671], [62.3386121, 49.4775429], [62.4507426, 49.3720044], [62.5474519, 49.253269], [62.5212723, 49.2376385], [62.4963279, 49.2438323], [62.3760908, 49.2356296], [62.3614304, 49.2008006], [62.3964715, 49.1973034], [62.4457533, 49.1982469], [62.5487909, 49.0181311], [62.5842321, 48.9942686], [62.6346956, 48.9753657], [62.7278384, 48.9260047], [62.7845602, 48.8923923], [62.7897737, 48.8856505], [62.8454438, 48.8488132], [62.9531991, 48.8899426], [62.9713984, 48.9033332], [63.0110567, 48.9218455], [63.0203849, 48.9294032], [63.1301743, 48.8634099], [63.1254588, 48.8355615], [63.0492698, 48.7580664], [63.076024, 48.6971221], [63.0787071, 48.6824376], [63.4167575, 48.6017719], [63.4673136, 48.5637641], [63.5857416, 48.5343204], [63.770803, 48.4539982], [63.8444864, 48.3854584], [63.9029831, 48.2975471], [64.0160746, 48.1702789], [64.2828498, 48.3477069], [64.227456, 48.461781], [64.5786277, 48.5107702], [64.5452956, 48.5289223], [64.4908254, 48.5655417], [64.5307139, 48.5997317], [64.4686722, 48.6747271], [64.6980193, 48.6756641], [64.7458052, 48.937745], [65.4861299, 48.8283277], [65.6320194, 48.862088], [65.6313485, 48.8648382], [65.6374707, 48.8679623], [65.6617795, 48.872389], [65.6676091, 48.8760604], [65.6858181, 48.8740915], [65.6952715, 48.8776887], [65.7238117, 48.8794502], [65.7295288, 48.8747576], [65.7368439, 48.8755866], [65.7425114, 48.8786652], [65.7422684, 48.8837427], [65.7493359, 48.8834319], [65.7532956, 48.8867372], [65.7753963, 48.982181], [65.8150108, 48.9866326], [66.0730897, 48.993151], [66.4124336, 49.2415156], [66.5421774, 49.2704106], [66.5971811, 49.3243554], [66.6514356, 49.4566817], [66.8370175, 49.5787369], [67.0117315, 49.6342799], [67.0417163, 49.6474758], [67.0581457, 49.6670051], [67.3737519, 49.9381768], [67.3991195, 49.9154538], [67.6381802, 50.1188086], [67.5758572, 50.1628483], [67.6062197, 50.1884341], [67.5993414, 50.2231603], [67.6301901, 50.2364984], [67.746846, 50.2477405], [67.8603058, 50.2977868], [67.9641775, 50.3171783], [68.0169124, 50.3661322], [68.0169124, 50.3926279], [68.0904216, 50.4404863], [68.0920196, 50.464906], [67.991344, 50.5126914], [68.0089223, 50.5380895], [67.938665, 50.5530087], [67.9233029, 50.54592], [67.9200955, 50.5378206], [67.8999841, 50.5275451], [67.8647486, 50.5168315], [67.8385129, 50.4991361], [67.7823891, 50.4851609], [67.7488752, 50.4884082], [67.725055, 50.4838266], [67.684994, 50.4868395], [67.6509644, 50.4811788], [67.6051122, 50.4841805], [67.592067, 50.4899319], [67.5639838, 50.4923269], [67.5562733, 50.4858908], [67.1318894, 50.3839213], [67.0659493, 50.5308424], [67.0956319, 50.5461034], [67.1107977, 50.6221534], [66.9908958, 50.6581929], [66.8501604, 50.6450369], [66.7244936, 50.6115003], [66.6663241, 50.6358583], [66.6400253, 50.6270415], [66.4955142, 50.6730972], [66.4331356, 50.7106526], [66.3155971, 50.6854319], [66.2406361, 50.8273718], [66.2185357, 50.8225138], [66.2017961, 50.8251332], [66.1784268, 50.800148], [66.1564966, 50.8098567], [66.1327518, 50.7881355], [66.1095527, 50.7981981], [66.1168113, 50.8048117], [66.0918475, 50.8148498], [66.1018778, 50.8232699], [66.0842829, 50.829399], [66.0879974, 50.871741], [66.0611492, 50.883688], [66.070659, 50.8876036], [65.9895275, 50.9465945], [65.9944421, 50.9493473], [65.9498888, 50.9594144], [65.9417166, 50.9425541], [65.861935, 50.9643799], [65.8246052, 50.8852486], [65.8097035, 50.8771793], [65.7892924, 50.8544459], [65.7635154, 50.8521148], [65.7523194, 50.8478602], [65.7287513, 50.8538632], [65.7206414, 50.8536557], [65.7000536, 50.8451036], [65.6667245, 50.8474302], [65.6342329, 50.8348001], [65.627956, 50.8273494], [65.6046291, 50.8308984], [65.5851216, 50.888629], [65.5852932, 50.8956249], [65.5793561, 50.8963738], [65.6142102, 51.0061124], [65.6158131, 51.0297154], [65.6120606, 51.0326268], [65.6100418, 51.054563], [65.6261133, 51.068488], [65.6329578, 51.0823656], [65.5606566, 51.1362401], [65.4504081, 51.1857311], [65.4260575, 51.2033732], [65.4815881, 51.2431504], [65.4031777, 51.3019391], [65.3880099, 51.3267622], [65.5466955, 51.4034859], [65.4615127, 51.4400778], [65.5371652, 51.5140488], [65.569161, 51.5833816], [65.5773276, 51.6281613], [65.5209107, 51.6843267], [65.383141, 51.6848995], [65.3524166, 51.7934892], [65.5058385, 51.7983316], [65.5177608, 51.7956846], [65.528489, 51.8019252], [65.7604761, 51.8724366], [65.7685074, 51.9205119], [65.8165677, 51.9938394], [65.8275127, 52.0163242], [65.8496995, 52.0808059], [65.868143, 52.0826828], [65.8657985, 52.0887007], [65.8545958, 52.0930609], [65.8689505, 52.1408681], [65.9986461, 52.204637], [66.020846, 52.7422331], [66.0187701, 52.7609164], [66.1286801, 52.7644009], [66.1183809, 52.893548], [66.3079066, 52.8862521], [66.3213576, 52.9699362], [66.0707051, 52.98159], [66.0505085, 53.0607248], [66.2069252, 53.0934319], [66.2002214, 53.1109251], [66.4021394, 53.0895143], [66.4004242, 53.1548634], [66.2572025, 53.1937273], [66.2574392, 53.3316573], [66.2505011, 53.3389448], [66.2492657, 53.5033916], [66.1109031, 53.5027137], [66.1053212, 53.6058785], [66.1085913, 53.619451], [66.1305667, 53.6440983], [66.1592358, 53.671112], [66.1737062, 53.6708754], [66.1792605, 53.8055751], [66.0475073, 53.803239], [66.0253334, 53.9326682], [66.002134, 53.9275601], [65.9771562, 53.9688966], [65.9631147, 53.9990509], [66.149825, 54.0752309], [66.3177284, 54.1020191], [66.2668135, 54.1832893], [66.1911012, 54.183431], [66.0316816, 54.2514567], [66.0850885, 54.2584707], [66.1768948, 54.2934608], [66.0848981, 54.4192664], [66.1070252, 54.4438752], [66.073832, 54.4696387], [66.0822965, 54.4717463], [66.1099125, 54.4894601], [66.0788732, 54.571267], [66.075413, 54.6404927]]]}}, {"type": "Feature", "properties": {"name": "Aktobe Region", "country": "KAZ"}, "geometry": {"type": "MultiPolygon", "coordinates": [[[[59.05027750028493, 45.8054093], [59.0323489, 45.8047132], [59.018985, 45.8087987], [59.0123187, 45.8142086], [58.9934445, 45.8151628], [58.9309512, 45.7864977], [58.9309327, 45.7684139], [58.9240663, 45.7550294], [58.9199979, 45.7310996], [58.9273021, 45.710017], [58.9293792, 45.6726802], [58.9251005, 45.6508122], [58.9184158, 45.6436133], [58.9098184, 45.6244157], [58.8874166, 45.5978748], [58.8680961, 45.5813753], [58.8597962, 45.5764041], [58.8312017, 45.5701286], [58.7792613, 45.5450166], [58.7681819, 45.5311647], [58.7566922, 45.5237141], [58.747359147287334, 45.50636885248642], [59.0965967, 45.3228973], [59.05027750028493, 45.8054093]]], [[[61.7870868, 51.269131], [61.567968, 51.237725], [61.5122, 51.0362], [61.4861064, 50.9594345], [61.449163, 50.8063336], [60.8086474, 50.6562994], [60.741191, 50.665172], [60.5604546, 50.66103], [60.3255457, 50.6699979], [60.1828422, 50.778362], [60.2169528, 50.8125378], [60.1880213, 50.8392814], [60.1628281, 50.8402609], [60.1629246, 50.8361156], [60.1572331, 50.8356257], [60.1571773, 50.8401484], [60.1469241, 50.8399443], [60.1351975, 50.8314337], [60.0673386, 50.821844], [60.0153456, 50.8219131], [59.9727453, 50.7686995], [59.9975098, 50.6748481], [59.9609108, 50.6609442], [59.9061992, 50.6338697], [59.862003, 50.598881], [59.814103, 50.5361125], [59.7759548, 50.5410653], [59.6142289, 50.5306579], [59.5099349, 50.4947569], [59.5169415, 50.5280741], [59.4570812, 50.5437303], [59.4675765, 50.568777], [59.4630344, 50.5726981], [59.4628336, 50.584026], [59.5687062, 50.5733771], [59.5661969, 50.5765604], [59.5693276, 50.581354], [59.5675273, 50.5863978], [59.5589421, 50.5875667], [59.5368064, 50.6083651], [59.4998318, 50.6118801], [59.47817, 50.6417692], [59.4518486, 50.64568], [59.4169493, 50.6367646], [59.2983126, 50.6525777], [59.2783753, 50.6333333], [59.2354115, 50.664426], [59.2061107, 50.6676227], [59.1928817, 50.6729181], [59.16166, 50.6680337], [59.1176842, 50.6843938], [59.0886978, 50.6771074], [59.0418813, 50.6899731], [59.0308683, 50.6882039], [58.8746353, 50.6997444], [58.879759, 50.7073441], [58.8699613, 50.7083334], [58.85966, 50.7205254], [58.8518494, 50.7217209], [58.8542312, 50.7235792], [58.8465064, 50.727331], [58.8489427, 50.7376622], [58.8468316, 50.7539828], [58.805115, 50.7800827], [58.7743243, 50.8155081], [58.6569681, 50.8087994], [58.663228, 50.841577], [58.6861353, 50.8476851], [58.6974443, 50.8470639], [58.6890878, 50.8857572], [58.636819, 50.8800536], [58.5920341, 50.8687071], [58.5786111, 50.93983], [58.6049547, 50.9466677], [58.5947734, 50.9710523], [58.6370453, 50.985422], [58.6078386, 51.0252213], [58.6136243, 51.0308509], [58.6146481, 51.0472938], [58.5948484, 51.0421375], [58.5890731, 51.0500116], [58.5216839, 51.0835324], [58.3836744, 51.0748381], [58.3791553, 51.0776865], [58.3736336, 51.1112938], [58.3600711, 51.1117406], [58.3576913, 51.1233164], [58.3434494, 51.1277893], [58.3362875, 51.1374877], [58.3423799, 51.1468121], [58.3305983, 51.1547518], [58.3299992, 51.1612924], [58.3244751, 51.1637695], [58.3140294, 51.1591059], [58.3169545, 51.1530585], [58.3147229, 51.1511204], [58.3072027, 51.1578658], [58.3030499, 51.1530585], [58.292634, 51.1521048], [58.2879416, 51.1596094], [58.2792369, 51.1451673], [58.2733727, 51.1482139], [58.2724942, 51.1527355], [58.2668509, 51.1537786], [58.265381, 51.1430371], [58.2465708, 51.145366], [58.2351918, 51.1345728], [58.2030161, 51.128184], [58.2089795, 51.1169739], [58.2189358, 51.1094303], [58.2160176, 51.0967111], [58.2076842, 51.0885037], [58.1713398, 51.0845933], [58.170699, 51.0778414], [58.1775654, 51.0674868], [58.1684839, 51.0623425], [58.1255313, 51.0710005], [58.1026883, 51.0700896], [58.0943156, 51.0736094], [58.0806996, 51.0850448], [58.0905223, 51.1049102], [58.0879705, 51.1212107], [58.0737425, 51.1229271], [58.056326, 51.1116025], [58.0352811, 51.1093744], [58.0204953, 51.0949862], [58.0058697, 51.0913717], [57.997836, 51.0940159], [57.9762168, 51.0916994], [57.9487408, 51.0862528], [57.9348362, 51.0949862], [57.9190434, 51.1180515], [57.8869642, 51.1102992], [57.8816856, 51.1017035], [57.8690913, 51.0989694], [57.8515805, 51.1060891], [57.8479159, 51.1123798], [57.8292419, 51.1131785], [57.8210248, 51.1302262], [57.8114117, 51.1391666], [57.7710682, 51.1383543], [57.7539744, 51.0550836], [57.7552613, 50.9686587], [57.7494696, 50.9391329], [57.7609153, 50.9198329], [57.7432486, 50.9209836], [57.7360244, 50.9277476], [57.7286804, 50.9276928], [57.7162681, 50.9268881], [57.6864207, 50.9163904], [57.6856702, 50.927402], [57.5590535, 50.9358247], [57.5268125, 50.9160527], [57.5247211, 50.9087316], [57.51846, 50.9046572], [57.5249244, 50.9002402], [57.5129169, 50.8860912], [57.5120686, 50.8784568], [57.5070278, 50.8759514], [57.4888746, 50.8796395], [57.4726569, 50.8783425], [57.4683653, 50.8836495], [57.4151503, 50.8965897], [57.4061381, 50.9052505], [57.3851954, 50.9129898], [57.3821913, 50.919862], [57.3732649, 50.9186175], [57.3359286, 50.9390665], [57.3262297, 50.9407972], [57.3275172, 50.9546406], [57.3243415, 50.9657773], [57.3175556, 50.9744045], [57.3075198, 50.9775342], [57.3146427, 50.9799376], [57.3144281, 50.9886505], [57.307074, 50.996657], [57.2930836, 50.9970352], [57.2951435, 51.0013024], [57.2879596, 51.003349], [57.2952665, 51.0066214], [57.2882887, 51.0095623], [57.2938841, 51.0112604], [57.2852606, 51.0190462], [57.2903952, 51.0252159], [57.2834799, 51.0319005], [57.2927944, 51.0319645], [57.2894212, 51.0378381], [57.2844336, 51.0385332], [57.2869186, 51.0365094], [57.2809963, 51.0321914], [57.2433614, 51.0259697], [57.2366666, 51.0320021], [57.2310447, 51.0314758], [57.2193288, 51.0388567], [57.2195193, 51.0418242], [57.2307268, 51.0440077], [57.2325074, 51.0483426], [57.2055629, 51.0731251], [57.1882393, 51.1022835], [57.1848637, 51.114933], [57.144793, 51.0990989], [57.1453999, 51.0875639], [57.0565184, 51.0699251], [56.9842463, 51.0626138], [56.9431416, 51.0875605], [56.8881298, 51.0603432], [56.8592765, 51.0735433], [56.7847483, 51.0938071], [56.7341401, 51.0781983], [56.704428, 51.077521], [56.6996787, 51.0749557], [56.709014, 51.0544876], [56.7518039, 50.9815181], [56.72269, 50.9773924], [56.7213938, 50.9743223], [56.7056761, 50.9747951], [56.69715, 50.9837786], [56.6780685, 50.9881714], [56.6607576, 50.9854105], [56.6183219, 50.9865312], [56.616262, 50.9896649], [56.6204655, 50.9923108], [56.6164765, 50.9982544], [56.6069257, 51.0005487], [56.6082153, 51.0066803], [56.5910063, 51.0160901], [56.5742672, 51.0345653], [56.5690336, 51.0334864], [56.544529, 51.0425798], [56.5455782, 51.0447249], [56.5376625, 51.0448733], [56.5322552, 51.0605198], [56.5246162, 51.0635137], [56.5271676, 51.0718873], [56.5183077, 51.0718198], [56.5104306, 51.0789517], [56.5135142, 51.0860014], [56.4490912, 51.0573679], [56.4589384, 51.0020136], [56.4602166, 50.9649922], [56.3765478, 50.9648053], [56.3712545, 50.9478826], [56.3929937, 50.9456359], [56.3624428, 50.9008085], [56.2978015, 50.9020255], [56.2391284, 50.9156952], [56.1813404, 50.9378649], [56.1749943, 50.9031005], [56.1571696, 50.879343], [56.1329906, 50.8300875], [56.1243036, 50.7867824], [56.1364537, 50.7533688], [56.0535877, 50.6938707], [55.9994985, 50.6685913], [55.9823102, 50.6655578], [55.9145522, 50.6408581], [55.9024634, 50.620524], [55.8670963, 50.6262678], [55.829796, 50.6224184], [55.8137649, 50.610753], [55.7949275, 50.6065009], [55.7774833, 50.5872993], [55.7458034, 50.5790881], [55.7364763, 50.566492], [55.736147, 50.5502242], [55.707958, 50.5490744], [55.7104607, 50.5552321], [55.660772, 50.5601887], [55.6184481, 50.5821503], [55.6115446, 50.5981685], [55.5812769, 50.6048655], [55.5625967, 50.6034509], [55.5348622, 50.6140567], [55.5311626, 50.6483606], [55.5012703, 50.6700957], [55.405212, 50.6811364], [55.3980177, 50.6670396], [55.384687, 50.6546415], [55.1466719, 50.7971336], [55.0561406, 50.8194689], [55.1296619, 50.8794654], [55.1204615, 50.8865709], [55.1261264, 50.8894947], [55.1288729, 50.8964246], [55.103982, 50.9029204], [55.1036387, 50.9055184], [55.1080762, 50.9068228], [55.106557, 50.9084411], [55.0979739, 50.9075752], [55.094884, 50.9103894], [55.0995189, 50.9127706], [55.0856143, 50.9168833], [55.0866442, 50.9205627], [55.062955, 50.9254322], [55.0555735, 50.9201299], [55.0488787, 50.922727], [55.0113476, 50.9048781], [54.9553455, 50.9078707], [54.9243021, 50.9141349], [54.8937687, 50.9210352], [54.9044961, 50.9378216], [54.8876265, 50.9419573], [54.8970411, 50.9581374], [54.8428705, 50.9771562], [54.7850576, 50.9849502], [54.744, 51.0184138], [54.7492416, 51.0227526], [54.7345055, 51.0245073], [54.7330286, 51.0304109], [54.7377907, 51.0342874], [54.723216, 51.037343], [54.7245051, 51.0310821], [54.7200008, 51.0282102], [54.7056783, 51.0392093], [54.6984914, 51.0342373], [54.6931977, 51.0399556], [54.686037, 51.0376352], [54.7074949, 51.0261381], [54.6973864, 51.0224429], [54.7015873, 51.0173023], [54.6920368, 51.015795], [54.6816001, 51.017901], [54.6716885, 51.0254982], [54.6590529, 51.0241151], [54.6544582, 51.0299774], [54.6518982, 51.0212868], [54.6387375, 51.0196146], [54.6224261, 51.0223397], [54.6111361, 51.0191398], [54.6038899, 51.02041], [54.6068628, 51.023456], [54.6015763, 51.0297952], [54.591044, 51.0296014], [54.5837761, 51.022283], [54.5683482, 51.0186725], [54.5655977, 51.0141341], [54.5917757, 51.0107494], [54.5720478, 51.0045823], [54.5536688, 51.008093], [54.5488771, 51.005966], [54.5477967, 51.0009625], [54.561581, 50.9921684], [54.5607408, 50.9847806], [54.5803276, 50.9771933], [54.5790148, 50.9731099], [54.5678561, 50.9717046], [54.5741313, 50.9674553], [54.5722277, 50.9613949], [54.5751506, 50.9505043], [54.5942178, 50.9423772], [54.5889884, 50.9358374], [54.5726566, 50.9432728], [54.5692776, 50.9404846], [54.5749661, 50.9391348], [54.5677748, 50.9350032], [54.5588671, 50.9364417], [54.5669338, 50.9300274], [54.5685367, 50.9253084], [54.565576, 50.9226849], [54.5479194, 50.9355308], [54.531829, 50.9348818], [54.5265299, 50.9300007], [54.5349751, 50.9285824], [54.539146, 50.9241389], [54.549801, 50.9285897], [54.5669181, 50.915138], [54.5789246, 50.9182508], [54.5834562, 50.9163194], [54.5994915, 50.9231771], [54.6136682, 50.920925], [54.6193865, 50.9250697], [54.6538462, 50.915192], [54.66526, 50.9197928], [54.6711799, 50.9155004], [54.6711504, 50.905658], [54.6983996, 50.8925763], [54.6839301, 50.83418], [54.6571347, 50.8230389], [54.6849077, 50.7806308], [54.6799286, 50.7181722], [54.7000472, 50.6999685], [54.7187388, 50.6905047], [54.711905, 50.6841098], [54.7095978, 50.6705994], [54.7185671, 50.6638536], [54.7249615, 50.6392559], [54.7204125, 50.6335672], [54.7282231, 50.6268161], [54.7313548, 50.6193289], [54.7204496, 50.6069864], [54.6920381, 50.5952099], [54.6381216, 50.5557986], [54.6365259, 50.5518697], [54.6283101, 50.5501586], [54.6145442, 50.5386862], [54.6039438, 50.5440436], [54.5928772, 50.5596198], [54.5732496, 50.5527927], [54.5436939, 50.5274156], [54.5652371, 50.5164602], [54.4999233, 50.467168], [54.4638324, 50.4156985], [54.464746, 50.4032038], [54.3650437, 50.340237], [54.4398039, 50.2732121], [54.4214478, 50.2034159], [54.4251833, 50.11824], [54.47235, 50.1089047], [54.4754268, 50.0834992], [54.5433587, 50.0628251], [54.555976, 50.0125839], [54.5111226, 49.9538961], [54.5149151, 49.9243699], [54.4185875, 49.8148916], [54.477086, 49.7683449], [54.3663679, 49.768281], [54.3453246, 49.7325738], [54.2753871, 49.6759464], [54.2989078, 49.6479905], [54.2005927, 49.6102708], [54.1146807, 49.6203469], [53.9913224, 49.6186558], [53.9728706, 49.570092], [53.8751868, 49.5703016], [53.7978329, 49.5250767], [53.7569498, 49.4572861], [53.6950075, 49.4774542], [53.7298349, 49.4249156], [53.6638517, 49.2777404], [53.6305382, 49.2403492], [53.6431003, 49.2174548], [53.6655163, 49.1971241], [53.6920968, 49.1830416], [53.7513821, 49.16082], [53.8323652, 49.1439433], [53.8203493, 49.1233534], [53.8388184, 49.1130816], [53.8790949, 49.0976579], [53.8833103, 49.0984792], [53.8963173, 49.1115952], [53.9025276, 49.1231277], [53.9131708, 49.164254], [53.9917232, 49.1721222], [53.9881601, 49.0894671], [54.0073784, 49.0691679], [54.0125461, 49.0520272], [54.0142892, 49.0457095], [54.0071903, 49.0268934], [54.0043231, 49.0073678], [54.0128878, 48.9783924], [54.0266988, 48.9525713], [54.011839, 48.8819282], [54.0434512, 48.8073557], [54.0270211, 48.7628135], [54.155133, 48.7354757], [54.1761218, 48.7243172], [54.3025707, 48.7030633], [54.3552346, 48.679091], [54.4502546, 48.6524713], [54.4603095, 48.6418958], [54.5420388, 48.6400923], [54.5727315, 48.7063355], [54.5779532, 48.711879], [54.5817785, 48.7453307], [54.5787711, 48.7793458], [54.6349898, 48.7706182], [54.6527543, 48.7979656], [54.6567982, 48.7998616], [54.6839319, 48.8003889], [54.7382072, 48.77449], [54.7490518, 48.7450335], [54.7533161, 48.7415073], [54.9123088, 48.7094432], [54.9320735, 48.5603253], [54.9186937, 48.554561], [54.9040217, 48.483403], [54.8988622, 48.4779322], [54.8881969, 48.4750286], [54.8966871, 48.4643902], [54.8792065, 48.3653118], [54.919336, 48.3064574], [54.9693473, 48.2704211], [54.9454878, 48.1925293], [54.9545895, 48.1676374], [54.9386254, 48.0972148], [55.0293655, 48.0299104], [55.0631197, 47.9999804], [55.0991245, 47.9562721], [55.1050552, 47.8647219], [55.1215247, 47.778876], [55.0919239, 47.7267909], [55.0658133, 47.5893292], [55.0743348, 47.5544734], [55.0685974, 47.5417772], [55.0713934, 47.4758228], [55.0682056, 47.4539216], [55.0412026, 47.4307134], [55.0257697, 47.3744483], [55.0019776, 47.2023598], [55.1198356, 47.0643493], [55.1248028, 47.0304243], [55.1945185, 46.9516295], [55.2328601, 46.8738222], [55.4503693, 46.7259941], [55.7382471, 46.6289082], [55.953074, 46.5929589], [56.2875422, 46.5133816], [56.3155637, 46.3760518], [56.3886763, 46.2925347], [56.4106107, 46.2782934], [56.4406266, 46.240325], [56.442432, 46.2029571], [56.4647932, 46.1763308], [56.4718237, 46.1491351], [56.4666301, 46.1321886], [56.5165047, 46.0973561], [56.5525261, 46.0058679], [56.559804, 46.000089], [56.6057777, 45.9261334], [56.644833, 45.6668958], [56.6594188, 45.6529369], [56.744109, 45.1772492], [57.00101, 45.237915], [58.587577, 45.590118], [58.60446492788111, 45.5812662628859], [58.631845, 45.5875944], [58.6357245, 45.615254], [58.6333251, 45.6394444], [58.6434858, 45.6756554], [58.648567, 45.7184317], [58.6611463, 45.7423183], [58.6706297, 45.7810858], [58.6836395, 45.8066238], [58.6975376, 45.8250196], [58.7268767, 45.8520448], [58.7420008, 45.8593444], [58.7663359, 45.8642001], [58.808523, 45.8458412], [58.8250752, 45.8417373], [58.8108155, 45.8518273], [58.802329, 45.8662509], [58.802874, 45.8888024], [58.8163452, 45.9054278], [58.8399336, 45.9187299], [58.861078, 45.9252365], [58.8744397, 45.9261559], [58.9144196, 45.9187449], [58.9464737, 45.906827], [58.976759, 45.906182], [58.9915648, 45.8981993], [58.9963628, 45.8996269], [59.0011478, 45.909834], [59.0151725, 45.915546], [59.0313817, 45.9155101], [59.0401149251466, 45.90955720235128], [59.0306023, 46.0070443], [59.1118129, 46.0529815], [59.4997977, 46.4421543], [59.5613884, 46.4999641], [59.7692551, 46.6625322], [60.013218, 46.8153637], [60.1296088, 46.8948671], [60.3272642, 46.9132478], [60.4744218, 46.9108109], [60.4950016, 47.1218087], [60.7024563, 47.1040848], [60.9234994, 47.1103374], [60.9309601, 47.1268497], [60.9369551, 47.1312369], [61.0010179, 47.2347025], [61.3142209, 47.7900512], [61.3597972, 47.8187854], [61.9248629, 47.8277265], [62.075832, 47.7233112], [62.2125287, 47.5455563], [62.3326164, 47.5311285], [62.6057258, 47.3284453], [62.5811687, 47.2423453], [62.8601538, 47.2146532], [62.89008, 47.1773487], [62.9500893, 47.1907705], [62.9992883, 47.2197918], [63.1456944, 47.2964694], [63.2037375, 47.3333122], [63.2254645, 47.360673], [63.6532032, 47.5154518], [63.833412, 47.6282054], [63.8445552, 47.6381836], [63.9658931, 47.6928309], [64.0146737, 47.7032335], [64.277174, 47.8995379], [64.2154453, 47.92414], [64.1201045, 48.0023418], [64.0160746, 48.1702789], [63.9029831, 48.2975471], [63.8444864, 48.3854584], [63.770803, 48.4539982], [63.5857416, 48.5343204], [63.4673136, 48.5637641], [63.4167575, 48.6017719], [63.0787071, 48.6824376], [63.076024, 48.6971221], [63.0492698, 48.7580664], [63.1254588, 48.8355615], [63.1301743, 48.8634099], [63.0203849, 48.9294032], [63.0110567, 48.9218455], [62.9713984, 48.9033332], [62.9531991, 48.8899426], [62.8454438, 48.8488132], [62.7897737, 48.8856505], [62.7845602, 48.8923923], [62.7278384, 48.9260047], [62.6346956, 48.9753657], [62.5842321, 48.9942686], [62.5487909, 49.0181311], [62.4457533, 49.1982469], [62.3964715, 49.1973034], [62.3614304, 49.2008006], [62.3760908, 49.2356296], [62.4963279, 49.2438323], [62.5212723, 49.2376385], [62.5474519, 49.253269], [62.4507426, 49.3720044], [62.3386121, 49.4775429], [62.3048425, 49.4972671], [62.3673374, 49.5777718], [62.4336573, 49.5570087], [62.4731744, 49.562053], [62.4508357, 49.5802024], [62.452104, 49.6249717], [62.4379602, 49.6836636], [62.4837542, 49.7004747], [62.5550886, 49.7353049], [62.5963198, 49.8065164], [62.593689, 49.8436132], [62.5987272, 49.8625099], [62.6376926, 49.8854201], [62.6582898, 49.9084583], [62.7395891, 49.9401861], [62.7906653, 49.936889], [62.8964781, 49.8827279], [62.9045133, 49.8874985], [62.9232633, 49.8864485], [62.9235833, 49.8813485], [62.9260233, 49.8817585], [62.9360333, 49.8908085], [62.9272233, 49.8958985], [62.9302533, 49.8982385], [62.9227833, 49.8998984], [62.9292333, 49.9022784], [62.9248933, 49.9047984], [62.9318533, 49.9061184], [62.9105233, 49.9164284], [62.9197633, 49.9214383], [62.9173233, 49.9240883], [62.9214433, 49.9265083], [62.9169633, 49.9301083], [62.9230433, 49.9295683], [62.9197633, 49.9334783], [62.9252933, 49.9331583], [62.9204933, 49.9402083], [62.9332023, 49.9432811], [62.94262, 49.95571], [62.94853, 49.95512], [62.94871, 49.96771], [62.94044, 49.98807], [62.94717, 49.98766], [62.94798, 49.99517], [62.95298, 49.99744], [62.9454, 49.99945], [62.94914, 50.00457], [62.93614, 50.00932], [62.92588, 50.01903], [62.91632, 50.01849], [62.9111461, 50.0254455], [62.9136009, 50.0272459], [62.910202, 50.0330545], [62.8909759, 50.0385674], [62.894289, 50.0407532], [62.8892593, 50.0505836], [62.8923149, 50.053926], [62.8912334, 50.0578028], [62.8809337, 50.0618804], [62.8859977, 50.0686021], [62.8829078, 50.0692632], [62.8847103, 50.0760389], [62.875698, 50.0795641], [62.8848819, 50.0866689], [62.8852253, 50.0920656], [62.8805046, 50.0925061], [62.865364, 50.1047922], [62.8596477, 50.1023328], [62.8566436, 50.1132046], [62.8508071, 50.1112506], [62.846816, 50.1152961], [62.8485755, 50.1176627], [62.8422241, 50.1201392], [62.8466014, 50.1222029], [62.8472967, 50.1277428], [62.8405504, 50.1316947], [62.8416318, 50.1349779], [62.8318386, 50.1362061], [62.8358383, 50.1380037], [62.8351945, 50.1440547], [62.8224916, 50.1513698], [62.8210754, 50.165282], [62.800476, 50.1722366], [62.7976007, 50.1630278], [62.7820653, 50.1772939], [62.7812843, 50.1814341], [62.7857475, 50.1818188], [62.7870779, 50.1870949], [62.7927427, 50.1863805], [62.7917127, 50.1885787], [62.7861766, 50.1892656], [62.7843742, 50.1931946], [62.7586336, 50.1962263], [62.7497844, 50.2073419], [62.7366952, 50.2121208], [62.7403001, 50.2172012], [62.7282409, 50.2237913], [62.7299661, 50.2304725], [62.7243442, 50.2315157], [62.7285499, 50.2334373], [62.7212886, 50.2370786], [62.7265243, 50.2378472], [62.7241211, 50.2413605], [62.7311592, 50.24287], [62.7269105, 50.2458341], [62.7351074, 50.2504719], [62.7345924, 50.2648765], [62.7241296, 50.2694947], [62.7256231, 50.2728863], [62.7206878, 50.2754097], [62.7212457, 50.2783717], [62.7123622, 50.2802915], [62.7142505, 50.2828144], [62.708929, 50.2899987], [62.6882524, 50.2962319], [62.6900463, 50.3003344], [62.6928443, 50.2981509], [62.6948099, 50.3001973], [62.6905183, 50.3074338], [62.6823301, 50.3056618], [62.6677732, 50.3097909], [62.67173, 50.3129248], [62.671421, 50.3173547], [62.6645631, 50.3205977], [62.6672153, 50.3250817], [62.6624603, 50.3303515], [62.6633958, 50.3376285], [62.6560573, 50.3382037], [62.6500492, 50.3446402], [62.6429338, 50.3437734], [62.6447277, 50.3474062], [62.6388568, 50.3513318], [62.6437063, 50.3563426], [62.6396207, 50.3584139], [62.6415519, 50.3617267], [62.6390285, 50.3627492], [62.6419897, 50.3650762], [62.6401357, 50.3689538], [62.6431827, 50.3753587], [62.6346855, 50.3856485], [62.628643, 50.3903096], [62.6119918, 50.3907474], [62.6093225, 50.3967841], [62.5921993, 50.404252], [62.5894956, 50.408683], [62.5784235, 50.4067411], [62.5576095, 50.4163131], [62.559721, 50.4229126], [62.5498504, 50.4361716], [62.5509147, 50.4437331], [62.5419025, 50.447969], [62.5373621, 50.4588264], [62.5218181, 50.4632973], [62.5151748, 50.4731952], [62.5070209, 50.4778655], [62.5049524, 50.4874682], [62.5013046, 50.4900088], [62.5033645, 50.4934476], [62.5010042, 50.500791], [62.5253887, 50.5097805], [62.5285129, 50.515611], [62.4946316, 50.5562244], [62.497042, 50.590701], [62.4398026, 50.6887064], [62.3587597, 50.6641977], [62.2669253, 50.6415066], [62.2295418, 50.6760218], [62.2764607, 50.7218448], [62.2632601, 50.7561288], [62.2357091, 50.7855901], [62.2218367, 50.8136176], [62.2764924, 50.801556], [62.3114652, 50.8414364], [62.4302613, 50.8528345], [62.256673, 50.9638071], [62.2285783, 50.978418], [62.2084928, 51.0130433], [62.275578, 51.0411558], [62.2830313, 51.0801644], [62.1810776, 51.129435], [62.1311626, 51.1387589], [62.1041875, 51.1288912], [62.0810046, 51.1113456], [62.0732541, 51.0730547], [61.9947382, 51.0893369], [61.9976978, 51.1083931], [61.9519399, 51.1412059], [61.9421036, 51.1609173], [61.9136577, 51.2624587], [61.9041498, 51.2743663], [61.8521517, 51.3170692], [61.7870868, 51.269131]]]]}}, {"type": "Feature", "properties": {"name": "West Kazakhstan Region", "country": "KAZ"}, "geometry": {"type": "Polygon", "coordinates": [[[54.5652371, 50.5164602], [54.4662357, 50.566632], [54.4139409, 50.6209511], [54.4394046, 50.6609513], [54.4450474, 50.6858863], [54.4595303, 50.7211256], [54.4572701, 50.7228426], [54.4629205, 50.7279933], [54.4658611, 50.7594769], [54.4735976, 50.7784113], [54.4899442, 50.7939763], [54.4979283, 50.7957813], [54.5084152, 50.8056585], [54.5153902, 50.8072966], [54.5185208, 50.8118585], [54.5150741, 50.8180228], [54.5254441, 50.822701], [54.5342429, 50.8489222], [54.5193138, 50.8545846], [54.4526969, 50.8508581], [54.4414999, 50.88203], [54.4372295, 50.8810128], [54.4413373, 50.8800175], [54.4384676, 50.8772798], [54.4285541, 50.8789172], [54.4190114, 50.8754517], [54.4030545, 50.8815075], [54.3618115, 50.8842904], [54.3457431, 50.8965526], [54.3470613, 50.900893], [54.3380029, 50.9034715], [54.3328789, 50.8987559], [54.3180965, 50.8987703], [54.3152038, 50.9084735], [54.3038068, 50.9084735], [54.3058341, 50.9042051], [54.2990601, 50.896248], [54.2900009, 50.9005188], [54.2797717, 50.9178777], [54.2873006, 50.9317112], [54.2873006, 50.9409063], [54.271441, 50.9474349], [54.2773068, 50.9498882], [54.2809051, 50.9456647], [54.2885022, 50.9492345], [54.2806058, 50.9532358], [54.2604736, 50.9504006], [54.2508863, 50.9583186], [54.2450719, 50.9532358], [54.240379, 50.955615], [54.2313517, 50.953639], [54.2161551, 50.9630793], [54.2076497, 50.9606968], [54.1947751, 50.9670755], [54.1903119, 50.9747504], [54.2032269, 50.9841852], [54.2041142, 50.9879398], [54.1862705, 50.9962391], [54.1723456, 50.992237], [54.1721238, 50.9962391], [54.1806989, 51.0006845], [54.1771515, 51.0092979], [54.158051, 51.0099182], [54.1724442, 51.0191904], [54.1680079, 51.0295767], [54.1788028, 51.0292512], [54.1830419, 51.0235932], [54.1944318, 51.0316783], [54.1820042, 51.0426523], [54.1684584, 51.0467721], [54.1660032, 51.0540421], [54.1606012, 51.0583012], [54.1608646, 51.0662924], [54.1428574, 51.0622142], [54.1434082, 51.0578647], [54.1504961, 51.0549297], [54.142594, 51.0511666], [54.1370745, 51.0523483], [54.1386908, 51.0565327], [54.1300105, 51.0625678], [54.1517413, 51.0729205], [54.1508305, 51.0875498], [54.1450117, 51.0986187], [54.1370138, 51.1082417], [54.102915, 51.1183587], [54.0908246, 51.1169188], [54.0778737, 51.1201179], [54.0419965, 51.1361699], [54.036675, 51.1414475], [54.0382199, 51.144463], [54.0555577, 51.1492012], [54.0548711, 51.15297], [54.0389066, 51.1527546], [54.0267186, 51.1629825], [54.0140157, 51.1597529], [54.0025144, 51.1626596], [53.9918714, 51.169764], [53.9783101, 51.1644896], [53.9726453, 51.1654584], [53.9695554, 51.1770825], [53.9352231, 51.1853683], [53.9322446, 51.1875389], [53.9328714, 51.1929828], [53.9141737, 51.1917316], [53.9107969, 51.1855639], [53.9045414, 51.1892414], [53.9045414, 51.1847514], [53.9004523, 51.1810877], [53.8933245, 51.1810936], [53.8956994, 51.1845227], [53.8910336, 51.1866004], [53.8902866, 51.197476], [53.884132, 51.2004761], [53.8691975, 51.1925158], [53.8666225, 51.2003685], [53.8590694, 51.2000458], [53.8540913, 51.1893959], [53.8441349, 51.1932689], [53.8379551, 51.1923007], [53.8307453, 51.1980021], [53.8190723, 51.1933765], [53.8171841, 51.1953129], [53.8252522, 51.2031651], [53.8142658, 51.20295], [53.8084293, 51.2147797], [53.8014164, 51.2120341], [53.7834127, 51.214908], [53.7824976, 51.2104959], [53.7863131, 51.2088406], [53.783618, 51.2055959], [53.7683045, 51.2149208], [53.767065, 51.2106934], [53.7634291, 51.2114614], [53.7650568, 51.209634], [53.7574858, 51.212793], [53.7570419, 51.2094957], [53.760572, 51.2083965], [53.7575703, 51.2067279], [53.7615655, 51.2071384], [53.7522799, 51.2055451], [53.7479408, 51.2076672], [53.7499607, 51.2044706], [53.747447, 51.2039082], [53.735642, 51.2080609], [53.743916, 51.2147719], [53.7383651, 51.2173399], [53.73443, 51.2162434], [53.738006, 51.212785], [53.7224155, 51.2151656], [53.7203059, 51.2169744], [53.7229093, 51.2223348], [53.7091288, 51.2229519], [53.7147096, 51.2266438], [53.7008516, 51.2267219], [53.6946477, 51.2211115], [53.6916553, 51.2236041], [53.6972362, 51.2261716], [53.6925677, 51.2363775], [53.6834971, 51.2313166], [53.6873058, 51.22599], [53.6775089, 51.2267188], [53.6744619, 51.2226771], [53.6726634, 51.22705], [53.6683819, 51.2254202], [53.6705613, 51.2287329], [53.6612586, 51.2311666], [53.6631146, 51.2393423], [53.6585362, 51.235895], [53.6561423, 51.2388926], [53.6603915, 51.242883], [53.656651, 51.24854], [53.660256, 51.2520348], [53.6591164, 51.2552859], [53.6685248, 51.2564635], [53.6697837, 51.2598553], [53.6601857, 51.2571194], [53.6583793, 51.2604923], [53.6543805, 51.2584638], [53.6534737, 51.262152], [53.645517, 51.2623283], [53.643475, 51.2645607], [53.6469083, 51.2649295], [53.6473113, 51.2685316], [53.6525672, 51.2646688], [53.6549572, 51.2672858], [53.6486276, 51.2713302], [53.6460639, 51.2696502], [53.6473249, 51.2749667], [53.641587, 51.2727296], [53.6447262, 51.2769175], [53.6295725, 51.2709007], [53.6272233, 51.2773256], [53.6231277, 51.2750367], [53.617265, 51.2794324], [53.6250819, 51.2828394], [53.6187203, 51.2870263], [53.6123795, 51.2846468], [53.6085334, 51.2884695], [53.6133981, 51.293982], [53.6045002, 51.2926949], [53.6044586, 51.296803], [53.6106331, 51.3007676], [53.6046041, 51.2999357], [53.6060386, 51.3031983], [53.6020678, 51.3019505], [53.595623, 51.3061877], [53.6030865, 51.3171167], [53.6095313, 51.3150896], [53.6047289, 51.322158], [53.6137516, 51.3261335], [53.6166621, 51.323821], [53.619739, 51.3294721], [53.6223585, 51.3286797], [53.6155811, 51.3323688], [53.6237129, 51.3327091], [53.6221339, 51.334757], [53.6245306, 51.3357215], [53.6202464, 51.338653], [53.6254892, 51.3414638], [53.613537, 51.3435586], [53.6217165, 51.345834], [53.6134025, 51.3501473], [53.616227, 51.3549913], [53.6195487, 51.3523193], [53.6210187, 51.3557162], [53.6141632, 51.355509], [53.6110337, 51.3509628], [53.6003043, 51.3499056], [53.6029606, 51.3557511], [53.5952781, 51.3552957], [53.6003043, 51.3631664], [53.5959812, 51.3632314], [53.605721, 51.3649875], [53.6028043, 51.3673289], [53.6082471, 51.372889], [53.6183016, 51.3682701], [53.6213216, 51.3696727], [53.6182648, 51.3668675], [53.6197379, 51.3642922], [53.6278772, 51.3670285], [53.6274721, 51.3724546], [53.6357587, 51.3772135], [53.6224373, 51.3779231], [53.6255084, 51.3817825], [53.6331614, 51.3832005], [53.6221901, 51.3868852], [53.6284381, 51.3871184], [53.628629, 51.3932756], [53.6123536, 51.3972623], [53.5997378, 51.3951374], [53.5844231, 51.4119653], [53.5672526, 51.4155664], [53.5756853, 51.426018], [53.5704185, 51.4331556], [53.5531346, 51.4258532], [53.5369687, 51.4312795], [53.5209367, 51.4250937], [53.5171021, 51.4350905], [53.4971638, 51.4306156], [53.4813987, 51.4425592], [53.482977, 51.4485155], [53.4914785, 51.4500483], [53.4871869, 51.4542203], [53.4753865, 51.4524186], [53.4672516, 51.4388375], [53.4372971, 51.4385425], [53.4403677, 51.4453399], [53.4340711, 51.448929], [53.4374319, 51.4591349], [53.4347995, 51.4685518], [53.4197055, 51.4776525], [53.4264155, 51.482231], [53.4132208, 51.4829437], [53.4123885, 51.4791967], [53.4037538, 51.4879967], [53.3935775, 51.4902611], [53.3700403, 51.4883002], [53.3719343, 51.4898135], [53.3665323, 51.494046], [53.3621298, 51.4884603], [53.3556435, 51.4934725], [53.3535266, 51.4894616], [53.3493398, 51.4933497], [53.3474542, 51.489563], [53.338707, 51.4896417], [53.3385809, 51.4943703], [53.3303737, 51.4926662], [53.3303737, 51.4998533], [53.2974592, 51.4980586], [53.2965385, 51.5012048], [53.2876169, 51.4994777], [53.2862436, 51.4867592], [53.2761156, 51.4820557], [53.2587778, 51.4931723], [53.2580911, 51.4979816], [53.263241, 51.5061027], [53.2550012, 51.5118721], [53.2234155, 51.5112311], [53.2026445, 51.5028972], [53.1822168, 51.5120858], [53.1789552, 51.519243], [53.1966364, 51.5287487], [53.1947481, 51.5330203], [53.1887399, 51.5353695], [53.1791269, 51.5326999], [53.1739771, 51.525438], [53.1739771, 51.5197771], [53.1696855, 51.5175339], [53.1611024, 51.518709], [53.152691, 51.5251176], [53.1422197, 51.5210589], [53.1405031, 51.5173203], [53.1449663, 51.5045], [53.1628191, 51.4980884], [53.1557809, 51.4874006], [53.1403314, 51.4854765], [53.1190454, 51.4913554], [53.0972444, 51.4881488], [53.0802499, 51.5025766], [53.0704652, 51.5047137], [53.0637704, 51.50076], [53.0593073, 51.4909278], [53.0397379, 51.4891108], [53.0344164, 51.4823764], [53.0119287, 51.4798107], [53.0028307, 51.4722195], [52.971245, 51.4854765], [52.9667818, 51.4833385], [52.9669534, 51.4794899], [52.9777681, 51.4738234], [52.9779398, 51.4704017], [52.9659235, 51.4696532], [52.9461824, 51.4771379], [52.9415475, 51.4739303], [52.9420625, 51.4706156], [52.9594003, 51.4617395], [52.9501306, 51.455108], [52.9432642, 51.4576751], [52.9420625, 51.4649479], [52.936226, 51.4711502], [52.9365694, 51.4812005], [52.916485, 51.4829109], [52.9178583, 51.4884695], [52.9274713, 51.4939205], [52.9247247, 51.4979816], [52.9094469, 51.4947755], [52.9065286, 51.4809866], [52.9025804, 51.4766033], [52.8905641, 51.4819488], [52.8888475, 51.490821], [52.8801169, 51.4877474], [52.8806468, 51.4767288], [52.8717266, 51.4746568], [52.8644844, 51.4816609], [52.8701369, 51.4878024], [52.8986322, 51.4957373], [52.9000055, 51.5011875], [52.8960573, 51.5053548], [52.8857576, 51.505889], [52.8574335, 51.4910347], [52.8510117, 51.4923947], [52.8442155, 51.5048205], [52.8383791, 51.5059959], [52.8330576, 51.5001189], [52.8412973, 51.4897521], [52.8332954, 51.4864313], [52.8255045, 51.4912485], [52.8236162, 51.5017218], [52.8158914, 51.4999051], [52.8135578, 51.492396], [52.8101196, 51.4910759], [52.807307, 51.4935578], [52.8105699, 51.5010806], [52.8054373, 51.5054446], [52.799251, 51.5052094], [52.7940904, 51.4989434], [52.7879106, 51.4999051], [52.7868806, 51.5052479], [52.7952921, 51.5116584], [52.7928888, 51.5134746], [52.7815591, 51.5105901], [52.7810442, 51.5008669], [52.7734911, 51.5021492], [52.7714311, 51.505889], [52.7753793, 51.518068], [52.7712595, 51.5220202], [52.7671396, 51.5212725], [52.763878, 51.5134746], [52.7571832, 51.5088807], [52.7580415, 51.4962717], [52.7468835, 51.4959511], [52.7417337, 51.5038589], [52.7346956, 51.5032177], [52.7350349, 51.497176], [52.7511012, 51.4931197], [52.7511012, 51.4886923], [52.7471282, 51.4862738], [52.7372254, 51.4838366], [52.7253064, 51.4858307], [52.7250989, 51.4901323], [52.7347845, 51.495457], [52.7233585, 51.498359], [52.7177011, 51.4837661], [52.6960718, 51.4773517], [52.6752106, 51.4781988], [52.6718675, 51.4751064], [52.6722108, 51.4704017], [52.6891667, 51.4657119], [52.6912653, 51.4600282], [52.687832, 51.4567125], [52.6763307, 51.4584238], [52.6636278, 51.4701878], [52.6644861, 51.4871868], [52.6552295, 51.4906539], [52.6494665, 51.4895607], [52.6456033, 51.484942], [52.6418268, 51.4751064], [52.6449167, 51.4659104], [52.6413118, 51.4630229], [52.6304971, 51.4651618], [52.624317, 51.4741806], [52.617369, 51.4725394], [52.6143081, 51.4658701], [52.624489, 51.4593865], [52.6198541, 51.4546801], [52.6052629, 51.4563916], [52.5955697, 51.4533079], [52.585723, 51.4557427], [52.5838528, 51.4611636], [52.5978815, 51.4708294], [52.5956526, 51.4750529], [52.5864911, 51.4777712], [52.5654375, 51.4635576], [52.5654375, 51.4547871], [52.5458791, 51.4601079], [52.5377612, 51.4649936], [52.5356763, 51.4698876], [52.5389676, 51.4736451], [52.5569329, 51.4798057], [52.5520984, 51.4825436], [52.5544552, 51.484604], [52.5488503, 51.4858835], [52.5540624, 51.4872476], [52.5485632, 51.488781], [52.5515243, 51.490446], [52.5467201, 51.4908223], [52.547687, 51.4928917], [52.5416288, 51.4909069], [52.5420518, 51.4948293], [52.5272177, 51.4961462], [52.5320446, 51.4990497], [52.5188779, 51.4984704], [52.5193213, 51.5021389], [52.5099952, 51.5021211], [52.5049031, 51.5058873], [52.5091139, 51.5084944], [52.5065051, 51.5103031], [52.5089225, 51.512128], [52.5043166, 51.5130271], [52.5020247, 51.5181412], [52.5039271, 51.5219595], [52.5088047, 51.5226181], [52.508161, 51.5291145], [52.5111219, 51.5307073], [52.5009233, 51.5390443], [52.5088762, 51.5417933], [52.5039414, 51.5416242], [52.502225, 51.5435547], [52.5046887, 51.5450749], [52.4961831, 51.5474676], [52.4852902, 51.5699975], [52.4504278, 51.6232537], [52.4297033, 51.6301965], [52.4304477, 51.6330935], [52.4160604, 51.6400708], [52.3843702, 51.6831874], [52.3762261, 51.717523], [52.3802194, 51.71788], [52.3631984, 51.772248], [52.3586696, 51.7758986], [52.3195061, 51.7663392], [52.3200894, 51.7596052], [52.3336668, 51.7514662], [52.3317617, 51.7469533], [52.3353647, 51.7433187], [52.2404009, 51.7239509], [52.2334087, 51.7357561], [52.1798509, 51.7332749], [52.179149, 51.7269374], [52.1762585, 51.7267907], [52.1739702, 51.687327], [52.1695345, 51.6842042], [52.1619935, 51.6866817], [52.0900606, 51.6583765], [52.0747315, 51.6740374], [52.0589924, 51.6681694], [51.9989955, 51.6672166], [51.998881, 51.6832418], [51.8940949, 51.6834084], [51.8941213, 51.6741888], [51.856608, 51.6738058], [51.8646368, 51.6610856], [51.8608071, 51.6509756], [51.8510904, 51.6474492], [51.8439607, 51.6494336], [51.8374014, 51.6405978], [51.8237531, 51.6376396], [51.8239772, 51.6326202], [51.8158901, 51.6262977], [51.817092, 51.6239582], [51.8047067, 51.6188994], [51.7937629, 51.6062689], [51.7856628, 51.604204], [51.7877915, 51.5987716], [51.798174, 51.5978205], [51.7929168, 51.5943684], [51.7988217, 51.5924237], [51.7710736, 51.5820159], [51.8135514, 51.4970155], [51.7307265, 51.4807505], [51.7385855, 51.4651349], [51.6558683, 51.4486144], [51.6407944, 51.4766621], [51.6298564, 51.4749742], [51.6429509, 51.5013517], [51.6571112, 51.505099], [51.6400036, 51.5384631], [51.6128418, 51.5334387], [51.6041271, 51.550782], [51.576808, 51.5455246], [51.5850986, 51.5283633], [51.556929, 51.523115], [51.566159, 51.5058022], [51.4906463, 51.49036], [51.4935461, 51.4845959], [51.4873258, 51.4872937], [51.4729456, 51.4863142], [51.4315407, 51.4748531], [51.3801758, 51.4761548], [51.380041, 51.4858211], [51.286546, 51.4877849], [51.2856128, 51.5319089], [51.2477329, 51.5252261], [51.247912, 51.5322846], [51.2442085, 51.5344535], [51.2469387, 51.5426468], [51.2452316, 51.5560102], [51.2404395, 51.5631243], [51.3803263, 51.56343], [51.380206, 51.6412431], [51.303713, 51.6410569], [51.2721742, 51.6848435], [51.2531067, 51.6870451], [51.2508884, 51.6838461], [51.2399374, 51.6841171], [51.2364513, 51.6873485], [51.2239325, 51.6805234], [51.2144992, 51.6833112], [51.214928, 51.67823], [51.2081761, 51.6784754], [51.2062357, 51.6740702], [51.1972003, 51.6752477], [51.2073827, 51.6706165], [51.2006969, 51.6668538], [51.1764429, 51.6689138], [51.1749857, 51.6739738], [51.167999, 51.673492], [51.1722135, 51.6751165], [51.1709143, 51.6772125], [51.1602354, 51.6756405], [51.1559364, 51.6778478], [51.1553555, 51.672444], [51.1518028, 51.6709104], [51.1377543, 51.6754718], [51.1307892, 51.672555], [51.1250649, 51.6769583], [51.1201776, 51.6736784], [51.1133198, 51.6774365], [51.1139509, 51.6733094], [51.1105824, 51.6717484], [51.1043807, 51.6750337], [51.0968156, 51.674474], [51.0977239, 51.6694136], [51.0841482, 51.6663402], [51.076069, 51.6696909], [51.0691824, 51.6684277], [51.0691939, 51.6730293], [51.0602355, 51.672252], [51.056668, 51.6805728], [51.0442126, 51.6771282], [51.0459679, 51.6804522], [51.0371653, 51.6868067], [51.0309455, 51.6792898], [51.0152705, 51.6766326], [51.0132303, 51.6785725], [51.0110313, 51.6732727], [50.9976334, 51.6713607], [50.9970035, 51.676046], [50.9801209, 51.6750159], [50.9688131, 51.6810737], [50.960508, 51.6777109], [50.9553736, 51.6806378], [50.9470458, 51.6786023], [50.9082339, 51.6826506], [50.8936136, 51.6813752], [50.871413, 51.7534621], [50.7681628, 51.7730366], [50.7671897, 51.7163765], [50.7874107, 51.6847762], [50.8114561, 51.6699508], [50.8325797, 51.6491575], [50.8125697, 51.6491706], [50.8120335, 51.5850431], [50.766649, 51.5855881], [50.7677187, 51.5748048], [50.6789095, 51.5745466], [50.6822006, 51.577494], [50.6768484, 51.5815946], [50.6831537, 51.5869247], [50.7002897, 51.5869369], [50.696678, 51.5897285], [50.6985443, 51.5945489], [50.7080662, 51.5944631], [50.7134407, 51.6010434], [50.7339361, 51.6059807], [50.7331289, 51.6141647], [50.7292858, 51.6157543], [50.7333137, 51.6174926], [50.7317045, 51.628518], [50.6360228, 51.6291513], [50.6359056, 51.6430824], [50.6260892, 51.6430513], [50.6249749, 51.6467789], [50.5851439, 51.6458533], [50.5867676, 51.590609], [50.5653292, 51.5884541], [50.5585231, 51.5999926], [50.5500834, 51.6010861], [50.5377167, 51.5890327], [50.5376605, 51.5105597], [50.5430443, 51.501435], [50.5464666, 51.5011743], [50.5479026, 51.4923194], [50.5560447, 51.4889164], [50.5539402, 51.4861683], [50.5569233, 51.4812761], [50.5543284, 51.4796919], [50.5558527, 51.4727281], [50.5425866, 51.4644457], [50.4985128, 51.4664917], [50.4968553, 51.4277585], [50.3719115, 51.4276504], [50.3891596, 51.4095662], [50.4039473, 51.4043594], [50.3381985, 51.3820107], [50.3739105, 51.332945], [50.2674184, 51.2904893], [50.2513442, 51.2812995], [50.0386824, 51.2512514], [50.0062388, 51.2423883], [49.9111002, 51.2010725], [49.7762888, 51.107179], [49.5628364, 51.1099948], [49.4906367, 51.0986471], [49.456581, 51.1261777], [49.4400097, 51.1155085], [49.442451, 51.1116139], [49.4316965, 51.0901609], [49.3937116, 51.0903299], [49.3974149, 51.0491923], [49.3388959, 50.9872484], [49.3750069, 50.9812152], [49.4083133, 50.9611011], [49.4056211, 50.9590626], [49.4076742, 50.9547712], [49.4131417, 50.9511314], [49.4118099, 50.9387862], [49.4209342, 50.9292809], [49.4236237, 50.9297729], [49.4293381, 50.9202428], [49.426467, 50.9184275], [49.4303817, 50.912043], [49.427372, 50.910909], [49.4279729, 50.9070846], [49.4382711, 50.9010531], [49.4427105, 50.8941657], [49.4430465, 50.8862337], [49.4394709, 50.8865062], [49.4446542, 50.8814875], [49.4403708, 50.8808364], [49.4435504, 50.8772859], [49.4415826, 50.8701006], [49.4336997, 50.8678592], [49.4348995, 50.8658147], [49.4229079, 50.8486852], [49.2621552, 50.8231552], [49.2166496, 50.7991262], [49.1260307, 50.7847803], [49.1057628, 50.7698328], [49.0093035, 50.6825667], [48.9992379, 50.6877093], [48.9537661, 50.6513163], [48.8139517, 50.5954781], [48.7584777, 50.6113213], [48.7540083, 50.6085916], [48.7390697, 50.6104096], [48.7373865, 50.6060648], [48.7232949, 50.6030417], [48.689053, 50.6123503], [48.6765772, 50.6215682], [48.6748877, 50.6272075], [48.6704767, 50.6275911], [48.6635397, 50.6352776], [48.6584091, 50.6351236], [48.6498949, 50.644827], [48.6403273, 50.6467211], [48.6374433, 50.6506977], [48.6322933, 50.6489489], [48.624637, 50.6552908], [48.6062107, 50.661929], [48.5706275, 50.632365], [48.5947884, 50.6158971], [48.6088264, 50.6150543], [48.6112313, 50.6109286], [48.624754, 50.6118125], [48.6395295, 50.6044722], [48.6461261, 50.6062544], [48.6521878, 50.6010634], [48.6501376, 50.589562], [48.6464112, 50.5872922], [48.6642455, 50.5779077], [48.6656716, 50.5694542], [48.6556689, 50.5563394], [48.6560275, 50.550878], [48.6594378, 50.550528], [48.6587645, 50.5457383], [48.6613616, 50.5451104], [48.6585183, 50.5279007], [48.7320665, 50.257163], [48.7939242, 50.2047909], [48.8090227, 50.1704328], [48.763225, 50.0978023], [48.7857835, 50.100973], [48.7929706, 50.0969664], [48.8187877, 50.0963396], [48.8503427, 50.0902361], [48.8515858, 50.0849876], [48.8641105, 50.0771284], [48.8651807, 50.0554265], [48.8723668, 50.0449389], [48.8818397, 50.0392511], [48.8808308, 50.0299621], [48.8975345, 50.0239485], [48.9033674, 50.0184663], [48.7456185, 49.921354], [48.4504364, 49.8350949], [48.4413143, 49.8012104], [48.4265771, 49.8064683], [48.4222124, 49.8136494], [48.4087838, 49.8202647], [48.3979691, 49.8302316], [48.3955659, 49.8359892], [48.378906, 49.8351562], [48.3622635, 49.8250269], [48.3538521, 49.827574], [48.3540238, 49.8313389], [48.3435525, 49.8365428], [48.3416642, 49.8504911], [48.3315362, 49.8484987], [48.3263863, 49.85193], [48.3151352, 49.8721845], [48.2984416, 49.8634461], [48.29849, 49.8605664], [48.2655715, 49.8575302], [48.2395734, 49.8698588], [48.2261922, 49.868056], [48.2283553, 49.8737549], [48.2257425, 49.8789099], [48.2324778, 49.8865524], [48.2334577, 49.8997227], [48.2209305, 49.9080766], [48.2166338, 49.9196412], [48.2073671, 49.9281579], [48.1979355, 49.931064], [48.1917433, 49.9442002], [48.1736565, 49.9473829], [48.17012, 49.9525341], [48.1607923, 49.9565098], [48.1587591, 49.9648453], [48.1615595, 49.9678886], [48.1567902, 49.9716683], [48.1565809, 49.9796006], [48.1316273, 49.9980206], [48.1297354, 50.0063591], [48.1320182, 50.0116791], [48.1251007, 50.0182578], [48.1294126, 50.0285241], [48.1283872, 50.0417889], [48.1237319, 50.052403], [48.1126616, 50.0614281], [48.1140682, 50.0668643], [48.1086014, 50.0744218], [48.1081185, 50.0858071], [48.0952102, 50.1000135], [48.0720151, 50.1048302], [48.0609815, 50.1120321], [48.0489458, 50.1116787], [48.0462726, 50.1150517], [48.0496108, 50.126862], [48.0392219, 50.1272732], [48.0361066, 50.1359787], [48.0274536, 50.1356542], [48.0193319, 50.1410634], [48.0090944, 50.1421016], [47.9990513, 50.1545991], [47.9990513, 50.1690856], [47.9851623, 50.1781973], [47.9871013, 50.1863855], [47.9678854, 50.1931093], [47.957146, 50.2085113], [47.9502799, 50.2130766], [47.9531981, 50.2263669], [47.9372336, 50.2326263], [47.9377486, 50.244484], [47.913201, 50.252607], [47.8876235, 50.267203], [47.8491713, 50.3042764], [47.8373267, 50.3104159], [47.8194478, 50.3130201], [47.819341, 50.3161307], [47.8258254, 50.3207198], [47.8278887, 50.3303269], [47.8112342, 50.3295969], [47.8019644, 50.3346375], [47.7866866, 50.33398], [47.7815788, 50.3396404], [47.7634344, 50.3400265], [47.7605941, 50.3482224], [47.7443748, 50.3556303], [47.7451291, 50.3621451], [47.7396669, 50.3680441], [47.7466294, 50.372892], [47.7433222, 50.3783684], [47.7339809, 50.3812174], [47.7281855, 50.3875196], [47.6981401, 50.3921083], [47.6865971, 50.399792], [47.6769676, 50.4007502], [47.6633854, 50.4085547], [47.6621082, 50.4169442], [47.6722877, 50.4173329], [47.675086, 50.4205749], [47.6694015, 50.4230357], [47.6533174, 50.4217563], [47.6514532, 50.4237691], [47.656396, 50.4273786], [47.6550648, 50.4290039], [47.6482981, 50.4296046], [47.6403478, 50.435888], [47.6423648, 50.4406701], [47.6496623, 50.44181], [47.6490191, 50.4481861], [47.6397174, 50.4424102], [47.6303987, 50.4436912], [47.6251626, 50.4488165], [47.6405812, 50.4503193], [47.6360677, 50.4529834], [47.6373827, 50.4552093], [47.6247286, 50.4600594], [47.6136679, 50.4575789], [47.6108351, 50.4597734], [47.6121537, 50.4636776], [47.541827, 50.4609116], [47.5052139, 50.4333296], [47.4721539, 50.4198194], [47.4187495, 50.3650576], [47.4113617, 50.3433173], [47.4055136, 50.3390294], [47.4066832, 50.3363732], [47.3910974, 50.3336995], [47.3830569, 50.3281049], [47.3777256, 50.3284939], [47.3736434, 50.3329223], [47.3654462, 50.3290426], [47.3489301, 50.3303727], [47.3470587, 50.3280945], [47.3398778, 50.3319562], [47.324945, 50.3173668], [47.3065711, 50.3090775], [47.3049256, 50.3035894], [47.3001348, 50.3033031], [47.2914612, 50.2827022], [47.3006527, 50.2631551], [47.3349741, 50.2380145], [47.2572963, 50.1917514], [47.316773, 50.1523651], [47.3526454, 50.0940359], [47.1823601, 49.9350266], [46.9573539, 49.8713974], [46.9295778, 49.8747541], [46.9024721, 49.8638515], [46.870089, 49.7428934], [46.857768, 49.6436007], [46.8442733, 49.6065618], [46.8371482, 49.606619], [46.8388661, 49.5657802], [46.829259, 49.565653], [46.8058454, 49.4292962], [46.7820865, 49.3398271], [46.8379988, 49.3191285], [46.9145209, 49.2828391], [46.9961212, 49.2323819], [47.0511394, 49.1655918], [47.0286778, 49.0892954], [46.9719153, 49.0274277], [46.8925747, 48.9821145], [46.791675, 48.9519442], [46.7791649, 48.9514137], [46.492161, 48.4336187], [46.6446167, 48.3856556], [46.6767593, 48.3894779], [46.7465432, 48.3539942], [46.889167, 48.3271889], [46.9089949, 48.319389], [46.9312631, 48.3166132], [47.1237606, 48.269529], [47.1112309, 48.2337292], [47.1678501, 48.2182204], [47.2855766, 48.2223274], [47.7955172, 48.1690138], [48.6790014, 48.1030625], [48.9563289, 48.0509979], [49.4468125, 47.9204969], [49.4388424, 48.0243115], [49.7509039, 48.0129774], [49.8055234, 48.0427816], [49.974004, 48.0400239], [50.1769337, 48.1796072], [50.7273563, 48.4261208], [50.7901875, 48.4272353], [50.8838121, 48.4864154], [50.9248685, 48.4728614], [51.0173877, 48.510654], [51.0732812, 48.6265184], [51.2806393, 48.6359586], [51.3996694, 48.672051], [51.8235317, 48.6237173], [51.8503343, 48.5874631], [51.8156094, 48.5714978], [51.8127187, 48.5139031], [51.9390425, 48.5247844], [52.0697303, 48.4658967], [52.1646089, 48.4823562], [52.2082566, 48.48629], [52.4283641, 48.4033044], [52.5360533, 48.4049841], [52.5559889, 48.5139401], [52.5366138, 48.5918641], [52.5739636, 48.6606456], [52.5864672, 48.7137312], [52.6126211, 48.7661911], [52.638217, 48.7595452], [52.7158276, 48.7620091], [52.7127626, 48.9111481], [52.7061488, 48.9959573], [52.7821552, 48.9813247], [52.7999248, 49.0190211], [52.825523, 49.0480842], [52.9602868, 49.0279086], [53.2632558, 49.0176868], [53.3073839, 49.023299], [53.4153898, 49.0516619], [53.4254413, 49.0622094], [53.4061515, 49.0877688], [53.3862372, 49.1000877], [53.5548611, 49.1852997], [53.6305382, 49.2403492], [53.6638517, 49.2777404], [53.7298349, 49.4249156], [53.6950075, 49.4774542], [53.7569498, 49.4572861], [53.7978329, 49.5250767], [53.8751868, 49.5703016], [53.9728706, 49.570092], [53.9913224, 49.6186558], [54.1146807, 49.6203469], [54.2005927, 49.6102708], [54.2989078, 49.6479905], [54.2753871, 49.6759464], [54.3453246, 49.7325738], [54.3663679, 49.768281], [54.477086, 49.7683449], [54.4185875, 49.8148916], [54.5149151, 49.9243699], [54.5111226, 49.9538961], [54.555976, 50.0125839], [54.5433587, 50.0628251], [54.4754268, 50.0834992], [54.47235, 50.1089047], [54.4251833, 50.11824], [54.4214478, 50.2034159], [54.4398039, 50.2732121], [54.3650437, 50.340237], [54.464746, 50.4032038], [54.4638324, 50.4156985], [54.4999233, 50.467168], [54.5652371, 50.5164602]]]}}]}