{"type": "FeatureCollection", "features": [{"type": "Feature", "properties": {"name": "Kazakhstan"}, "geometry": {"type": "MultiPolygon", "coordinates": [[[[47.308719, 50.044802], [47.328563, 50.072965], [47.327633, 50.109294], [47.273062, 50.158438], [47.265104, 50.186343], [47.32231, 50.2374], [47.294766, 50.275434], [47.30567, 50.294864], [47.392228, 50.323234], [47.438892, 50.383179], [47.511497, 50.436923], [47.556921, 50.45258], [47.599296, 50.452684], [47.624669, 50.440798], [47.689988, 50.386331], [47.749106, 50.360235], [47.776494, 50.329797], [47.808224, 50.319927], [47.913437, 50.243859], [47.953641, 50.204895], [47.993225, 50.181796], [48.012242, 50.142108], [48.074564, 50.105263], [48.096371, 50.078546], [48.112494, 50.021961], [48.12376699630508, 50.0], [47.24842995688252, 50.0], [47.308719, 50.044802]]], [[[48.885677, 50.019894], [48.874102, 50.069813], [48.851829, 50.097253], [48.782841, 50.111464], [48.789042, 50.173011], [48.770955, 50.211045], [48.728891, 50.265408], [48.701296, 50.334603], [48.674424, 50.47847], [48.67339, 50.579549], [48.648482, 50.601564], [48.572931, 50.61686], [48.56828, 50.636549], [48.58399, 50.649623], [48.608795, 50.647917], [48.739588, 50.597533], [48.786252, 50.590608], [48.830435, 50.596034], [49.012698, 50.683419], [49.102408, 50.757988], [49.144059, 50.781708], [49.283689, 50.803722], [49.36942, 50.82677], [49.408436, 50.848267], [49.423732, 50.882063], [49.40549, 50.913534], [49.347354, 50.96428], [49.359137, 50.992651], [49.392726, 51.034199], [49.410606, 51.085539], [49.436548, 51.112333], [49.460112, 51.116158], [49.539746, 51.100784], [49.779059, 51.102179], [49.842828, 51.150677], [49.98685, 51.22982], [50.02876, 51.242997], [50.207457, 51.265942], [50.325383, 51.303459], [50.348947, 51.322605], [50.337578, 51.372033], [50.376232, 51.397019], [50.359592, 51.413323], [50.379643, 51.421152], [50.457467, 51.426888], [50.478965, 51.453734], [50.518342, 51.459754], [50.527231, 51.470089], [50.52537, 51.565587], [50.575703, 51.588428], [50.581698, 51.635299], [50.599836, 51.634731], [50.639265, 51.616179], [50.694197, 51.611166], [50.658696, 51.576181], [50.670891, 51.567525], [50.719984, 51.567422], [50.764322, 51.578662], [50.790677, 51.597291], [50.794501, 51.625971], [50.747372, 51.709041], [50.744168, 51.742373], [50.767009, 51.7594], [50.839253, 51.745525], [50.873669, 51.721883], [50.900748, 51.68713], [50.925449, 51.679689], [51.169775, 51.669483], [51.233854, 51.685477], [51.251838, 51.678526], [51.288425, 51.64287], [51.371934, 51.629589], [51.381959, 51.609797], [51.381132, 51.587059], [51.358963, 51.561479], [51.241657, 51.543702], [51.236541, 51.535899], [51.273025, 51.492595], [51.304238, 51.47164], [51.379478, 51.467092], [51.461851, 51.475283], [51.514974, 51.492698], [51.559829, 51.534582], [51.584324, 51.534918], [51.620497, 51.518691], [51.624425, 51.481019], [51.647369, 51.451228], [51.693309, 51.454096], [51.782296, 51.492853], [51.782968, 51.529827], [51.767775, 51.562978], [51.764726, 51.593312], [51.869164, 51.673074], [51.924768, 51.678268], [51.978615, 51.660362], [52.035252, 51.652404], [52.091786, 51.658708], [52.11101, 51.67031], [52.14801, 51.716069], [52.174107, 51.725242], [52.258184, 51.724208], [52.279578, 51.735345], [52.292239, 51.765627], [52.307794, 51.774541], [52.334872, 51.763715], [52.37766, 51.660104], [52.44453, 51.580186], [52.478843, 51.504868], [52.505818, 51.478874], [52.545815, 51.459522], [52.575064, 51.467144], [52.663689, 51.463449], [52.668547, 51.455129], [52.709475, 51.482078], [52.745545, 51.487013], [52.764665, 51.505255], [52.779755, 51.508123], [52.820682, 51.487013], [52.896543, 51.485282], [52.882797, 51.467144], [52.944292, 51.452881], [52.998863, 51.480192], [53.037103, 51.489726], [53.157199, 51.487013], [53.148621, 51.504764], [53.165778, 51.514557], [53.190479, 51.51249], [53.214147, 51.494765], [53.232234, 51.500682], [53.307371, 51.493835], [53.346335, 51.503033], [53.407313, 51.484171], [53.453409, 51.4419], [53.555418, 51.415519], [53.610298, 51.388415], [53.617946, 51.372137], [53.574435, 51.353223], [53.593245, 51.339115], [53.588594, 51.305345], [53.594072, 51.289429], [53.642544, 51.255426], [53.649366, 51.237339], [53.67386, 51.219872], [53.857725, 51.184603], [53.908988, 51.190442], [53.93586, 51.185611], [53.994047, 51.15339], [54.017612, 51.119077], [54.11156, 51.096004], [54.149077, 51.009652], [54.145356, 50.992651], [54.176569, 50.967898], [54.233516, 50.943093], [54.275787, 50.904284], [54.300075, 50.894724], [54.381001, 50.885422], [54.419655, 50.864493], [54.478566, 50.853486], [54.485904, 50.845115], [54.485284, 50.825426], [54.421928, 50.768685], [54.407149, 50.684814], [54.37976, 50.619444], [54.383584, 50.59991], [54.399501, 50.578671], [54.435778, 50.54751], [54.499443, 50.523274], [54.591427, 50.542342], [54.647548, 50.573245], [54.67628, 50.602545], [54.673593, 50.634326], [54.639073, 50.706984], [54.650235, 50.786307], [54.626877, 50.811577], [54.651785, 50.846252], [54.638246, 50.885732], [54.502957, 50.928262], [54.545952, 50.953273], [54.525281, 50.991101], [54.533756, 51.003245], [54.638246, 51.027687], [54.685788, 51.023553], [54.74625, 50.992961], [54.811672, 50.972394], [54.894251, 50.912397], [55.04773, 50.884234], [55.063233, 50.862168], [55.061373, 50.822687], [55.084007, 50.796901], [55.305389, 50.664971], [55.347763, 50.65138], [55.415976, 50.661405], [55.467756, 50.656961], [55.491114, 50.64585], [55.52429, 50.600685], [55.570385, 50.588334], [55.616791, 50.549939], [55.659992, 50.530043], [55.694305, 50.538777], [55.764895, 50.586836], [55.932327, 50.646522], [56.078881, 50.72476], [56.100069, 50.74786], [56.137379, 50.868782], [56.15836, 50.905524], [56.174896, 50.908677], [56.258199, 50.884492], [56.315456, 50.88382], [56.335713, 50.895861], [56.350493, 50.948002], [56.364962, 50.957873], [56.415812, 50.962679], [56.432038, 50.976218], [56.421186, 51.033527], [56.47834, 51.073034], [56.508003, 51.066264], [56.596576, 50.984021], [56.688353, 50.969138], [56.707474, 50.97043], [56.709644, 50.981592], [56.682462, 51.03053], [56.680292, 51.049779], [56.716052, 51.072465], [56.76008, 51.080242], [56.813617, 51.05704], [56.865087, 51.051769], [56.941051, 51.068331], [57.02518, 51.062672], [57.072413, 51.069726], [57.154475, 51.099957], [57.168221, 51.093782], [57.181243, 51.073499], [57.19747, 51.017352], [57.272917, 50.997457], [57.334309, 50.897411], [57.418128, 50.862375], [57.467634, 50.858499], [57.491405, 50.86687], [57.53285, 50.909969], [57.555897, 50.918754], [57.689222, 50.896739], [57.722399, 50.908728], [57.737282, 50.938236], [57.728186, 51.037093], [57.734388, 51.073886], [57.768804, 51.119672], [57.796193, 51.123263], [57.841771, 51.105796], [57.912258, 51.103393], [57.960214, 51.077478], [58.077312, 51.097942], [58.088785, 51.091921], [58.090955, 51.076108], [58.113693, 51.065179], [58.167643, 51.055179], [58.190587, 51.06554], [58.223763, 51.123134], [58.308409, 51.150031], [58.365977, 51.108923], [58.377966, 51.070656], [58.398016, 51.063706], [58.52049, 51.061949], [58.563484, 51.049262], [58.595007, 51.023372], [58.602655, 50.98123], [58.596351, 50.962472], [58.554389, 50.92542], [58.546534, 50.911932], [58.550152, 50.893277], [58.571443, 50.863511], [58.640999, 50.863408], [58.651231, 50.85328], [58.646683, 50.801293], [58.664357, 50.789924], [58.747762, 50.795092], [58.768433, 50.78269], [58.793961, 50.737679], [58.811531, 50.725484], [58.925943, 50.678148], [59.197451, 50.662749], [59.219362, 50.658356], [59.246957, 50.629624], [59.273312, 50.615981], [59.437643, 50.631123], [59.498104, 50.599703], [59.563423, 50.57986], [59.560426, 50.553815], [59.535311, 50.54658], [59.478157, 50.552419], [59.451699, 50.537278], [59.450769, 50.522292], [59.466272, 50.507357], [59.522806, 50.474646], [59.555052, 50.484361], [59.622231, 50.524101], [59.774677, 50.533712], [59.815708, 50.56291], [59.859219, 50.622544], [59.915133, 50.673807], [59.914616, 50.745896], [59.962159, 50.829508], [59.978075, 50.843771], [60.0, 50.84899024723965], [60.0, 50.0], [48.86822190483781, 50.0], [48.885677, 50.019894]]], [[[59.985723, 51.952282], [59.987273, 51.968845], [60.0, 51.98776878645474], [60.0, 51.930988880288425], [59.985723, 51.952282]]]]}}, {"type": "Feature", "properties": {"name": "Russia"}, "geometry": {"type": "MultiPolygon", "coordinates": [[[[59.987273, 51.968845], [59.985723, 51.952282], [60.0, 51.930988880288425], [60.0, 50.84899024723965], [59.978075, 50.843771], [59.962159, 50.829508], [59.914616, 50.745896], [59.915133, 50.673807], [59.859219, 50.622544], [59.815708, 50.56291], [59.774677, 50.533712], [59.622231, 50.524101], [59.555052, 50.484361], [59.522806, 50.474646], [59.466272, 50.507357], [59.450769, 50.522292], [59.451699, 50.537278], [59.478157, 50.552419], [59.535311, 50.54658], [59.560426, 50.553815], [59.563423, 50.57986], [59.498104, 50.599703], [59.437643, 50.631123], [59.273312, 50.615981], [59.246957, 50.629624], [59.219362, 50.658356], [59.197451, 50.662749], [58.925943, 50.678148], [58.811531, 50.725484], [58.793961, 50.737679], [58.768433, 50.78269], [58.747762, 50.795092], [58.664357, 50.789924], [58.646683, 50.801293], [58.651231, 50.85328], [58.640999, 50.863408], [58.571443, 50.863511], [58.550152, 50.893277], [58.546534, 50.911932], [58.554389, 50.92542], [58.596351, 50.962472], [58.602655, 50.98123], [58.595007, 51.023372], [58.563484, 51.049262], [58.52049, 51.061949], [58.398016, 51.063706], [58.377966, 51.070656], [58.365977, 51.108923], [58.308409, 51.150031], [58.223763, 51.123134], [58.190587, 51.06554], [58.167643, 51.055179], [58.113693, 51.065179], [58.090955, 51.076108], [58.088785, 51.091921], [58.077312, 51.097942], [57.960214, 51.077478], [57.912258, 51.103393], [57.841771, 51.105796], [57.796193, 51.123263], [57.768804, 51.119672], [57.734388, 51.073886], [57.728186, 51.037093], [57.737282, 50.938236], [57.722399, 50.908728], [57.689222, 50.896739], [57.555897, 50.918754], [57.53285, 50.909969], [57.491405, 50.86687], [57.467634, 50.858499], [57.418128, 50.862375], [57.334309, 50.897411], [57.272917, 50.997457], [57.19747, 51.017352], [57.181243, 51.073499], [57.168221, 51.093782], [57.154475, 51.099957], [57.072413, 51.069726], [57.02518, 51.062672], [56.941051, 51.068331], [56.865087, 51.051769], [56.813617, 51.05704], [56.76008, 51.080242], [56.716052, 51.072465], [56.680292, 51.049779], [56.682462, 51.03053], [56.709644, 50.981592], [56.707474, 50.97043], [56.688353, 50.969138], [56.596576, 50.984021], [56.508003, 51.066264], [56.47834, 51.073034], [56.421186, 51.033527], [56.432038, 50.976218], [56.415812, 50.962679], [56.364962, 50.957873], [56.350493, 50.948002], [56.335713, 50.895861], [56.315456, 50.88382], [56.258199, 50.884492], [56.174896, 50.908677], [56.15836, 50.905524], [56.137379, 50.868782], [56.100069, 50.74786], [56.078881, 50.72476], [55.932327, 50.646522], [55.764895, 50.586836], [55.694305, 50.538777], [55.659992, 50.530043], [55.616791, 50.549939], [55.570385, 50.588334], [55.52429, 50.600685], [55.491114, 50.64585], [55.467756, 50.656961], [55.415976, 50.661405], [55.347763, 50.65138], [55.305389, 50.664971], [55.084007, 50.796901], [55.061373, 50.822687], [55.063233, 50.862168], [55.04773, 50.884234], [54.894251, 50.912397], [54.811672, 50.972394], [54.74625, 50.992961], [54.685788, 51.023553], [54.638246, 51.027687], [54.533756, 51.003245], [54.525281, 50.991101], [54.545952, 50.953273], [54.502957, 50.928262], [54.638246, 50.885732], [54.651785, 50.846252], [54.626877, 50.811577], [54.650235, 50.786307], [54.639073, 50.706984], [54.673593, 50.634326], [54.67628, 50.602545], [54.647548, 50.573245], [54.591427, 50.542342], [54.499443, 50.523274], [54.435778, 50.54751], [54.399501, 50.578671], [54.383584, 50.59991], [54.37976, 50.619444], [54.407149, 50.684814], [54.421928, 50.768685], [54.485284, 50.825426], [54.485904, 50.845115], [54.478566, 50.853486], [54.419655, 50.864493], [54.381001, 50.885422], [54.300075, 50.894724], [54.275787, 50.904284], [54.233516, 50.943093], [54.176569, 50.967898], [54.145356, 50.992651], [54.149077, 51.009652], [54.11156, 51.096004], [54.017612, 51.119077], [53.994047, 51.15339], [53.93586, 51.185611], [53.908988, 51.190442], [53.857725, 51.184603], [53.67386, 51.219872], [53.649366, 51.237339], [53.642544, 51.255426], [53.594072, 51.289429], [53.588594, 51.305345], [53.593245, 51.339115], [53.574435, 51.353223], [53.617946, 51.372137], [53.610298, 51.388415], [53.555418, 51.415519], [53.453409, 51.4419], [53.407313, 51.484171], [53.346335, 51.503033], [53.307371, 51.493835], [53.232234, 51.500682], [53.214147, 51.494765], [53.190479, 51.51249], [53.165778, 51.514557], [53.148621, 51.504764], [53.157199, 51.487013], [53.037103, 51.489726], [52.998863, 51.480192], [52.944292, 51.452881], [52.882797, 51.467144], [52.896543, 51.485282], [52.820682, 51.487013], [52.779755, 51.508123], [52.764665, 51.505255], [52.745545, 51.487013], [52.709475, 51.482078], [52.668547, 51.455129], [52.663689, 51.463449], [52.575064, 51.467144], [52.545815, 51.459522], [52.505818, 51.478874], [52.478843, 51.504868], [52.44453, 51.580186], [52.37766, 51.660104], [52.334872, 51.763715], [52.307794, 51.774541], [52.292239, 51.765627], [52.279578, 51.735345], [52.258184, 51.724208], [52.174107, 51.725242], [52.14801, 51.716069], [52.11101, 51.67031], [52.091786, 51.658708], [52.035252, 51.652404], [51.978615, 51.660362], [51.924768, 51.678268], [51.869164, 51.673074], [51.764726, 51.593312], [51.767775, 51.562978], [51.782968, 51.529827], [51.782296, 51.492853], [51.693309, 51.454096], [51.647369, 51.451228], [51.624425, 51.481019], [51.620497, 51.518691], [51.584324, 51.534918], [51.559829, 51.534582], [51.514974, 51.492698], [51.461851, 51.475283], [51.379478, 51.467092], [51.304238, 51.47164], [51.273025, 51.492595], [51.236541, 51.535899], [51.241657, 51.543702], [51.358963, 51.561479], [51.381132, 51.587059], [51.381959, 51.609797], [51.371934, 51.629589], [51.288425, 51.64287], [51.251838, 51.678526], [51.233854, 51.685477], [51.169775, 51.669483], [50.925449, 51.679689], [50.900748, 51.68713], [50.873669, 51.721883], [50.839253, 51.745525], [50.767009, 51.7594], [50.744168, 51.742373], [50.747372, 51.709041], [50.794501, 51.625971], [50.790677, 51.597291], [50.764322, 51.578662], [50.719984, 51.567422], [50.670891, 51.567525], [50.658696, 51.576181], [50.694197, 51.611166], [50.639265, 51.616179], [50.599836, 51.634731], [50.581698, 51.635299], [50.575703, 51.588428], [50.52537, 51.565587], [50.527231, 51.470089], [50.518342, 51.459754], [50.478965, 51.453734], [50.457467, 51.426888], [50.379643, 51.421152], [50.359592, 51.413323], [50.376232, 51.397019], [50.337578, 51.372033], [50.348947, 51.322605], [50.325383, 51.303459], [50.207457, 51.265942], [50.02876, 51.242997], [49.98685, 51.22982], [49.842828, 51.150677], [49.779059, 51.102179], [49.539746, 51.100784], [49.460112, 51.116158], [49.436548, 51.112333], [49.410606, 51.085539], [49.392726, 51.034199], [49.359137, 50.992651], [49.347354, 50.96428], [49.40549, 50.913534], [49.423732, 50.882063], [49.408436, 50.848267], [49.36942, 50.82677], [49.283689, 50.803722], [49.144059, 50.781708], [49.102408, 50.757988], [49.012698, 50.683419], [48.830435, 50.596034], [48.786252, 50.590608], [48.739588, 50.597533], [48.608795, 50.647917], [48.58399, 50.649623], [48.56828, 50.636549], [48.572931, 50.61686], [48.648482, 50.601564], [48.67339, 50.579549], [48.674424, 50.47847], [48.701296, 50.334603], [48.728891, 50.265408], [48.770955, 50.211045], [48.789042, 50.173011], [48.782841, 50.111464], [48.851829, 50.097253], [48.874102, 50.069813], [48.885677, 50.019894], [48.86822190483781, 50.0], [48.12376699630508, 50.0], [48.112494, 50.021961], [48.096371, 50.078546], [48.074564, 50.105263], [48.024748, 50.131256], [47.993225, 50.181796], [47.953641, 50.204895], [47.913437, 50.243859], [47.808224, 50.319927], [47.776494, 50.329797], [47.749106, 50.360235], [47.689988, 50.386331], [47.624669, 50.440798], [47.599296, 50.452684], [47.556921, 50.45258], [47.511497, 50.436923], [47.469795, 50.411756], [47.392228, 50.323234], [47.322878, 50.304476], [47.30567, 50.294864], [47.294766, 50.275434], [47.32231, 50.2374], [47.265104, 50.186343], [47.273062, 50.158438], [47.327633, 50.109294], [47.328563, 50.072965], [47.308719, 50.044802], [47.24842995688252, 50.0], [40.0, 50.0], [40.0, 64.63787118551527], [40.062755, 64.621894], [40.181651, 64.558661], [40.35906, 64.562079], [40.479991, 64.539618], [40.5171, 64.541449], [40.533214, 64.558987], [40.528494, 64.577948], [40.472423, 64.63642], [40.441417, 64.699408], [40.414887, 64.721503], [40.410899, 64.736802], [40.414806, 64.755113], [40.451427, 64.768134], [40.500662, 64.764594], [40.520193, 64.753852], [40.517345, 64.774115], [40.43686, 64.809149], [40.365896, 64.938788], [40.297374, 64.983547], [40.273123, 65.02143], [40.114024, 65.074693], [40.0, 65.17006512970468], [40.0, 65.65894525991271], [40.06658, 65.668118], [40.279796, 65.729967], [40.47169, 65.812812], [40.636241, 65.932563], [40.710134, 65.972317], [40.795909, 65.991685], [41.018077, 66.007758], [41.105805, 66.030585], [41.34254, 66.062893], [41.434825, 66.095526], [41.464366, 66.119045], [41.554861, 66.152289], [41.643565, 66.172756], [41.638031, 66.183173], [41.642751, 66.18891], [41.857595, 66.296332], [42.020844, 66.41234], [42.119884, 66.504828], [42.155935, 66.526353], [42.200938, 66.532172], [42.365245, 66.511217], [42.644786, 66.452541], [42.661469, 66.443345], [42.660004, 66.425727], [42.575043, 66.401557], [42.548595, 66.385077], [43.252208, 66.436754], [43.302094, 66.426011], [43.325043, 66.40998], [43.367198, 66.347154], [43.406098, 66.33218], [43.555349, 66.323635], [43.654796, 66.284857], [43.682872, 66.265286], [43.692638, 66.237209], [43.665375, 66.217678], [43.467052, 66.170111], [43.389415, 66.117377], [43.301768, 66.101874], [43.288341, 66.090237], [43.335948, 66.067206], [43.352794, 66.04149], [43.450857, 66.037055], [43.476329, 66.022406], [43.514903, 65.974189], [43.52589, 66.018541], [43.521739, 66.036119], [43.500987, 66.05268], [43.411388, 66.061835], [43.382335, 66.071926], [43.411388, 66.097642], [43.479828, 66.131171], [43.583995, 66.150092], [43.635997, 66.151842], [43.67156, 66.17414], [43.71461, 66.186184], [43.759288, 66.177436], [43.836436, 66.185777], [43.946788, 66.140082], [43.987559, 66.108832], [44.045665, 66.081041], [44.052094, 66.072496], [44.049327, 66.056098], [44.027843, 66.029446], [44.040538, 65.993598], [44.167166, 65.885443], [44.179698, 65.864325], [44.190766, 65.904934], [44.173676, 65.934801], [44.124522, 65.987779], [44.12322, 66.013251], [44.151052, 66.058173], [44.158539, 66.086819], [44.148204, 66.104315], [44.083507, 66.158515], [44.079356, 66.206692], [44.096365, 66.261949], [44.151703, 66.357123], [44.210216, 66.402411], [44.236095, 66.447089], [44.360199, 66.508246], [44.37086, 66.522203], [44.394786, 66.621812], [44.430431, 66.643866], [44.563243, 66.666205], [44.551117, 66.677965], [44.487804, 66.676174], [44.451508, 66.700995], [44.434581, 66.733466], [44.38087, 66.763902], [44.364024, 66.782294], [44.376638, 66.804918], [44.466075, 66.819729], [44.487559, 66.844387], [44.481619, 66.893622], [44.521658, 66.91942], [44.499278, 66.921454], [44.480724, 66.953559], [44.432465, 66.982367], [44.409679, 67.011908], [44.302501, 67.055976], [44.315115, 67.074612], [44.377696, 67.104438], [44.286957, 67.087836], [44.206309, 67.124701], [44.095539, 67.158662], [44.039646, 67.167438], [43.916909, 67.160953], [43.815329, 67.177453], [43.761404, 67.221137], [43.766699, 67.277689], [43.793036, 67.343394], [44.003015, 67.576027], [44.023764, 67.616415], [44.024262, 67.656073], [44.04184, 67.680406], [44.083507, 67.687201], [44.097179, 67.666734], [44.144542, 67.679429], [44.151703, 67.693752], [44.143321, 67.706936], [44.076671, 67.707709], [44.069509, 67.714423], [44.11085, 67.75552], [44.130626, 67.792182], [44.125011, 67.816636], [44.086925, 67.841498], [44.087413, 67.885077], [44.097179, 67.892727], [44.200206, 67.892727], [44.268403, 67.926825], [44.234711, 67.938056], [44.148611, 67.925238], [44.124522, 67.934272], [44.138031, 67.975287], [44.213878, 67.988959], [44.138031, 67.995103], [44.162283, 68.012112], [44.334727, 68.057115], [44.411794, 68.063422], [44.359711, 68.070461], [44.307872, 68.065863], [44.180837, 68.036078], [44.170421, 68.056098], [44.174653, 68.086005], [44.203624, 68.136949], [44.208344, 68.172797], [44.244395, 68.255683], [44.243175, 68.277493], [44.22755, 68.29678], [44.160167, 68.336249], [43.325694, 68.613674], [43.291759, 68.635688], [43.273673, 68.658176], [43.317154, 68.666612], [43.477293, 68.669066], [43.746996, 68.616431], [43.984548, 68.551337], [44.239024, 68.537177], [44.510265, 68.554023], [45.306373, 68.545291], [45.582137, 68.514198], [45.943858, 68.446234], [45.971528, 68.389228], [46.015798, 68.365058], [46.029307, 68.324042], [46.080189, 68.310696], [46.276378, 68.21426], [46.366222, 68.210435], [46.421886, 68.191352], [46.534923, 68.132554], [46.519867, 68.121283], [46.461436, 68.111802], [46.540212, 68.108385], [46.547537, 68.098538], [46.545095, 68.044013], [46.557628, 68.016181], [46.576508, 67.997463], [46.638845, 67.968411], [46.650645, 67.944078], [46.702647, 67.891669], [46.722016, 67.844916], [46.698253, 67.816474], [46.661143, 67.80744], [46.375433, 67.819075], [46.211925, 67.802232], [46.004117, 67.767746], [45.448563, 67.729619], [45.350434, 67.730414], [45.309906, 67.712795], [45.303071, 67.694037], [45.34669, 67.685004], [45.350922, 67.663031], [45.337901, 67.61522], [45.314626, 67.592108], [45.165863, 67.584215], [45.028168, 67.531928], [44.966645, 67.491034], [44.918956, 67.440863], [44.927257, 67.422349], [44.91212, 67.371975], [44.951687, 67.320717], [45.055048, 67.283797], [45.309349, 67.211624], [45.509372, 67.185883], [45.593893, 67.15824], [45.638357, 67.107856], [45.646495, 67.083564], [45.665863, 67.062649], [45.784679, 66.968004], [45.80421, 66.918606], [45.824474, 66.899075], [45.853201, 66.88703], [45.964366, 66.866523], [46.025157, 66.833401], [46.301036, 66.840155], [46.489024, 66.878485], [46.578461, 66.87287], [46.597911, 66.857978], [46.598888, 66.837714], [46.533539, 66.826972], [46.481293, 66.784329], [46.379405, 66.748114], [46.406749, 66.746161], [46.489024, 66.769029], [46.583344, 66.815497], [46.827891, 66.844957], [46.926931, 66.844957], [46.981944, 66.863511], [47.024262, 66.859565], [47.409841, 66.929267], [47.457693, 66.927151], [47.558767, 66.904975], [47.575938, 66.891506], [47.571788, 66.864203], [47.581391, 66.869859], [47.606619, 66.892157], [47.590668, 66.919379], [47.606619, 66.946112], [47.674653, 66.983791], [47.725597, 67.000922], [47.742035, 67.030707], [47.749766, 67.121324], [47.735606, 67.145413], [47.694672, 67.180121], [47.689464, 67.196438], [47.78712, 67.251532], [47.79127, 67.26203], [47.776541, 67.29621], [47.770356, 67.337836], [47.793142, 67.360582], [47.907563, 67.40233], [47.93686, 67.423407], [47.947927, 67.444322], [47.942068, 67.465888], [47.920665, 67.488674], [47.824718, 67.560289], [47.814626, 67.581366], [47.845714, 67.600898], [48.008311, 67.65058], [48.052257, 67.651923], [48.099376, 67.639472], [48.079926, 67.617662], [48.071462, 67.590399], [48.092947, 67.592231], [48.147472, 67.628892], [48.255707, 67.682685], [48.35963, 67.688544], [48.486501, 67.664293], [48.529307, 67.667914], [48.656261, 67.712226], [48.699962, 67.715888], [48.743663, 67.700263], [48.701996, 67.694037], [48.924978, 67.68769], [48.996837, 67.666734], [48.962169, 67.653144], [48.994314, 67.642768], [49.076671, 67.631578], [49.1067, 67.639472], [49.044688, 67.653144], [49.05893, 67.67357], [48.922048, 67.70539], [48.85963, 67.735053], [48.777843, 67.727362], [48.770844, 67.741889], [48.805431, 67.773993], [48.79363, 67.831244], [48.585948, 67.934272], [48.623302, 67.943793], [48.669281, 67.935248], [48.842784, 67.865058], [48.970714, 67.850775], [49.133311, 67.862616], [49.319509, 67.900214], [49.510753, 67.955146], [49.654633, 67.981024], [49.794607, 68.036689], [49.972667, 68.087795], [50.017833, 68.091295], [49.982758, 68.061428], [49.881521, 68.039618], [49.846528, 68.016181], [50.00115, 68.058051], [50.098888, 68.124457], [50.200531, 68.168891], [50.26588, 68.179633], [50.352061, 68.207831], [50.434744, 68.220526], [50.641775, 68.300482], [50.778819, 68.379299], [50.847179, 68.351386], [50.895763, 68.341986], [51.058849, 68.351386], [51.125336, 68.375637], [51.336111, 68.401435], [51.423106, 68.430854], [51.446137, 68.434068], [51.510509, 68.422268], [51.568858, 68.435858], [51.586925, 68.447577], [51.5324, 68.454413], [51.560557, 68.483059], [51.607677, 68.492133], [51.702973, 68.488593], [52.060069, 68.543769], [52.177094, 68.582424], [52.217052, 68.584784], [52.204845, 68.559516], [52.181814, 68.542426], [52.128184, 68.523342], [52.059581, 68.515611], [52.046235, 68.50967], [52.051768, 68.492418], [52.066742, 68.482367], [52.176524, 68.503974], [52.294281, 68.499701], [52.333751, 68.493354], [52.361013, 68.474921], [52.299571, 68.474026], [52.286469, 68.461249], [52.302257, 68.437201], [52.296153, 68.424018], [52.258311, 68.408026], [52.158865, 68.398627], [52.13559, 68.379299], [52.248546, 68.317694], [52.269379, 68.31509], [52.340831, 68.336086], [52.402029, 68.337714], [52.477875, 68.361884], [52.573904, 68.409735], [52.677419, 68.423163], [52.71046, 68.440823], [52.731293, 68.474189], [52.724376, 68.489], [52.703624, 68.502875], [52.599294, 68.523668], [52.567068, 68.537014], [52.534679, 68.575873], [52.491384, 68.591539], [52.49879, 68.619534], [52.623871, 68.629055], [52.647716, 68.647935], [52.634451, 68.658515], [52.495453, 68.640082], [52.446788, 68.602729], [52.410655, 68.586493], [52.299327, 68.590522], [52.279063, 68.597805], [52.288748, 68.615424], [52.328461, 68.63345], [52.452891, 68.658149], [52.806488, 68.768012], [52.943696, 68.790229], [53.079356, 68.832343], [53.164317, 68.846015], [53.250011, 68.878404], [53.340587, 68.891425], [53.437022, 68.918158], [53.878591, 68.974107], [54.10377, 69.000678], [54.297862, 69.000474], [54.347667, 69.012274], [54.527354, 69.009955], [54.56129, 68.999701], [54.528982, 68.978461], [54.426036, 68.976711], [54.355968, 68.95897], [53.611827, 68.913479], [53.5949, 68.906928], [53.622813, 68.893256], [53.628103, 68.878607], [53.665538, 68.866278], [53.705414, 68.860663], [53.732107, 68.865912], [53.691173, 68.88581], [53.728038, 68.897447], [53.957693, 68.876614], [54.00115, 68.866848], [54.026215, 68.845445], [53.950857, 68.815416], [53.899262, 68.810248], [53.865001, 68.797919], [53.828949, 68.763617], [53.841319, 68.742418], [53.838064, 68.713284], [53.817719, 68.689154], [53.78712, 68.672797], [53.72047, 68.656928], [53.728282, 68.634711], [53.755138, 68.610419], [53.876475, 68.533637], [53.90447, 68.50731], [53.926931, 68.432563], [53.944347, 68.405992], [53.931895, 68.391018], [53.863048, 68.385565], [53.8213, 68.349677], [53.803722, 68.34455], [53.655935, 68.407538], [53.608897, 68.413479], [53.574474, 68.399807], [53.631684, 68.385688], [53.691173, 68.34455], [53.661469, 68.33218], [53.553966, 68.358832], [53.44044, 68.372504], [53.420584, 68.369371], [53.375499, 68.341132], [53.319102, 68.348049], [53.231781, 68.29678], [53.210704, 68.269355], [53.238943, 68.253485], [53.327403, 68.242133], [53.471528, 68.260321], [53.808442, 68.250678], [53.875173, 68.224066], [53.992524, 68.221381], [54.041352, 68.228095], [54.08839, 68.245836], [54.184906, 68.320543], [54.218761, 68.317857], [54.182384, 68.28144], [54.173106, 68.261786], [54.177094, 68.235907], [54.203298, 68.20954], [54.239757, 68.21133], [54.465099, 68.304185], [54.504405, 68.312201], [54.536306, 68.305813], [54.563324, 68.288153], [54.650157, 68.194322], [54.691091, 68.175971], [54.831879, 68.173285], [54.864024, 68.185126], [54.889822, 68.221991], [54.92449, 68.252672], [54.917166, 68.28266], [54.85613, 68.324042], [54.908051, 68.329495], [54.903982, 68.34455], [54.936697, 68.398424], [54.996755, 68.439154], [55.067556, 68.446194], [55.109386, 68.482367], [55.189464, 68.491034], [55.209158, 68.499091], [55.214366, 68.514797], [55.229259, 68.524359], [55.392914, 68.564276], [55.4935, 68.574286], [55.602387, 68.56977], [55.699555, 68.576565], [55.786632, 68.594672], [55.952647, 68.653998], [55.997081, 68.660468], [56.201996, 68.619534], [56.504405, 68.627834], [56.520844, 68.619086], [56.4935, 68.584784], [56.569347, 68.635688], [56.629649, 68.642035], [56.690684, 68.630764], [56.848399, 68.571601], [57.092459, 68.548], [57.329845, 68.564765], [57.384288, 68.578559], [57.414073, 68.597154], [57.44809, 68.644477], [57.473643, 68.663642], [57.536632, 68.6883], [57.604015, 68.742418], [57.929535, 68.751044], [57.980724, 68.793647], [57.94988, 68.817572], [57.945974, 68.831204], [57.956716, 68.845526], [58.171153, 68.88935], [58.245128, 68.888414], [58.203624, 68.832099], [58.264171, 68.781195], [58.37794, 68.756049], [58.336925, 68.735582], [58.396007, 68.735175], [58.424083, 68.742743], [58.439301, 68.762885], [58.364268, 68.784003], [58.302908, 68.788072], [58.285411, 68.800482], [58.286876, 68.824652], [58.25408, 68.842027], [58.275564, 68.865912], [58.270518, 68.893704], [58.300792, 68.909857], [58.878754, 69.003119], [59.223888, 68.999701], [59.241954, 68.988837], [59.21754, 68.982733], [59.167003, 68.988674], [58.969981, 68.965155], [58.924164, 68.953681], [58.891856, 68.934231], [58.965994, 68.930813], [59.105479, 68.903306], [59.415538, 68.766669], [59.423025, 68.757025], [59.419444, 68.718492], [59.398448, 68.701117], [59.269298, 68.715074], [59.201508, 68.705959], [59.145763, 68.67414], [59.118419, 68.642483], [59.056407, 68.619534], [59.069509, 68.569281], [59.098806, 68.553616], [59.118826, 68.531684], [59.090505, 68.502875], [59.072113, 68.459377], [59.074229, 68.437201], [59.087087, 68.416897], [59.109548, 68.404731], [59.674815, 68.336168], [59.857432, 68.381293], [59.899181, 68.405992], [59.963878, 68.46601], [59.946788, 68.517646], [59.929047, 68.537787], [59.870128, 68.583564], [59.772472, 68.626166], [59.762706, 68.638739], [59.773611, 68.668199], [59.811209, 68.687934], [59.910981, 68.720282], [60.0, 68.70328516557389], [60.0, 51.98776878645474], [59.987273, 51.968845]]], [[[40.004405, 68.019843], [40.058116, 68.010077], [40.148611, 67.957953], [40.29363, 67.913764], [40.303559, 67.901923], [40.352061, 67.906317], [40.410655, 67.875067], [40.417735, 67.865424], [40.403575, 67.852932], [40.321544, 67.851142], [40.321544, 67.844916], [40.385102, 67.799384], [40.466807, 67.761176], [40.503673, 67.75023], [40.538341, 67.754706], [40.567882, 67.782864], [40.564464, 67.807034], [40.654633, 67.814602], [40.670746, 67.810289], [40.684093, 67.781195], [40.800629, 67.728217], [40.84197, 67.724555], [40.923188, 67.734524], [40.965831, 67.725084], [41.039887, 67.677802], [41.053966, 67.653144], [41.052257, 67.619127], [40.989431, 67.563707], [40.990001, 67.555365], [41.01352, 67.535793], [40.999278, 67.467475], [41.08725, 67.459906], [41.150076, 67.423489], [41.136485, 67.385565], [41.132986, 67.309149], [41.108897, 67.253811], [41.140473, 67.235338], [41.242849, 67.213446], [41.307791, 67.234768], [41.339692, 67.223822], [41.363048, 67.203762], [41.335704, 67.159654], [41.34547, 67.148993], [41.38087, 67.137519], [41.390391, 67.124905], [41.384532, 67.110012], [41.34254, 67.087348], [41.34254, 67.046373], [41.360037, 67.013617], [41.349376, 67.00141], [41.329845, 66.998236], [41.279796, 67.002102], [41.267345, 66.988349], [41.304698, 66.962063], [41.304698, 66.949897], [41.270518, 66.902655], [41.178071, 66.809556], [41.041189, 66.745063], [40.917979, 66.672431], [40.860688, 66.652289], [40.814789, 66.622138], [40.744965, 66.597357], [40.718761, 66.570014], [40.719249, 66.541938], [40.705089, 66.528469], [40.602061, 66.496527], [40.565603, 66.455756], [40.506521, 66.440253], [40.444347, 66.405504], [40.308604, 66.381985], [40.158376, 66.329332], [40.084972, 66.288764], [40.0, 66.27307892694127], [40.0, 68.02334003121342], [40.004405, 68.019843]]], [[[51.498302, 68.488593], [51.459809, 68.473944], [51.172374, 68.457099], [51.097423, 68.425238], [50.99879, 68.42536], [50.937266, 68.39647], [50.792491, 68.379299], [50.822276, 68.405341], [50.871837, 68.42829], [51.171723, 68.501451], [51.498302, 68.488593]]], [[[55.442393, 68.940375], [55.480235, 68.930325], [55.506602, 68.913764], [55.36671, 68.927395], [55.225434, 68.913764], [55.239757, 68.927395], [55.369477, 68.947903], [55.442393, 68.940375]]], [[[54.679942, 69.00552], [54.694835, 68.99726], [54.697927, 68.982001], [54.68572, 68.968695], [54.640147, 68.956488], [54.60255, 68.954576], [54.570811, 68.964057], [54.643321, 69.009345], [54.679942, 69.00552]]], [[[42.664935, 66.723234], [42.680973, 66.681886], [42.668029, 66.666691], [42.582632, 66.678512], [42.483422, 66.707326], [42.441732, 66.729538], [42.4265, 66.752009], [42.454868, 66.773662], [42.504491, 66.777906], [42.584757, 66.770294], [42.630229, 66.755617], [42.664935, 66.723234]]], [[[59.24464, 69.145697], [59.161957, 69.174547], [59.060232, 69.242621], [58.782237, 69.326483], [58.762055, 69.338935], [58.81544, 69.340766], [59.150727, 69.254625], [59.200369, 69.229071], [59.179942, 69.215399], [59.234141, 69.190009], [59.24464, 69.145697]]], [[[50.311697, 69.109809], [50.247895, 69.056586], [50.169281, 69.011623], [50.113455, 68.995673], [50.133962, 69.016791], [50.12322, 69.038967], [50.139334, 69.063381], [50.18922, 69.105536], [50.223318, 69.153957], [50.180186, 69.153388], [50.132986, 69.141588], [50.023448, 69.091376], [49.954926, 69.074693], [49.854015, 69.009345], [49.911388, 69.009996], [49.908539, 68.995673], [49.892345, 68.983547], [49.826182, 68.965277], [49.719737, 68.88996], [49.600271, 68.865912], [49.53891, 68.835395], [49.421397, 68.811265], [49.305349, 68.811265], [49.312755, 68.8039], [49.248546, 68.779975], [48.797618, 68.729397], [48.720225, 68.757025], [48.68572, 68.734442], [48.592052, 68.730862], [48.510265, 68.776557], [48.374685, 68.821845], [48.351736, 68.841132], [48.290538, 68.865912], [48.332042, 68.88581], [48.283702, 68.899482], [48.23585, 68.882392], [48.219412, 68.895657], [48.23878, 68.963772], [48.26588, 68.982856], [48.249685, 68.995673], [48.225271, 68.990546], [48.211681, 69.001654], [48.221365, 69.02025], [48.256358, 69.044094], [48.221365, 69.050482], [48.21697, 69.064439], [48.27003, 69.132799], [48.263194, 69.197455], [48.272309, 69.22663], [48.30421, 69.276801], [48.446951, 69.371894], [48.510265, 69.389797], [48.565684, 69.419989], [48.806326, 69.493232], [48.906261, 69.507961], [49.085297, 69.517035], [49.271739, 69.507961], [49.694509, 69.397895], [50.164399, 69.260891], [50.27589, 69.191962], [50.323009, 69.150539], [50.311697, 69.109809]]], [[[59.97462, 69.71247], [59.920421, 69.68773], [59.934093, 69.667873], [59.913097, 69.669623], [59.879405, 69.694525], [59.854015, 69.698676], [59.769542, 69.694525], [59.563487, 69.715033], [59.580089, 69.73078], [59.535492, 69.759711], [59.546886, 69.778998], [59.622081, 69.78734], [59.623709, 69.804348], [59.47755, 69.863471], [59.431488, 69.889472], [59.365408, 69.894599], [59.304861, 69.884345], [59.270274, 69.888495], [59.178477, 69.919013], [59.083669, 69.920478], [58.939708, 69.942206], [58.978201, 69.919908], [59.052989, 69.903062], [59.132091, 69.873277], [59.109141, 69.859768], [59.015961, 69.859687], [59.022227, 69.873277], [58.957205, 69.888007], [58.940196, 69.905951], [58.898774, 69.928656], [58.70333060427618, 70.0], [60.0, 70.0], [60.0, 69.71684232251958], [59.97462, 69.71247]]], [[[40.457774, 64.568264], [40.435557, 64.564154], [40.335948, 64.574164], [40.194835, 64.574164], [40.146983, 64.591742], [40.111013, 64.630357], [40.054698, 64.652533], [40.0, 64.65735257560968], [40.0, 64.7143169013576], [40.043224, 64.700873], [40.188487, 64.708238], [40.253591, 64.68887], [40.268077, 64.656236], [40.302257, 64.635484], [40.351329, 64.620185], [40.431407, 64.612698], [40.447439, 64.600165], [40.457774, 64.568264]]], [[[40.0, 64.73664673232487], [40.0, 64.73754330398499], [40.001964, 64.737372], [40.0, 64.73664673232487]]], [[[40.075531, 64.757025], [40.034841, 64.760565], [40.110688, 64.781195], [40.222423, 64.783922], [40.333507, 64.772406], [40.363536, 64.758205], [40.387869, 64.735745], [40.400564, 64.711249], [40.406749, 64.642483], [40.396007, 64.629136], [40.325694, 64.637641], [40.252208, 64.69892], [40.075531, 64.757025]]], [[[54.340505, 68.306708], [54.343761, 68.292792], [54.338552, 68.276435], [54.316905, 68.259101], [54.220958, 68.245185], [54.199474, 68.256496], [54.200938, 68.27851], [54.239431, 68.303778], [54.329763, 68.331244], [54.338878, 68.327053], [54.29656, 68.31391], [54.340505, 68.306708]]], [[[53.966807, 68.3581], [53.991466, 68.345852], [53.985199, 68.324205], [53.957693, 68.293362], [53.919688, 68.287543], [53.865733, 68.306952], [53.853201, 68.337144], [53.857921, 68.345526], [53.912283, 68.361965], [53.966807, 68.3581]]], [[[49.124278, 68.66767], [48.76588, 68.690375], [48.765961, 68.696601], [49.124278, 68.66767]]], [[[49.598481, 68.814765], [49.550466, 68.795111], [49.499197, 68.78559], [49.491954, 68.792426], [49.579275, 68.819281], [49.598481, 68.814765]]], [[[54.374848, 68.790961], [54.395356, 68.782538], [54.228201, 68.79621], [54.192719, 68.813707], [54.216482, 68.82095], [54.266775, 68.81684], [54.374848, 68.790961]]], [[[49.841807, 68.906236], [49.782237, 68.880683], [49.75172, 68.877427], [49.841807, 68.906236]]], [[[55.01295, 68.935858], [55.022227, 68.928209], [55.019542, 68.915432], [54.949718, 68.917467], [54.911876, 68.930976], [54.927989, 68.940172], [55.01295, 68.935858]]], [[[50.107677, 68.963528], [50.069835, 68.943061], [50.000743, 68.932318], [50.107677, 68.963528]]]]}}]}