{"type": "FeatureCollection", "features": [{"type": "Feature", "properties": {"name": "Marshall Is."}, "geometry": {"type": "MultiPolygon", "coordinates": [[[[166.894216, 11.155178], [166.875255, 11.144965], [166.853363, 11.145413], [166.835785, 11.159247], [166.904145, 11.172919], [166.894216, 11.155178]]], [[[170.874522, 10.286607], [170.878591, 10.287177], [170.878754, 10.275092], [170.874522, 10.286607]]], [[[165.546886, 11.631008], [165.553722, 11.619818], [165.540212, 11.633775], [165.546886, 11.631008]]], [[[165.282237, 11.708441], [165.286794, 11.710883], [165.28891, 11.705959], [165.282237, 11.695787], [165.282237, 11.708441]]], [[[169.013682, 14.6105], [168.987315, 14.586859], [168.998302, 14.599026], [169.013682, 14.6105]]]]}}, {"type": "Feature", "properties": {"name": "U.S. Minor Outlying Is."}, "geometry": {"type": "Polygon", "coordinates": [[[166.638194, 19.286444], [166.634776, 19.305732], [166.648123, 19.297756], [166.652354, 19.284247], [166.644216, 19.27558], [166.619395, 19.281643], [166.638194, 19.286444]]]}}]}