{"type": "FeatureCollection", "features": [{"type": "Feature", "properties": {"name": "Kiribati"}, "geometry": {"type": "MultiPolygon", "coordinates": [[[[173.011241, 1.337348], [173.084727, 1.366685], [173.160655, 1.374945], [173.143321, 1.380316], [173.153168, 1.386542], [173.171723, 1.374172], [173.162934, 1.356513], [173.078624, 1.360012], [173.038259, 1.341051], [173.011241, 1.337348]]], [[[176.813162, -2.614435], [176.850922, -2.654067], [176.840668, -2.662774], [176.827322, -2.656183], [176.772309, -2.608168], [176.813162, -2.614435]]], [[[175.976817, -2.497817], [175.973155, -2.489679], [175.993175, -2.510349], [175.976817, -2.497817]]], [[[175.599946, -1.895115], [175.586274, -1.922459], [175.586274, -1.870782], [175.552257, -1.819268], [175.591482, -1.8742], [175.599946, -1.895115]]], [[[175.068614, -1.497003], [175.060557, -1.531671], [175.038259, -1.552423], [175.012543, -1.549249], [175.008474, -1.526788], [175.020844, -1.499933], [175.045095, -1.484145], [175.018565, -1.519627], [175.018321, -1.531915], [175.028005, -1.541192], [175.058279, -1.506768], [175.051768, -1.452732], [175.038259, -1.436293], [175.045095, -1.428888], [175.058767, -1.436293], [175.068614, -1.497003]]], [[[176.444835, -1.373793], [176.464041, -1.436293], [176.44988, -1.425388], [176.429861, -1.374282], [176.395681, -1.319594], [176.444835, -1.373793]]], [[[176.023448, -1.362888], [176.018321, -1.387872], [175.983572, -1.367446], [175.983572, -1.36061], [176.018321, -1.374282], [176.006358, -1.342706], [175.955903, -1.286554], [175.943126, -1.284845], [175.949392, -1.298517], [175.937022, -1.293064], [175.942149, -1.284845], [175.958018, -1.280206], [175.977306, -1.284845], [176.023448, -1.362888]]], [[[174.778819, -1.264418], [174.75587, -1.257501], [174.746755, -1.185968], [174.716645, -1.134698], [174.743988, -1.14837], [174.778819, -1.264418]]], [[[174.498383, -0.789158], [174.497325, -0.805108], [174.483409, -0.819431], [174.472341, -0.801853], [174.483409, -0.798923], [174.483409, -0.812595], [174.497732, -0.794773], [174.476573, -0.74033], [174.462901, -0.648126], [174.476573, -0.669122], [174.476573, -0.709568], [174.498383, -0.789158]]], [[[174.463634, -0.644789], [174.437185, -0.640802], [174.38087, -0.592869], [174.393891, -0.592869], [174.463634, -0.644789]]], [[[173.609874, 0.143052], [173.634125, 0.174018], [173.638357, 0.195217], [173.606212, 0.215969], [173.628673, 0.219143], [173.641124, 0.208441], [173.640798, 0.192125], [173.620616, 0.133368], [173.609874, 0.143052]]], [[[173.917247, 0.399482], [173.921641, 0.379788], [173.832042, 0.436347], [173.804942, 0.434394], [173.82545, 0.455512], [173.917247, 0.399482]]], [[[172.990245, 0.83397], [172.990001, 0.825426], [172.983409, 0.831285], [172.990245, 0.83397]]], [[[172.982432, 0.831163], [172.969412, 0.839667], [172.975759, 0.839667], [172.982432, 0.831163]]], [[[173.079275, 0.945217], [173.061209, 0.914211], [172.990977, 0.834418], [173.022716, 0.882717], [173.046641, 0.901516], [173.071788, 0.962592], [173.025564, 0.998033], [173.009776, 1.003607], [173.009776, 0.989936], [173.003673, 0.989936], [172.990001, 1.024075], [173.003673, 1.024075], [173.075938, 0.965888], [173.079275, 0.945217]]], [[[172.969412, 1.537991], [172.959158, 1.609687], [172.948985, 1.627346], [172.962901, 1.620592], [172.983165, 1.531195], [172.969412, 1.537991]]], [[[173.038341, 1.742377], [173.029307, 1.716295], [172.993175, 1.712063], [173.023774, 1.721096], [173.035492, 1.743557], [173.027354, 1.810452], [173.038341, 1.742377]]], [[[173.023448, 1.821438], [172.938487, 1.923163], [172.934744, 1.942694], [172.941742, 1.926947], [172.969412, 1.90705], [173.023448, 1.821438]]], [[[172.771495, 3.023871], [172.788259, 3.029039], [172.829112, 3.064276], [172.886974, 3.072943], [172.880138, 3.052476], [172.844412, 3.059801], [172.770274, 3.011461], [172.750336, 3.031968], [172.771495, 3.023871]]], [[[172.969412, 3.12816], [172.886974, 3.100246], [172.944184, 3.127387], [172.962087, 3.141832], [172.969412, 3.12816]]], [[[169.525076, -0.870864], [169.522634, -0.860528], [169.527599, -0.850844], [169.545177, -0.847914], [169.555349, -0.866143], [169.548106, -0.876886], [169.525076, -0.870864]]], [[[173.266124, 2.04385], [173.268565, 2.01142], [173.257823, 1.997016], [173.259613, 2.043402], [173.268565, 2.059312], [173.278005, 2.058661], [173.293468, 2.043443], [173.305431, 1.993313], [173.31837, 1.976996], [173.304454, 1.961575], [173.257498, 1.974595], [173.261485, 1.993232], [173.263927, 1.978013], [173.293712, 1.969143], [173.307872, 1.973293], [173.297374, 1.989895], [173.289724, 2.03384], [173.266124, 2.04385]]]]}}, {"type": "Feature", "properties": {"name": "Marshall Is."}, "geometry": {"type": "MultiPolygon", "coordinates": [[[[168.121104, 5.597357], [168.124522, 5.631049], [168.132009, 5.618557], [168.12794, 5.60163], [168.116222, 5.591376], [168.101085, 5.599311], [168.121104, 5.597357]]], [[[171.743175, 6.083197], [171.745128, 6.079128], [171.72283, 6.083441], [171.72462, 6.101711], [171.743175, 6.083197]]], [[[171.921886, 7.111762], [171.915375, 7.125149], [171.928884, 7.118313], [171.908946, 7.092271], [171.8921, 7.090806], [171.921886, 7.111762]]], [[[168.735037, 4.590522], [168.768077, 4.629055], [168.741384, 4.585842], [168.716807, 4.574774], [168.685395, 4.573798], [168.735037, 4.590522]]], [[[169.617524, 5.818264], [169.629649, 5.840155], [169.655528, 5.942857], [169.734548, 6.013129], [169.721446, 5.97663], [169.665212, 5.938788], [169.63502, 5.829047], [169.615245, 5.798774], [169.590343, 5.80093], [169.617524, 5.818264]]], [[[171.962413, 6.051825], [171.948416, 6.067776], [171.966482, 6.061998], [172.029796, 6.054145], [171.962413, 6.051825]]], [[[171.730317, 6.975572], [171.688731, 7.006578], [171.660411, 7.013088], [171.613943, 7.00609], [171.592621, 7.015286], [171.577322, 7.047187], [171.611176, 7.019924], [171.689464, 7.019924], [171.756684, 6.972113], [171.730317, 6.975572]]], [[[171.366873, 7.094468], [171.293468, 7.083686], [171.263194, 7.067694], [171.235199, 7.067694], [171.202159, 7.072455], [171.060883, 7.135403], [171.035655, 7.155097], [171.050304, 7.170722], [171.05714, 7.143459], [171.22641, 7.075751], [171.393565, 7.109931], [171.366873, 7.094468]]], [[[168.830089, 7.307929], [168.815278, 7.292467], [168.791515, 7.293402], [168.675059, 7.320868], [168.67921, 7.335191], [168.694021, 7.321763], [168.757823, 7.307929], [168.830089, 7.307929]]], [[[168.555186, 7.430325], [168.553722, 7.449856], [168.562511, 7.464342], [168.576834, 7.40412], [168.555186, 7.430325]]], [[[169.116466, 5.649237], [169.120616, 5.647406], [169.114513, 5.638129], [169.116466, 5.649237]]], [[[171.800955, 7.06269], [171.764171, 7.019517], [171.770193, 7.028876], [171.800955, 7.06269]]], [[[168.962087, 7.591702], [168.938487, 7.596381], [168.965587, 7.595364], [168.965587, 7.574652], [168.962087, 7.591702]]], [[[167.407725, 8.307278], [167.399669, 8.310777], [167.401703, 8.317816], [167.407725, 8.307278]]], [[[167.730317, 8.735256], [167.740245, 8.743842], [167.740001, 8.733222], [167.731619, 8.724595], [167.730317, 8.735256]]], [[[170.844737, 8.886501], [170.837413, 8.889065], [170.844574, 8.900784], [170.851736, 8.897773], [170.844737, 8.886501]]], [[[170.23878, 9.466702], [170.243907, 9.466376], [170.247081, 9.45775], [170.240245, 9.449774], [170.23878, 9.466702]]]]}}, {"type": "Feature", "properties": {"name": "Solomon Is."}, "geometry": {"type": "MultiPolygon", "coordinates": [[[[167.165782, -9.868341], [167.170177, -9.859145], [167.180837, -9.860121], [167.195974, -9.885919], [167.185313, -9.894627], [167.165782, -9.868341]]], [[[167.104503, -9.801853], [167.108246, -9.80462], [167.104015, -9.806573], [167.091807, -9.803318], [167.104503, -9.801853]]], [[[161.950043, -9.816827], [161.928477, -9.720147], [161.940196, -9.692153], [161.977794, -9.686619], [161.963552, -9.720636], [161.982432, -9.81756], [161.977794, -9.851007], [161.950043, -9.816827]]], [[[161.375011, -9.41961], [161.368419, -9.379571], [161.347016, -9.343927], [161.35434, -9.338556], [161.415212, -9.386], [161.545177, -9.604669], [161.553966, -9.640313], [161.552501, -9.676365], [161.573009, -9.74863], [161.558604, -9.788995], [161.549164, -9.792576], [161.545177, -9.772231], [161.50408, -9.727472], [161.488292, -9.692071], [161.466482, -9.689874], [161.448904, -9.734959], [161.400727, -9.670017], [161.392345, -9.507582], [161.40919, -9.465997], [161.394786, -9.412774], [161.375011, -9.41961]]], [[[160.824718, -9.867283], [160.798513, -9.884047], [160.684255, -9.911879], [160.644786, -9.937107], [160.57252, -9.919203], [160.508637, -9.889255], [160.432872, -9.889093], [160.40797, -9.858494], [160.387543, -9.858494], [160.37379, -9.837335], [160.320323, -9.815118], [160.208263, -9.810154], [160.123871, -9.823175], [160.031261, -9.823826], [160.0, -9.817763371466569], [160.0, -9.43197092335275], [160.010265, -9.431817], [160.043468, -9.414158], [160.109874, -9.433526], [160.157725, -9.412774], [160.230479, -9.426446], [160.250987, -9.412774], [160.270763, -9.41961], [160.345958, -9.41961], [160.366384, -9.412774], [160.398448, -9.432875], [160.4192, -9.461114], [160.459321, -9.47503], [160.503673, -9.53631], [160.540782, -9.531427], [160.586436, -9.551365], [160.628429, -9.582289], [160.661469, -9.627618], [160.673025, -9.698012], [160.712657, -9.695408], [160.785411, -9.727472], [160.789561, -9.763849], [160.805512, -9.774021], [160.808279, -9.816013], [160.826345, -9.837335], [160.824718, -9.867283]]], [[[160.292003, -9.131606], [160.314952, -9.0617], [160.332286, -9.063409], [160.359223, -9.110935], [160.414236, -9.131606], [160.387218, -9.170831], [160.366384, -9.186212], [160.304942, -9.159845], [160.285167, -9.165785], [160.289317, -9.177992], [160.274425, -9.186456], [160.230479, -9.193048], [160.23463, -9.178806], [160.216156, -9.172621], [160.221934, -9.162774], [160.25408, -9.158949], [160.292003, -9.131606]]], [[[160.083751, -9.052016], [160.079112, -9.039483], [160.123871, -9.029392], [160.134288, -9.015558], [160.141124, -9.023045], [160.147634, -9.008722], [160.141124, -8.994399], [160.147716, -8.989679], [160.172537, -9.002211], [160.208507, -9.002699], [160.222992, -9.023045], [160.230479, -9.023045], [160.240245, -9.00628], [160.257986, -9.009047], [160.295095, -9.039483], [160.301443, -9.061619], [160.294688, -9.089939], [160.264496, -9.131606], [160.257579, -9.120782], [160.244151, -9.1242], [160.242931, -9.1124], [160.228201, -9.098321], [160.216156, -9.097589], [160.222992, -9.117934], [160.216156, -9.117934], [160.187511, -9.081801], [160.156749, -9.094008], [160.119965, -9.09059], [160.106293, -9.083754], [160.09669, -9.056573], [160.083751, -9.052016]]], [[[160.066661, -9.013604], [160.079112, -8.977716], [160.074392, -8.951349], [160.077647, -8.943129], [160.092621, -8.940525], [160.11378, -8.974298], [160.113129, -8.994399], [160.099132, -8.988458], [160.079112, -9.023045], [160.066661, -9.013604]]], [[[162.730479, -8.378188], [162.734874, -8.373793], [162.757579, -8.378513], [162.738617, -8.38836], [162.730479, -8.378188]]], [[[161.299327, -9.580743], [161.289399, -9.548598], [161.24464, -9.48797], [161.237153, -9.447524], [161.17921, -9.381768], [161.110688, -9.347263], [161.086762, -9.319594], [161.04005, -9.313246], [161.045421, -9.296075], [161.017426, -9.264744], [161.003917, -9.255141], [160.973155, -9.251397], [160.969737, -9.220392], [160.946462, -9.200128], [160.889903, -9.174981], [160.867931, -9.152114], [160.795258, -9.019301], [160.764334, -8.94671], [160.771332, -8.933364], [160.74822, -8.855157], [160.693126, -8.751235], [160.68686, -8.674574], [160.65447, -8.604099], [160.701508, -8.567153], [160.7199, -8.562433], [160.719981, -8.553399], [160.695974, -8.501072], [160.651378, -8.43963], [160.593516, -8.384942], [160.581065, -8.340509], [160.601329, -8.325453], [160.675548, -8.343357], [160.70281, -8.364516], [160.730235, -8.349054], [160.695974, -8.320082], [160.70574, -8.306248], [160.723318, -8.302992], [160.723318, -8.309259], [160.758962, -8.316664], [160.777843, -8.343357], [160.809825, -8.367283], [160.829112, -8.420831], [160.847423, -8.432794], [160.881033, -8.483982], [160.996837, -8.603774], [161.01059, -8.641534], [161.002696, -8.662367], [160.942393, -8.692153], [160.95338, -8.71852], [160.937022, -8.758884], [160.946625, -8.813735], [160.975922, -8.850274], [161.014008, -8.836847], [161.02296, -8.840753], [161.059093, -8.871026], [161.053071, -8.889744], [161.059093, -8.898858], [161.103038, -8.909845], [161.151134, -8.94964], [161.168956, -8.974542], [161.155935, -8.969496], [161.142833, -8.988702], [161.175141, -9.011651], [161.180919, -9.02752], [161.175792, -9.042901], [161.188487, -9.054132], [161.191254, -9.083429], [161.228689, -9.103692], [161.22755, -9.119073], [161.202485, -9.138442], [161.230968, -9.158949], [161.255707, -9.156915], [161.258311, -9.179376], [161.284923, -9.186212], [161.284923, -9.193048], [161.244314, -9.205255], [161.249278, -9.228692], [161.260997, -9.241876], [161.266856, -9.278009], [161.278819, -9.289239], [161.26531, -9.296563], [161.254161, -9.280369], [161.24464, -9.275649], [161.235362, -9.281183], [161.24586, -9.303888], [161.296641, -9.360284], [161.328136, -9.438572], [161.347667, -9.455824], [161.381114, -9.509047], [161.392589, -9.609063], [161.386404, -9.621759], [161.375662, -9.624933], [161.299327, -9.580743]]], [[[160.64796, -7.926853], [160.632009, -7.927016], [160.607595, -7.888849], [160.612071, -7.876723], [160.623302, -7.874444], [160.64796, -7.926853]]]]}}, {"type": "Feature", "properties": {"name": "Tuvalu"}, "geometry": {"type": "MultiPolygon", "coordinates": [[[[179.204112, -8.518976], [179.199392, -8.460626], [179.21754, -8.520603], [179.191254, -8.542087], [179.204112, -8.518976]]], [[[178.373302, -8.069024], [178.375499, -8.056085], [178.390636, -8.026544], [178.380544, -8.070001], [178.373302, -8.069024]]], [[[177.150076, -7.188165], [177.152354, -7.195082], [177.152599, -7.200291], [177.150076, -7.188165]]], [[[176.319184, -6.289239], [176.322927, -6.288832], [176.322439, -6.295099], [176.314301, -6.302341], [176.319184, -6.289239]]], [[[177.339854, -6.114516], [177.337169, -6.108168], [177.356619, -6.114516], [177.344086, -6.121026], [177.339854, -6.114516]]], [[[176.125255, -5.679132], [176.140391, -5.687188], [176.148448, -5.70672], [176.125255, -5.679132]]], [[[179.906098, -9.418634], [179.905284, -9.420668], [179.898611, -9.386814], [179.906749, -9.399347], [179.906098, -9.418634]]], [[[179.873302, -9.346856], [179.876964, -9.36297], [179.867442, -9.344334], [179.873302, -9.346856]]], [[[178.667979, -7.463637], [178.665212, -7.454034], [178.691091, -7.475356], [178.691417, -7.49863], [178.667979, -7.463637]]]]}}, {"type": "Feature", "properties": {"name": "Nauru"}, "geometry": {"type": "Polygon", "coordinates": [[[166.955577, -0.497979], [166.958263, -0.517673], [166.938813, -0.551853], [166.916352, -0.54754], [166.906993, -0.524835], [166.913422, -0.500177], [166.938813, -0.490411], [166.955577, -0.497979]]]}}, {"type": "Feature", "properties": {"name": "Micronesia"}, "geometry": {"type": "Polygon", "coordinates": [[[163.04656, 5.323554], [163.019216, 5.272691], [162.916189, 5.286933], [162.91212, 5.304185], [162.924083, 5.321031], [162.990733, 5.374823], [163.01059, 5.379706], [163.026052, 5.368842], [163.026052, 5.340888], [163.04656, 5.323554]]]}}]}