{"type": "FeatureCollection", "features": [{"type": "Feature", "properties": {"name": "Antarctica"}, "geometry": {"type": "MultiPolygon", "coordinates": [[[[40.262869, -68.802179], [40.372732, -68.775323], [40.470551, -68.72617], [40.523936, -68.719171], [40.701834, -68.726821], [40.752208, -68.750665], [40.780772, -68.734633], [40.888845, -68.709405], [40.991954, -68.651462], [41.038259, -68.63421], [41.03891, -68.621352], [41.014822, -68.596449], [41.068614, -68.587498], [41.107921, -68.566095], [41.206879, -68.560154], [41.356293, -68.515883], [41.451996, -68.506606], [41.503673, -68.493097], [41.543956, -68.472101], [41.980724, -68.406345], [42.109141, -68.410903], [42.194102, -68.387628], [42.289236, -68.377699], [42.536143, -68.379571], [42.523204, -68.336196], [42.580414, -68.285577], [42.552419, -68.278985], [42.542735, -68.264907], [42.560313, -68.223728], [42.659434, -68.165785], [42.847911, -68.136895], [42.828624, -68.096449], [42.859386, -68.103774], [42.99586, -68.091485], [43.107432, -68.064142], [43.405528, -68.034601], [43.50766, -68.05934], [43.776052, -68.046482], [43.81072, -68.038995], [43.855968, -68.010431], [43.939952, -67.99863], [44.002208, -67.96852], [44.15504, -67.978448], [44.49643, -67.959405], [44.523204, -67.962986], [44.600759, -68.003351], [44.629893, -68.009373], [44.654959, -68.004978], [44.689464, -67.98268], [44.714366, -67.97617], [44.803233, -67.976332], [44.828624, -67.965916], [44.781098, -67.933201], [44.618012, -67.860447], [44.660492, -67.811456], [44.717133, -67.783624], [44.973155, -67.731134], [45.039561, -67.731866], [45.131602, -67.747166], [45.248709, -67.71502], [45.346934, -67.715427], [45.403819, -67.695082], [45.529552, -67.719334], [45.585297, -67.744887], [45.557465, -67.779962], [45.516938, -67.797947], [45.544932, -67.81756], [45.582774, -67.824395], [45.659841, -67.817478], [45.740896, -67.760919], [45.772227, -67.758559], [45.739513, -67.708673], [45.819347, -67.665216], [45.848643, -67.657485], [46.21697, -67.653009], [46.245372, -67.663751], [46.308442, -67.71502], [46.370779, -67.743422], [46.401622, -67.745375], [46.433604, -67.729587], [46.388438, -67.679295], [46.385265, -67.658868], [46.392914, -67.632582], [46.406016, -67.619399], [46.612071, -67.612074], [46.622732, -67.59002], [46.590587, -67.578709], [46.350352, -67.56878], [46.306, -67.559259], [46.293142, -67.549412], [46.289073, -67.523207], [46.272309, -67.504002], [46.311697, -67.47381], [46.234548, -67.448663], [46.259125, -67.416274], [46.24822, -67.399591], [46.251801, -67.373305], [46.280772, -67.334242], [46.37794, -67.296157], [46.479991, -67.275323], [46.583995, -67.274509], [46.687755, -67.289158], [46.766287, -67.275486], [46.817149, -67.278985], [46.868012, -67.267511], [46.914399, -67.267022], [46.9817, -67.289321], [46.954926, -67.313084], [46.963552, -67.332696], [46.99171, -67.346449], [47.305675, -67.369806], [47.441091, -67.409438], [47.327159, -67.433852], [47.262869, -67.466485], [47.202403, -67.46266], [46.919607, -67.506524], [46.95753, -67.514581], [46.981293, -67.53867], [46.938975, -67.563409], [46.930349, -67.581638], [46.977794, -67.579685], [47.12794, -67.544366], [47.228852, -67.546482], [47.327159, -67.566502], [47.305186, -67.583673], [47.232677, -67.611261], [47.139334, -67.615411], [47.115977, -67.629164], [47.095714, -67.656996], [47.194835, -67.658787], [47.128266, -67.679946], [47.059093, -67.684991], [47.093761, -67.705173], [47.132091, -67.705336], [47.170584, -67.694024], [47.264903, -67.650649], [47.634451, -67.660333], [47.610606, -67.691827], [47.569998, -67.710219], [47.306895, -67.743422], [47.322765, -67.761977], [47.358653, -67.773126], [47.482677, -67.793552], [47.545665, -67.784356], [47.559337, -67.768162], [47.646821, -67.747491], [47.875173, -67.655206], [47.911306, -67.649021], [48.133149, -67.652602], [48.168224, -67.658136], [48.309744, -67.71852], [48.381114, -67.729425], [48.4546, -67.730157], [48.44516, -67.747654], [48.391449, -67.758722], [48.171153, -67.888849], [48.227794, -67.933201], [48.197276, -67.952732], [48.217459, -67.962986], [48.230154, -68.00506], [48.24936, -68.020766], [48.38266, -68.02337], [48.431895, -67.980645], [48.523936, -67.941664], [48.614024, -67.879327], [48.650076, -67.841567], [48.71811, -67.729262], [48.724783, -67.703709], [48.718272, -67.681899], [48.647309, -67.64544], [48.599783, -67.601495], [48.590099, -67.559747], [48.569102, -67.517673], [48.56658, -67.495294], [48.582042, -67.474786], [48.629405, -67.451918], [49.011078, -67.394464], [49.094493, -67.372735], [49.174653, -67.377048], [49.20753, -67.349379], [49.198009, -67.338067], [49.219981, -67.313735], [49.256114, -67.298435], [49.328461, -67.288832], [49.289806, -67.237888], [49.312999, -67.222345], [49.405284, -67.223321], [49.34962, -67.182387], [49.257335, -67.173517], [49.087413, -67.194106], [49.114513, -67.171482], [49.068044, -67.150811], [48.731619, -67.220798], [48.64088, -67.218927], [48.531993, -67.192478], [48.475841, -67.188084], [48.394542, -67.159275], [48.354666, -67.121515], [48.338878, -67.064874], [48.342052, -67.036228], [48.361095, -67.016371], [48.588064, -66.93727], [49.059337, -66.884861], [49.216482, -66.818943], [49.271251, -66.830743], [49.327973, -66.883477], [49.336599, -66.902927], [49.335297, -66.939142], [49.347504, -66.954685], [49.252452, -66.972345], [49.159923, -67.000909], [49.226736, -67.00156], [49.27768, -67.042413], [49.311534, -67.046157], [49.489106, -67.022882], [49.793305, -67.02809], [49.826834, -67.037286], [49.882823, -67.07822], [49.893077, -67.106622], [49.794281, -67.209731], [49.665701, -67.278416], [49.69752, -67.288507], [49.766775, -67.274591], [49.821544, -67.240981], [49.90089, -67.236261], [49.934581, -67.225356], [49.99586, -67.16546], [50.093272, -67.154718], [50.11199, -67.126397], [50.147716, -67.11533], [50.201671, -67.120701], [50.302094, -67.161879], [50.401866, -67.170994], [50.471202, -67.195245], [50.585948, -67.216404], [50.642426, -67.241957], [50.720714, -67.238214], [50.694347, -67.222345], [50.640147, -67.207452], [50.61964, -67.184747], [50.649913, -67.177667], [50.747244, -67.183038], [50.811046, -67.211114], [50.881196, -67.216241], [50.818533, -67.17783], [50.85377, -67.164158], [50.896169, -67.16131], [50.978201, -67.168145], [50.947113, -67.145929], [50.943533, -67.13242], [50.955414, -67.114028], [50.926931, -67.120294], [50.840017, -67.096856], [50.692393, -67.08172], [50.655284, -67.06463], [50.584809, -67.056085], [50.556651, -67.053643], [50.459321, -67.06878], [50.479828, -67.049412], [50.48227, -67.007257], [50.523611, -66.994887], [50.45102, -66.978692], [50.427745, -66.962579], [50.445811, -66.940118], [50.493826, -66.902032], [50.548513, -66.883396], [50.5796, -66.850518], [50.761729, -66.821059], [50.829845, -66.774672], [50.775727, -66.754815], [50.73406, -66.767755], [50.674815, -66.758477], [50.61378, -66.761977], [50.510427, -66.79225], [50.454112, -66.772556], [50.286143, -66.768976], [50.239513, -66.743097], [50.196056, -66.611017], [50.193614, -66.570489], [50.22755, -66.522231], [50.240977, -66.475356], [50.322032, -66.393813], [50.42449, -66.337823], [50.537364, -66.303888], [51.052582, -66.255955], [51.181163, -66.215753], [51.323253, -66.22796], [51.352306, -66.221775], [51.403575, -66.162205], [51.478282, -66.120538], [51.61378, -66.094008], [51.772146, -66.037205], [52.22169, -65.972914], [52.847667, -65.962091], [53.278005, -65.899998], [53.400238, -65.901951], [53.734548, -65.84588], [53.790212, -65.845392], [53.957856, -65.884373], [54.013357, -65.889744], [54.241059, -65.876397], [55.183442, -65.930922], [55.611583, -66.027927], [55.770518, -66.115655], [55.861339, -66.119806], [55.844737, -66.149102], [55.871755, -66.181329], [55.91505, -66.20908], [55.947276, -66.224786], [56.036143, -66.247003], [56.126231, -66.309747], [56.210704, -66.31992], [56.241954, -66.368097], [56.332042, -66.411554], [56.377208, -66.452813], [56.399099, -66.46266], [56.42449, -66.407973], [56.447276, -66.397149], [56.516775, -66.387953], [56.807791, -66.40545], [57.207693, -66.531183], [57.276052, -66.581231], [57.286957, -66.603692], [57.281423, -66.626397], [57.249522, -66.653416], [57.248057, -66.664972], [57.283702, -66.692966], [57.287771, -66.70143], [57.281423, -66.708754], [57.242442, -66.718927], [57.014659, -66.729262], [56.954763, -66.708429], [56.796397, -66.714614], [56.622244, -66.681329], [56.565196, -66.652439], [56.564708, -66.612888], [56.531586, -66.620375], [56.514659, -66.632989], [56.496593, -66.685724], [56.377208, -66.632013], [56.27768, -66.620375], [56.19337, -66.58294], [56.056407, -66.573907], [55.991873, -66.585707], [56.071137, -66.600356], [56.087901, -66.611017], [56.087413, -66.632908], [56.065766, -66.646742], [56.012543, -66.660903], [56.134532, -66.67962], [56.170177, -66.711033], [56.22641, -66.70086], [56.358653, -66.72324], [56.417328, -66.743097], [56.509532, -66.743829], [56.48463, -66.758477], [56.357107, -66.775567], [56.380544, -66.806085], [56.542328, -66.791681], [56.3921, -66.832289], [56.466156, -66.858494], [56.500824, -66.861505], [56.619965, -66.84824], [56.659679, -66.851332], [56.695567, -66.862563], [56.659353, -66.890313], [56.706798, -66.899672], [56.658214, -66.933282], [56.601248, -66.943455], [56.432953, -66.927992], [56.363129, -66.883966], [56.334483, -66.876235], [56.271658, -66.875665], [56.322032, -66.908868], [56.292735, -66.929457], [56.194347, -66.933852], [56.154063, -66.951837], [56.272716, -66.96502], [56.308849, -66.977472], [56.256684, -66.99863], [56.342133, -67.001072], [56.367198, -67.010186], [56.289561, -67.05283], [56.208751, -67.08294], [55.855479, -67.170343], [55.762218, -67.207615], [55.732188, -67.263604], [56.153494, -67.196059], [56.08839, -67.348403], [56.118826, -67.386977], [56.170665, -67.408949], [56.179373, -67.38128], [56.209972, -67.336684], [56.308279, -67.267185], [56.33961, -67.232029], [56.445567, -67.164727], [56.558442, -67.109796], [56.681407, -67.074151], [56.838552, -67.057061], [56.884776, -67.068129], [56.920421, -67.047784], [56.967947, -67.046157], [57.277517, -67.084893], [57.359141, -67.087823], [57.30893, -67.042576], [57.375255, -67.030043], [57.508067, -67.031834], [57.562755, -66.994236], [57.593516, -66.989923], [57.666189, -67.002618], [57.721202, -67.023614], [57.82781, -67.03338], [57.873871, -67.060642], [57.957042, -67.074314], [58.005138, -67.108331], [58.073497, -67.094008], [58.136485, -67.098403], [58.151703, -67.125909], [58.149913, -67.141209], [58.038097, -67.196059], [58.020274, -67.218927], [58.046886, -67.22503], [58.270274, -67.148045], [58.42628, -67.148614], [58.420665, -67.186782], [58.455333, -67.19492], [58.688731, -67.156996], [58.870616, -67.165134], [58.915863, -67.177504], [59.044119, -67.236912], [59.093761, -67.244724], [59.019867, -67.304946], [58.988617, -67.310154], [58.722992, -67.274835], [58.582205, -67.23211], [58.548839, -67.230239], [58.568614, -67.274672], [58.593761, -67.298517], [58.672374, -67.32586], [58.681, -67.343032], [58.793305, -67.341241], [58.939138, -67.376235], [59.051524, -67.428643], [59.093272, -67.4367], [59.126964, -67.424981], [59.128754, -67.446547], [59.116466, -67.45908], [59.030121, -67.471449], [58.98585, -67.4874], [59.02947, -67.490411], [59.061697, -67.508477], [59.208995, -67.498142], [59.264903, -67.484308], [59.411794, -67.544203], [59.480479, -67.594659], [59.51295, -67.606378], [59.593435, -67.594334], [59.509125, -67.524347], [59.526134, -67.514581], [59.594981, -67.52337], [59.65504, -67.510837], [59.640147, -67.461114], [59.645274, -67.438735], [59.666677, -67.421563], [59.648123, -67.415948], [59.646251, -67.406183], [59.657481, -67.397231], [60.0, -67.40360224485028], [60.0, -70.0], [40.0, -70.0], [40.0, -68.81992850627488], [40.262869, -68.802179]]], [[[47.92335, -67.586602], [47.791677, -67.619724], [47.532481, -67.641697], [47.469412, -67.637384], [47.411306, -67.621759], [47.460134, -67.559015], [47.484874, -67.540704], [47.558849, -67.520929], [47.609711, -67.524184], [47.59311, -67.540785], [47.557628, -67.55641], [47.492931, -67.572686], [47.69752, -67.593438], [47.771007, -67.582127], [47.834158, -67.558201], [47.875662, -67.564467], [47.92335, -67.586602]]], [[[48.80893, -66.767348], [48.763357, -66.783298], [48.594737, -66.77752], [48.399913, -66.808038], [48.312185, -66.809503], [48.281586, -66.767185], [48.287852, -66.736261], [48.305024, -66.721612], [48.375255, -66.699151], [48.725352, -66.703058], [48.773692, -66.720473], [48.80893, -66.767348]]]]}}]}