{"type": "FeatureCollection", "features": [{"type": "Feature", "properties": {"name": "Portugal"}, "geometry": {"type": "MultiPolygon", "coordinates": [[[[-25.046742, 37.010728], [-25.016916, 36.970445], [-25.012196, 36.949205], [-25.027089, 36.934312], [-25.119008, 36.952623], [-25.169097, 36.94599], [-25.20165, 36.990424], [-25.170318, 37.01553], [-25.133616, 37.023017], [-25.066803, 37.02147], [-25.046742, 37.010728]]], [[[-25.159169, 37.852037], [-25.135162, 37.822333], [-25.132314, 37.7862], [-25.15685, 37.754543], [-25.194732, 37.740709], [-25.372426, 37.717434], [-25.488271, 37.71369], [-25.505686, 37.706732], [-25.559071, 37.729071], [-25.615549, 37.740912], [-25.704254, 37.744045], [-25.825063, 37.815416], [-25.859486, 37.853909], [-25.841461, 37.905992], [-25.764556, 37.911566], [-25.739084, 37.905992], [-25.704213, 37.882636], [-25.688832, 37.845852], [-25.553782, 37.829657], [-25.498891, 37.850775], [-25.458485, 37.829657], [-25.339752, 37.861802], [-25.197825, 37.864407], [-25.159169, 37.852037]]], [[[-28.063832, 38.442776], [-28.047109, 38.432563], [-28.040598, 38.409084], [-28.054189, 38.398505], [-28.185211, 38.405951], [-28.241851, 38.37759], [-28.274566, 38.405666], [-28.296783, 38.411322], [-28.439443, 38.41352], [-28.459543, 38.405666], [-28.52538, 38.453925], [-28.548899, 38.484442], [-28.548899, 38.528551], [-28.518666, 38.550116], [-28.48526, 38.557807], [-28.374501, 38.550482], [-28.206288, 38.470852], [-28.109486, 38.446601], [-28.063832, 38.442776]]], [[[-28.596059, 38.55272], [-28.643951, 38.535346], [-28.623402, 38.522366], [-28.63622, 38.51553], [-28.671783, 38.522366], [-28.72704, 38.514879], [-28.749582, 38.523505], [-28.77538, 38.554389], [-28.841135, 38.591132], [-28.842397, 38.599433], [-28.766347, 38.606757], [-28.719594, 38.645209], [-28.632639, 38.614], [-28.609731, 38.597398], [-28.596059, 38.55272]]], [[[-27.77892, 38.567084], [-27.76061, 38.549018], [-27.835764, 38.542792], [-27.931996, 38.570299], [-27.976877, 38.593085], [-28.003774, 38.589423], [-28.020741, 38.597398], [-28.034535, 38.590074], [-28.074371, 38.617621], [-28.177887, 38.645087], [-28.215566, 38.682115], [-28.247222, 38.686225], [-28.249257, 38.698188], [-28.312123, 38.735256], [-28.315541, 38.755072], [-28.264475, 38.731513], [-28.034332, 38.666327], [-27.890981, 38.604234], [-27.77892, 38.567084]]], [[[-27.054351, 38.679389], [-27.054351, 38.645209], [-27.089101, 38.631008], [-27.114166, 38.638983], [-27.181711, 38.63935], [-27.204498, 38.652655], [-27.228383, 38.641099], [-27.252919, 38.652655], [-27.327626, 38.666327], [-27.352691, 38.684394], [-27.373402, 38.706977], [-27.391713, 38.758857], [-27.368764, 38.78266], [-27.298207, 38.803534], [-27.144276, 38.796088], [-27.075063, 38.766995], [-27.042551, 38.744452], [-27.040883, 38.714423], [-27.020131, 38.693671], [-27.054351, 38.679389]]], [[[-28.025217, 39.01911], [-28.061635, 39.036282], [-28.072987, 39.052965], [-28.071523, 39.067613], [-28.05484, 39.097724], [-28.034332, 39.105048], [-28.013824, 39.097724], [-28.007069, 39.10456], [-27.942209, 39.053046], [-27.935902, 39.035956], [-27.947174, 39.024237], [-27.983469, 39.015123], [-28.025217, 39.01911]]], [[[-31.186269, 39.496649], [-31.159535, 39.501776], [-31.140736, 39.482733], [-31.13268, 39.465522], [-31.131581, 39.423], [-31.156646, 39.372626], [-31.177235, 39.355618], [-31.193674, 39.364651], [-31.25475, 39.3581], [-31.268788, 39.364651], [-31.284657, 39.397895], [-31.284901, 39.416164], [-31.275624, 39.426093], [-31.280914, 39.443101], [-31.255767, 39.507473], [-31.239329, 39.517564], [-31.20051, 39.522203], [-31.207916, 39.508612], [-31.186269, 39.496649]]], [[[-31.082672, 39.722724], [-31.08023, 39.693305], [-31.099965, 39.664008], [-31.131581, 39.65884], [-31.152699, 39.701077], [-31.141103, 39.720893], [-31.117299, 39.728339], [-31.082672, 39.722724]]]]}}]}