{"type": "FeatureCollection", "features": [{"type": "Feature", "properties": {"name": "Fr. Polynesia"}, "geometry": {"type": "MultiPolygon", "coordinates": [[[[-139.04776, -9.92254], [-139.095855, -9.961684], [-139.12098864883603, -10.0], [-139.14219628150965, -10.0], [-139.14387, -9.997817], [-139.138987, -9.959405], [-139.144439, -9.940362], [-139.103831, -9.888279], [-139.04776, -9.92254]]], [[[-138.814036, -9.739516], [-138.869252, -9.791599], [-138.892079, -9.800714], [-138.955678, -9.809991], [-139.049713, -9.803481], [-139.06192, -9.853936], [-139.126291, -9.840102], [-139.143463, -9.828871], [-139.164906, -9.803318], [-139.173248, -9.774184], [-139.169423, -9.761], [-139.051381, -9.70143], [-139.01537, -9.694431], [-138.984527, -9.699477], [-138.961293, -9.733819], [-138.942738, -9.742364], [-138.866689, -9.755466], [-138.814036, -9.739516]]], [[[-139.503163, -8.899021], [-139.508412, -8.912042], [-139.541656, -8.926202], [-139.585601, -8.929457], [-139.603098, -8.936944], [-139.61677, -8.954197], [-139.612701, -8.939223], [-139.630442, -8.89544], [-139.596913, -8.858005], [-139.582346, -8.86891], [-139.546986, -8.86712], [-139.514394, -8.883966], [-139.503163, -8.899021]]]]}}]}