{"type": "FeatureCollection", "features": [{"type": "Feature", "properties": {"name": "United States of America"}, "geometry": {"type": "MultiPolygon", "coordinates": [[[[-159.947092, 70.597235], [-159.928212, 70.592719], [-159.924387, 70.581488], [-159.948679, 70.544867], [-159.921986, 70.544867], [-159.943837, 70.521959], [-160.0, 70.5205987892889], [-160.0, 70.59189899001879], [-159.947092, 70.597235]]], [[[-159.948476, 70.494452], [-159.921986, 70.489651], [-159.974233, 70.456], [-160.0, 70.42949466123532], [-160.0, 70.48618413721043], [-159.948476, 70.494452]]], [[[-159.969187, 70.372992], [-159.948476, 70.370429], [-159.922231, 70.349311], [-159.91454, 70.331977], [-159.928212, 70.318345], [-159.906199, 70.29914], [-159.907704, 70.284247], [-159.866567, 70.277737], [-159.771189, 70.195461], [-159.770579, 70.225165], [-159.832631, 70.263739], [-159.838816, 70.308417], [-159.853098, 70.325141], [-159.838694, 70.34101], [-159.842519, 70.349433], [-159.887278, 70.387193], [-159.865061, 70.444037], [-159.828603, 70.471259], [-159.825795, 70.497056], [-159.799306, 70.499213], [-159.709706, 70.469794], [-159.540842, 70.499213], [-159.49531, 70.515815], [-159.434763, 70.497056], [-159.418528, 70.499701], [-159.367136, 70.517646], [-159.305776, 70.52619], [-159.291371, 70.538072], [-159.421091, 70.52383], [-159.565134, 70.531236], [-159.572499, 70.517646], [-159.631174, 70.517279], [-159.663808, 70.500067], [-159.715932, 70.497056], [-159.825307, 70.543769], [-159.849436, 70.562323], [-159.864613, 70.599066], [-159.947865, 70.63642], [-160.0, 70.63971954668004], [-160.0, 70.67330123823454], [-159.913035, 70.700629], [-159.812123, 70.715562], [-159.846262, 70.715562], [-159.668162, 70.804999], [-159.595408, 70.813788], [-159.519643, 70.835761], [-159.412058, 70.842027], [-159.346303, 70.863349], [-159.161, 70.886908], [-159.206248, 70.8664], [-159.318796, 70.861029], [-159.37328, 70.845933], [-159.174265, 70.853909], [-159.155141, 70.84634], [-159.140574, 70.825426], [-159.181345, 70.816718], [-159.311838, 70.812445], [-159.449045, 70.784491], [-159.449045, 70.777045], [-159.373606, 70.760932], [-159.321278, 70.769273], [-159.304433, 70.757799], [-159.3249, 70.743557], [-159.222483, 70.68891], [-159.216298, 70.695136], [-159.270497, 70.744615], [-159.279042, 70.764716], [-159.236155, 70.770819], [-159.11974, 70.763983], [-158.989735, 70.777045], [-159.003489, 70.797268], [-159.029164, 70.805121], [-159.085317, 70.804999], [-159.060414, 70.816555], [-158.715403, 70.791327], [-158.338002, 70.81802], [-158.43928, 70.822089], [-158.492991, 70.832343], [-158.523549, 70.852769], [-158.479929, 70.853258], [-158.389394, 70.836737], [-158.04304, 70.836859], [-157.864939, 70.866441], [-157.559071, 70.951361], [-157.231191, 71.071357], [-157.087839, 71.155015], [-157.025502, 71.203192], [-156.817209, 71.306342], [-156.681833, 71.352729], [-156.591908, 71.364732], [-156.471506, 71.412502], [-156.434804, 71.40648], [-156.371653, 71.380316], [-156.400136, 71.377427], [-156.458485, 71.395168], [-156.488352, 71.393988], [-156.552113, 71.364976], [-156.604441, 71.353664], [-156.556467, 71.324693], [-156.549794, 71.308987], [-156.53425, 71.300116], [-156.433705, 71.292182], [-156.447336, 71.276801], [-156.443308, 71.268378], [-156.237009, 71.269192], [-156.141062, 71.256496], [-156.097361, 71.243801], [-156.110951, 71.223334], [-156.042714, 71.215888], [-156.110951, 71.182318], [-156.110951, 71.174872], [-156.034128, 71.182847], [-155.944895, 71.220364], [-155.931711, 71.217027], [-155.916005, 71.196479], [-155.851511, 71.209662], [-155.800893, 71.208808], [-155.624745, 71.183539], [-155.573435, 71.150377], [-155.556101, 71.127102], [-155.551503, 71.100898], [-155.56664, 71.081529], [-155.640004, 71.063137], [-155.679921, 71.041449], [-155.709096, 71.038316], [-155.728017, 71.011054], [-155.7447, 71.004462], [-155.806508, 70.996772], [-155.830759, 70.9831], [-156.104726, 70.968817], [-156.028635, 70.95893], [-156.007924, 70.942125], [-156.047231, 70.929429], [-156.145009, 70.932685], [-156.187327, 70.921698], [-156.087229, 70.926988], [-156.056345, 70.921698], [-156.097361, 70.908026], [-156.067942, 70.902493], [-156.004832, 70.909125], [-155.981272, 70.894355], [-155.994862, 70.886908], [-155.940297, 70.852769], [-155.981191, 70.836737], [-155.987498, 70.825426], [-155.9676, 70.791327], [-155.978098, 70.75967], [-155.909047, 70.771226], [-155.899363, 70.784491], [-155.9228, 70.799954], [-155.926218, 70.811835], [-155.919789, 70.825426], [-155.891428, 70.836656], [-155.808909, 70.830715], [-155.720408, 70.846096], [-155.691233, 70.841132], [-155.658762, 70.824164], [-155.647043, 70.835883], [-155.665964, 70.8664], [-155.645579, 70.868069], [-155.603139, 70.846177], [-155.577138, 70.845933], [-155.534617, 70.877265], [-155.535715, 70.925686], [-155.531077, 70.941799], [-155.517893, 70.952135], [-155.468088, 70.960435], [-155.405873, 70.996772], [-155.344431, 71.011054], [-155.308583, 71.028754], [-155.274973, 71.02558], [-155.243723, 70.997138], [-155.217152, 70.990546], [-155.191721, 70.995063], [-155.182078, 71.006822], [-155.196726, 71.041449], [-155.289174, 71.086127], [-155.186147, 71.127102], [-155.163075, 71.119818], [-155.124013, 71.090237], [-155.097401, 71.086127], [-155.10497, 71.13231], [-155.125315, 71.140774], [-155.08967, 71.154934], [-155.069692, 71.153266], [-155.043202, 71.130927], [-155.056467, 71.099799], [-155.039377, 71.055732], [-155.086741, 71.031155], [-155.097401, 71.017279], [-155.065012, 71.012112], [-155.039011, 71.017401], [-155.021718, 71.032294], [-155.00182, 71.092963], [-155.012807, 71.113349], [-154.971669, 71.120063], [-154.918935, 71.113471], [-154.879587, 71.088202], [-154.839955, 71.101264], [-154.808176, 71.095933], [-154.725819, 71.055121], [-154.631215, 71.031562], [-154.600168, 71.012885], [-154.601999, 70.992133], [-154.643259, 70.965725], [-154.668202, 70.9206], [-154.71288, 70.905585], [-154.788686, 70.896308], [-154.810007, 70.880683], [-154.699818, 70.886217], [-154.631215, 70.852769], [-154.631215, 70.832261], [-154.590281, 70.825426], [-154.43517, 70.83926], [-154.309071, 70.830797], [-154.270823, 70.819037], [-154.24767, 70.798774], [-154.256703, 70.78913], [-154.230336, 70.778388], [-154.130971, 70.791327], [-154.042104, 70.833645], [-153.985341, 70.84691], [-153.918691, 70.894355], [-153.893546, 70.898383], [-153.514027, 70.886908], [-153.448964, 70.899482], [-153.356801, 70.902777], [-153.302439, 70.928656], [-153.255686, 70.932766], [-153.164866, 70.927883], [-153.131174, 70.911119], [-153.075795, 70.90119], [-153.041697, 70.914252], [-152.955678, 70.908026], [-152.942698, 70.903388], [-152.917551, 70.869818], [-152.86559, 70.857001], [-152.849843, 70.859605], [-152.833079, 70.884711], [-152.815745, 70.886908], [-152.714915, 70.821031], [-152.696889, 70.821194], [-152.65746, 70.845933], [-152.673085, 70.866645], [-152.694081, 70.876939], [-152.746816, 70.880683], [-152.712514, 70.890367], [-152.545847, 70.887519], [-152.327504, 70.856879], [-152.219228, 70.81802], [-152.219228, 70.812445], [-152.274159, 70.799994], [-152.375478, 70.749254], [-152.430898, 70.743557], [-152.430898, 70.736029], [-152.415232, 70.731147], [-152.421335, 70.713324], [-152.500844, 70.699205], [-152.514109, 70.68891], [-152.509145, 70.663886], [-152.447947, 70.626044], [-152.253407, 70.599514], [-152.103831, 70.598782], [-152.075266, 70.579047], [-152.417348, 70.586737], [-152.456736, 70.581732], [-152.517201, 70.592719], [-152.580556, 70.582953], [-152.630116, 70.558539], [-152.572621, 70.556708], [-152.534535, 70.544867], [-152.456166, 70.555854], [-151.969106, 70.571601], [-151.848704, 70.558539], [-151.760365, 70.566718], [-151.733266, 70.558539], [-151.803212, 70.518744], [-151.847646, 70.523017], [-151.869822, 70.517646], [-151.790395, 70.502387], [-151.943308, 70.480455], [-151.979685, 70.448717], [-151.73644, 70.435614], [-151.454172, 70.438951], [-151.407826, 70.426907], [-151.352488, 70.426418], [-151.222279, 70.375718], [-151.177113, 70.379788], [-151.208811, 70.422431], [-151.202952, 70.440741], [-151.177724, 70.448717], [-150.979115, 70.456122], [-150.951161, 70.469794], [-150.862416, 70.469794], [-150.835072, 70.482856], [-150.765696, 70.472235], [-150.745107, 70.47663], [-150.773793, 70.484931], [-150.793528, 70.503323], [-150.619089, 70.510728], [-150.581248, 70.503323], [-150.526601, 70.510728], [-150.492502, 70.47663], [-150.379384, 70.497016], [-150.361521, 70.479722], [-150.416737, 70.414537], [-150.253041, 70.442084], [-150.11913, 70.442857], [-149.889719, 70.512763], [-149.811635, 70.496161], [-149.724721, 70.510728], [-149.567087, 70.510728], [-149.488515, 70.523017], [-149.463979, 70.510728], [-149.491322, 70.497056], [-149.383778, 70.488186], [-149.354115, 70.497056], [-149.368398, 70.503323], [-149.344472, 70.510077], [-149.044504, 70.468573], [-148.992299, 70.448717], [-148.964548, 70.429267], [-148.902903, 70.44184], [-148.795847, 70.414537], [-148.682444, 70.420111], [-148.641062, 70.399726], [-148.586985, 70.39411], [-148.518178, 70.369208], [-148.50414, 70.356391], [-148.500966, 70.339911], [-148.51183, 70.318345], [-148.381418, 70.312486], [-148.340566, 70.318345], [-148.257395, 70.354478], [-148.223256, 70.35932], [-148.150746, 70.356431], [-148.118967, 70.348334], [-148.05309, 70.314683], [-147.993723, 70.318101], [-147.977447, 70.312161], [-147.984283, 70.304674], [-147.962229, 70.301418], [-147.888051, 70.312161], [-147.842763, 70.307522], [-147.798695, 70.290432], [-147.819814, 70.269924], [-147.785715, 70.256903], [-147.806142, 70.236477], [-147.679596, 70.212226], [-147.416493, 70.202297], [-147.236969, 70.18122], [-147.217112, 70.188666], [-147.196034, 70.174954], [-147.123687, 70.167548], [-146.880686, 70.174954], [-146.87682, 70.190172], [-146.848785, 70.193427], [-146.433258, 70.18244], [-146.23058, 70.186021], [-146.082631, 70.155666], [-145.983144, 70.153876], [-145.928578, 70.167548], [-145.87267, 70.152818], [-145.880198, 70.174954], [-145.840443, 70.167426], [-145.77123, 70.134101], [-145.713287, 70.123196], [-145.59968, 70.080756], [-145.613881, 70.071357], [-145.597808, 70.071357], [-145.558258, 70.090481], [-145.520497, 70.092434], [-145.455637, 70.051459], [-145.36852, 70.033637], [-145.339223, 70.030341], [-145.215403, 70.044013], [-145.215403, 70.037177], [-145.30060409036145, 70.0], [-160.0, 70.0], [-160.0, 70.36408518970278], [-159.969187, 70.372992]]], [[[-145.15392, 70.003079], [-145.1278759229666, 70.0], [-145.1911300687313, 70.0], [-145.15392, 70.003079]]], [[[-144.509267, 70.019965], [-144.386138, 70.044013], [-144.18692, 70.043606], [-144.15453, 70.048407], [-144.129547, 70.067694], [-144.079254, 70.055365], [-144.064036, 70.044013], [-144.071116, 70.030463], [-144.064036, 70.01675], [-144.06857221585048, 70.0], [-144.55273964549124, 70.0], [-144.509267, 70.019965]]], [[[-144.043284, 70.015123], [-144.023061, 70.051459], [-144.047353, 70.064765], [-144.064036, 70.085598], [-144.017445, 70.092597], [-143.93102, 70.071031], [-143.918935, 70.071357], [-143.905588, 70.088609], [-143.851715, 70.085598], [-143.770579, 70.104438], [-143.742502, 70.106024], [-143.674387, 70.090399], [-143.576527, 70.09394], [-143.560455, 70.106879], [-143.564198, 70.123358], [-143.550689, 70.126614], [-143.510569, 70.096666], [-143.354115, 70.105618], [-143.316762, 70.05565], [-143.297515, 70.043402], [-143.276357, 70.051459], [-143.30248, 70.079413], [-143.307973, 70.098049], [-143.300282, 70.116645], [-143.235666, 70.118232], [-143.166493, 70.106024], [-143.118723, 70.085598], [-143.023061, 70.08983], [-142.98412, 70.062934], [-142.92691, 70.071357], [-142.933746, 70.078803], [-142.879547, 70.074042], [-142.600819, 70.013129], [-142.596099, 70.003892], [-142.59824756866854, 70.0], [-144.05984249708354, 70.0], [-144.043284, 70.015123]]], [[[-148.912221, 70.488593], [-148.979115, 70.480902], [-149.015696, 70.484931], [-149.19404, 70.536933], [-149.313181, 70.544867], [-149.236277, 70.55329], [-148.994578, 70.492906], [-148.922922, 70.501451], [-148.819692, 70.469794], [-148.912221, 70.488593]]]]}}]}