{"type": "FeatureCollection", "features": [{"type": "Feature", "properties": {"name": "Japan"}, "geometry": {"type": "MultiPolygon", "coordinates": [[[[141.365489, 24.777737], [141.330577, 24.76911], [141.289561, 24.726955], [141.289806, 24.76024], [141.29949, 24.785875], [141.330251, 24.794094], [141.357758, 24.789618], [141.365489, 24.777737]]], [[[142.175548, 26.638658], [142.180186, 26.618801], [142.159923, 26.632025], [142.111339, 26.721177], [142.131847, 26.714993], [142.14324, 26.702216], [142.165863, 26.701321], [142.15561, 26.679145], [142.180186, 26.674018], [142.172699, 26.65351], [142.186209, 26.657904], [142.193207, 26.646064], [142.175548, 26.638658]]], [[[142.233246, 27.094306], [142.241059, 27.084296], [142.23463, 27.050035], [142.218516, 27.040351], [142.198578, 27.051093], [142.180186, 27.07807], [142.214366, 27.063788], [142.193207, 27.091742], [142.233246, 27.094306]]], [[[140.867931, 27.233954], [140.874197, 27.238227], [140.878184, 27.232611], [140.869965, 27.218248], [140.867931, 27.233954]]], [[[141.469981, 24.226264], [141.470714, 24.219184], [141.463145, 24.212104], [141.452973, 24.222398], [141.469981, 24.226264]]], [[[153.981212, 24.295356], [153.985606, 24.291083], [153.983653, 24.282945], [153.972992, 24.2897], [153.981212, 24.295356]]], [[[141.274669, 25.427069], [141.27475, 25.451117], [141.297537, 25.445299], [141.29949, 25.434801], [141.287446, 25.417711], [141.274669, 25.427069]]], [[[142.184255, 27.158352], [142.190929, 27.185207], [142.204112, 27.173896], [142.18922, 27.145494], [142.184255, 27.158352]]], [[[142.179454, 27.612494], [142.183116, 27.619452], [142.192882, 27.616197], [142.195323, 27.599107], [142.179454, 27.612494]]], [[[142.078624, 27.72724], [142.082286, 27.729885], [142.085134, 27.72606], [142.080577, 27.716946], [142.078624, 27.72724]]], [[[153.953461, 24.292507], [153.940684, 24.311469], [153.953705, 24.315823], [153.966238, 24.308661], [153.953461, 24.292507]]], [[[142.111664, 27.725857], [142.107188, 27.716742], [142.105154, 27.727037], [142.111664, 27.725857]]]]}}, {"type": "Feature", "properties": {"name": "Guam"}, "geometry": {"type": "Polygon", "coordinates": [[[144.896658, 13.617987], [144.914317, 13.605414], [144.951915, 13.598578], [144.952159, 13.586859], [144.906993, 13.516669], [144.783458, 13.420478], [144.769379, 13.379136], [144.760102, 13.285631], [144.735606, 13.249172], [144.718028, 13.241848], [144.680675, 13.246772], [144.653575, 13.287014], [144.644298, 13.33161], [144.626313, 13.345364], [144.643077, 13.365709], [144.647472, 13.396226], [144.624197, 13.43122], [144.636485, 13.443101], [144.65447, 13.439154], [144.783458, 13.516669], [144.811209, 13.553616], [144.838634, 13.632758], [144.86671, 13.653022], [144.880626, 13.65412], [144.896658, 13.617987]]]}}, {"type": "Feature", "properties": {"name": "N. Mariana Is."}, "geometry": {"type": "MultiPolygon", "coordinates": [[[[145.252452, 14.200385], [145.279959, 14.202786], [145.290538, 14.181383], [145.282074, 14.161038], [145.249848, 14.150051], [145.229015, 14.11994], [145.209972, 14.110663], [145.171641, 14.126166], [145.126231, 14.123236], [145.119314, 14.129584], [145.130707, 14.146918], [145.157237, 14.163764], [145.252452, 14.200385]]], [[[145.652599, 15.059272], [145.647309, 15.017483], [145.667817, 14.982733], [145.645763, 14.929755], [145.625824, 14.915269], [145.606456, 14.928127], [145.578461, 15.017483], [145.611095, 15.066799], [145.633067, 15.082099], [145.652599, 15.059272]]], [[[145.81658, 15.270168], [145.823741, 15.262397], [145.792735, 15.232245], [145.77589, 15.189521], [145.784516, 15.16828], [145.779796, 15.159166], [145.766124, 15.155015], [145.757172, 15.160834], [145.73878, 15.136664], [145.752615, 15.096015], [145.716319, 15.105618], [145.685557, 15.102484], [145.683849, 15.131293], [145.698253, 15.203192], [145.729991, 15.222886], [145.736095, 15.243394], [145.787852, 15.267279], [145.81658, 15.270168]]], [[[145.717621, 16.352607], [145.711192, 16.344957], [145.669119, 16.339179], [145.643809, 16.344631], [145.628184, 16.364081], [145.637706, 16.37995], [145.654145, 16.381171], [145.709483, 16.367499], [145.717621, 16.352607]]], [[[145.824962, 18.167711], [145.839122, 18.145087], [145.835623, 18.128323], [145.758149, 18.061184], [145.743663, 18.05329], [145.719493, 18.054185], [145.713067, 18.077465], [145.739513, 18.090969], [145.750766, 18.113726], [145.756697, 18.161751], [145.771118, 18.175209], [145.824962, 18.167711]]], [[[145.635517, 18.747218], [145.632555, 18.786914], [145.650372, 18.808902], [145.688324, 18.807359], [145.708018, 18.77969], [145.709483, 18.74844], [145.693614, 18.727729], [145.661632, 18.72427], [145.635517, 18.747218]]], [[[145.769054, 16.69477], [145.785899, 16.7001], [145.804535, 16.693061], [145.789236, 16.675482], [145.769054, 16.69477]]], [[[145.835948, 17.305162], [145.851248, 17.309394], [145.868175, 17.301744], [145.854991, 17.285793], [145.835948, 17.305162]]], [[[145.832205, 17.57746], [145.826915, 17.593207], [145.834239, 17.60578], [145.850597, 17.606879], [145.862966, 17.598538], [145.866954, 17.575019], [145.854259, 17.566881], [145.832205, 17.57746]]], [[[145.382091, 19.672797], [145.382091, 19.684149], [145.409923, 19.684475], [145.413748, 19.662421], [145.40561, 19.652777], [145.382091, 19.672797]]], [[[145.226736, 20.029771], [145.23878, 20.050442], [145.24586, 20.030422], [145.272797, 20.032375], [145.265798, 20.017564], [145.250743, 20.009711], [145.226736, 20.029771]]], [[[144.90211, 20.540025], [144.906749, 20.5515], [144.919688, 20.555406], [144.931814, 20.549221], [144.932465, 20.537502], [144.915701, 20.517157], [144.90211, 20.540025]]]]}}]}