{"type": "FeatureCollection", "features": [{"type": "Feature", "properties": {"name": "New Zealand"}, "geometry": {"type": "MultiPolygon", "coordinates": [[[[-171.199696, -9.344334], [-171.2058, -9.330987], [-171.191355, -9.343357], [-171.185658, -9.361261], [-171.199696, -9.344334]]], [[[-172.494944, -8.554783], [-172.502553, -8.543227], [-172.483022, -8.562595], [-172.483632, -8.586521], [-172.494944, -8.554783]]]]}}, {"type": "Feature", "properties": {"name": "Kiribati"}, "geometry": {"type": "MultiPolygon", "coordinates": [[[[-171.712717, -2.822198], [-171.664011, -2.835382], [-171.633249, -2.862074], [-171.626943, -2.855727], [-171.666697, -2.793145], [-171.714589, -2.772882], [-171.721913, -2.78631], [-171.72761, -2.771905], [-171.715077, -2.759047], [-171.649851, -2.797296], [-171.629628, -2.827244], [-171.62446, -2.856134], [-171.625722, -2.86891], [-171.677805, -2.833185], [-171.712717, -2.822198]]], [[[-172.202016, -4.520685], [-172.174387, -4.513116], [-172.20344, -4.532159], [-172.227162, -4.518731], [-172.229604, -4.497328], [-172.20047, -4.493422], [-172.201039, -4.500095], [-172.222768, -4.50628], [-172.202016, -4.520685]]], [[[-174.501536, -4.697361], [-174.521555, -4.683852], [-174.516713, -4.684259], [-174.501536, -4.697361]]], [[[-174.527659, -4.683852], [-174.533884, -4.680759], [-174.541737, -4.672784], [-174.527659, -4.683852]]], [[[-174.513987, -4.676202], [-174.543406, -4.660252], [-174.524403, -4.664483], [-174.501536, -4.687677], [-174.513987, -4.676202]]], [[[-171.244985, -4.441339], [-171.230051, -4.460545], [-171.236521, -4.46852], [-171.259633, -4.465265], [-171.259958, -4.444106], [-171.244985, -4.441339]]], [[[-171.090037, -3.120864], [-171.085439, -3.111261], [-171.083119, -3.129978], [-171.092478, -3.14544], [-171.090037, -3.120864]]], [[[-160.416615, 4.717108], [-160.401194, 4.72309], [-160.378896, 4.713284], [-160.395375, 4.704779], [-160.416615, 4.717108]]]]}}, {"type": "Feature", "properties": {"name": "U.S. Minor Outlying Is."}, "geometry": {"type": "MultiPolygon", "coordinates": [[[[-160.008901, -0.372491], [-160.02477, -0.388767], [-160.029978, -0.376153], [-160.008901, -0.372491]]], [[[-176.476877, 0.197455], [-176.47529, 0.193101], [-176.479319, 0.190334], [-176.485829, 0.196519], [-176.476877, 0.197455]]], [[[-176.459177, 0.219224], [-176.463938, 0.221869], [-176.459543, 0.225898], [-176.459177, 0.219224]]], [[[-176.640492, 0.801988], [-176.639027, 0.806952], [-176.636098, 0.803412], [-176.636179, 0.790188], [-176.640492, 0.801988]]], [[[-162.061106, 5.87344], [-162.073069, 5.869371], [-162.09435, 5.875352], [-162.075063, 5.885525], [-162.103627, 5.888577], [-162.060862, 5.887193], [-162.061106, 5.87344]]], [[[-162.385284, 6.445136], [-162.385284, 6.430243], [-162.400177, 6.430243], [-162.400177, 6.445136], [-162.385284, 6.445136]]]]}}]}