{"type": "FeatureCollection", "features": [{"type": "Feature", "properties": {"name": "Antarctica"}, "geometry": {"type": "MultiPolygon", "coordinates": [[[[-50.763173, -81.958754], [-50.557932, -81.993829], [-48.38036, -81.890313], [-48.2294, -81.918227], [-48.188222, -81.891534], [-47.887685, -81.92197], [-47.431223, -81.917657], [-47.380442, -81.923517], [-47.344879, -81.950128], [-47.368153, -81.97031], [-47.263783, -81.969985], [-47.423736, -82.007501], [-47.584584, -82.02044], [-47.562001, -82.03753], [-47.527577, -82.047621], [-47.460317, -82.05283], [-47.363108, -82.044692], [-47.295522, -82.069513], [-47.255523, -82.072198], [-47.175689, -82.053318], [-47.055043, -81.993259], [-46.279205, -81.909763], [-46.229319, -81.916925], [-46.253407, -81.955336], [-46.246693, -81.97324], [-46.216949, -82.003188], [-46.136057, -82.03631], [-46.053944, -82.083266], [-46.012563, -82.094415], [-46.038197, -82.112726], [-46.045562, -82.142511], [-45.948842, -82.125746], [-46.027211, -82.154474], [-46.049428, -82.170994], [-46.088775, -82.224379], [-46.300771, -82.305922], [-46.688791, -82.40545], [-46.632802, -82.430841], [-46.452992, -82.470798], [-46.479482, -82.496189], [-46.5183, -82.503351], [-46.053619, -82.554864], [-46.025054, -82.552179], [-46.042226, -82.540785], [-45.946889, -82.49212], [-45.832509, -82.451755], [-45.71939, -82.443617], [-45.579335, -82.522149], [-45.520416, -82.526625], [-44.537221, -82.380304], [-44.305247, -82.315525], [-44.198598, -82.255466], [-44.137074, -82.244724], [-44.073476, -82.248468], [-44.013539, -82.262953], [-44.054677, -82.309503], [-44.056996, -82.349786], [-44.10143, -82.374607], [-44.152984, -82.389337], [-44.08495, -82.402439], [-44.011098, -82.391209], [-43.353179, -82.209405], [-43.344228, -82.17962], [-43.333363, -82.169854], [-43.264231, -82.142267], [-43.159779, -82.124688], [-43.147776, -82.11419], [-43.181752, -82.070245], [-43.255849, -82.04754], [-43.169016, -81.992852], [-43.2235, -81.956638], [-43.21349, -81.925226], [-43.190297, -81.899672], [-43.165639, -81.886], [-42.959706, -81.860447], [-42.906361, -81.830173], [-42.799794, -81.818617], [-42.235178, -81.691339], [-42.278879, -81.677911], [-42.206532, -81.636407], [-41.941396, -81.611423], [-41.899892, -81.583591], [-41.925201, -81.561456], [-41.956125, -81.550877], [-41.922231, -81.534763], [-41.87621, -81.492852], [-41.846791, -81.477146], [-41.840077, -81.4485], [-41.773834, -81.439711], [-41.758453, -81.406915], [-41.724599, -81.399591], [-41.58788, -81.340102], [-41.119496, -81.22617], [-41.046702, -81.18141], [-40.879506, -81.157973], [-40.947987, -81.175388], [-40.915639, -81.189874], [-40.569325, -81.15488], [-40.39802, -81.169854], [-40.0, -81.09365640241164], [-40.0, -90.0], [-60.0, -90.0], [-60.0, -83.43656778281604], [-59.874094, -83.427504], [-59.833608, -83.458673], [-59.46996, -83.460138], [-57.896637, -83.008966], [-57.698883, -82.910252], [-56.338043, -82.64544], [-56.296376, -82.621189], [-55.99234, -82.540948], [-55.925852, -82.509942], [-55.927235, -82.483087], [-55.916127, -82.476983], [-55.850168, -82.462091], [-55.826243, -82.485121], [-55.776926, -82.487563], [-55.68106, -82.461684], [-55.558949, -82.461196], [-55.428456, -82.479913], [-55.41511, -82.49977], [-55.392934, -82.506524], [-55.224843, -82.517755], [-55.176422, -82.510431], [-55.14387, -82.490655], [-55.187611, -82.458266], [-55.130116, -82.43906], [-55.099762, -82.384373], [-55.015492, -82.352309], [-54.857574, -82.347914], [-54.820546, -82.316339], [-54.761545, -82.299737], [-54.239573, -82.275079], [-54.173899, -82.262953], [-54.200917, -82.254164], [-54.293202, -82.253513], [-53.924672, -82.20615], [-53.96996, -82.1985], [-54.25768, -82.201593], [-54.303456, -82.191664], [-53.909291, -82.178399], [-53.799631, -82.194024], [-53.313954, -82.152765], [-53.224924, -82.125095], [-52.643137, -82.160414], [-50.763173, -81.958754]]], [[[-59.96581, -72.883233], [-59.949371, -72.895196], [-59.946156, -72.922052], [-59.904124, -72.993422], [-59.915435, -73.024998], [-59.997182, -73.081638], [-60.0, -73.08503076310832], [-60.0, -72.8744842029438], [-59.96581, -72.883233]]], [[[-59.975209, -73.238214], [-60.0, -73.25788153309854], [-60.0, -73.21805903162154], [-59.975209, -73.238214]]], [[[-59.280385, -80.215427], [-59.300608, -80.21852], [-59.379384, -80.202081], [-59.592641, -80.213962], [-59.605092, -80.223403], [-59.622629, -80.259698], [-59.591786, -80.266534], [-59.574574, -80.285821], [-59.637318, -80.284601], [-59.657704, -80.292413], [-59.699696, -80.330662], [-59.757436, -80.335707], [-59.785227, -80.379164], [-59.784088, -80.398207], [-59.730865, -80.414158], [-59.774403, -80.419203], [-59.792592, -80.429376], [-59.795644, -80.469415], [-59.808827, -80.494561], [-59.846832, -80.528253], [-59.809234, -80.532647], [-59.681549, -80.515069], [-59.652211, -80.497166], [-59.666737, -80.484796], [-59.626332, -80.476983], [-59.585194, -80.478692], [-59.54186, -80.493097], [-59.466542, -80.490899], [-59.490224, -80.507257], [-59.503896, -80.529474], [-59.564361, -80.541599], [-59.610585, -80.527602], [-59.647206, -80.55047], [-59.741322, -80.576267], [-59.833323, -80.583266], [-59.859242, -80.594985], [-59.884267, -80.645929], [-59.793813, -80.655694], [-59.714996, -80.641209], [-59.665924, -80.646417], [-59.691803, -80.669122], [-59.755605, -80.694594], [-59.819, -80.744887], [-60.0, -80.80202490770263], [-60.0, -79.76866384867981], [-59.799143, -79.774347], [-59.853627, -79.817153], [-59.818105, -79.826349], [-59.749989, -79.818129], [-59.656402, -79.850356], [-59.783193, -79.833673], [-59.8544, -79.837579], [-59.884836, -79.858819], [-59.87442, -79.876397], [-59.883168, -79.883966], [-59.862782, -79.903253], [-59.826568, -79.906834], [-59.730946, -79.884047], [-59.655181, -79.89072], [-59.625559, -79.906345], [-59.718007, -79.906834], [-59.732167, -79.913751], [-59.677602, -79.957208], [-59.71939, -79.960056], [-59.774037, -79.936456], [-59.846669, -79.943617], [-59.851308, -79.961196], [-59.862701, -79.968194], [-59.779937, -80.033298], [-59.77595, -80.04518], [-59.784332, -80.057794], [-59.961334, -80.083917], [-59.897939, -80.115818], [-59.519887, -80.111912], [-59.42162, -80.136163], [-59.47997, -80.169529], [-59.349477, -80.161716], [-59.334869, -80.166111], [-59.327952, -80.178318], [-59.286366, -80.179457], [-59.298736, -80.195489], [-59.280385, -80.215427]]], [[[-52.396352, -80.184991], [-51.483062, -79.926202], [-51.338979, -79.865004], [-51.062571, -79.799412], [-50.916168, -79.733005], [-50.541371, -79.637872], [-50.403066, -79.570977], [-50.263661, -79.53574], [-50.226308, -79.480401], [-50.253489, -79.46266], [-50.246205, -79.443292], [-50.324086, -79.415216], [-50.350168, -79.398533], [-50.333079, -79.366143], [-50.389231, -79.330824], [-50.460072, -79.312107], [-50.713124, -79.281671], [-50.739735, -79.284438], [-50.651031, -79.243259], [-50.544301, -79.161716], [-50.484364, -79.129327], [-50.480458, -79.115981], [-50.492421, -79.095636], [-50.452992, -79.003839], [-50.47468, -78.983575], [-50.540679, -78.974867], [-50.56135, -78.959568], [-50.518666, -78.945733], [-50.379058, -78.929864], [-50.334299, -78.913832], [-50.290883, -78.891534], [-50.214426, -78.83294], [-50.324696, -78.838311], [-50.380279, -78.83172], [-50.430531, -78.812595], [-50.267323, -78.72324], [-50.323476, -78.719985], [-50.367421, -78.690525], [-50.263905, -78.671319], [-50.221099, -78.604425], [-50.056549, -78.534112], [-50.003082, -78.48797], [-49.971059, -78.473321], [-49.894887, -78.45322], [-49.278066, -78.20086], [-49.250722, -78.179457], [-49.246002, -78.152439], [-49.234446, -78.139825], [-49.11559, -78.094659], [-49.103017, -78.079767], [-49.138743, -78.069757], [-49.110992, -78.052911], [-47.222524, -77.772638], [-45.934071, -77.817071], [-45.895172, -77.828546], [-44.514556, -78.042169], [-43.818837, -78.248305], [-43.768544, -78.274184], [-43.731068, -78.311782], [-43.718251, -78.367446], [-43.725087, -78.394952], [-43.799387, -78.464614], [-43.89981, -78.584242], [-43.920277, -78.596287], [-45.155751, -78.661879], [-45.302724, -78.680352], [-45.349965, -78.693292], [-45.224599, -78.73561], [-45.370473, -78.786065], [-45.298166, -78.810724], [-45.218984, -78.818943], [-43.739003, -78.800551], [-43.553456, -78.880548], [-43.50064, -78.913832], [-43.459869, -78.955499], [-43.430816, -79.037856], [-43.430043, -79.084893], [-43.452545, -79.110772], [-43.405588, -79.100356], [-43.357777, -79.100763], [-43.305531, -79.136], [-43.199859, -79.158461], [-43.133534, -79.181899], [-43.188344, -79.18906], [-43.348459, -79.23919], [-43.309804, -79.267511], [-43.15095, -79.315118], [-43.069651, -79.355727], [-43.054596, -79.389581], [-43.041493, -79.400567], [-42.989654, -79.42018], [-42.961578, -79.440851], [-42.942372, -79.479099], [-42.936431, -79.522068], [-42.962229, -79.716078], [-42.981516, -79.786554], [-43.015736, -79.849786], [-43.072825, -79.908949], [-43.137441, -79.951755], [-43.207143, -79.978123], [-43.281239, -79.98797], [-43.596181, -79.963474], [-43.856679, -79.996026], [-43.437978, -80.10947], [-43.423411, -80.131524], [-43.452382, -80.164483], [-43.531565, -80.199965], [-49.719228, -80.685642], [-49.756256, -80.706964], [-49.759104, -80.721856], [-49.750478, -80.74033], [-49.695953, -80.767999], [-49.798004, -80.790948], [-54.16161, -80.87713], [-54.258412, -80.855076], [-54.290028, -80.838556], [-54.34911, -80.782485], [-54.407826, -80.740004], [-54.412953, -80.717462], [-54.404652, -80.661391], [-54.363637, -80.596124], [-54.377594, -80.577407], [-54.217519, -80.521742], [-54.163808, -80.530043], [-54.120676, -80.568943], [-54.096506, -80.558364], [-54.051015, -80.491957], [-54.019358, -80.470636], [-53.789418, -80.36061], [-53.589467, -80.23211], [-53.423655, -80.193048], [-53.43692, -80.173598], [-53.457631, -80.160903], [-53.407053, -80.10768], [-53.342641, -80.107192], [-53.213206, -80.161391], [-53.151479, -80.175958], [-53.088002, -80.181817], [-52.890248, -80.177016], [-52.694325, -80.143731], [-52.606679, -80.107599], [-52.409332, -80.055108], [-52.351552, -80.052992], [-52.302358, -80.061212], [-52.279897, -80.078302], [-52.287587, -80.101658], [-52.32901, -80.128351], [-52.476104, -80.192722], [-52.518788, -80.200128], [-52.396352, -80.184991]]], [[[-49.391225, -77.880548], [-49.450795, -77.863051], [-49.336415, -77.829767], [-48.989003, -77.784275], [-48.846913, -77.744236], [-48.781606, -77.73919], [-48.750356, -77.747654], [-49.258656, -77.872491], [-49.391225, -77.880548]]]]}}]}