{"type": "FeatureCollection", "features": [{"type": "Feature", "properties": {"name": "Brazil"}, "geometry": {"type": "MultiPolygon", "coordinates": [[[[-36.036285, -10.064142], [-36.05012, -10.078546], [-36.090321, -10.093438], [-36.141184, -10.159438], [-36.280507, -10.279962], [-36.288971, -10.297052], [-36.291982, -10.351983], [-36.40807, -10.50213], [-36.576568, -10.55047], [-36.59675, -10.570977], [-36.768381, -10.672621], [-36.903066, -10.772882], [-36.952707, -10.836358], [-36.978871, -10.886489], [-37.039662, -10.949151], [-37.050445, -10.999607], [-37.124013, -11.11533], [-37.138295, -11.125909], [-37.147613, -11.121759], [-37.141713, -11.091729], [-37.162221, -11.071384], [-37.169667, -11.071384], [-37.175689, -11.085707], [-37.200063, -11.04339], [-37.261545, -11.015232], [-37.275136, -11.022719], [-37.276112, -11.041762], [-37.258412, -11.071384], [-37.236887, -11.069594], [-37.19636, -11.091729], [-37.19636, -11.098565], [-37.214223, -11.091729], [-37.220693, -11.096775], [-37.216786, -11.106134], [-37.194447, -11.110528], [-37.182688, -11.098565], [-37.165639, -11.108819], [-37.164052, -11.170343], [-37.149159, -11.187433], [-37.221791, -11.229587], [-37.235422, -11.260837], [-37.264638, -11.277439], [-37.316029, -11.406427], [-37.330068, -11.420668], [-37.388092, -11.426935], [-37.384429, -11.401951], [-37.402455, -11.399672], [-37.368276, -11.351251], [-37.358306, -11.315851], [-37.290517, -11.254327], [-37.272084, -11.249444], [-37.285878, -11.236993], [-37.288442, -11.208185], [-37.299387, -11.194757], [-37.299387, -11.242608], [-37.305572, -11.242608], [-37.344106, -11.184259], [-37.34789, -11.204197], [-37.319976, -11.24977], [-37.319203, -11.269952], [-37.347157, -11.249444], [-37.333485, -11.28045], [-37.336293, -11.290134], [-37.360829, -11.296563], [-37.37975, -11.317153], [-37.415395, -11.406427], [-37.429555, -11.405043], [-37.443349, -11.351251], [-37.451772, -11.370538], [-37.470082, -11.358657], [-37.453725, -11.403578], [-37.395579, -11.437433], [-37.405995, -11.470473], [-37.431386, -11.492852], [-37.491851, -11.51629], [-37.453847, -11.517673], [-37.415395, -11.503188], [-37.37678, -11.460219], [-37.360829, -11.454848], [-37.434722, -11.569268], [-37.509185, -11.72381], [-37.513417, -11.760675], [-37.545766, -11.804376], [-37.604237, -11.949965], [-37.654652, -12.049737], [-37.717641, -12.136407], [-37.78671, -12.264634], [-38.050893, -12.641046], [-38.073964, -12.653904], [-38.320424, -12.935235], [-38.361399, -12.961847], [-38.416249, -12.973077], [-38.437001, -12.992364], [-38.48644, -13.013767], [-38.509674, -13.021417], [-38.532704, -13.016534], [-38.538319, -13.004002], [-38.507924, -12.931817], [-38.486195, -12.915948], [-38.477406, -12.935235], [-38.4912, -12.882013], [-38.475657, -12.851658], [-38.504058, -12.804132], [-38.499135, -12.791192], [-38.508901, -12.722914], [-38.542388, -12.721612], [-38.57429, -12.701837], [-38.605946, -12.713637], [-38.62621, -12.702407], [-38.64859, -12.63836], [-38.683461, -12.626723], [-38.694569, -12.614028], [-38.690989, -12.571466], [-38.71581, -12.605076], [-38.726308, -12.678888], [-38.750966, -12.712823], [-38.750396, -12.724542], [-38.738149, -12.736586], [-38.777211, -12.80755], [-38.80663, -12.835138], [-38.824452, -12.838149], [-38.844879, -12.825942], [-38.864003, -12.795099], [-38.882721, -12.722101], [-38.881174, -12.705336], [-38.848012, -12.674493], [-38.861684, -12.654067], [-38.868479, -12.654067], [-38.863393, -12.669854], [-38.895823, -12.695001], [-38.910512, -12.731052], [-38.923695, -12.736586], [-38.895823, -12.784356], [-38.868479, -12.804864], [-38.867014, -12.834649], [-38.853993, -12.851251], [-38.827504, -12.866957], [-38.797109, -12.849298], [-38.783681, -12.872979], [-38.752309, -12.864435], [-38.724477, -12.873224], [-38.750803, -12.912774], [-38.755849, -12.965427], [-38.786855, -13.008071], [-38.835113, -13.050063], [-38.889272, -13.069757], [-38.895009, -13.080987], [-38.88976, -13.118422], [-38.806996, -13.143813], [-38.810658, -13.153497], [-38.841786, -13.161228], [-38.875356, -13.195408], [-38.947621, -13.246759], [-38.970855, -13.325616], [-38.954579, -13.372491], [-38.964711, -13.380304], [-38.99885, -13.360447], [-39.039784, -13.366632], [-39.039784, -13.332452], [-39.062489, -13.399998], [-39.068227, -13.440606], [-39.060292, -13.47031], [-39.086008, -13.514093], [-39.084218, -13.57879], [-39.09142, -13.593683], [-39.115549, -13.599379], [-39.115549, -13.606134], [-39.086659, -13.603936], [-39.077382, -13.59002], [-39.0808, -13.541111], [-39.059682, -13.494806], [-39.037668, -13.484552], [-39.01183, -13.497003], [-38.992991, -13.541111], [-39.005686, -13.561782], [-39.001943, -13.588067], [-38.970855, -13.647719], [-38.967844, -13.674005], [-38.992014, -13.733087], [-38.994211, -13.79461], [-38.97997, -13.83587], [-39.001698, -13.83766], [-39.029897, -13.815362], [-39.053578, -13.760919], [-39.087026, -13.741143], [-39.091624, -13.71266], [-39.132558, -13.709242], [-39.148752, -13.736912], [-39.144032, -13.744317], [-39.115549, -13.723565], [-39.108266, -13.740411], [-39.115549, -13.757582], [-39.071604, -13.779555], [-39.032135, -13.84059], [-38.997711, -13.851739], [-38.994456, -13.863458], [-39.008778, -13.880548], [-39.067128, -13.867446], [-39.074534, -13.89422], [-39.06371, -13.935805], [-39.021596, -13.955662], [-38.996693, -13.98561], [-38.995676, -14.029229], [-38.979563, -14.06113], [-38.988596, -14.072931], [-39.027903, -14.078302], [-39.054067, -14.059259], [-39.071034, -14.076349], [-39.072865, -14.08587], [-39.060292, -14.099705], [-39.072906, -14.115167], [-39.074534, -14.140558], [-39.045644, -14.161391], [-39.039784, -14.175388], [-39.033599, -14.175388], [-39.063385, -14.109959], [-38.957265, -14.066095], [-38.959706, -14.036228], [-38.972279, -14.026625], [-38.964711, -13.997247], [-38.971425, -13.986261], [-38.952952, -13.976983], [-38.95287, -13.962579], [-38.978342, -13.949395], [-38.970855, -13.935805], [-38.987538, -13.939874], [-38.98998, -13.930841], [-38.963857, -13.897068], [-38.935658, -13.88893], [-38.929921, -13.897638], [-38.923695, -14.004083], [-38.946685, -14.102309], [-38.964711, -14.133722], [-38.970855, -14.181573], [-38.989247, -14.212335], [-38.992014, -14.267836], [-38.985178, -14.312595], [-39.004994, -14.346856], [-38.99885, -14.360284], [-39.006947, -14.370294], [-39.005686, -14.414972], [-39.026112, -14.463311], [-39.033599, -14.539158], [-39.067128, -14.674981], [-39.050852, -14.765802], [-39.033599, -14.79225], [-39.052968, -14.801365], [-39.054067, -14.812188], [-39.048248, -14.818617], [-39.022694, -14.815851], [-39.022939, -14.900323], [-39.008901, -14.97088], [-39.00182, -15.232029], [-38.979644, -15.323663], [-38.973256, -15.409356], [-38.923899, -15.71559], [-38.861684, -15.854262], [-38.890492, -15.904392], [-38.924184, -16.023614], [-38.944203, -16.066583], [-38.957265, -16.183282], [-39.00536, -16.275079], [-39.006907, -16.359308], [-39.054067, -16.436456], [-39.050649, -16.45672], [-39.060292, -16.478123], [-39.092275, -16.65781], [-39.135976, -16.800226], [-39.135976, -16.844659], [-39.121571, -16.892022], [-39.149648, -16.950453], [-39.168813, -17.075942], [-39.208608, -17.162205], [-39.217356, -17.295099], [-39.209055, -17.382094], [-39.186269, -17.452081], [-39.188385, -17.578383], [-39.183746, -17.600844], [-39.137115, -17.67962], [-39.149648, -17.710707], [-39.258901, -17.820733], [-39.275054, -17.866876], [-39.314198, -17.890313], [-39.382395, -17.903253], [-39.450185, -17.948012], [-39.499094, -18.005629], [-39.624989, -18.192641], [-39.659413, -18.273614], [-39.72468, -18.518731], [-39.744862, -18.681736], [-39.741078, -18.902114], [-39.698069, -19.239923], [-39.701405, -19.376153], [-39.709788, -19.416111], [-39.786204, -19.601983], [-39.806996, -19.636163], [-39.834869, -19.657159], [-39.950999, -19.705173], [-40.0, -19.743448772552274], [-40.0, -10.0], [-36.00440473185237, -10.0], [-36.036285, -10.064142]]], [[[-38.915639, -13.383477], [-38.906239, -13.388849], [-38.896352, -13.453546], [-38.899403, -13.471368], [-38.916331, -13.483982], [-38.909535, -13.495212], [-38.934397, -13.556248], [-38.905044, -13.599892], [-38.90672, -13.621403], [-38.893275, -13.639286], [-38.902013, -13.671812], [-38.918744, -13.667043], [-38.920336, -13.655495], [-38.949489, -13.658024], [-38.979056, -13.599695], [-38.98378, -13.558212], [-38.978342, -13.517348], [-38.967844, -13.498305], [-39.045888, -13.458185], [-39.033599, -13.442315], [-39.042551, -13.423923], [-39.032582, -13.392511], [-39.015533, -13.38714], [-38.965647, -13.397882], [-38.915639, -13.383477]]], [[[-38.587473, -12.986912], [-38.642445, -13.013767], [-38.718495, -13.072849], [-38.752431, -13.112726], [-38.786529, -13.133884], [-38.791249, -13.058364], [-38.66926, -12.961847], [-38.66926, -12.955011], [-38.683339, -12.949965], [-38.676666, -12.935235], [-38.66926, -12.942071], [-38.670644, -12.924981], [-38.697133, -12.880548], [-38.683461, -12.873224], [-38.640777, -12.892755], [-38.622304, -12.905369], [-38.587473, -12.986912]]], [[[-29.348256, -20.561293], [-29.344309, -20.550958], [-29.316884, -20.56878], [-29.338246, -20.584161], [-29.348256, -20.561293]]], [[[-28.880483, -20.510837], [-28.877065, -20.511651], [-28.877838, -20.514255], [-28.88329, -20.518731], [-28.880483, -20.510837]]]]}}]}