{"type": "FeatureCollection", "features": [{"type": "Feature", "properties": {"name": "Canada"}, "geometry": {"type": "MultiPolygon", "coordinates": [[[[-130.999013, 70.012112], [-130.927805, 70.030341], [-130.950347, 70.037421], [-131.023997, 70.030341], [-130.893625, 70.106024], [-130.89391, 70.093329], [-130.917226, 70.075019], [-130.902984, 70.068305], [-130.859202, 70.092434], [-130.760243, 70.110663], [-130.763905, 70.120347], [-130.75121, 70.129706], [-130.722808, 70.132025], [-130.708648, 70.126614], [-130.74706, 70.089993], [-130.742787, 70.078803], [-130.722971, 70.078599], [-130.663889, 70.09809], [-130.657135, 70.109524], [-130.664906, 70.124701], [-130.660878, 70.136461], [-130.57665, 70.141425], [-130.55602, 70.150784], [-130.557851, 70.161322], [-130.5419, 70.173651], [-130.515289, 70.177191], [-130.461578, 70.174954], [-130.538075, 70.152899], [-130.550404, 70.133979], [-130.541412, 70.114691], [-130.519765, 70.104804], [-130.496449, 70.106024], [-130.482737, 70.120347], [-130.523752, 70.126614], [-130.504384, 70.138861], [-130.41983, 70.136217], [-130.399648, 70.150946], [-130.406361, 70.161322], [-130.385081, 70.165676], [-130.352366, 70.134914], [-130.324452, 70.140204], [-130.326405, 70.109768], [-130.290924, 70.106024], [-130.338124, 70.085598], [-130.249379, 70.085598], [-130.159983, 70.106024], [-130.191029, 70.072903], [-130.194732, 70.061347], [-130.186879, 70.052558], [-130.150502, 70.070746], [-130.098215, 70.11286], [-130.082102, 70.109524], [-130.078603, 70.10102], [-130.0985, 70.078803], [-129.953684, 70.102729], [-129.934641, 70.098578], [-129.992502, 70.075141], [-129.931711, 70.076117], [-129.886301, 70.085598], [-129.893666, 70.098578], [-129.858306, 70.106024], [-129.864125, 70.133612], [-129.845693, 70.152899], [-129.790028, 70.18122], [-129.830963, 70.195461], [-129.830963, 70.202297], [-129.804351, 70.206529], [-129.775299, 70.229478], [-129.721099, 70.22956], [-129.740142, 70.243394], [-129.728505, 70.256171], [-129.67394, 70.269924], [-129.680165, 70.256903], [-129.648508, 70.251532], [-129.653472, 70.222113], [-129.615061, 70.216986], [-129.59203, 70.195461], [-129.609975, 70.176011], [-129.632965, 70.167548], [-129.602895, 70.162299], [-129.544057, 70.167629], [-129.515736, 70.161322], [-129.523101, 70.153876], [-129.505442, 70.148139], [-129.470041, 70.153306], [-129.454905, 70.14704], [-129.49942, 70.117743], [-129.491811, 70.102362], [-129.46817, 70.090766], [-129.420074, 70.133979], [-129.406484, 70.121161], [-129.411529, 70.100572], [-129.440582, 70.068264], [-129.474843, 70.052924], [-129.557281, 70.044013], [-129.495229, 70.030341], [-129.57625382508175, 70.0], [-131.00513114035977, 70.0], [-130.999013, 70.012112]]], [[[-128.317128, 70.024115], [-128.347239, 70.039618], [-128.370229, 70.097398], [-128.36148, 70.116645], [-128.337229, 70.129828], [-128.269928, 70.140815], [-128.207753, 70.164008], [-128.154897, 70.170559], [-128.111073, 70.188666], [-127.992828, 70.181464], [-127.886383, 70.209052], [-127.816884, 70.208482], [-127.586822, 70.237698], [-127.515207, 70.222113], [-127.544667, 70.240465], [-127.582021, 70.250922], [-127.872222, 70.271796], [-128.032379, 70.293687], [-128.060536, 70.306383], [-128.063873, 70.325141], [-128.092844, 70.341539], [-128.111073, 70.366767], [-127.958404, 70.348212], [-127.928293, 70.385728], [-127.906239, 70.39411], [-127.942209, 70.401842], [-128.063303, 70.379788], [-128.140736, 70.374661], [-128.178212, 70.37995], [-128.20051, 70.400865], [-128.195912, 70.446967], [-128.163442, 70.49551], [-128.11852, 70.536078], [-128.076975, 70.558539], [-128.009267, 70.579047], [-128.007639, 70.589789], [-127.991526, 70.592922], [-127.928293, 70.567084], [-127.698394, 70.50019], [-127.44518, 70.405911], [-127.230824, 70.309882], [-127.136464, 70.252875], [-127.115875, 70.225165], [-127.055898, 70.18122], [-126.990793, 70.109524], [-126.928944, 70.064439], [-126.884633, 70.010484], [-126.8514866161616, 70.0], [-128.31243534384004, 70.0], [-128.317128, 70.024115]]], [[[-124.650502, 70.011135], [-124.684885, 70.024115], [-124.703603, 70.016913], [-124.71859419886833, 70.0], [-124.82531112591926, 70.0], [-124.794749, 70.010484], [-124.814076, 70.015855], [-124.902943, 70.016099], [-124.9261363921233, 70.0], [-124.94769399585701, 70.0], [-124.992747, 70.010484], [-125.02391597129572, 70.0], [-125.20278250530481, 70.0], [-125.206207, 70.003079], [-125.129872, 70.037177], [-125.034657, 70.061347], [-125.013824, 70.085598], [-124.983469, 70.078274], [-124.98766, 70.045559], [-125.029205, 70.040513], [-125.047963, 70.030341], [-125.006093, 70.019965], [-124.896392, 70.024319], [-124.856191, 70.037177], [-124.959218, 70.030341], [-124.959218, 70.037177], [-124.83552, 70.06981], [-124.822011, 70.071357], [-124.80842, 70.057603], [-124.671254, 70.078803], [-124.631744, 70.064765], [-124.59553, 70.037177], [-124.599924, 70.021877], [-124.576527, 70.014838], [-124.545562, 70.018948], [-124.527211, 70.037177], [-124.562001, 70.037177], [-124.527984, 70.060981], [-124.45287, 70.042426], [-124.417348, 70.051459], [-124.464996, 70.086656], [-124.535227, 70.071967], [-124.582428, 70.085598], [-124.518219, 70.093736], [-124.506744, 70.106024], [-124.594065, 70.1164], [-124.740102, 70.092434], [-124.740102, 70.098578], [-124.684885, 70.11286], [-124.711537, 70.121527], [-124.746002, 70.114732], [-124.753774, 70.126614], [-124.702016, 70.151272], [-124.602284, 70.14704], [-124.554555, 70.161322], [-124.506744, 70.14704], [-124.408111, 70.155422], [-124.38386, 70.140204], [-124.443918, 70.111151], [-124.372792, 70.083645], [-124.362701, 70.071357], [-124.370269, 70.041693], [-124.39037, 70.020453], [-124.41686, 70.014838], [-124.477203, 70.020738], [-124.506744, 70.010484], [-124.4409320721859, 70.0], [-124.64142595157074, 70.0], [-124.650502, 70.011135]]], [[[-124.978261, 70.161363], [-124.992747, 70.14704], [-124.98648, 70.14704], [-125.007802, 70.136176], [-125.067779, 70.146674], [-125.096344, 70.140204], [-125.047963, 70.126614], [-125.066151, 70.120795], [-125.123687, 70.126614], [-125.120107, 70.144192], [-125.084584, 70.164862], [-124.959218, 70.167548], [-124.978261, 70.161363]]], [[[-128.155995, 70.648139], [-128.08373, 70.613186], [-128.103668, 70.601386], [-128.124745, 70.60635], [-128.11856, 70.584418], [-128.137034, 70.575385], [-128.186838, 70.579047], [-128.241282, 70.599433], [-128.255116, 70.585273], [-128.242055, 70.571601], [-128.344472, 70.544867], [-128.255238, 70.647162], [-128.234609, 70.660956], [-128.155995, 70.648139]]], [[[-125.988433, 71.970404], [-125.996938, 71.977037], [-125.963612, 71.982815], [-125.909088, 71.964342], [-125.988433, 71.970404]]], [[[-120.176096, 72.235663], [-120.196685, 72.24433], [-120.139516, 72.254218], [-120.127797, 72.264228], [-120.153961, 72.270982], [-120.229563, 72.271226], [-120.25475, 72.26081], [-120.26122, 72.241848], [-120.196685, 72.217027], [-120.183461, 72.204291], [-120.154652, 72.151435], [-120.15807, 72.128363], [-120.197743, 72.085028], [-120.306549, 72.017768], [-120.43399, 71.964301], [-120.457387, 71.929023], [-120.388092, 71.88231], [-120.403432, 71.863837], [-120.408925, 71.791815], [-120.42162, 71.749213], [-120.382436, 71.691718], [-120.422597, 71.634833], [-120.515533, 71.543199], [-120.635243, 71.491441], [-120.992502, 71.42886], [-121.205556, 71.411078], [-121.423166, 71.380316], [-121.608144, 71.401435], [-121.545277, 71.419989], [-121.537953, 71.43065], [-121.566803, 71.452338], [-121.603505, 71.464423], [-121.700551, 71.468085], [-121.737864, 71.459174], [-121.854563, 71.40766], [-121.93106, 71.3605], [-121.980377, 71.346869], [-122.122955, 71.270819], [-122.319895, 71.233832], [-122.401723, 71.22602], [-122.629547, 71.174954], [-122.753285, 71.099799], [-122.79776, 71.087795], [-123.099924, 71.084621], [-123.149892, 71.092963], [-123.255279, 71.130439], [-123.352366, 71.182847], [-123.435699, 71.248603], [-123.556711, 71.398139], [-123.623525, 71.462226], [-123.669179, 71.494818], [-123.734527, 71.527167], [-123.808217, 71.542548], [-123.835113, 71.57217], [-123.939524, 71.653266], [-124.064565, 71.700385], [-124.661692, 71.804633], [-124.873199, 71.855618], [-124.968617, 71.89057], [-125.232289, 71.941311], [-125.253407, 71.955715], [-125.027496, 71.963202], [-124.967885, 71.942694], [-124.940297, 71.949897], [-124.958892, 71.96662], [-125.006703, 71.97899], [-125.271962, 71.98078], [-125.56664, 71.973782], [-125.790435, 71.949164], [-125.877553, 71.964016], [-125.808339, 71.976264], [-125.76061, 72.003852], [-125.741567, 72.024848], [-125.720204, 72.093492], [-125.732249, 72.109931], [-125.75064, 72.115546], [-125.795277, 72.113959], [-125.752065, 72.147691], [-125.690175, 72.168402], [-125.569407, 72.175442], [-125.569407, 72.182847], [-125.656646, 72.193752], [-125.657541, 72.209621], [-125.67927, 72.230658], [-125.65099, 72.257392], [-125.572825, 72.248725], [-125.490549, 72.277899], [-125.480946, 72.30036], [-125.487375, 72.310248], [-125.517201, 72.293769], [-125.532379, 72.298407], [-125.520375, 72.322903], [-125.487416, 72.346747], [-125.424713, 72.367174], [-125.390614, 72.402004], [-125.438385, 72.415676], [-125.342844, 72.422512], [-125.363149, 72.43887], [-125.353831, 72.448879], [-125.308705, 72.463446], [-125.31135, 72.478949], [-125.299184, 72.489081], [-125.175404, 72.518134], [-125.060658, 72.565619], [-124.952382, 72.569648], [-124.975331, 72.592719], [-124.966054, 72.607489], [-125.038808, 72.609809], [-125.10261, 72.634711], [-125.038686, 72.643012], [-125.027496, 72.655219], [-125.055409, 72.662055], [-125.044545, 72.673041], [-124.98648, 72.668891], [-124.945546, 72.70303], [-124.960357, 72.70893], [-125.02066, 72.70303], [-124.973866, 72.745185], [-124.976633, 72.761705], [-125.017568, 72.789008], [-125.027496, 72.826565], [-125.082753, 72.840237], [-125.118276, 72.863471], [-125.113433, 72.867499], [-125.068227, 72.884182], [-124.951487, 72.857082], [-124.777008, 72.895453], [-124.707265, 72.887926], [-124.575754, 72.908271], [-124.475982, 72.933051], [-124.527211, 72.956855], [-124.493072, 72.977362], [-124.500071, 72.984117], [-124.59435, 72.995063], [-124.637074, 73.018988], [-124.623402, 73.025784], [-124.719065, 73.025784], [-124.698557, 73.011542], [-124.726308, 73.008775], [-124.850697, 73.063544], [-124.865387, 73.075507], [-124.859934, 73.090318], [-124.821116, 73.10635], [-124.805491, 73.130072], [-124.787262, 73.141832], [-124.666412, 73.154486], [-124.64391, 73.169827], [-124.667836, 73.17829], [-124.670969, 73.193671], [-124.574127, 73.251207], [-124.540883, 73.298896], [-124.489369, 73.343899], [-124.417795, 73.363837], [-124.403717, 73.374661], [-124.405629, 73.390041], [-124.437245, 73.406684], [-124.445302, 73.419257], [-124.434316, 73.428534], [-124.291819, 73.468004], [-124.314931, 73.477688], [-124.181223, 73.483954], [-124.157297, 73.50495], [-124.170969, 73.50495], [-124.152577, 73.519355], [-124.090077, 73.526679], [-124.067942, 73.5397], [-124.074778, 73.570461], [-124.040598, 73.594387], [-124.077016, 73.623236], [-124.081614, 73.635321], [-124.073842, 73.652777], [-123.917104, 73.696723], [-123.84142, 73.701117], [-123.828359, 73.717231], [-123.848459, 73.729682], [-123.773752, 73.765611], [-123.822499, 73.814195], [-123.882802, 73.838772], [-124.145334, 73.85106], [-124.213246, 73.879218], [-124.225087, 73.890448], [-124.197621, 73.923285], [-124.239573, 73.94009], [-124.267161, 73.964301], [-124.35497, 73.983954], [-124.359934, 73.988267], [-124.342275, 73.992174], [-124.389272, 74.030707], [-124.38386, 74.039374], [-124.46581, 74.074164], [-124.452138, 74.080308], [-124.472564, 74.108303], [-124.43932, 74.110582], [-124.439076, 74.135565], [-124.449452, 74.148139], [-124.489369, 74.166327], [-124.503285, 74.198635], [-124.531402, 74.217678], [-124.521067, 74.238593], [-124.545644, 74.265123], [-124.581776, 74.270819], [-124.664418, 74.265937], [-124.693918, 74.275702], [-124.602935, 74.313707], [-124.648101, 74.324937], [-124.751373, 74.316311], [-124.787262, 74.334215], [-124.755686, 74.348578], [-124.231272, 74.383246], [-124.121327, 74.37637], [-124.102651, 74.382636], [-124.104644, 74.398627], [-124.086822, 74.404039], [-123.730621, 74.412014], [-123.683502, 74.425971], [-123.477406, 74.426459], [-123.303538, 74.449408], [-122.623199, 74.46308], [-122.116811, 74.496649], [-121.785959, 74.543199], [-121.5808, 74.555854], [-121.429514, 74.53026], [-121.277333, 74.532782], [-121.210846, 74.512356], [-121.132395, 74.509955], [-121.011586, 74.470404], [-120.984364, 74.450873], [-120.977528, 74.42357], [-120.934722, 74.42357], [-120.156565, 74.278998], [-120.0, 74.27127489894707], [-120.0, 72.22599555716242], [-120.176096, 72.235663]]], [[[-120.920888, 75.941148], [-120.882924, 75.936428], [-120.868276, 75.916938], [-120.874989, 75.901842], [-120.868276, 75.882799], [-120.902415, 75.8251], [-120.914133, 75.810452], [-120.991119, 75.763007], [-121.092112, 75.734117], [-121.168202, 75.73371], [-121.256825, 75.745836], [-121.293446, 75.759955], [-121.252431, 75.777289], [-121.022613, 75.823472], [-121.019399, 75.832261], [-121.032786, 75.841864], [-120.997955, 75.869818], [-121.046376, 75.89647], [-121.043691, 75.908271], [-120.997955, 75.930609], [-120.920888, 75.941148]]], [[[-120.044342, 75.842678], [-120.080637, 75.855536], [-120.096995, 75.88467], [-120.160878, 75.898342], [-120.259674, 75.83275], [-120.334869, 75.811998], [-120.387441, 75.806708], [-120.438791, 75.810533], [-120.477854, 75.828803], [-120.489003, 75.847073], [-120.463531, 75.89647], [-120.453684, 75.934027], [-120.388499, 75.972235], [-120.449859, 75.982123], [-120.435658, 76.006334], [-120.460317, 76.015448], [-120.58023, 76.006334], [-120.559722, 75.992662], [-120.596181, 75.986884], [-120.683746, 76.006171], [-120.717437, 76.026801], [-120.732493, 76.05508], [-120.713775, 76.074408], [-120.649159, 76.102525], [-120.672231, 76.105658], [-120.734486, 76.093736], [-120.751576, 76.102525], [-120.745107, 76.123684], [-120.662221, 76.1435], [-120.69164, 76.159817], [-120.794545, 76.175849], [-120.86498, 76.200995], [-120.988759, 76.164008], [-121.01122, 76.138861], [-120.997955, 76.102525], [-121.021311, 76.087104], [-121.025299, 76.061591], [-120.970693, 76.023749], [-120.95226, 75.979438], [-120.939931, 75.972235], [-120.953481, 75.958197], [-120.991119, 75.944281], [-121.01415, 75.950385], [-121.017323, 75.964057], [-121.005727, 75.978258], [-120.984364, 75.985826], [-121.034291, 76.003567], [-121.117787, 76.000149], [-121.203196, 75.984524], [-121.258697, 75.965399], [-121.283844, 75.920885], [-121.299672, 75.910793], [-121.355092, 75.93244], [-121.436838, 75.944281], [-121.416331, 75.957953], [-121.494862, 75.987616], [-121.685048, 76.018622], [-121.819895, 76.02969], [-121.847076, 76.045233], [-122.046376, 76.033637], [-122.125478, 76.041205], [-122.149973, 76.033637], [-122.128896, 76.026801], [-122.149037, 75.997138], [-122.132721, 75.991278], [-122.135732, 75.97842], [-122.190989, 75.97842], [-122.375315, 75.937445], [-122.425893, 75.932807], [-122.618886, 75.941962], [-122.731557, 75.97842], [-122.641672, 75.988471], [-122.597971, 76.003363], [-122.560292, 76.026801], [-122.625722, 76.013129], [-122.698069, 76.020657], [-122.601877, 76.033637], [-122.526112, 76.061591], [-122.533559, 76.067776], [-122.482981, 76.102362], [-122.483713, 76.117011], [-122.519032, 76.122992], [-122.704905, 76.115627], [-122.686025, 76.123725], [-122.492584, 76.1435], [-122.574534, 76.149726], [-122.575307, 76.16767], [-122.605824, 76.174262], [-122.670155, 76.17768], [-122.77009, 76.153632], [-122.828359, 76.154283], [-122.837758, 76.152086], [-122.847808, 76.133002], [-122.925404, 76.097073], [-123.040679, 76.088284], [-122.979237, 76.10871], [-123.0065, 76.122992], [-122.958608, 76.132025], [-122.937001, 76.156968], [-122.910308, 76.157172], [-122.944488, 76.17768], [-122.924672, 76.188951], [-122.861724, 76.182359], [-122.831654, 76.237291], [-122.746978, 76.23017], [-122.71109, 76.231635], [-122.725413, 76.231635], [-122.711578, 76.246894], [-122.634389, 76.27261], [-122.649648, 76.300523], [-122.617258, 76.343207], [-122.593984, 76.353827], [-122.451405, 76.381822], [-122.403228, 76.404202], [-121.963246, 76.437323], [-121.781402, 76.425198], [-121.553578, 76.436998], [-121.511871, 76.448228], [-121.498891, 76.469631], [-121.423695, 76.500434], [-121.408844, 76.514065], [-121.413564, 76.554267], [-121.322174, 76.577826], [-121.313954, 76.596015], [-121.228017, 76.621161], [-121.204254, 76.678209], [-121.187327, 76.688178], [-121.146637, 76.689683], [-121.089345, 76.670722], [-121.038971, 76.684149], [-120.919545, 76.695461], [-120.814117, 76.73371], [-120.55191, 76.759426], [-120.523997, 76.768378], [-120.512034, 76.783759], [-120.367991, 76.814521], [-120.388499, 76.828762], [-120.367991, 76.842353], [-120.429433, 76.869086], [-120.36974, 76.892768], [-120.228098, 76.902655], [-120.168772, 76.931789], [-120.188547, 76.940497], [-120.175364, 76.954047], [-120.093617, 76.965888], [-120.104237, 76.989447], [-120.091135, 77.005601], [-120.038401, 77.020575], [-120.0, 77.02040081504856], [-120.0, 75.84669646854138], [-120.044342, 75.842678]]]]}}]}