{"type": "FeatureCollection", "features": [{"type": "Feature", "properties": {"name": "China"}, "geometry": {"type": "MultiPolygon", "coordinates": [[[[121.732344, 29.978603], [121.721934, 29.960517], [121.767482, 29.973177], [121.914876, 29.918696], [121.935557, 29.887356], [122.056244, 29.887356], [122.105887, 29.906953], [122.129143, 29.903777], [122.136415, 29.884535], [122.114755, 29.871554], [121.983039, 29.823176], [121.936778, 29.791693], [121.902171, 29.752539], [121.885325, 29.761284], [121.873149, 29.753828], [121.862448, 29.708002], [121.776465, 29.652625], [121.704112, 29.572008], [121.687348, 29.562649], [121.59254, 29.543606], [121.574311, 29.552151], [121.530822, 29.510015], [121.52255, 29.512922], [121.511043, 29.548988], [121.484386, 29.544664], [121.458344, 29.525214], [121.44337, 29.524237], [121.457019, 29.500871], [121.455324, 29.489355], [121.427836, 29.467947], [121.442711, 29.439767], [121.442593, 29.415369], [121.465074, 29.420886], [121.479747, 29.474758], [121.504893, 29.483832], [121.491791, 29.455959], [121.513682, 29.451972], [121.511729, 29.437567], [121.477631, 29.412746], [121.484864, 29.39054], [121.50893, 29.398349], [121.531325, 29.417037], [121.569641, 29.474574], [121.642672, 29.495218], [121.710948, 29.538642], [121.72462, 29.538479], [121.731293, 29.518012], [121.763999, 29.530761], [121.757223, 29.499049], [121.764567, 29.47665], [121.778381, 29.469423], [121.811988, 29.490118], [121.830577, 29.528062], [121.847423, 29.524237], [121.844819, 29.5362], [121.813975, 29.552151], [121.782725, 29.543443], [121.744965, 29.544664], [121.748422, 29.562567], [121.774322, 29.575436], [121.79612, 29.600591], [121.854015, 29.615912], [121.867931, 29.627265], [121.899644, 29.627527], [121.915782, 29.640855], [121.971202, 29.593329], [121.970958, 29.568915], [121.941173, 29.551174], [121.949799, 29.538479], [121.910411, 29.524563], [121.912364, 29.514309], [121.944102, 29.497707], [121.942719, 29.479722], [121.970958, 29.449123], [121.957286, 29.408149], [121.93629, 29.42772], [121.922556, 29.418146], [121.929102, 29.408735], [121.915729, 29.390704], [121.921443, 29.381303], [121.916246, 29.348937], [121.929454, 29.33926], [121.931407, 29.323879], [121.908946, 29.318793], [121.915782, 29.305121], [121.900483, 29.298651], [121.905854, 29.284613], [121.939952, 29.264146], [121.974376, 29.284613], [121.991466, 29.25731], [121.953217, 29.249661], [121.957286, 29.216376], [121.942963, 29.223212], [121.942963, 29.195868], [121.893809, 29.187079], [121.840587, 29.161119], [121.785347, 29.168085], [121.799653, 29.305121], [121.840587, 29.318793], [121.830658, 29.333889], [121.799653, 29.318793], [121.788178, 29.328559], [121.799653, 29.373969], [121.786632, 29.374498], [121.758637, 29.359768], [121.770844, 29.337795], [121.777881, 29.296384], [121.774314, 29.253887], [121.745697, 29.201606], [121.724328, 29.182035], [121.70446, 29.174182], [121.652458, 29.18302], [121.639171, 29.217271], [121.641612, 29.267564], [121.654552, 29.299994], [121.640391, 29.306627], [121.624848, 29.301459], [121.628917, 29.188422], [121.614757, 29.206], [121.588715, 29.29149], [121.574311, 29.305121], [121.56308, 29.304185], [121.562022, 29.295844], [121.574311, 29.277777], [121.550548, 29.27143], [121.52589, 29.277777], [121.536388, 29.258287], [121.530528, 29.238227], [121.504893, 29.20893], [121.511729, 29.189276], [121.50351, 29.178941], [121.490977, 29.175971], [121.480235, 29.197211], [121.456391, 29.161119], [121.431407, 29.172187], [121.408539, 29.161119], [121.44337, 29.147406], [121.436046, 29.140611], [121.456391, 29.140611], [121.456391, 29.133775], [121.428315, 29.127143], [121.401703, 29.106513], [121.62143, 29.113267], [121.624604, 29.088284], [121.614757, 29.058051], [121.599213, 29.050238], [121.556407, 29.064887], [121.536876, 29.061184], [121.530284, 29.051174], [121.532074, 29.020494], [121.548595, 29.02143], [121.552745, 29.028713], [121.539561, 29.037584], [121.557384, 29.049018], [121.617442, 29.039984], [121.641938, 29.051256], [121.689789, 29.017076], [121.661713, 29.002916], [121.653819, 28.988593], [121.659434, 28.972724], [121.684662, 28.967515], [121.684174, 28.955634], [121.717784, 28.948798], [121.69752, 28.936835], [121.684174, 28.9147], [121.605317, 28.942572], [121.587413, 28.963121], [121.585297, 28.9383], [121.570811, 28.93008], [121.554291, 28.935696], [121.546479, 28.952216], [121.516856, 28.956366], [121.497813, 28.949652], [121.491791, 28.928371], [121.504893, 28.935207], [121.51767, 28.912787], [121.580577, 28.886786], [121.61085, 28.891181], [121.628917, 28.877143], [121.623546, 28.842271], [121.641938, 28.845852], [121.669932, 28.825344], [121.635753, 28.804836], [121.635753, 28.798041], [121.662608, 28.798041], [121.662608, 28.790595], [121.642589, 28.784003], [121.618256, 28.761949], [121.62143, 28.735907], [121.605561, 28.724677], [121.502778, 28.700385], [121.351166, 28.711859], [121.32016, 28.72484], [121.290294, 28.751614], [121.237885, 28.763861], [121.214447, 28.807318], [121.173595, 28.817857], [121.142345, 28.845852], [121.159679, 28.813544], [121.206065, 28.799058], [121.231212, 28.760159], [121.285899, 28.738267], [121.299327, 28.722886], [121.298676, 28.701239], [121.258393, 28.675116], [121.365001, 28.696031], [121.381358, 28.681952], [121.413829, 28.696601], [121.454845, 28.689521], [121.510128, 28.657059], [121.538433, 28.571446], [121.581619, 28.50469], [121.521007, 28.501044], [121.511567, 28.489488], [121.584601, 28.489102], [121.607743, 28.477203], [121.584439, 28.454215], [121.583777, 28.442946], [121.607463, 28.420319], [121.632263, 28.379446], [121.634044, 28.347235], [121.647716, 28.348456], [121.656342, 28.339301], [121.621349, 28.285102], [121.585541, 28.256822], [121.578136, 28.260321], [121.580577, 28.300849], [121.541491, 28.321787], [121.499986, 28.332673], [121.473086, 28.330603], [121.441254, 28.311713], [121.436046, 28.297105], [121.408946, 28.304918], [121.395518, 28.284084], [121.418793, 28.269721], [121.416026, 28.256171], [121.364838, 28.225816], [121.354015, 28.187893], [121.374522, 28.195258], [121.374034, 28.172593], [121.345795, 28.145168], [121.330089, 28.147528], [121.309337, 28.174872], [121.287852, 28.180894], [121.261695, 28.225791], [121.225165, 28.238863], [121.248871, 28.270209], [121.236827, 28.306098], [121.203136, 28.331855], [121.21754, 28.352362], [121.244151, 28.349107], [121.264659, 28.366034], [121.214122, 28.360582], [121.168956, 28.384833], [121.161632, 28.377509], [121.168956, 28.359768], [121.144298, 28.343573], [121.13025, 28.305554], [121.072113, 28.291693], [121.066661, 28.311428], [121.024994, 28.304592], [121.039561, 28.285346], [121.058116, 28.279934], [121.121803, 28.284362], [121.130095, 28.265929], [121.124753, 28.23552], [121.085836, 28.166504], [121.053385, 28.148163], [121.009378, 28.103133], [120.993512, 28.025779], [120.965228, 27.987145], [120.921397, 27.981676], [120.879975, 27.998725], [120.819591, 27.989244], [120.781098, 28.002387], [120.731049, 28.035834], [120.661957, 28.044501], [120.606049, 28.042222], [120.59018, 28.054389], [120.576996, 28.115627], [120.559581, 28.112779], [120.58017, 28.089789], [120.580089, 28.046129], [120.588959, 28.026679], [120.673595, 28.021715], [120.707286, 28.009711], [120.75058, 27.975572], [120.835297, 27.955959], [120.84726, 27.948961], [120.863762, 27.918106], [120.868364, 27.882559], [120.852272, 27.858192], [120.807486, 27.834827], [120.796018, 27.80537], [120.722614, 27.71591], [120.704255, 27.712839], [120.635265, 27.763332], [120.636729, 27.745836], [120.672455, 27.711493], [120.680181, 27.686379], [120.667577, 27.66806], [120.675629, 27.659654], [120.666484, 27.625358], [120.63559, 27.60871], [120.596574, 27.570283], [120.618459, 27.516421], [120.661957, 27.503241], [120.67685, 27.494615], [120.681977, 27.481594], [120.665619, 27.451728], [120.646495, 27.444485], [120.636241, 27.416002], [120.648936, 27.400214], [120.635265, 27.379706], [120.545909, 27.403266], [120.539643, 27.36522], [120.527354, 27.349799], [120.504893, 27.344957], [120.504893, 27.338772], [120.53419, 27.333197], [120.549327, 27.321031], [120.543956, 27.285956], [120.517833, 27.263007], [120.525971, 27.238837], [120.508149, 27.21601], [120.517833, 27.201606], [120.468354, 27.182196], [120.459727, 27.220445], [120.421723, 27.222073], [120.42921, 27.173651], [120.406749, 27.184231], [120.376231, 27.236274], [120.34726, 27.249416], [120.303071, 27.242255], [120.292003, 27.249416], [120.288097, 27.264472], [120.319347, 27.290351], [120.298839, 27.297797], [120.309093, 27.303941], [120.31186, 27.317694], [120.285167, 27.304023], [120.264008, 27.324449], [120.271495, 27.304023], [120.258556, 27.299994], [120.223725, 27.311469], [120.243663, 27.290351], [120.225678, 27.268622], [120.195811, 27.297797], [120.195811, 27.263007], [120.175304, 27.238837], [120.182384, 27.216864], [120.201915, 27.217841], [120.209483, 27.235093], [120.256602, 27.256903], [120.306407, 27.215277], [120.333588, 27.235093], [120.339854, 27.228909], [120.34726, 27.24258], [120.364838, 27.225084], [120.365489, 27.209621], [120.34726, 27.180487], [120.369884, 27.187486], [120.421723, 27.146959], [120.373871, 27.146959], [120.40797, 27.139553], [120.40797, 27.132717], [120.381358, 27.12523], [120.373871, 27.132717], [120.367035, 27.12523], [120.381358, 27.119045], [120.373871, 27.106024], [120.39503, 27.106024], [120.377533, 27.098578], [120.282725, 27.112291], [120.262055, 27.12995], [120.243663, 27.132717], [120.278331, 27.063788], [120.271495, 27.057563], [120.257823, 27.072659], [120.216319, 27.043931], [120.216319, 27.037095], [120.241547, 27.034003], [120.255626, 27.017524], [120.255219, 26.997056], [120.237397, 26.981879], [120.229991, 26.989325], [120.148692, 26.981879], [120.187022, 26.963528], [120.235688, 26.966376], [120.243663, 26.955146], [120.229991, 26.940904], [120.237397, 26.927232], [120.219086, 26.915432], [120.168468, 26.927232], [120.125743, 26.927314], [120.113617, 26.918769], [120.120697, 26.899888], [120.095551, 26.887274], [120.031993, 26.899888], [120.055268, 26.88939], [120.025157, 26.860175], [120.024506, 26.837877], [120.047618, 26.823228], [120.128184, 26.796942], [120.097748, 26.75849], [120.10019, 26.742906], [120.142833, 26.732815], [120.148692, 26.721177], [120.143565, 26.71011], [120.107677, 26.701321], [120.102061, 26.689154], [120.120697, 26.646064], [120.134369, 26.65351], [120.134369, 26.646064], [120.080414, 26.617418], [120.076508, 26.630113], [120.086681, 26.639228], [120.079682, 26.646064], [120.014903, 26.611274], [120.0, 26.611274], [120.0, 26.705553914878283], [120.011485, 26.721177], [120.032319, 26.71662], [120.031993, 26.728583], [120.079682, 26.796942], [120.0, 26.794487723659095], [120.0, 30.0], [121.67934375333516, 30.0], [121.732344, 29.978603]]], [[[121.285352, 28.101946], [121.279145, 28.085435], [121.238129, 28.092922], [121.238129, 28.071194], [121.231456, 28.065009], [121.219249, 28.067857], [121.218512, 28.058463], [121.1864, 28.0437], [121.151573, 28.041232], [121.146734, 28.057811], [121.155235, 28.071368], [121.130626, 28.103461], [121.120372, 28.135688], [121.165283, 28.150534], [121.20407, 28.189707], [121.210948, 28.20897], [121.230588, 28.219733], [121.256403, 28.214798], [121.268893, 28.193942], [121.255531, 28.140001], [121.285352, 28.101946]]], [[[121.958344, 29.101874], [121.935313, 29.062893], [121.888682, 29.072333], [121.900157, 29.093736], [121.871593, 29.126614], [121.868175, 29.147406], [121.881358, 29.160305], [121.926606, 29.166734], [121.951915, 29.152289], [121.958344, 29.101874]]], [[[122.177013, 29.696845], [122.18686, 29.673407], [122.162934, 29.654527], [122.16977, 29.675035], [122.149425, 29.66885], [122.149425, 29.68183], [122.127452, 29.669013], [122.121104, 29.691718], [122.092784, 29.725775], [122.04005, 29.716376], [122.032888, 29.730943], [122.068207, 29.779527], [122.107432, 29.789618], [122.122081, 29.778713], [122.122081, 29.7508], [122.177013, 29.696845]]], [[[122.382823, 29.864732], [122.395193, 29.833319], [122.377208, 29.838935], [122.357107, 29.861721], [122.369151, 29.883612], [122.367361, 29.895901], [122.325206, 29.927883], [122.32545, 29.953925], [122.341807, 29.963039], [122.346446, 29.949408], [122.359141, 29.946275], [122.406749, 29.952704], [122.407481, 29.930609], [122.395193, 29.922065], [122.409679, 29.9112], [122.408051, 29.899848], [122.382823, 29.864732]]], [[[121.889659, 29.983954], [121.860118, 29.978095], [121.828868, 29.997504], [121.82917597228598, 30.0], [121.89798265523767, 30.0], [121.889659, 29.983954]]], [[[122.306977, 29.997219], [122.29363, 29.933783], [122.229177, 29.978664], [122.15159327882037, 30.0], [122.31100680016188, 30.0], [122.306977, 29.997219]]], [[[122.019054, 29.997219], [122.01536695871366, 30.0], [122.02592166449406, 30.0], [122.019054, 29.997219]]], [[[120.318533, 26.948594], [120.322195, 26.962104], [120.3449, 26.971951], [120.363048, 26.963039], [120.385671, 26.935167], [120.35255, 26.923774], [120.318533, 26.948594]]], [[[121.103479, 27.46007], [121.103365, 27.45188], [121.066487, 27.454984], [121.076517, 27.438498], [121.067264, 27.43677], [121.046109, 27.465199], [121.074002, 27.479484], [121.103479, 27.46007]]], [[[121.188487, 27.863715], [121.189301, 27.848293], [121.173025, 27.84101], [121.171235, 27.818793], [121.138438, 27.824856], [121.097992, 27.817816], [121.096039, 27.827867], [121.114024, 27.844143], [121.149181, 27.845771], [121.156749, 27.848782], [121.153656, 27.856431], [121.188487, 27.863715]]], [[[121.040212, 27.957953], [121.045177, 27.967475], [121.07016, 27.982896], [121.111339, 27.983791], [121.139659, 27.965766], [121.139171, 27.956977], [121.103282, 27.946194], [121.071788, 27.957261], [121.049327, 27.950873], [121.040212, 27.957953]]], [[[121.867361, 29.11579], [121.853526, 29.097561], [121.842052, 29.095038], [121.814464, 29.115383], [121.782725, 29.124661], [121.789806, 29.149848], [121.843923, 29.141913], [121.862153, 29.129584], [121.867361, 29.11579]]], [[[122.314708, 29.783677], [122.30836, 29.776272], [122.251313, 29.806098], [122.2317, 29.836249], [122.247732, 29.846096], [122.271169, 29.846829], [122.312022, 29.829047], [122.304698, 29.81745], [122.314708, 29.783677]]], [[[121.9935, 29.91885], [121.992442, 29.908271], [121.974132, 29.899848], [121.946137, 29.903957], [121.933604, 29.921332], [121.940929, 29.93769], [121.959972, 29.953192], [121.9935, 29.91885]]]]}}, {"type": "Feature", "properties": {"name": "Philippines"}, "geometry": {"type": "MultiPolygon", "coordinates": [[[[125.198741, 10.035834], [125.145763, 10.070705], [125.125824, 10.129828], [125.124522, 10.151801], [125.137462, 10.165513], [125.149099, 10.165961], [125.175466, 10.145494], [125.229259, 10.121161], [125.253429, 10.035834], [125.28275591766518, 10.0], [125.2218306377004, 10.0], [125.198741, 10.035834]]], [[[124.389985, 10.641303], [124.378429, 10.628323], [124.300629, 10.590074], [124.284353, 10.603827], [124.327647, 10.704006], [124.355479, 10.710639], [124.379731, 10.691311], [124.389985, 10.641303]]], [[[124.503917, 10.693305], [124.520681, 10.665758], [124.5088, 10.641547], [124.462413, 10.631049], [124.40919, 10.648261], [124.408458, 10.683824], [124.435557, 10.713609], [124.465831, 10.713609], [124.503917, 10.693305]]], [[[125.831798, 10.72012], [125.826915, 10.70893], [125.79835, 10.699368], [125.769379, 10.700385], [125.740001, 10.724433], [125.684093, 10.752753], [125.678966, 10.778876], [125.687266, 10.805162], [125.709158, 10.817694], [125.731456, 10.808051], [125.744151, 10.758368], [125.760509, 10.740953], [125.822032, 10.734687], [125.831798, 10.72012]]], [[[124.62143, 11.5539], [124.625011, 11.532701], [124.609141, 11.486558], [124.592459, 11.481635], [124.486339, 11.488227], [124.472667, 11.473944], [124.413259, 11.546454], [124.376475, 11.645901], [124.349132, 11.68008], [124.430919, 11.695054], [124.49586, 11.69477], [124.523204, 11.686265], [124.556, 11.660224], [124.59962, 11.563381], [124.62143, 11.5539]]], [[[124.828624, 11.61343], [124.856212, 11.604926], [124.846039, 11.548774], [124.831554, 11.536322], [124.807872, 11.563381], [124.808767, 11.577338], [124.802013, 11.582465], [124.787852, 11.570217], [124.773611, 11.604926], [124.787852, 11.59809], [124.776052, 11.629828], [124.740571, 11.650621], [124.722423, 11.693264], [124.732677, 11.721625], [124.789399, 11.684882], [124.799083, 11.662014], [124.813731, 11.655341], [124.815196, 11.63227], [124.828624, 11.61343]]], [[[122.317149, 18.377427], [122.324962, 18.336615], [122.306977, 18.251288], [122.262706, 18.186103], [122.180024, 18.120754], [122.16977, 18.100491], [122.183442, 17.984361], [122.140147, 17.798285], [122.14324, 17.765286], [122.135753, 17.737291], [122.156261, 17.706936], [122.162934, 17.593329], [122.197113, 17.494615], [122.239594, 17.426825], [122.23878, 17.402167], [122.25115, 17.360175], [122.262706, 17.353746], [122.28712, 17.360582], [122.313731, 17.340074], [122.365408, 17.353746], [122.381602, 17.347398], [122.390147, 17.316881], [122.402599, 17.305976], [122.397797, 17.329088], [122.414561, 17.319078], [122.435395, 17.292426], [122.443614, 17.265611], [122.414317, 17.283637], [122.409434, 17.275214], [122.423106, 17.220608], [122.410411, 17.175523], [122.41684, 17.145819], [122.45102, 17.114163], [122.464692, 17.127834], [122.480479, 17.123481], [122.500987, 17.139797], [122.519298, 17.127834], [122.529063, 17.090522], [122.472911, 16.989691], [122.459727, 16.912014], [122.464692, 16.895087], [122.422699, 16.794338], [122.373383, 16.713528], [122.34547, 16.642524], [122.300141, 16.565497], [122.23878, 16.504055], [122.231944, 16.466498], [122.204275, 16.43476], [122.217621, 16.394761], [122.225108, 16.415269], [122.231944, 16.415269], [122.224946, 16.380764], [122.191905, 16.317369], [122.197113, 16.291693], [122.231944, 16.319037], [122.203868, 16.263821], [122.203868, 16.236518], [122.177257, 16.230292], [122.149425, 16.195543], [122.076996, 16.132717], [122.073578, 16.099921], [122.059255, 16.077786], [122.016124, 16.051459], [121.997895, 16.031073], [121.99171, 16.03852], [122.021658, 16.08393], [122.033458, 16.117133], [122.081065, 16.148383], [122.101573, 16.20775], [122.132579, 16.225491], [122.14088, 16.244086], [122.135265, 16.260728], [122.107758, 16.263821], [122.087413, 16.255316], [122.077403, 16.241278], [122.066905, 16.190131], [122.050548, 16.180854], [121.954763, 16.139146], [121.868175, 16.120429], [121.829926, 16.090399], [121.77768, 16.073188], [121.752289, 16.07689], [121.684418, 16.021145], [121.642263, 15.969631], [121.593272, 15.944892], [121.567393, 15.915717], [121.552989, 15.852932], [121.554861, 15.828925], [121.574555, 15.774359], [121.585216, 15.765448], [121.631847, 15.757025], [121.642263, 15.736884], [121.594493, 15.67475], [121.629161, 15.661119], [121.573741, 15.627265], [121.561534, 15.591376], [121.495616, 15.532457], [121.487559, 15.520413], [121.472911, 15.43769], [121.42628, 15.373765], [121.397716, 15.382717], [121.389903, 15.377875], [121.379161, 15.308173], [121.391124, 15.266262], [121.413748, 15.231635], [121.481456, 15.182522], [121.508149, 15.062812], [121.560069, 14.989651], [121.581798, 14.919664], [121.615001, 14.87287], [121.594493, 14.859198], [121.649913, 14.792182], [121.724946, 14.73078], [121.726085, 14.72016], [121.649181, 14.710517], [121.613943, 14.689887], [121.608165, 14.630194], [121.662446, 14.417385], [121.734711, 14.328681], [121.731619, 14.280422], [121.758962, 14.246568], [121.752126, 14.215725], [121.731619, 14.188218], [121.78004, 14.126166], [121.847667, 14.078355], [121.93629, 13.995185], [122.087901, 13.937812], [122.231944, 13.90644], [122.233165, 13.933051], [122.222016, 13.952094], [122.183442, 13.988959], [122.202403, 13.994574], [122.293305, 13.97012], [122.300141, 13.985582], [122.296397, 14.002753], [122.313731, 14.016303], [122.290782, 14.023098], [122.251964, 14.067694], [122.208669, 14.087633], [122.186209, 14.110541], [122.162934, 14.167792], [122.183442, 14.146674], [122.184093, 14.169867], [122.195567, 14.183783], [122.231944, 14.20185], [122.244395, 14.196031], [122.25172, 14.250312], [122.263682, 14.247382], [122.259288, 14.188218], [122.266856, 14.17886], [122.273204, 14.132514], [122.284353, 14.125881], [122.293305, 14.140448], [122.298513, 14.12934], [122.300141, 14.092027], [122.334972, 14.113227], [122.345714, 14.131334], [122.347992, 14.15412], [122.330089, 14.180569], [122.331309, 14.200263], [122.344005, 14.206936], [122.347992, 14.195054], [122.355479, 14.195054], [122.347992, 14.222357], [122.376801, 14.228502], [122.366222, 14.261461], [122.388927, 14.304918], [122.394542, 14.29149], [122.403656, 14.295396], [122.41627, 14.324774], [122.431163, 14.318061], [122.470958, 14.345893], [122.483165, 14.346666], [122.519298, 14.324774], [122.505056, 14.345893], [122.527843, 14.3487], [122.601248, 14.324774], [122.604666, 14.301256], [122.61378, 14.299709], [122.622325, 14.311184], [122.625662, 14.296536], [122.644298, 14.284735], [122.649669, 14.297512], [122.690684, 14.291246], [122.674327, 14.316107], [122.671397, 14.339423], [122.679861, 14.350531], [122.69752, 14.338446], [122.704275, 14.345893], [122.72169, 14.315741], [122.735118, 14.313544], [122.752696, 14.332221], [122.762706, 14.321357], [122.784434, 14.316962], [122.802582, 14.287177], [122.853282, 14.278551], [122.873302, 14.265204], [122.903575, 14.229193], [122.903087, 14.211249], [122.930837, 14.20185], [123.012218, 14.105699], [123.021739, 14.111396], [123.042247, 14.098049], [123.046886, 14.085191], [123.030528, 14.043443], [123.033214, 14.023139], [123.081554, 13.988959], [123.08839, 13.901435], [123.082042, 13.884426], [123.067638, 13.879584], [123.055919, 13.861314], [123.046886, 13.810858], [123.049815, 13.775824], [123.108246, 13.722113], [123.136729, 13.732815], [123.224946, 13.731147], [123.266612, 13.749416], [123.301768, 13.789455], [123.314952, 13.820543], [123.280284, 13.90644], [123.325531, 13.940009], [123.33546, 13.982164], [123.312511, 13.940823], [123.29005, 13.934556], [123.23463, 13.963813], [123.21811, 13.992743], [123.254242, 14.013739], [123.23878, 14.023139], [123.259044, 14.031195], [123.252289, 14.068101], [123.261485, 14.072903], [123.314301, 14.051093], [123.300792, 14.071519], [123.33546, 14.071519], [123.327159, 14.096015], [123.331798, 14.099514], [123.353282, 14.079413], [123.362153, 14.043606], [123.345388, 14.039537], [123.346446, 14.016303], [123.352306, 14.01317], [123.390147, 14.03734], [123.375824, 14.010077], [123.390147, 14.016303], [123.396251, 14.010077], [123.392345, 13.991848], [123.411794, 13.96426], [123.403819, 13.948676], [123.417328, 13.90644], [123.424164, 13.90644], [123.443696, 13.941352], [123.444672, 13.961656], [123.477794, 13.950507], [123.492524, 13.920722], [123.538829, 13.924954], [123.612804, 13.897162], [123.681407, 13.88467], [123.711681, 13.934394], [123.76531, 13.864325], [123.804047, 13.837633], [123.876313, 13.807318], [123.882986, 13.797797], [123.937755, 13.784003], [123.968761, 13.740058], [123.972667, 13.729315], [123.965505, 13.714667], [123.937511, 13.742621], [123.924571, 13.728949], [123.859386, 13.742621], [123.81837, 13.696479], [123.797374, 13.687974], [123.742931, 13.710435], [123.666677, 13.718329], [123.64796, 13.703559], [123.588145, 13.728949], [123.570486, 13.722968], [123.528494, 13.626776], [123.526622, 13.606024], [123.53891, 13.600979], [123.536306, 13.5633], [123.560802, 13.571234], [123.605479, 13.516669], [123.667247, 13.485582], [123.704845, 13.427232], [123.725352, 13.409898], [123.731456, 13.362535], [123.743419, 13.340318], [123.759288, 13.323879], [123.794607, 13.308417], [123.821544, 13.242906], [123.82545, 13.260159], [123.836192, 13.25609], [123.855642, 13.228664], [123.789317, 13.232408], [123.767589, 13.224311], [123.749522, 13.154731], [123.770193, 13.110785], [123.768077, 13.098538], [123.745779, 13.092108], [123.745779, 13.064154], [123.775401, 13.050767], [123.797699, 13.055162], [123.818126, 13.07099], [123.870942, 13.14289], [123.882986, 13.146064], [123.905284, 13.129055], [123.931651, 13.122707], [123.937511, 13.108588], [123.992361, 13.09162], [124.081554, 13.009508], [124.116222, 13.074408], [124.149913, 13.072903], [124.184581, 13.057318], [124.185802, 13.020819], [124.177501, 13.009996], [124.164806, 13.016343], [124.153005, 13.001288], [124.116222, 12.916449], [124.133637, 12.878485], [124.142833, 12.814399], [124.129405, 12.677191], [124.08839, 12.628811], [124.095063, 12.593655], [124.081554, 12.583726], [124.095225, 12.557074], [124.054942, 12.537258], [124.010102, 12.537258], [123.983165, 12.54678], [123.931407, 12.611721], [123.93336, 12.622219], [123.914317, 12.619127], [123.878591, 12.645209], [123.84254, 12.716213], [123.848806, 12.77619], [123.842052, 12.801215], [123.79363, 12.831448], [123.838715, 12.839301], [123.863048, 12.872382], [123.906749, 12.84162], [123.94044, 12.848293], [123.948497, 12.875474], [123.958832, 12.880032], [123.986013, 12.872382], [124.002452, 12.879706], [124.029307, 12.91177], [124.033865, 12.930406], [124.025157, 12.955308], [124.004893, 12.96133], [123.958669, 12.954291], [123.893403, 12.974799], [123.881602, 12.966498], [123.863048, 12.913316], [123.839366, 12.88817], [123.783946, 12.864936], [123.763194, 12.878607], [123.747569, 12.857489], [123.725352, 12.84512], [123.711681, 12.872382], [123.732677, 12.889879], [123.690115, 12.888739], [123.698009, 12.864936], [123.677257, 12.884182], [123.703298, 12.927191], [123.698253, 12.930894], [123.668468, 12.92414], [123.648936, 12.886298], [123.605154, 12.89289], [123.559093, 12.937893], [123.503103, 12.96483], [123.488048, 12.985582], [123.46811, 12.995998], [123.441254, 13.036851], [123.38502, 13.044094], [123.310069, 13.012356], [123.287852, 13.054348], [123.284434, 13.071519], [123.293956, 13.084662], [123.278982, 13.120185], [123.305186, 13.198635], [123.300792, 13.2355], [123.247325, 13.279202], [123.21811, 13.331041], [123.190929, 13.359036], [123.197032, 13.386542], [123.187755, 13.420478], [123.168793, 13.449205], [123.117931, 13.468899], [123.065196, 13.501776], [122.972016, 13.527533], [122.859141, 13.606106], [122.814708, 13.653795], [122.862559, 13.69477], [122.789317, 13.768541], [122.752696, 13.783596], [122.771495, 13.790961], [122.753103, 13.810492], [122.690684, 13.831977], [122.678722, 13.820787], [122.653168, 13.826077], [122.642833, 13.838813], [122.656586, 13.854315], [122.653005, 13.862372], [122.622732, 13.891995], [122.584483, 13.90644], [122.572113, 13.935045], [122.560313, 13.928168], [122.536876, 13.961127], [122.51588, 13.934394], [122.459483, 13.937893], [122.41627, 13.961656], [122.413097, 13.948065], [122.420665, 13.932278], [122.447276, 13.913886], [122.509613, 13.820014], [122.502696, 13.793158], [122.512462, 13.735785], [122.490571, 13.740627], [122.485525, 13.721625], [122.497569, 13.652045], [122.549978, 13.59516], [122.635997, 13.537095], [122.632335, 13.520697], [122.567149, 13.56387], [122.598888, 13.508287], [122.654307, 13.440416], [122.672699, 13.379299], [122.677013, 13.300971], [122.690684, 13.269599], [122.690684, 13.228664], [122.630138, 13.188056], [122.588145, 13.174018], [122.505056, 13.239203], [122.519298, 13.310614], [122.50115, 13.368069], [122.402599, 13.496161], [122.395193, 13.522895], [122.369477, 13.549791], [122.341319, 13.561103], [122.319021, 13.592231], [122.258556, 13.592027], [122.259288, 13.606024], [122.194021, 13.622789], [122.186371, 13.648017], [122.118419, 13.752102], [122.059906, 13.804633], [122.053722, 13.785142], [122.0088, 13.810858], [121.989431, 13.810045], [121.937022, 13.851793], [121.903005, 13.860541], [121.87086, 13.885728], [121.827159, 13.899726], [121.786306, 13.948676], [121.724864, 13.969143], [121.689952, 13.925971], [121.642263, 13.913886], [121.621755, 13.893459], [121.591075, 13.896796], [121.523285, 13.861884], [121.48463, 13.851793], [121.433442, 13.796373], [121.440766, 13.726386], [121.43629, 13.700995], [121.464122, 13.69477], [121.430024, 13.656928], [121.374766, 13.667467], [121.278819, 13.595038], [121.217784, 13.623236], [121.186697, 13.626532], [121.158702, 13.639472], [121.110118, 13.632961], [121.080414, 13.619086], [121.03891, 13.632758], [121.033946, 13.641832], [121.046397, 13.663764], [121.053477, 13.722113], [121.039806, 13.758694], [121.003754, 13.780911], [120.980968, 13.780463], [120.903087, 13.692939], [120.89503, 13.687974], [120.887462, 13.693508], [120.880707, 13.716864], [120.905772, 13.755601], [120.926036, 13.761664], [120.929047, 13.783596], [120.90919, 13.804633], [120.912364, 13.881781], [120.89503, 13.90644], [120.87672, 13.912258], [120.745942, 13.933783], [120.704845, 13.927436], [120.697439, 13.913886], [120.700938, 13.896145], [120.722911, 13.855414], [120.662283, 13.85928], [120.652599, 13.845526], [120.669688, 13.786933], [120.663422, 13.775377], [120.649669, 13.784247], [120.628103, 13.810858], [120.620128, 13.846625], [120.618419, 13.931627], [120.601329, 13.969143], [120.616873, 13.971666], [120.634776, 13.991604], [120.619884, 14.002916], [120.617442, 14.01789], [120.619477, 14.104234], [120.607758, 14.124905], [120.580333, 14.133002], [120.597423, 14.156928], [120.573497, 14.174547], [120.601329, 14.181383], [120.58725, 14.200263], [120.627452, 14.269599], [120.713145, 14.298529], [120.735606, 14.327216], [120.768321, 14.34219], [120.789561, 14.375312], [120.87794, 14.458889], [120.926117, 14.464667], [120.970388, 14.501899], [120.984386, 14.534003], [120.980154, 14.55744], [120.950206, 14.612779], [120.943126, 14.65351], [120.902354, 14.71894], [120.847179, 14.74372], [120.840587, 14.761217], [120.731619, 14.766669], [120.6421, 14.787014], [120.628103, 14.807685], [120.621267, 14.87287], [120.621267, 14.831855], [120.607595, 14.818264], [120.600922, 14.825629], [120.593923, 14.818264], [120.605724, 14.884833], [120.601329, 14.900824], [120.585704, 14.902818], [120.573497, 14.838772], [120.552745, 14.849921], [120.545177, 14.836859], [120.536469, 14.723212], [120.539317, 14.702826], [120.582205, 14.648261], [120.574962, 14.621649], [120.597911, 14.505601], [120.58839, 14.466986], [120.564626, 14.44123], [120.526215, 14.434638], [120.491466, 14.442084], [120.481456, 14.423977], [120.467052, 14.421047], [120.455903, 14.438788], [120.40211, 14.455756], [120.382009, 14.480292], [120.376801, 14.508205], [120.381602, 14.568101], [120.37794, 14.602037], [120.367361, 14.620754], [120.326427, 14.647528], [120.304942, 14.64057], [120.285411, 14.653754], [120.253184, 14.698635], [120.242361, 14.729641], [120.272634, 14.747056], [120.243907, 14.767035], [120.271739, 14.803941], [120.283376, 14.806708], [120.292247, 14.82567], [120.267751, 14.829535], [120.259776, 14.851508], [120.240733, 14.852362], [120.209321, 14.880032], [120.196056, 14.866645], [120.197113, 14.80801], [120.175548, 14.757392], [120.127778, 14.767035], [120.115733, 14.785468], [120.079926, 14.803941], [120.100434, 14.82567], [120.079926, 14.818264], [120.056651, 14.893256], [120.049815, 14.93122], [120.052989, 15.062445], [120.018077, 15.206122], [120.002452, 15.219672], [120.005138, 15.269436], [120.0, 15.2780679948607], [120.0, 16.196935726993456], [120.015147, 16.181871], [120.050059, 16.180854], [120.079926, 16.154527], [120.087738, 16.157213], [120.105642, 16.069648], [120.138845, 16.046129], [120.208507, 16.03266], [120.25766, 16.052191], [120.292247, 16.055609], [120.306651, 16.044664], [120.299083, 16.017401], [120.333832, 16.058987], [120.363292, 16.055487], [120.367361, 16.065823], [120.361013, 16.073188], [120.326427, 16.065823], [120.329356, 16.079495], [120.365245, 16.10871], [120.40211, 16.165473], [120.397472, 16.22899], [120.35377, 16.291693], [120.35377, 16.271308], [120.336274, 16.292182], [120.312185, 16.456204], [120.299083, 16.493801], [120.306651, 16.544989], [120.276134, 16.611884], [120.285411, 16.620673], [120.306651, 16.613918], [120.302501, 16.654975], [120.325938, 16.712592], [120.312185, 16.777777], [120.319591, 16.819322], [120.350597, 16.850328], [120.427257, 16.9619], [120.43629, 17.008002], [120.416352, 17.179348], [120.40211, 17.206692], [120.412364, 17.264594], [120.408214, 17.322699], [120.437511, 17.358832], [120.443696, 17.388495], [120.401703, 17.497016], [120.40211, 17.518866], [120.340831, 17.538764], [120.333832, 17.556383], [120.353201, 17.678127], [120.402354, 17.696967], [120.412446, 17.712836], [120.416352, 17.744778], [120.391287, 17.78144], [120.427908, 17.838121], [120.427908, 17.916653], [120.451671, 17.948879], [120.477224, 18.004828], [120.470063, 18.09101], [120.526215, 18.204088], [120.518077, 18.217719], [120.529959, 18.223538], [120.579112, 18.325141], [120.584972, 18.405463], [120.560802, 18.486762], [120.57016, 18.501776], [120.611095, 18.53856], [120.690684, 18.53441], [120.770844, 18.561469], [120.778982, 18.621812], [120.812999, 18.644517], [120.850841, 18.638861], [120.891856, 18.579901], [120.90919, 18.567206], [120.926931, 18.56623], [121.018321, 18.617092], [121.073009, 18.621812], [121.106781, 18.642727], [121.170665, 18.625474], [121.190278, 18.601304], [121.239919, 18.577704], [121.266287, 18.554877], [121.391856, 18.486314], [121.424083, 18.47724], [121.498302, 18.429389], [121.526134, 18.422553], [121.54656, 18.399237], [121.592052, 18.384711], [121.649669, 18.313951], [121.634613, 18.33454], [121.634939, 18.355129], [121.64503, 18.369452], [121.852794, 18.287991], [121.917328, 18.278632], [121.986827, 18.290432], [122.039561, 18.320217], [122.078624, 18.379462], [122.119314, 18.403022], [122.122081, 18.436835], [122.152843, 18.518785], [122.220225, 18.522406], [122.235362, 18.515367], [122.25172, 18.443061], [122.317149, 18.377427]]], [[[126.045258, 10.035142], [126.071462, 10.059068], [126.08074, 10.05565], [126.10642831129718, 10.0], [126.04470795633907, 10.0], [126.045258, 10.035142]]], [[[124.068533, 10.011664], [124.075206, 10.048326], [124.086599, 10.058783], [124.115896, 10.065253], [124.116222, 10.08983], [124.167166, 10.137437], [124.222667, 10.151923], [124.331309, 10.161526], [124.34962, 10.151028], [124.355968, 10.110297], [124.396821, 10.151923], [124.419119, 10.106757], [124.430837, 10.110175], [124.489757, 10.062567], [124.52003, 10.064195], [124.577647, 10.033922], [124.588634, 10.023871], [124.58619006958162, 10.0], [124.06213617091719, 10.0], [124.068533, 10.011664]]], [[[125.583181, 10.009711], [125.59669, 10.05565], [125.608409, 10.043606], [125.617198, 10.059068], [125.59669, 10.08983], [125.589203, 10.08983], [125.584483, 10.077541], [125.558849, 10.083645], [125.535411, 10.060858], [125.521007, 10.062567], [125.510753, 10.098456], [125.495291, 10.10871], [125.493663, 10.144477], [125.508962, 10.151313], [125.517589, 10.169379], [125.514171, 10.207099], [125.528982, 10.209784], [125.542003, 10.199693], [125.530284, 10.241889], [125.542003, 10.25434], [125.527843, 10.268622], [125.532237, 10.283922], [125.522146, 10.316962], [125.562511, 10.330797], [125.556163, 10.370754], [125.562511, 10.378485], [125.580414, 10.379136], [125.594412, 10.36518], [125.610362, 10.370998], [125.624197, 10.443671], [125.637706, 10.460395], [125.6574, 10.456448], [125.684825, 10.399888], [125.683849, 10.364407], [125.661388, 10.270575], [125.658051, 10.261705], [125.638682, 10.261379], [125.637706, 10.248114], [125.668142, 10.214667], [125.658051, 10.199693], [125.664887, 10.192857], [125.653819, 10.186591], [125.656505, 10.176337], [125.668468, 10.169257], [125.685313, 10.172349], [125.676768, 10.127672], [125.706554, 10.069322], [125.681977, 10.021552], [125.68695622840617, 10.0], [125.58889878384358, 10.0], [125.583181, 10.009711]]], [[[120.000011, 10.580471], [120.011241, 10.565253], [120.0, 10.56020787387518], [120.0, 10.580475922931166], [120.000011, 10.580471]]], [[[122.737966, 10.694159], [122.737071, 10.640041], [122.68686, 10.506008], [122.664317, 10.470852], [122.634451, 10.444241], [122.594981, 10.433051], [122.605235, 10.460517], [122.594493, 10.459703], [122.536632, 10.41942], [122.519298, 10.453559], [122.519298, 10.474066], [122.494802, 10.483466], [122.482432, 10.503363], [122.516856, 10.509101], [122.529307, 10.533271], [122.553477, 10.54914], [122.535004, 10.55329], [122.527354, 10.570136], [122.536632, 10.607489], [122.574555, 10.665839], [122.62322, 10.684475], [122.6338, 10.722602], [122.670177, 10.76203], [122.711111, 10.734687], [122.737966, 10.694159]]], [[[123.570811, 10.779242], [123.516856, 10.680976], [123.485688, 10.54914], [123.473643, 10.52676], [123.389659, 10.437161], [123.344737, 10.347968], [123.340343, 10.260688], [123.304698, 10.178534], [123.290375, 10.093573], [123.22864195230835, 10.0], [122.73105582742926, 10.0], [122.782237, 10.052965], [122.807384, 10.069322], [122.826915, 10.058092], [122.8449, 10.067288], [122.872813, 10.100409], [122.875824, 10.143012], [122.855317, 10.228013], [122.869395, 10.350531], [122.859386, 10.394477], [122.821788, 10.47248], [122.814708, 10.515041], [122.823904, 10.532864], [122.861013, 10.54621], [122.910411, 10.597561], [122.934581, 10.658393], [122.97169, 10.721096], [122.97169, 10.806098], [122.950694, 10.827216], [122.952159, 10.847724], [122.993826, 10.906724], [123.087738, 10.92593], [123.213552, 10.996405], [123.259776, 10.994818], [123.269786, 10.977362], [123.300792, 10.974311], [123.341807, 10.946357], [123.390147, 10.960028], [123.403575, 10.953192], [123.39503, 10.936225], [123.405447, 10.919827], [123.445649, 10.942288], [123.521821, 10.919908], [123.535004, 10.904853], [123.546641, 10.856106], [123.574474, 10.830959], [123.570811, 10.779242]]], [[[124.020763, 10.747748], [124.023936, 10.708441], [124.050792, 10.627387], [124.054942, 10.590074], [124.033865, 10.576483], [124.04127, 10.562812], [124.04005, 10.484361], [124.009776, 10.404039], [124.018728, 10.380805], [124.014903, 10.372463], [123.992849, 10.357367], [123.979666, 10.377183], [123.970876, 10.362209], [123.972911, 10.326606], [123.889659, 10.282213], [123.868663, 10.248196], [123.808116, 10.23664], [123.79363, 10.226467], [123.773692, 10.199693], [123.719493, 10.156806], [123.696137, 10.093899], [123.652599, 10.063625], [123.643321, 10.038967], [123.643321, 10.0], [123.4154809159475, 10.0], [123.422537, 10.037502], [123.507986, 10.122219], [123.533458, 10.190375], [123.581309, 10.25434], [123.605479, 10.333157], [123.706798, 10.461982], [123.723155, 10.494208], [123.719086, 10.54914], [123.754405, 10.599433], [123.777843, 10.662584], [123.849294, 10.752631], [123.915782, 10.939765], [123.934581, 10.970445], [123.917735, 11.028957], [123.944347, 11.074164], [123.945079, 11.097846], [123.972911, 11.077338], [123.951915, 11.156724], [123.958751, 11.17593], [124.018321, 11.25849], [124.045665, 11.277167], [124.074718, 11.26911], [124.068126, 11.233344], [124.04127, 11.130113], [123.999522, 11.077338], [124.0171, 11.05622], [124.054942, 11.063666], [124.061778, 10.98428], [124.053477, 10.930569], [124.068533, 10.878119], [124.020763, 10.747748]]], [[[123.818044, 11.154731], [123.814952, 11.148017], [123.745779, 11.138821], [123.733653, 11.154283], [123.704845, 11.241197], [123.715831, 11.264146], [123.745779, 11.292467], [123.760916, 11.278876], [123.801036, 11.179145], [123.818044, 11.154731]]], [[[125.273285, 10.277981], [125.26002, 10.261054], [125.229259, 10.25434], [125.159353, 10.281806], [125.14088, 10.278795], [125.134044, 10.257961], [125.136729, 10.228583], [125.151052, 10.185452], [125.117035, 10.197496], [125.088552, 10.22899], [125.061697, 10.299302], [125.041515, 10.328599], [125.041759, 10.364203], [125.010427, 10.383043], [124.990977, 10.381334], [124.979747, 10.364203], [124.993012, 10.334906], [125.000173, 10.199693], [125.024262, 10.136054], [125.042247, 10.049018], [125.041759, 10.028998], [125.031749, 10.02025], [124.962169, 10.067328], [124.954112, 10.086127], [124.917735, 10.097317], [124.882823, 10.134955], [124.815196, 10.13939], [124.780447, 10.151923], [124.765798, 10.18594], [124.794119, 10.30272], [124.792247, 10.32567], [124.771007, 10.375312], [124.738943, 10.395453], [124.735606, 10.420315], [124.743988, 10.49372], [124.767345, 10.532375], [124.772309, 10.597357], [124.800955, 10.67829], [124.800548, 10.724514], [124.778819, 10.821438], [124.732677, 10.86815], [124.718028, 10.905585], [124.691742, 10.939602], [124.622325, 11.002021], [124.58253, 11.000963], [124.549571, 10.983303], [124.546886, 10.968329], [124.562755, 10.931464], [124.539236, 10.888373], [124.514496, 10.873684], [124.469249, 10.905463], [124.446951, 10.903144], [124.43686, 10.935207], [124.396007, 10.934068], [124.396821, 10.953803], [124.417979, 11.000963], [124.415375, 11.019965], [124.389985, 11.049465], [124.388438, 11.065863], [124.417979, 11.128567], [124.404307, 11.210761], [124.404307, 11.30268], [124.387055, 11.300727], [124.354747, 11.328681], [124.349132, 11.347357], [124.370291, 11.374945], [124.334727, 11.392035], [124.348481, 11.399115], [124.311371, 11.466783], [124.297537, 11.526801], [124.300629, 11.542873], [124.329112, 11.557115], [124.340099, 11.551011], [124.365896, 11.515937], [124.443126, 11.446926], [124.480154, 11.385199], [124.489594, 11.446682], [124.503266, 11.443834], [124.545258, 11.409003], [124.569672, 11.346829], [124.594249, 11.319525], [124.629893, 11.304429], [124.677989, 11.30268], [124.744395, 11.328559], [124.794119, 11.371527], [124.845714, 11.43301], [124.886892, 11.419989], [124.893728, 11.43301], [124.903982, 11.419989], [124.938162, 11.419989], [124.976329, 11.392035], [124.984141, 11.381334], [124.982188, 11.357896], [124.96518, 11.306383], [124.973969, 11.277086], [125.019379, 11.25259], [125.023448, 11.227932], [125.034434, 11.248033], [125.041759, 11.248033], [125.041759, 11.207099], [125.027599, 11.176011], [125.041759, 11.135403], [125.053071, 10.968207], [125.012869, 10.844672], [125.006114, 10.797349], [125.013845, 10.754584], [125.120291, 10.70307], [125.130544, 10.665839], [125.174571, 10.611233], [125.194102, 10.602973], [125.185232, 10.532375], [125.198741, 10.48428], [125.198741, 10.433051], [125.232188, 10.386868], [125.246593, 10.398342], [125.259125, 10.383205], [125.273936, 10.323188], [125.273285, 10.277981]]], [[[123.174815, 11.467475], [123.156749, 11.423082], [123.160411, 11.380439], [123.147716, 11.352484], [123.125662, 11.344875], [123.113536, 11.266669], [123.115896, 11.230658], [123.136241, 11.196519], [123.131358, 11.182685], [123.111339, 11.168036], [123.108246, 11.151801], [123.060883, 11.16942], [123.04127, 11.163398], [123.028331, 11.109849], [123.014903, 11.09162], [122.97169, 11.069892], [122.972423, 11.049018], [122.950694, 11.035793], [122.951671, 11.055732], [122.938243, 11.063666], [122.924571, 11.028957], [122.889903, 11.035793], [122.862559, 11.015286], [122.862559, 11.028957], [122.789317, 10.97606], [122.78004, 10.956936], [122.798025, 10.875434], [122.786876, 10.84455], [122.744802, 10.79564], [122.728526, 10.789374], [122.694102, 10.802965], [122.630626, 10.774359], [122.601248, 10.740953], [122.604991, 10.727729], [122.594981, 10.721096], [122.589854, 10.698717], [122.365408, 10.672675], [122.33839, 10.658393], [122.293305, 10.658393], [122.259288, 10.637885], [122.226573, 10.642239], [122.161957, 10.593736], [122.128917, 10.590074], [122.101817, 10.569322], [122.039561, 10.46662], [122.015798, 10.445461], [121.982107, 10.430243], [121.949718, 10.433173], [121.929698, 10.46662], [121.932465, 10.508694], [121.972179, 10.582099], [121.984874, 10.647284], [121.978038, 10.710191], [121.944102, 10.753567], [121.937022, 10.775702], [121.978038, 10.905463], [122.045095, 11.017401], [122.053071, 11.063666], [122.053071, 11.233791], [122.041759, 11.300442], [122.066091, 11.360175], [122.073578, 11.477362], [122.085704, 11.494574], [122.107188, 11.657945], [122.101573, 11.693671], [122.084483, 11.724677], [121.99171, 11.741441], [121.941173, 11.760077], [121.882172, 11.760728], [121.853852, 11.769436], [121.889008, 11.819281], [121.888682, 11.871243], [121.896821, 11.893785], [121.919688, 11.899115], [121.939708, 11.922187], [121.963715, 11.933905], [121.984874, 11.913398], [122.030284, 11.896308], [122.053233, 11.866685], [122.094412, 11.834662], [122.228689, 11.79975], [122.265391, 11.785549], [122.322113, 11.742255], [122.377208, 11.733222], [122.427989, 11.668769], [122.465343, 11.64525], [122.512462, 11.59809], [122.588145, 11.563381], [122.604177, 11.517076], [122.622325, 11.508734], [122.65447, 11.526068], [122.649669, 11.549709], [122.660411, 11.568752], [122.686046, 11.545844], [122.704275, 11.542873], [122.695649, 11.561347], [122.730805, 11.592231], [122.733409, 11.601304], [122.724783, 11.611762], [122.830333, 11.605292], [122.854991, 11.591254], [122.874848, 11.547919], [122.944509, 11.522406], [122.875824, 11.465644], [122.87615, 11.447252], [122.900727, 11.437934], [122.955414, 11.470689], [123.008067, 11.487291], [123.0442, 11.515855], [123.08961, 11.52969], [123.117849, 11.548163], [123.156749, 11.59809], [123.163585, 11.59809], [123.164399, 11.537991], [123.156749, 11.522406], [123.122081, 11.508734], [123.129242, 11.493801], [123.149913, 11.494452], [123.140391, 11.479315], [123.170421, 11.48078], [123.174815, 11.467475]]], [[[120.052582, 11.871243], [120.083263, 11.860419], [120.050059, 11.854315], [120.051768, 11.831], [120.039073, 11.816596], [120.039073, 11.81037], [120.062185, 11.806301], [120.079926, 11.789252], [120.052582, 11.761949], [120.067068, 11.741767], [120.047048, 11.70893], [120.014171, 11.682115], [120.0, 11.681146795031056], [120.0, 11.775312948943666], [120.004893, 11.782538], [120.0, 11.792236676126391], [120.0, 11.926876789991956], [120.031423, 11.924465], [120.02589, 11.915473], [120.003103, 11.910061], [120.052582, 11.871243]]], [[[120.349132, 12.007025], [120.326427, 11.995307], [120.312755, 11.992011], [120.274913, 12.003404], [120.237641, 11.987942], [120.202403, 12.008002], [120.18922, 12.002834], [120.187022, 12.018256], [120.1421, 12.029486], [120.134613, 12.02204], [120.141368, 12.00967], [120.134613, 11.97484], [120.121349, 11.979397], [120.114106, 11.967434], [120.082286, 12.001532], [120.039073, 11.995307], [120.00115, 12.011176], [120.0, 12.01266285603417], [120.0, 12.263851475626721], [120.004893, 12.262885], [120.079926, 12.200832], [120.114106, 12.193996], [120.096853, 12.186021], [120.094249, 12.166653], [120.116954, 12.166449], [120.196056, 12.112006], [120.204356, 12.128363], [120.223969, 12.125678], [120.224132, 12.219184], [120.229747, 12.218655], [120.250743, 12.185492], [120.258311, 12.131781], [120.286388, 12.135443], [120.292247, 12.118232], [120.299083, 12.125678], [120.342133, 12.080756], [120.3449, 12.05329], [120.319591, 12.036322], [120.315196, 12.023179], [120.319591, 12.01789], [120.333832, 12.029486], [120.340099, 12.02204], [120.347504, 12.029486], [120.349132, 12.007025]]], [[[122.670177, 12.317532], [122.642833, 12.291938], [122.611827, 12.276516], [122.591563, 12.300116], [122.553477, 12.317532], [122.511974, 12.377631], [122.465099, 12.388577], [122.431895, 12.409735], [122.423106, 12.427395], [122.423025, 12.462877], [122.444591, 12.48371], [122.48113, 12.493354], [122.594249, 12.492621], [122.632091, 12.484524], [122.649181, 12.473212], [122.661388, 12.439358], [122.687511, 12.402818], [122.670177, 12.317532]]], [[[125.779633, 11.052395], [125.760509, 11.022773], [125.719574, 11.049465], [125.706065, 11.116767], [125.651541, 11.1494], [125.600108, 11.118313], [125.588064, 11.12226], [125.57545, 11.151801], [125.563813, 11.156806], [125.538341, 11.145657], [125.527843, 11.090399], [125.482432, 11.127631], [125.469737, 11.128567], [125.424653, 11.090399], [125.416515, 11.116604], [125.406261, 11.117133], [125.397472, 11.104682], [125.363292, 11.131985], [125.327159, 11.137519], [125.317068, 11.149563], [125.275727, 11.135647], [125.246837, 11.09219], [125.232921, 11.097846], [125.218923, 11.118069], [125.198741, 11.227525], [125.172374, 11.265204], [125.132823, 11.282131], [125.041759, 11.282172], [125.000987, 11.289781], [124.99171, 11.31802], [125.007009, 11.426174], [124.979747, 11.447252], [124.937999, 11.462795], [124.911469, 11.501899], [124.896495, 11.47012], [124.887462, 11.465522], [124.85613, 11.473049], [124.828298, 11.508734], [124.869884, 11.542873], [124.900076, 11.548774], [124.903656, 11.554267], [124.89031, 11.570217], [124.948741, 11.570217], [124.977794, 11.59276], [125.000173, 11.624823], [124.991222, 11.670315], [124.996755, 11.683417], [125.034434, 11.727851], [125.055431, 11.714179], [125.05421, 11.738227], [125.043712, 11.757758], [125.003591, 11.77558], [124.928233, 11.741441], [124.892426, 11.761461], [124.833507, 11.845364], [124.794119, 11.85814], [124.794119, 11.864976], [124.807872, 11.864976], [124.794119, 11.871243], [124.807872, 11.899115], [124.828298, 11.885443], [124.823985, 11.905829], [124.794932, 11.916449], [124.778575, 11.899156], [124.761078, 11.901313], [124.751964, 11.910305], [124.767345, 11.920233], [124.762055, 11.929023], [124.74822, 11.932563], [124.739513, 11.926459], [124.729259, 11.977973], [124.679861, 12.029731], [124.600434, 12.054633], [124.569347, 12.050849], [124.493175, 12.097805], [124.424815, 12.172838], [124.430919, 12.180325], [124.407237, 12.193793], [124.390798, 12.221869], [124.342133, 12.385728], [124.276215, 12.533271], [124.283458, 12.570624], [124.305024, 12.582994], [124.363048, 12.543606], [124.407481, 12.557074], [124.454275, 12.538398], [124.517345, 12.537258], [124.536794, 12.522528], [124.551443, 12.529731], [124.67921, 12.515937], [124.877208, 12.533393], [124.895518, 12.554267], [124.880219, 12.572211], [124.87672, 12.591254], [124.894786, 12.585435], [124.928233, 12.557074], [124.973399, 12.576321], [124.979747, 12.560777], [125.010427, 12.553412], [125.049571, 12.529364], [125.091807, 12.547349], [125.099783, 12.574652], [125.109141, 12.579291], [125.137462, 12.570746], [125.16627, 12.578111], [125.272146, 12.49901], [125.273936, 12.482001], [125.306163, 12.458319], [125.326345, 12.421332], [125.34962, 12.3994], [125.312836, 12.366685], [125.307872, 12.341864], [125.329112, 12.323676], [125.314789, 12.296373], [125.356456, 12.317532], [125.34962, 12.289537], [125.360688, 12.285142], [125.390636, 12.30386], [125.384451, 12.28498], [125.43214, 12.282701], [125.486013, 12.247382], [125.500499, 12.248603], [125.538259, 12.183498], [125.537608, 12.172431], [125.521007, 12.180325], [125.47934, 12.166653], [125.507335, 12.146186], [125.467133, 12.134914], [125.459483, 12.125678], [125.457367, 12.107082], [125.500499, 12.10456], [125.493663, 12.090969], [125.525157, 12.056952], [125.524425, 12.04621], [125.48227, 12.008531], [125.445811, 11.947333], [125.44516, 11.905951], [125.459483, 11.871243], [125.459483, 11.830268], [125.493663, 11.790229], [125.483735, 11.77619], [125.457205, 11.785712], [125.447276, 11.767768], [125.450206, 11.750434], [125.481619, 11.75731], [125.500499, 11.701117], [125.499034, 11.675849], [125.476817, 11.668769], [125.466319, 11.652737], [125.479015, 11.647528], [125.466319, 11.611762], [125.490489, 11.594672], [125.497895, 11.548326], [125.530935, 11.491604], [125.521007, 11.460354], [125.548839, 11.460354], [125.558604, 11.424791], [125.606944, 11.398871], [125.637706, 11.368476], [125.63502, 11.326483], [125.566173, 11.268134], [125.555024, 11.248033], [125.555024, 11.211859], [125.571788, 11.192572], [125.599132, 11.189114], [125.63087, 11.200263], [125.616059, 11.21894], [125.615733, 11.233873], [125.628917, 11.236314], [125.693614, 11.192572], [125.707367, 11.177436], [125.712738, 11.148749], [125.779633, 11.052395]]], [[[124.07252, 11.744086], [124.068533, 11.727851], [124.054861, 11.725572], [124.007986, 11.796698], [123.974376, 11.824937], [123.945649, 11.835679], [123.924083, 11.859565], [123.89031, 11.870795], [123.855642, 11.913398], [123.84254, 11.906155], [123.787364, 11.926459], [123.764008, 11.915676], [123.742931, 11.926947], [123.711681, 11.954413], [123.722423, 11.975816], [123.745779, 11.981106], [123.732677, 12.008368], [123.719086, 11.995307], [123.685395, 12.031806], [123.659434, 12.042955], [123.650727, 12.056952], [123.653005, 12.069281], [123.670665, 12.071031], [123.614757, 12.079332], [123.603852, 12.11872], [123.546397, 12.188056], [123.485362, 12.218085], [123.424164, 12.200832], [123.382009, 12.145087], [123.364757, 12.106024], [123.32838, 12.085273], [123.265961, 12.007514], [123.159679, 11.917792], [123.149913, 11.930162], [123.156993, 11.974311], [123.164724, 11.994371], [123.190115, 12.011664], [123.193207, 12.046332], [123.211274, 12.077297], [123.215994, 12.13349], [123.231944, 12.125678], [123.244314, 12.149848], [123.277192, 12.164293], [123.259776, 12.193996], [123.294607, 12.217231], [123.293956, 12.235541], [123.23699, 12.235175], [123.21811, 12.228095], [123.217784, 12.265448], [123.24879, 12.307115], [123.273448, 12.423651], [123.265636, 12.447333], [123.242442, 12.464586], [123.234711, 12.59276], [123.321137, 12.570746], [123.356456, 12.549262], [123.355968, 12.543402], [123.33839, 12.546942], [123.355968, 12.495592], [123.326671, 12.467922], [123.321137, 12.450914], [123.326427, 12.438056], [123.355968, 12.468329], [123.372813, 12.471381], [123.386485, 12.512519], [123.397634, 12.519029], [123.434093, 12.518622], [123.495616, 12.468573], [123.552419, 12.45661], [123.593435, 12.394355], [123.609223, 12.385728], [123.609223, 12.378892], [123.590099, 12.372301], [123.588145, 12.35102], [123.636974, 12.370266], [123.647716, 12.348293], [123.688243, 12.337795], [123.767345, 12.214057], [123.79363, 12.187161], [123.788422, 12.231269], [123.794932, 12.246894], [123.848806, 12.200832], [123.882335, 12.212795], [123.889659, 12.200832], [123.889659, 12.207668], [123.951915, 12.10456], [123.979177, 12.090969], [123.998302, 12.03974], [124.050304, 11.971137], [124.054942, 11.954413], [123.999522, 12.008368], [124.020763, 11.97484], [124.009532, 11.965766], [124.01295, 11.95425], [124.058279, 11.87519], [124.061778, 11.837714], [124.054942, 11.799791], [124.07252, 11.744086]]], [[[122.31129, 12.536689], [122.309825, 12.501125], [122.279633, 12.474514], [122.254649, 12.511176], [122.245616, 12.570746], [122.279633, 12.619127], [122.31129, 12.536689]]], [[[122.145681, 12.657457], [122.156016, 12.648342], [122.156261, 12.632148], [122.128917, 12.625393], [122.135753, 12.560777], [122.106944, 12.459784], [122.098888, 12.386379], [122.080821, 12.315497], [122.036469, 12.214057], [122.061209, 12.188056], [122.059906, 12.172838], [122.046886, 12.187161], [122.022797, 12.162828], [122.019054, 12.10456], [122.012218, 12.10456], [121.991059, 12.128485], [121.986176, 12.142564], [121.99171, 12.159166], [121.965017, 12.161444], [121.958995, 12.177802], [121.963715, 12.228095], [121.973318, 12.204495], [121.987153, 12.2001], [121.999766, 12.210639], [122.002126, 12.244371], [121.971202, 12.256049], [121.920746, 12.302883], [121.924083, 12.339342], [121.946625, 12.3994], [121.978282, 12.411811], [121.993175, 12.441799], [121.99586, 12.592719], [122.019054, 12.611721], [122.104991, 12.641791], [122.115245, 12.666327], [122.145681, 12.657457]]], [[[123.790538, 12.337958], [123.732677, 12.406236], [123.583181, 12.623928], [123.581309, 12.64643], [123.597341, 12.641343], [123.609223, 12.687445], [123.618337, 12.687323], [123.646739, 12.657131], [123.704845, 12.625393], [123.691173, 12.611721], [123.716563, 12.608303], [123.732677, 12.591254], [123.727875, 12.573635], [123.789399, 12.409125], [123.790538, 12.337958]]], [[[123.286632, 12.815009], [123.36085, 12.736518], [123.375824, 12.69359], [123.341075, 12.718207], [123.251964, 12.832709], [123.185313, 12.858466], [123.069672, 12.964789], [123.060557, 12.988471], [123.035492, 13.004381], [122.973888, 13.018704], [122.950694, 13.043687], [122.944509, 13.111314], [122.988943, 13.128974], [122.992198, 13.153551], [123.039806, 13.128079], [123.074229, 13.084662], [123.094574, 13.043687], [123.122081, 13.019761], [123.160167, 12.937567], [123.201427, 12.90644], [123.226573, 12.898342], [123.246104, 12.90648], [123.261974, 12.897854], [123.280284, 12.864936], [123.286632, 12.815009]]], [[[121.546397, 12.64411], [121.545665, 12.611233], [121.5324, 12.605455], [121.481456, 12.539008], [121.456716, 12.522935], [121.437836, 12.521633], [121.443614, 12.482001], [121.43629, 12.474514], [121.430024, 12.482001], [121.42628, 12.475084], [121.430024, 12.454657], [121.411876, 12.443183], [121.412446, 12.414984], [121.443614, 12.358466], [121.384288, 12.368598], [121.381602, 12.35102], [121.388927, 12.336371], [121.381602, 12.317532], [121.394542, 12.307685], [121.395763, 12.289537], [121.365733, 12.307766], [121.354747, 12.324123], [121.27296, 12.269029], [121.244965, 12.214423], [121.230154, 12.214342], [121.193696, 12.241767], [121.131684, 12.241767], [121.113617, 12.251288], [121.099132, 12.274644], [121.093272, 12.303697], [121.101085, 12.330512], [121.115977, 12.305243], [121.142589, 12.310045], [121.121593, 12.310045], [121.114757, 12.330512], [121.094412, 12.345404], [121.08725, 12.343248], [121.08725, 12.323676], [121.071137, 12.332506], [120.98113, 12.422675], [120.938975, 12.493964], [120.916352, 12.512397], [120.929047, 12.577582], [120.912446, 12.634711], [120.854503, 12.715318], [120.797862, 12.729438], [120.781993, 12.805569], [120.76531, 12.831448], [120.779633, 12.867906], [120.758311, 13.002387], [120.696951, 13.092108], [120.664887, 13.155911], [120.642345, 13.183254], [120.594574, 13.199205], [120.576345, 13.221422], [120.514822, 13.230536], [120.526215, 13.249172], [120.479991, 13.3015], [120.452485, 13.420233], [120.439952, 13.427232], [120.408214, 13.420478], [120.368175, 13.383368], [120.355968, 13.38052], [120.327647, 13.396877], [120.306651, 13.444322], [120.321544, 13.487779], [120.356619, 13.518378], [120.403168, 13.52733], [120.47169, 13.511542], [120.56544, 13.513129], [120.595388, 13.498928], [120.676524, 13.492987], [120.690196, 13.481879], [120.706391, 13.490383], [120.737315, 13.468248], [120.754568, 13.466742], [120.888194, 13.501858], [120.915375, 13.516669], [120.928396, 13.50495], [120.944835, 13.512844], [120.950206, 13.530341], [120.977387, 13.530341], [120.984386, 13.522895], [120.979666, 13.514146], [120.957042, 13.502997], [121.003917, 13.459662], [121.026866, 13.421576], [121.042735, 13.413031], [121.108653, 13.415961], [121.125255, 13.404771], [121.121593, 13.372016], [121.128266, 13.372016], [121.141124, 13.407416], [121.197113, 13.440904], [121.217784, 13.40412], [121.333751, 13.310614], [121.376231, 13.245103], [121.430512, 13.22427], [121.443614, 13.18769], [121.432628, 13.156073], [121.43629, 13.146064], [121.44752, 13.138983], [121.481212, 13.146064], [121.527029, 13.140774], [121.544444, 13.130316], [121.552989, 13.111314], [121.549164, 13.090644], [121.50172, 13.054267], [121.483165, 13.014716], [121.492442, 12.929511], [121.48463, 12.85871], [121.477794, 12.85871], [121.485606, 12.768459], [121.526134, 12.704495], [121.546397, 12.64411]]], [[[122.128917, 13.386298], [122.120291, 13.356635], [122.039561, 13.269599], [122.049083, 13.248358], [122.040294, 13.230699], [122.0088, 13.204779], [121.993175, 13.201606], [121.90919, 13.269599], [121.875011, 13.276435], [121.813731, 13.35224], [121.817231, 13.46483], [121.850759, 13.520941], [121.858653, 13.565497], [121.873057, 13.568508], [121.90919, 13.522895], [121.929698, 13.544623], [121.944998, 13.528998], [121.968028, 13.523749], [121.989024, 13.530463], [121.997895, 13.550767], [122.020193, 13.533637], [122.019054, 13.509223], [122.033946, 13.514635], [122.045177, 13.509223], [122.043793, 13.485338], [122.059906, 13.475735], [122.075206, 13.485419], [122.09669, 13.479682], [122.115245, 13.464993], [122.122081, 13.44774], [122.101573, 13.440904], [122.101573, 13.416693], [122.128917, 13.386298]]], [[[120.283051, 13.70246], [120.285411, 13.691392], [120.264334, 13.673733], [120.243175, 13.704047], [120.219493, 13.711249], [120.203461, 13.735785], [120.158865, 13.749416], [120.141124, 13.76675], [120.108246, 13.776842], [120.082856, 13.817939], [120.085704, 13.860785], [120.103689, 13.866278], [120.142833, 13.8487], [120.168712, 13.82453], [120.202647, 13.824612], [120.237641, 13.804633], [120.271739, 13.752509], [120.252696, 13.724433], [120.260916, 13.711575], [120.283051, 13.70246]]], [[[124.417979, 13.865465], [124.389985, 13.845649], [124.403575, 13.838813], [124.417979, 13.797797], [124.389985, 13.790351], [124.398774, 13.771186], [124.389985, 13.711575], [124.407481, 13.683743], [124.408702, 13.667304], [124.355317, 13.659613], [124.334727, 13.557603], [124.293468, 13.604071], [124.251638, 13.599189], [124.222667, 13.581855], [124.199392, 13.530422], [124.187755, 13.522895], [124.170177, 13.529771], [124.085948, 13.600043], [124.047374, 13.606024], [124.048106, 13.633368], [124.026052, 13.669623], [124.087169, 13.716132], [124.107432, 13.745103], [124.129405, 13.818305], [124.120779, 13.875922], [124.135916, 13.907294], [124.116222, 13.988959], [124.135916, 14.010647], [124.124522, 14.049384], [124.136892, 14.078355], [124.149669, 14.062242], [124.193614, 14.090033], [124.215668, 14.086493], [124.265636, 14.022691], [124.277354, 13.955512], [124.308116, 13.928168], [124.300629, 13.920722], [124.308116, 13.90644], [124.314952, 13.90644], [124.329763, 13.933092], [124.357758, 13.9206], [124.417979, 13.872952], [124.417979, 13.865465]]], [[[122.172699, 14.053534], [122.183442, 14.030585], [122.177013, 14.007066], [122.158376, 14.006781], [122.136078, 14.019232], [121.96518, 14.142971], [121.929861, 14.191148], [121.926606, 14.221259], [121.945079, 14.232611], [121.964041, 14.226142], [122.104747, 14.102607], [122.172699, 14.053534]]], [[[122.257009, 14.767035], [122.256602, 14.745917], [122.242198, 14.736314], [122.162934, 14.797756], [122.121267, 14.806871], [122.105724, 14.84394], [122.122081, 14.838772], [122.135753, 14.852362], [122.146007, 14.833645], [122.203868, 14.838772], [122.192638, 14.824774], [122.197113, 14.803941], [122.206309, 14.796617], [122.235362, 14.797756], [122.257009, 14.767035]]], [[[122.048188, 14.999457], [122.057872, 14.983303], [122.053071, 14.962226], [122.031505, 14.987738], [122.005382, 14.99018], [121.992686, 14.969184], [121.996349, 14.963528], [122.005382, 14.969062], [122.012869, 14.932929], [121.96811, 14.902574], [121.978038, 14.838772], [121.996593, 14.841376], [122.0088, 14.824612], [122.023692, 14.722602], [122.004161, 14.673651], [121.984874, 14.656928], [121.940196, 14.640082], [121.916677, 14.649075], [121.908702, 14.670966], [121.916026, 14.722073], [121.934906, 14.725775], [121.933849, 14.76496], [121.919444, 14.810248], [121.898936, 14.831855], [121.883637, 14.836412], [121.877452, 14.894436], [121.847667, 14.935533], [121.81837, 14.946031], [121.826427, 15.012152], [121.844249, 15.045396], [121.893728, 15.024563], [121.909923, 15.050198], [121.927989, 15.052232], [122.005138, 15.038642], [122.011241, 15.027167], [122.005382, 15.010688], [122.048188, 14.999457]]], [[[121.429861, 18.905585], [121.458018, 18.883938], [121.477794, 18.881903], [121.431407, 18.856147], [121.406749, 18.850816], [121.318614, 18.843207], [121.294932, 18.846829], [121.279145, 18.862006], [121.28004, 18.880561], [121.429861, 18.905585]]], [[[121.990896, 18.961127], [121.989106, 18.949123], [121.962576, 18.938666], [121.929698, 18.895494], [121.895274, 18.867662], [121.865733, 18.821926], [121.834158, 18.834296], [121.841075, 18.86815], [121.874848, 18.900824], [121.853852, 18.923489], [121.871593, 18.950629], [121.871593, 18.971259], [121.892589, 18.996487], [121.902354, 19.005357], [121.920909, 18.998114], [121.946625, 19.012193], [121.990896, 18.961127]]], [[[121.229828, 19.159247], [121.252208, 19.081285], [121.258962, 19.045722], [121.244965, 19.018459], [121.196788, 19.065497], [121.190278, 19.087348], [121.210948, 19.176703], [121.229828, 19.159247]]], [[[121.546723, 19.282864], [121.518728, 19.27912], [121.498302, 19.259263], [121.398936, 19.303371], [121.350841, 19.375922], [121.378917, 19.383734], [121.395763, 19.403266], [121.470958, 19.382148], [121.516612, 19.393541], [121.526134, 19.38227], [121.526134, 19.320705], [121.546723, 19.282864]]], [[[121.997895, 19.560289], [121.978038, 19.498847], [121.960948, 19.491767], [121.947113, 19.496772], [121.898204, 19.53677], [121.900238, 19.559231], [121.950043, 19.560289], [121.977306, 19.577379], [121.997895, 19.560289]]], [[[121.859386, 20.347357], [121.89324, 20.313666], [121.8921, 20.297349], [121.869314, 20.27619], [121.850841, 20.273424], [121.839203, 20.320787], [121.841645, 20.346015], [121.859386, 20.347357]]], [[[122.027599, 20.481147], [122.0324, 20.464057], [121.963715, 20.406643], [121.971202, 20.368476], [121.938975, 20.3487], [121.92213, 20.354153], [121.916026, 20.375922], [121.922374, 20.393297], [121.965994, 20.460639], [122.009776, 20.488471], [122.027599, 20.481147]]], [[[121.851736, 20.718573], [121.829845, 20.698961], [121.803396, 20.691148], [121.786388, 20.70307], [121.805431, 20.758979], [121.837657, 20.820258], [121.855805, 20.838324], [121.865977, 20.838202], [121.879242, 20.814032], [121.877208, 20.770331], [121.851736, 20.718573]]], [[[121.094493, 10.873481], [121.08074, 10.841742], [121.087169, 10.823472], [121.034679, 10.81981], [121.017589, 10.834133], [121.032074, 10.87051], [121.085785, 10.908881], [121.093272, 10.910386], [121.094493, 10.873481]]], [[[120.263438, 11.916164], [120.271495, 11.899115], [120.264171, 11.861558], [120.278331, 11.824042], [120.267914, 11.81623], [120.203298, 11.947577], [120.267914, 11.968085], [120.281993, 11.957994], [120.285167, 11.930162], [120.263438, 11.916164]]], [[[121.416677, 12.030219], [121.413829, 12.014553], [121.401866, 12.002834], [121.384288, 12.000922], [121.364268, 12.02733], [121.367686, 12.071031], [121.355642, 12.094184], [121.358653, 12.114691], [121.406423, 12.062445], [121.416677, 12.030219]]], [[[121.717784, 12.899604], [121.699067, 12.905341], [121.682791, 12.924384], [121.68865, 12.94717], [121.718272, 12.947333], [121.7317, 12.928778], [121.717784, 12.899604]]], [[[121.072113, 13.535834], [121.043468, 13.567572], [121.085785, 13.570624], [121.094249, 13.537055], [121.088634, 13.530341], [121.072113, 13.535834]]], [[[121.929698, 21.064521], [121.934825, 21.073228], [121.936697, 21.065619], [121.929698, 21.064521]]], [[[121.954275, 21.118394], [121.949067, 21.106879], [121.947439, 21.116156], [121.954275, 21.118394]]], [[[124.595714, 10.123521], [124.597667, 10.094184], [124.588878, 10.086249], [124.561046, 10.085842], [124.540375, 10.060858], [124.529552, 10.068549], [124.521821, 10.112047], [124.542247, 10.115953], [124.592784, 10.145168], [124.606212, 10.14761], [124.595714, 10.123521]]], [[[121.526052, 11.846584], [121.495372, 11.827826], [121.472911, 11.827379], [121.430919, 11.843451], [121.412608, 11.840277], [121.425629, 11.861233], [121.474132, 11.866848], [121.526052, 11.846584]]], [[[124.228038, 12.073676], [124.229259, 12.063625], [124.209321, 12.06094], [124.178477, 12.039618], [124.150238, 12.04385], [124.146251, 12.053046], [124.165375, 12.075426], [124.206228, 12.081244], [124.228038, 12.073676]]], [[[121.131033, 12.164374], [121.118907, 12.158108], [121.090099, 12.174262], [121.069591, 12.211371], [121.051606, 12.220933], [121.039561, 12.251532], [121.059906, 12.278388], [121.088145, 12.267076], [121.131033, 12.164374]]], [[[124.149099, 12.4147], [124.137462, 12.437567], [124.133556, 12.470771], [124.160492, 12.456041], [124.176606, 12.432685], [124.181977, 12.406928], [124.16863, 12.398139], [124.149099, 12.4147]]], [[[124.097911, 13.19245], [124.065603, 13.210761], [124.138845, 13.234198], [124.197927, 13.213039], [124.209646, 13.195787], [124.209158, 13.178209], [124.196788, 13.173326], [124.097911, 13.19245]]], [[[124.067556, 13.25141], [124.046153, 13.226386], [124.025401, 13.221991], [123.939301, 13.244452], [123.91391, 13.271308], [123.912446, 13.288642], [123.962576, 13.28734], [123.986827, 13.276028], [124.016938, 13.280341], [124.032563, 13.26675], [124.047699, 13.278957], [124.084483, 13.267401], [124.086274, 13.260443], [124.067556, 13.25141]]], [[[123.901866, 13.238349], [123.873546, 13.229641], [123.845958, 13.27025], [123.851085, 13.317572], [123.836762, 13.344672], [123.848888, 13.354153], [123.92213, 13.329983], [123.89031, 13.274075], [123.901866, 13.238349]]], [[[123.775157, 13.391588], [123.771658, 13.40351], [123.845551, 13.367825], [123.82309, 13.351955], [123.775157, 13.391588]]], [[[122.419607, 14.705146], [122.397797, 14.685858], [122.354015, 14.679511], [122.319347, 14.683498], [122.316417, 14.69892], [122.341563, 14.712592], [122.396983, 14.732245], [122.411794, 14.725816], [122.419607, 14.705146]]], [[[120.012218, 16.241523], [120.0, 16.234331059625656], [120.0, 16.32139223592693], [120.005626, 16.311754], [120.012218, 16.241523]]], [[[124.009394, 10.311758], [124.038621, 10.329503], [124.04384, 10.324284], [123.975992, 10.255392], [123.946765, 10.245997], [123.933196, 10.254348], [123.934239, 10.288794], [123.947809, 10.306539], [123.991649, 10.324284], [124.009394, 10.311758]]]]}}, {"type": "Feature", "properties": {"name": "Taiwan"}, "geometry": {"type": "MultiPolygon", "coordinates": [[[[121.823497, 24.854926], [121.806814, 24.778754], [121.820323, 24.699652], [121.814952, 24.644355], [121.827973, 24.622789], [121.881847, 24.60399], [121.881847, 24.597805], [121.840831, 24.590318], [121.855968, 24.550523], [121.852794, 24.530992], [121.830089, 24.519232], [121.840017, 24.48135], [121.78004, 24.432685], [121.780772, 24.39761], [121.758556, 24.332343], [121.772716, 24.309231], [121.703868, 24.238349], [121.697765, 24.21898], [121.662852, 24.193101], [121.641287, 24.129869], [121.607432, 24.07685], [121.629161, 24.01496], [121.611095, 23.982489], [121.594493, 23.891506], [121.570323, 23.832099], [121.539806, 23.692816], [121.521495, 23.658677], [121.462169, 23.343004], [121.408865, 23.254584], [121.400076, 23.145494], [121.381602, 23.110663], [121.347423, 23.083319], [121.318858, 23.025539], [121.299571, 22.959174], [121.255626, 22.897773], [121.190278, 22.843166], [121.190278, 22.802151], [121.177419, 22.778632], [121.141449, 22.741767], [121.080251, 22.704088], [121.029063, 22.657538], [120.991222, 22.583075], [120.948253, 22.526801], [120.922862, 22.42475], [120.881358, 22.345933], [120.875011, 22.289252], [120.879242, 22.055813], [120.863617, 22.008938], [120.835704, 21.98725], [120.840343, 21.904608], [120.82309, 21.928616], [120.767426, 21.959296], [120.737315, 21.966132], [120.736095, 21.942816], [120.727306, 21.934475], [120.714366, 21.937486], [120.700369, 21.948432], [120.704356, 21.981391], [120.681651, 22.022528], [120.68336, 22.079047], [120.696951, 22.113227], [120.621267, 22.295071], [120.569672, 22.373847], [120.518077, 22.406968], [120.511974, 22.42475], [120.413259, 22.482327], [120.38087, 22.483873], [120.331228, 22.519721], [120.285167, 22.580064], [120.333669, 22.525946], [120.313487, 22.577053], [120.258962, 22.62759], [120.239594, 22.659084], [120.252126, 22.689643], [120.246349, 22.709906], [120.199962, 22.792467], [120.196462, 22.81859], [120.203461, 22.839667], [120.175548, 22.884101], [120.163829, 22.953843], [120.1421, 22.980292], [120.160167, 22.992133], [120.170258, 23.013373], [120.166189, 23.031724], [120.1421, 23.034898], [120.12672, 23.007148], [120.114106, 23.007636], [120.107921, 23.04857], [120.092459, 23.054755], [120.066254, 23.034898], [120.055186, 23.043687], [120.059418, 23.075873], [120.096446, 23.086412], [120.100434, 23.096991], [120.059418, 23.110663], [120.059418, 23.117499], [120.089203, 23.117743], [120.059418, 23.151028], [120.062022, 23.165025], [120.086925, 23.182034], [120.078624, 23.206977], [120.108897, 23.286689], [120.124685, 23.294989], [120.110494, 23.303699], [120.116527, 23.317897], [120.148936, 23.322252], [120.145763, 23.333319], [120.120942, 23.329739], [120.120779, 23.341254], [120.130149, 23.36096], [120.164577, 23.361711], [120.134776, 23.426256], [120.1421, 23.445787], [120.130544, 23.450995], [120.157544, 23.491476], [120.125029, 23.489611], [120.124262, 23.520021], [120.141689, 23.537947], [120.143609, 23.638036], [120.170805, 23.698902], [120.184418, 23.76439], [120.219493, 23.817939], [120.240733, 23.832831], [120.257498, 23.878404], [120.292247, 23.911933], [120.350352, 24.038072], [120.385509, 24.063056], [120.392345, 24.082913], [120.411876, 24.09691], [120.422048, 24.152167], [120.493175, 24.230658], [120.511974, 24.295559], [120.547374, 24.351549], [120.558116, 24.385891], [120.648936, 24.483873], [120.659353, 24.520697], [120.702159, 24.607001], [120.727875, 24.613918], [120.74464, 24.638821], [120.778087, 24.665717], [120.826671, 24.666083], [120.823009, 24.685045], [120.847504, 24.710842], [120.857677, 24.737006], [120.871349, 24.743232], [120.90919, 24.816881], [120.902354, 24.836819], [120.920584, 24.861396], [120.926036, 24.884711], [120.953624, 24.905015], [120.963878, 24.940416], [121.005544, 25.000678], [121.059337, 25.050238], [121.129405, 25.071112], [121.176931, 25.100043], [121.210948, 25.111151], [121.330251, 25.130683], [121.378754, 25.157945], [121.412283, 25.155463], [121.430024, 25.131578], [121.443207, 25.13642], [121.395763, 25.182807], [121.41627, 25.203599], [121.43629, 25.241441], [121.497813, 25.278754], [121.539724, 25.287421], [121.580821, 25.283026], [121.597911, 25.27143], [121.649669, 25.197089], [121.684418, 25.200507], [121.676443, 25.179389], [121.703868, 25.156887], [121.892833, 25.113674], [121.905121, 25.106594], [121.899913, 25.065985], [121.9192, 25.02204], [121.96754, 25.021064], [122.005382, 25.001899], [121.905772, 24.9501], [121.823497, 24.854926]]], [[[121.588878, 22.023505], [121.587657, 22.013861], [121.566905, 22.007758], [121.513194, 22.035061], [121.498302, 22.048041], [121.502615, 22.066555], [121.492035, 22.08218], [121.56658, 22.08218], [121.563487, 22.044623], [121.588878, 22.023505]]], [[[121.45753, 22.67593], [121.495779, 22.678534], [121.502778, 22.669501], [121.496104, 22.63467], [121.471446, 22.641791], [121.45753, 22.67593]]], [[[120.115251, 23.547912], [120.12477, 23.550454], [120.090301, 23.499396], [120.047912, 23.458085], [120.007656, 23.432594], [120.115251, 23.547912]]]]}}, {"type": "Feature", "properties": {"name": "Japan"}, "geometry": {"type": "MultiPolygon", "coordinates": [[[[123.872081, 24.390123], [123.934418, 24.367499], [123.936046, 24.341457], [123.873057, 24.258246], [123.683442, 24.285305], [123.668224, 24.296617], [123.683767, 24.323472], [123.698009, 24.315985], [123.707042, 24.328681], [123.729259, 24.315741], [123.742361, 24.319729], [123.769867, 24.418362], [123.784923, 24.416083], [123.814708, 24.39175], [123.872081, 24.390123]]], [[[123.016368, 24.469794], [123.01824, 24.459296], [122.998383, 24.439521], [122.93865, 24.444241], [122.944591, 24.466254], [122.955577, 24.473131], [123.016368, 24.469794]]], [[[124.326915, 24.561184], [124.273936, 24.487942], [124.241873, 24.363715], [124.211925, 24.337104], [124.177013, 24.332994], [124.14031, 24.341986], [124.122244, 24.360582], [124.143077, 24.384914], [124.122732, 24.414293], [124.088634, 24.421942], [124.07838, 24.435492], [124.095225, 24.439521], [124.116222, 24.467475], [124.129161, 24.469387], [124.134451, 24.456773], [124.156505, 24.441636], [124.211925, 24.446967], [124.240245, 24.494859], [124.268403, 24.510443], [124.314464, 24.587307], [124.329112, 24.583564], [124.326915, 24.561184]]], [[[125.42628, 24.768866], [125.452647, 24.74494], [125.444021, 24.737209], [125.3838, 24.726955], [125.299653, 24.725653], [125.2588, 24.733385], [125.27475, 24.856431], [125.260265, 24.885199], [125.294444, 24.869574], [125.321625, 24.816881], [125.358246, 24.78262], [125.387218, 24.782172], [125.42628, 24.768866]]], [[[131.27711, 25.858385], [131.252452, 25.819037], [131.212087, 25.829047], [131.212738, 25.841457], [131.236095, 25.872056], [131.255138, 25.874986], [131.27711, 25.858385]]], [[[126.807384, 26.332587], [126.78891, 26.303453], [126.77003, 26.314195], [126.759939, 26.334418], [126.703624, 26.355292], [126.697765, 26.369045], [126.723643, 26.385972], [126.769867, 26.388007], [126.801443, 26.367662], [126.810069, 26.351874], [126.807384, 26.332587]]], [[[128.329845, 26.780341], [128.337657, 26.764309], [128.309744, 26.721177], [128.308116, 26.700873], [128.296641, 26.701321], [128.243337, 26.633287], [128.158865, 26.618801], [128.132091, 26.581244], [128.145763, 26.573432], [128.138357, 26.554023], [128.090343, 26.54267], [128.055919, 26.550482], [127.984141, 26.478461], [127.950938, 26.466702], [127.947276, 26.451158], [127.851736, 26.44123], [127.838878, 26.425238], [127.864757, 26.40648], [127.878266, 26.351874], [127.919932, 26.309638], [127.901866, 26.304999], [127.840831, 26.32392], [127.828298, 26.31623], [127.771007, 26.216498], [127.768403, 26.197659], [127.775401, 26.185126], [127.823578, 26.186754], [127.796886, 26.139716], [127.775727, 26.121772], [127.754893, 26.125312], [127.725352, 26.089586], [127.651703, 26.084377], [127.657074, 26.121772], [127.635916, 26.191352], [127.638194, 26.214748], [127.658458, 26.212348], [127.677745, 26.230618], [127.700206, 26.276109], [127.718272, 26.274075], [127.731293, 26.289374], [127.741873, 26.320543], [127.724376, 26.385443], [127.722504, 26.429918], [127.731293, 26.439887], [127.805186, 26.447577], [127.830577, 26.48843], [127.937511, 26.532131], [127.960216, 26.564114], [127.955903, 26.594794], [127.894298, 26.60928], [127.88559, 26.620185], [127.878266, 26.694525], [127.987315, 26.692939], [128.001231, 26.680243], [127.988536, 26.652981], [127.995616, 26.639228], [128.014903, 26.634833], [128.057384, 26.644761], [128.111095, 26.674018], [128.103282, 26.69123], [128.111339, 26.703437], [128.152354, 26.731513], [128.161957, 26.757148], [128.176117, 26.762519], [128.187999, 26.780504], [128.225922, 26.800971], [128.254405, 26.864407], [128.255056, 26.886298], [128.331391, 26.813422], [128.337657, 26.796942], [128.329845, 26.780341]]], [[[128.706879, 27.448635], [128.697602, 27.435736], [128.655772, 27.410142], [128.630707, 27.375678], [128.618175, 27.379706], [128.613129, 27.364325], [128.559906, 27.350735], [128.545421, 27.353746], [128.526866, 27.371894], [128.526134, 27.397162], [128.538422, 27.417629], [128.618826, 27.415595], [128.700694, 27.45482], [128.706879, 27.448635]]], [[[129.024669, 27.786078], [129.029633, 27.773261], [129.024262, 27.756578], [128.976329, 27.695502], [128.947032, 27.681383], [128.929454, 27.686713], [128.916352, 27.722357], [128.894542, 27.728217], [128.89088, 27.741889], [128.899262, 27.769517], [128.878917, 27.824774], [128.894542, 27.891303], [128.947032, 27.91413], [128.965505, 27.894355], [128.98878, 27.811103], [129.024669, 27.786078]]], [[[129.325531, 28.123481], [129.347341, 28.10692], [129.350434, 28.086493], [129.323985, 28.078599], [129.300792, 28.100531], [129.279145, 28.077094], [129.263031, 28.099107], [129.221446, 28.099107], [129.214122, 28.140082], [129.180837, 28.190253], [129.227712, 28.195258], [129.221528, 28.176011], [129.232595, 28.170722], [129.269298, 28.174872], [129.251801, 28.143785], [129.296641, 28.119574], [129.325531, 28.123481]]], [[[130.021495, 28.331285], [129.995453, 28.29092], [129.956554, 28.284817], [129.913585, 28.297105], [130.030284, 28.373481], [130.021495, 28.331285]]], [[[129.72169, 28.444037], [129.715994, 28.429145], [129.693858, 28.428697], [129.619314, 28.400784], [129.611176, 28.383124], [129.581554, 28.370673], [129.553966, 28.328437], [129.498871, 28.287502], [129.487315, 28.282538], [129.447439, 28.29092], [129.454845, 28.277248], [129.447765, 28.266303], [129.420177, 28.249945], [129.467947, 28.215766], [129.406505, 28.184475], [129.401541, 28.163316], [129.371104, 28.167222], [129.351817, 28.160549], [129.374522, 28.140041], [129.375987, 28.119574], [129.286632, 28.177924], [129.280772, 28.218573], [129.269298, 28.229438], [129.256358, 28.214667], [129.242442, 28.214301], [129.145763, 28.249945], [129.162852, 28.262641], [129.180512, 28.256171], [129.208832, 28.264228], [129.270844, 28.255357], [129.290375, 28.284084], [129.253673, 28.284573], [129.227712, 28.304592], [129.263927, 28.328843], [129.295665, 28.336371], [129.331309, 28.366034], [129.380626, 28.366767], [129.399587, 28.371731], [129.413341, 28.393297], [129.432302, 28.386908], [129.450938, 28.392035], [129.475352, 28.421291], [129.516368, 28.393297], [129.533458, 28.430487], [129.626231, 28.482733], [129.616466, 28.438544], [129.644054, 28.439765], [129.67335, 28.482733], [129.667247, 28.502997], [129.673106, 28.509833], [129.687755, 28.508979], [129.698009, 28.494859], [129.70753, 28.462144], [129.72169, 28.444037]]], [[[129.745942, 29.661038], [129.753754, 29.645413], [129.743826, 29.622301], [129.721039, 29.606147], [129.712901, 29.629299], [129.714854, 29.654527], [129.745942, 29.661038]]], [[[129.897419, 29.846915], [129.927257, 29.825873], [129.920421, 29.819648], [129.863402, 29.824607], [129.840185, 29.849729], [129.832772, 29.873078], [129.850981, 29.88673], [129.893565, 29.874742], [129.897419, 29.846915]]], [[[127.811209, 26.706977], [127.785655, 26.702582], [127.758556, 26.712877], [127.754649, 26.728583], [127.809825, 26.735419], [127.811209, 26.706977]]], [[[128.000987, 27.091742], [127.993175, 27.066718], [127.975759, 27.03974], [127.952159, 27.018297], [127.925792, 27.009752], [128.000987, 27.091742]]], [[[131.3213, 25.947699], [131.327891, 25.937079], [131.309581, 25.922756], [131.290863, 25.938666], [131.289724, 25.951361], [131.3213, 25.947699]]], [[[127.242361, 26.596747], [127.244151, 26.586412], [127.214854, 26.57746], [127.208832, 26.581977], [127.222179, 26.598944], [127.242361, 26.596747]]], [[[128.448578, 27.020697], [128.431407, 27.021674], [128.396251, 27.040758], [128.396251, 27.049018], [128.428966, 27.066474], [128.444347, 27.062567], [128.454356, 27.047512], [128.448578, 27.020697]]], [[[128.243419, 27.857245], [128.241547, 27.845364], [128.23227, 27.852851], [128.229828, 27.868964], [128.243419, 27.857245]]], [[[129.591319, 29.467963], [129.608084, 29.469224], [129.612315, 29.443345], [129.591563, 29.4501], [129.591319, 29.467963]]], [[[129.535411, 29.909857], [129.554454, 29.897528], [129.539887, 29.889879], [129.52768, 29.90233], [129.535411, 29.909857]]], [[[129.948009, 29.958564], [129.940929, 29.953192], [129.913333, 29.960902], [129.900645, 29.972561], [129.912364, 29.991889], [129.909028, 29.999335], [129.91062572567193, 30.0], [129.9246558118529, 30.0], [129.948009, 29.958564]]], [[[125.217052, 24.816596], [125.205251, 24.804999], [125.168142, 24.800971], [125.150645, 24.804348], [125.140147, 24.816392], [125.141124, 24.828599], [125.157563, 24.833808], [125.163585, 24.854641], [125.202891, 24.846259], [125.217052, 24.816596]]], [[[127.361095, 26.164008], [127.353526, 26.153998], [127.342784, 26.170233], [127.346202, 26.206366], [127.354177, 26.21894], [127.364106, 26.22134], [127.36964, 26.214586], [127.361095, 26.164008]]], [[[123.600434, 25.739366], [123.602794, 25.745469], [123.606293, 25.739], [123.600434, 25.739366]]], [[[123.528901, 25.761786], [123.511485, 25.758083], [123.513927, 25.76911], [123.531423, 25.773342], [123.545339, 25.761786], [123.528901, 25.761786]]], [[[123.672048, 25.927476], [123.671723, 25.929755], [123.673025, 25.928697], [123.672048, 25.927476]]]]}}]}