{"type": "FeatureCollection", "features": [{"type": "Feature", "properties": {"name": "Russia"}, "geometry": {"type": "MultiPolygon", "coordinates": [[[[-180.0, 71.536688], [-179.862864, 71.538642], [-179.912221, 71.555854], [-179.798818, 71.569078], [-179.735951, 71.586412], [-179.6787, 71.573676], [-179.610829, 71.585191], [-179.37206, 71.569078], [-179.326772, 71.555487], [-179.242869, 71.569078], [-179.204661, 71.583197], [-179.074574, 71.600043], [-178.394846, 71.540717], [-178.323191, 71.518378], [-178.259633, 71.510688], [-178.341542, 71.517524], [-178.322458, 71.505439], [-178.215321, 71.478013], [-178.147776, 71.485175], [-178.005727, 71.448635], [-178.054189, 71.428778], [-178.026235, 71.415107], [-178.039906, 71.40766], [-177.970896, 71.39643], [-177.779856, 71.333197], [-177.718373, 71.305243], [-177.587595, 71.285956], [-177.514109, 71.293402], [-177.498647, 71.284735], [-177.506215, 71.268622], [-177.44343, 71.237006], [-177.457753, 71.209377], [-177.507802, 71.173774], [-177.581166, 71.14761], [-177.637644, 71.117011], [-177.819285, 71.084662], [-177.877675, 71.052558], [-177.930491, 71.041449], [-178.206614, 71.038398], [-178.310129, 71.013617], [-178.875925, 70.981024], [-178.980295, 70.95067], [-179.342112, 70.908026], [-179.322255, 70.921698], [-179.364491, 70.930243], [-179.457509, 70.915513], [-179.50121, 70.919664], [-179.666005, 70.965481], [-179.853383, 70.979438], [-179.907541, 70.996772], [-180.0, 70.99201], [-180.0, 71.536688]]], [[[-175.57433, 71.373521], [-175.574778, 71.364163], [-175.628651, 71.351752], [-175.678578, 71.375637], [-175.738108, 71.383694], [-175.81078, 71.411689], [-175.57433, 71.373521]]]]}}, {"type": "Feature", "properties": {"name": "United States of America"}, "geometry": {"type": "MultiPolygon", "coordinates": [[[[-162.477366, 70.024115], [-162.491038, 70.051459], [-162.461497, 70.059638], [-162.360707, 70.057603], [-162.374949, 70.085598], [-162.34081, 70.092434], [-162.35204, 70.108385], [-162.321482, 70.127265], [-162.199412, 70.164374], [-162.186594, 70.18122], [-162.124867, 70.203192], [-162.052846, 70.243842], [-162.014963, 70.27733], [-161.90571, 70.320624], [-161.853586, 70.318345], [-161.861033, 70.304674], [-161.833119, 70.304674], [-161.833119, 70.297838], [-161.861033, 70.290432], [-161.723704, 70.274848], [-161.703359, 70.263739], [-161.733469, 70.250312], [-161.901967, 70.256903], [-161.867909, 70.242662], [-161.790842, 70.240546], [-161.758616, 70.22956], [-161.83259, 70.223131], [-161.859486, 70.211859], [-161.840525, 70.195461], [-161.865549, 70.179348], [-162.025502, 70.195461], [-162.121693, 70.161322], [-162.121693, 70.153876], [-161.864613, 70.169135], [-161.786733, 70.199652], [-161.703359, 70.195461], [-161.738149, 70.202297], [-161.729319, 70.215644], [-161.666737, 70.232082], [-161.655588, 70.250067], [-161.631947, 70.25609], [-161.342152, 70.258775], [-161.210642, 70.276801], [-161.067006, 70.314846], [-161.024973, 70.318345], [-161.031809, 70.304674], [-160.9499, 70.290432], [-160.983998, 70.325141], [-160.860666, 70.347317], [-160.621531, 70.429592], [-160.599802, 70.44184], [-160.66279, 70.434027], [-160.812693, 70.387193], [-160.68928, 70.434027], [-160.448964, 70.489651], [-160.216176, 70.579047], [-160.172231, 70.604926], [-160.155385, 70.60635], [-160.167429, 70.596259], [-160.159617, 70.587958], [-160.127431, 70.579047], [-160.0, 70.59189899001879], [-160.0, 70.5205987892889], [-160.011057, 70.520331], [-160.074086, 70.488227], [-160.114817, 70.480699], [-160.201894, 70.47663], [-160.168772, 70.465969], [-160.125722, 70.46601], [-160.0, 70.48618413721043], [-160.0, 70.42949466123532], [-160.029652, 70.398993], [-160.051747, 70.39411], [-160.056345, 70.374945], [-160.114207, 70.344143], [-160.133656, 70.325141], [-160.096018, 70.321357], [-160.009023, 70.361477], [-160.0, 70.36408518970278], [-160.0, 70.0], [-162.4947808548558, 70.0], [-162.477366, 70.024115]]], [[[-160.005727, 70.640082], [-160.065175, 70.627753], [-160.119985, 70.60635], [-160.127431, 70.626207], [-160.096262, 70.643052], [-160.0, 70.67330123823454], [-160.0, 70.63971954668004], [-160.005727, 70.640082]]], [[[-162.641794, 70.065579], [-162.600819, 70.082831], [-162.556467, 70.090277], [-162.675364, 70.029486], [-162.69912211847767, 70.0], [-162.73387757535755, 70.0], [-162.641794, 70.065579]]], [[[-162.308542, 70.241278], [-162.162709, 70.269924], [-162.343739, 70.220201], [-162.491038, 70.153876], [-162.539133, 70.113715], [-162.559926, 70.106024], [-162.484527, 70.173163], [-162.308542, 70.241278]]], [[[-161.837839, 70.343411], [-161.912099, 70.339911], [-161.977122, 70.312161], [-161.943064, 70.339586], [-161.888132, 70.353949], [-161.551137, 70.325995], [-161.837839, 70.343411]]]]}}]}