{"type": "FeatureCollection", "features": [{"type": "Feature", "properties": {"name": "Antarctica"}, "geometry": {"type": "MultiPolygon", "coordinates": [[[[100.036469, -66.490655], [100.08546, -66.495212], [100.181326, -66.454848], [100.229828, -66.450453], [100.279633, -66.431085], [100.308279, -66.43255], [100.322765, -66.449151], [100.312266, -66.483575], [100.421397, -66.453058], [100.447032, -66.455662], [100.500011, -66.518731], [100.530447, -66.493097], [100.566254, -66.476658], [100.643891, -66.457696], [100.618907, -66.448175], [100.528005, -66.45143], [100.567231, -66.424574], [100.470551, -66.397393], [100.854991, -66.379653], [101.071462, -66.267022], [101.122325, -66.219334], [101.142589, -66.176935], [101.219574, -66.167901], [101.265798, -66.146905], [101.306163, -66.100193], [101.331065, -66.083917], [101.476248, -66.058364], [101.168712, -66.029474], [101.227794, -66.014581], [101.208181, -66.002537], [101.184825, -66.000095], [101.336436, -65.944024], [101.574229, -65.948989], [101.683116, -65.967218], [102.337901, -65.951267], [102.511078, -65.891209], [102.599864, -65.871026], [102.713715, -65.861261], [103.050955, -65.888849], [103.065766, -65.892999], [103.085134, -65.9249], [103.145518, -65.916192], [103.201345, -65.928399], [103.306, -65.928155], [103.349132, -65.949884], [103.413585, -65.957452], [103.559906, -66.002211], [103.610525, -66.009942], [103.759288, -65.976983], [103.908214, -65.978774], [104.416026, -66.060724], [104.573253, -66.131036], [104.630219, -66.141209], [104.863048, -66.142999], [105.290538, -66.216078], [105.350841, -66.208591], [105.405528, -66.230727], [105.448009, -66.232599], [105.498546, -66.259942], [106.302582, -66.379978], [106.32309, -66.38893], [106.324962, -66.420831], [106.345714, -66.433364], [106.410411, -66.401625], [106.598643, -66.414158], [106.644298, -66.426365], [106.698741, -66.47031], [106.767833, -66.455743], [107.116954, -66.462579], [107.332774, -66.498305], [107.434255, -66.528497], [107.779145, -66.55169], [107.846528, -66.59295], [107.879161, -66.633071], [107.867035, -66.652765], [107.764903, -66.694024], [107.701915, -66.737726], [107.713878, -66.756606], [107.709809, -66.847589], [107.737804, -66.83587], [107.792979, -66.792087], [107.825369, -66.792087], [107.859141, -66.74684], [107.88559, -66.727716], [108.043224, -66.678969], [108.135753, -66.62477], [108.207042, -66.626723], [108.202159, -66.653416], [108.213064, -66.670668], [108.25294, -66.696954], [108.298188, -66.756443], [108.323416, -66.76629], [108.401866, -66.765558], [108.476573, -66.79461], [108.621918, -66.818048], [108.661876, -66.842218], [108.6963, -66.882989], [108.713878, -66.927423], [108.858653, -66.971368], [108.95045, -66.950942], [108.997081, -66.95143], [109.001313, -66.928969], [109.125011, -66.884698], [109.223481, -66.904718], [109.292979, -66.900567], [109.385753, -66.932712], [109.609874, -66.919692], [109.586274, -66.892185], [109.619151, -66.877048], [109.84783, -66.854425], [109.805186, -66.829278], [109.905528, -66.807712], [109.882172, -66.799249], [110.099783, -66.766046], [110.156098, -66.747979], [110.253917, -66.696954], [110.417654, -66.655938], [110.503184, -66.671645], [110.630544, -66.725763], [110.744151, -66.714532], [110.733572, -66.695733], [110.715343, -66.683526], [110.672618, -66.667657], [110.705414, -66.624607], [110.671072, -66.612074], [110.651215, -66.593927], [110.644786, -66.567966], [110.650727, -66.531915], [110.601899, -66.529474], [110.688731, -66.489028], [110.705089, -66.472345], [110.710297, -66.426202], [110.724946, -66.40545], [110.635997, -66.385024], [110.580089, -66.355727], [110.526378, -66.347263], [110.489024, -66.30877], [110.548676, -66.275079], [110.599864, -66.227797], [110.623302, -66.216974], [110.684093, -66.210626], [110.707286, -66.194024], [110.711925, -66.15781], [110.722423, -66.148045], [110.927094, -66.05462], [111.615571, -65.932875], [111.847423, -65.934747], [112.765391, -65.825942], [112.878673, -65.798435], [113.203624, -65.765395], [113.222179, -65.772556], [113.253429, -65.815118], [113.275645, -65.832127], [113.423595, -65.860121], [113.528331, -65.89658], [113.662608, -65.915134], [113.775564, -65.9485], [113.894786, -66.021661], [114.003673, -66.061293], [114.087738, -66.075779], [114.13502, -66.118341], [114.161388, -66.128351], [114.223806, -66.126642], [114.254568, -66.134373], [114.290782, -66.179864], [114.340343, -66.187677], [114.429861, -66.226007], [114.406749, -66.235935], [114.401378, -66.273533], [114.387706, -66.289809], [114.338715, -66.314142], [114.320567, -66.33115], [114.309418, -66.357029], [114.333669, -66.351821], [114.416026, -66.367852], [114.38795, -66.38242], [114.429535, -66.401788], [114.408214, -66.41961], [114.483409, -66.415216], [114.351899, -66.477716], [114.322439, -66.509047], [114.674653, -66.478774], [114.812022, -66.495212], [114.896251, -66.472426], [115.039399, -66.48268], [115.113455, -66.478123], [115.171641, -66.518731], [115.193858, -66.52516], [115.265147, -66.532647], [115.34962, -66.555759], [115.434581, -66.559177], [115.598969, -66.592869], [115.649425, -66.614516], [115.681895, -66.642755], [115.668956, -66.673435], [115.708263, -66.705662], [115.709158, -66.731866], [115.742442, -66.746677], [115.780772, -66.788263], [115.694102, -66.860772], [115.597423, -66.919529], [115.38738, -67.003839], [115.160167, -67.053969], [114.765391, -67.07171], [114.598155, -67.117364], [114.482107, -67.130955], [114.39796, -67.122491], [114.030121, -67.190688], [114.004568, -67.202732], [113.905284, -67.28338], [113.816417, -67.318292], [113.884939, -67.330011], [113.868419, -67.362237], [113.835948, -67.379002], [113.761404, -67.395115], [113.646739, -67.464288], [113.646495, -67.483575], [113.66627, -67.481622], [113.704356, -67.500177], [113.812266, -67.483657], [113.900076, -67.490411], [114.031505, -67.478448], [114.670095, -67.343438], [114.58253, -67.416192], [114.625743, -67.427504], [114.668956, -67.424249], [114.775564, -67.397068], [114.790782, -67.375258], [114.812022, -67.366957], [115.063975, -67.328302], [115.212169, -67.32586], [115.254161, -67.313084], [115.207856, -67.290948], [115.240977, -67.258233], [115.286876, -67.233494], [115.337901, -67.219496], [115.528494, -67.22381], [115.588878, -67.211358], [115.671886, -67.209568], [115.799653, -67.181248], [115.819591, -67.221287], [115.847504, -67.22503], [115.965505, -67.199314], [116.013845, -67.144464], [116.077322, -67.150649], [116.129405, -67.16961], [116.156993, -67.165134], [116.180349, -67.149672], [116.21461, -67.104262], [116.232595, -67.095961], [116.253103, -67.100518], [116.333344, -67.149184], [116.358897, -67.149672], [116.500011, -67.124282], [116.585297, -67.080662], [116.692556, -67.044041], [116.796886, -66.988458], [116.942882, -66.948175], [116.941905, -66.976007], [116.903168, -67.061782], [116.862478, -67.101495], [116.85377, -67.122735], [116.883067, -67.136814], [116.993419, -67.145603], [117.091075, -67.130792], [117.155528, -67.131606], [117.295258, -67.106866], [117.462413, -67.107843], [117.544932, -67.083185], [117.58725, -67.114841], [117.645193, -67.124444], [117.668305, -67.136163], [117.686534, -67.165297], [117.714122, -67.171808], [117.914317, -67.083103], [118.367931, -67.046482], [118.428071, -67.031834], [118.380707, -67.090102], [118.253184, -67.147719], [118.2824, -67.155206], [118.29005, -67.181573], [118.42449, -67.15838], [118.459972, -67.184259], [118.502696, -67.169854], [118.604828, -67.163181], [118.679047, -67.179457], [118.779796, -67.166111], [118.8685, -67.186944], [118.881196, -67.183852], [118.880382, -67.16253], [119.14975, -67.116388], [119.181488, -67.113946], [119.266775, -67.129653], [119.32838, -67.127618], [119.438324, -67.09531], [119.598318, -67.077081], [119.672048, -67.047052], [119.961599, -67.013279], [120.0, -66.99918351796147], [120.0, -67.06891658801179], [118.732188, -67.278904], [118.789561, -67.289321], [118.768891, -67.313897], [118.813731, -67.351821], [118.902843, -67.352472], [118.891938, -67.372654], [118.962413, -67.380466], [118.890473, -67.419692], [118.956716, -67.422459], [119.022227, -67.411798], [119.103201, -67.382908], [119.128754, -67.382094], [119.16505, -67.39544], [119.296153, -67.359959], [119.443533, -67.364435], [119.727387, -67.31699], [119.802501, -67.323419], [119.931895, -67.291436], [120.0, -67.28443216194881], [120.0, -70.0], [100.0, -70.0], [100.0, -66.49750752131803], [100.036469, -66.490655]]], [[[100.317149, -66.157159], [100.310557, -66.173028], [100.251231, -66.18434], [100.274913, -66.197931], [100.307302, -66.198989], [100.253673, -66.222833], [100.182872, -66.23268], [100.116547, -66.229913], [100.08074, -66.221124], [100.064789, -66.204278], [100.080089, -66.184015], [100.205821, -66.114679], [100.264496, -66.105239], [100.289317, -66.111505], [100.317149, -66.157159]]], [[[100.973318, -65.787367], [101.006684, -65.796157], [101.025564, -65.812595], [101.011241, -65.8388], [100.963227, -65.864923], [100.904552, -65.878106], [100.7588, -65.881768], [100.635265, -65.859145], [100.460216, -65.875665], [100.399669, -65.854669], [100.558604, -65.784356], [100.607188, -65.778497], [100.712087, -65.785903], [100.797699, -65.777276], [100.973318, -65.787367]]], [[[100.729666, -65.380466], [100.934581, -65.378676], [101.12672, -65.411879], [101.251801, -65.493748], [101.261404, -65.540297], [101.230724, -65.573989], [101.024913, -65.66546], [100.967052, -65.682875], [100.557872, -65.704034], [100.513927, -65.697198], [100.538422, -65.68613], [100.503673, -65.67311], [100.368175, -65.678969], [100.329845, -65.673435], [100.298025, -65.658624], [100.276215, -65.633071], [100.26824, -65.594659], [100.303722, -65.536065], [100.385102, -65.478611], [100.482432, -65.431248], [100.565929, -65.403009], [100.729666, -65.380466]]], [[[103.408539, -65.423598], [103.419119, -65.434747], [103.416026, -65.448663], [103.381358, -65.463556], [103.32252, -65.471612], [103.212738, -65.468845], [103.172211, -65.460626], [103.139659, -65.444757], [103.130138, -65.430922], [103.145518, -65.363051], [103.139334, -65.338311], [103.104015, -65.30462], [103.037852, -65.280369], [102.826996, -65.250584], [102.776134, -65.232517], [102.752208, -65.178318], [102.781586, -65.14072], [102.839366, -65.127699], [102.910655, -65.131768], [103.09311, -65.173598], [103.151378, -65.197686], [103.188813, -65.229669], [103.196625, -65.26336], [103.167735, -65.302423], [103.177419, -65.334731], [103.225841, -65.37184], [103.408539, -65.423598]]]]}}]}