{"type": "FeatureCollection", "features": [{"type": "Feature", "properties": {"name": "Inner Mongolia Autonomous Region", "country": "CHN"}, "geometry": {"type": "Polygon", "coordinates": [[[107.50974088200007, 38.081431724000026], [107.58255596900005, 37.82168886900007], [108.09919634100004, 37.86002444500008], [108.19281573600006, 37.925696207000044], [108.30723944400006, 37.912019421000025], [108.40432622400004, 37.761407001000066], [108.68865179900007, 37.75044137800006], [108.76146688600005, 37.79977388000003], [108.85161889800008, 37.96671130300007], [109.00418383900006, 38.18234607000005], [109.17061832100006, 38.27767711600006], [109.29544418300009, 38.40821354800005], [109.38559619500006, 38.511387984000066], [109.49308513200003, 38.57376395700004], [109.56243283200007, 38.70376556800005], [109.77394332100005, 38.71999918600005], [109.90917133800008, 38.79570731800004], [109.91610610800006, 38.860536065000076], [109.85022579200006, 38.94418579400008], [109.91957349100005, 39.186481065000066], [110.20736645200009, 39.41455119900007], [110.28364892300004, 39.51627148600005], [110.35646400900004, 39.44668945700005], [110.59224619300005, 39.457398916000045], [110.75044563600005, 39.38239811900007], [111.11343750800006, 39.64571575400004], [111.30306012700004, 39.474463710000066], [111.49810053600004, 39.60398595700008], [111.60103853100009, 39.75409542300008], [111.80691451800004, 39.71659864500003], [111.92610587900003, 39.72493302500004], [112.04529724000008, 39.849827821000076], [112.38120016700009, 40.36777938200004], [112.54091659100004, 40.38808523500006], [112.76282923400004, 40.28236185000003], [112.89805725100007, 40.30616405400008], [113.1095677400001, 40.49364292100006], [113.27253483700008, 40.50946227800006], [113.39042592900012, 40.43296750500008], [113.54992564100007, 40.42240966300005], [113.84118598500004, 40.556897958000036], [114.06656601300006, 40.59640203600003], [114.22953311100002, 40.814569464000044], [113.9487692350001, 41.16858559600007], [114.06522898900005, 41.298888773000044], [113.99847766700009, 41.39378211600007], [114.03966465400003, 41.550213126000074], [114.24844006800004, 41.697783539000056], [114.28394609100008, 41.90529434200005], [114.6035002960001, 42.22266251700006], [114.91169257600006, 42.195311262000075], [115.02619950100006, 42.04295379800004], [114.97737871900006, 41.732371175000026], [115.00844648900011, 41.684327765000035], [115.31468593500006, 41.66277941200008], [115.5121881880001, 41.825043031000064], [115.92710802200008, 41.990052809000076], [116.06072428700008, 41.94747639900004], [116.16780135400006, 41.94110715900007], [116.46641255500003, 42.10225476800008], [116.57736887600004, 42.051193356000056], [116.83034929000007, 42.02482300600008], [116.89914220900005, 42.051193356000056], [116.95240124400004, 42.26833109900008], [116.92355259900012, 42.36842327000005], [116.94130561100008, 42.46835620500008], [117.23866855400001, 42.582837073000064], [117.42729430000009, 42.58610487200008], [117.64920694300008, 42.68079652900008], [117.82007967900006, 42.66284883800006], [118.00648629900002, 42.435608857000034], [118.08859397600008, 42.26833109900008], [118.275971464, 42.06993437300008], [118.2378302300001, 41.83269074700007], [118.43200379200005, 41.61530616500005], [118.43547117700007, 41.48815895700005], [118.47014502800005, 41.430991121000034], [118.99025278600004, 41.363364173000036], [119.10120910700005, 41.41019032400004], [119.32312175000004, 41.38157835100003], [119.45488238200005, 41.45438405400006], [119.49302361800005, 41.57122220000008], [119.37859991100004, 41.724090389000025], [119.45834976700007, 42.177947594000045], [119.38553468000009, 42.278080672000044], [119.37513252600002, 42.370370206000075], [119.62131686400005, 42.46508224100006], [119.74961011100004, 42.35756031000005], [119.97845752600006, 42.32680590700005], [119.94031628900007, 42.213911075000055], [120.0928812300001, 42.04676472700004], [120.2073049380001, 41.84302404600004], [120.60952160400007, 42.19336302100004], [120.94932533800011, 42.370370206000075], [121.17968973300003, 42.375973712000075], [121.56435276200011, 42.607679533000066], [121.78648211600012, 42.55981083000006], [121.98694031500008, 42.627613980000035], [122.00319368200007, 42.755043295000064], [122.12780283300003, 42.79083568000004], [122.39327450000008, 42.73514969900003], [122.49079470600009, 42.77493050600003], [122.46370576000004, 42.85838707500005], [122.49079470600009, 42.945696946000055], [122.72375963900004, 42.898088707000056], [122.86462215600011, 42.79083568000004], [123.20594287300003, 42.862358389000065], [123.31429865600012, 43.036843230000045], [123.68812610600003, 43.15157411900003], [123.8099180050001, 43.42951353600006], [123.46664688600004, 43.56533746000008], [123.48745119600005, 43.665750779000064], [123.59494013200003, 43.713388364000025], [123.53876849500011, 43.96738206100008], [123.3856487700001, 44.099800336000044], [123.40770134000002, 44.19265518000003], [123.23086470300007, 44.532268619000035], [123.1615170010001, 44.55698082200007], [122.41949660000012, 44.29201587500006], [122.29813812400005, 44.41350402200004], [122.37095321000004, 44.48281274200008], [122.33627936000005, 44.57180310800004], [122.14210579700011, 44.756763024000065], [122.1213014870001, 45.10533736700006], [122.14515709500006, 45.20793370400003], [122.27164730200002, 45.24388178800007], [122.31602983100004, 45.406145853000055], [122.282742933, 45.499548323000056], [122.111870199, 45.555515555000056], [122.01727993400004, 45.74050929300006], [121.84391068100001, 45.767122063000045], [121.77456298200002, 45.82755843600006], [121.8612476080001, 45.90240850600003], [121.94099746400002, 46.07827029500004], [122.14557318200002, 46.046993334000035], [122.35361628400005, 45.885515686000076], [122.47150737700008, 45.97474810700004], [122.54085507700006, 45.97715780100003], [122.72115909900003, 45.80822592800007], [122.82864803700011, 45.81547640500003], [122.904930508, 46.01088251700003], [122.84598496100011, 46.097508848000075], [122.904930508, 46.167192356000044], [123.06096283500005, 46.17439596300005], [123.15111484600004, 46.19600112200004], [123.16845177000005, 46.29910858200003], [123.02975637000009, 46.37810612900006], [123.0887019160001, 46.49280792900004], [123.09910407100006, 46.59773917900003], [123.1441800770001, 46.67868351100003], [123.41463610900007, 46.64774850600003], [123.59840751800004, 46.735747788000026], [123.64695090900011, 46.87103369700003], [123.52212504700003, 46.79037778000003], [123.13724530600007, 46.88288465200003], [122.87719142600008, 47.131150244000025], [122.70382217500003, 47.17595122100005], [122.56859415800011, 47.41581625900005], [122.64834401400003, 47.58213902800003], [123.2926274990001, 47.84503651700004], [123.35222317900002, 47.99752730200004], [123.48766790800005, 48.03739109600008], [124.26241175500002, 48.56357496600003], [124.42494542800011, 48.54205780400008], [124.45203437400005, 48.35879237300003], [124.59289689200011, 48.23624785800007], [124.6308214170001, 48.502585907000025], [124.84753298100009, 49.091437334000034], [124.99008855800002, 49.22319809000004], [125.184790356, 49.18448131000008], [125.2779086060001, 49.22872658400007], [125.3794921540001, 49.47136820900005], [125.26944331200002, 49.679959816000064], [125.30330449300004, 49.80577971200006], [125.3117697890001, 49.89856737500003], [125.3625615630001, 50.17044043900006], [125.51493688300002, 50.25170232600004], [125.60805513200012, 50.435383855000055], [125.86201399800007, 50.55385824600006], [125.91280577200007, 50.68276431000004], [125.86201399800007, 50.72565450600007], [125.87894459000006, 50.85943359600003], [126.07364638700005, 50.93418269800003], [126.10750757000005, 51.06204498200003], [126.09057697900005, 51.18955509300008], [125.94666695500007, 51.18955509300008], [125.54033276900009, 51.633072079000044], [125.150929173, 51.67508755700004], [124.88003971700005, 51.40129026300008], [124.61761555500004, 51.42241008900004], [124.40598316800003, 51.369592228000045], [124.1858854830001, 51.40657113300006], [124.09276723300002, 51.35902133700006], [123.9234613220001, 51.38016067900003], [123.82187777400009, 51.29554474200006], [123.66103716100008, 51.29554474200006], [123.55098831900011, 51.37487675800003], [123.39861299800009, 51.33258343300008], [123.2377723840001, 51.369592228000045], [123.03460529100005, 51.47516697900005], [122.82297290100007, 51.77995591500007], [122.87376467500007, 51.96810631000005], [122.7806464250001, 52.08269979000005], [122.83990349300007, 52.254039843000044], [122.7887731080001, 52.29858376000004], [122.59915048900007, 52.32839279600006], [122.496212495, 52.46063462200004], [122.35534997700006, 52.52990302000006], [122.24699419400008, 52.51342044100005], [122.19281630300009, 52.384643992000065], [122.06820715300012, 52.33501430100006], [121.93276242400009, 52.34494469900005], [121.79731769600005, 52.47053678900005], [121.62936623200005, 52.50352792500007], [121.33680561800008, 52.661541113000055], [121.9165090570001, 53.08012929600005], [121.59307227900001, 53.40578626000007], [120.80823256400004, 53.242949827000075], [120.43575956100005, 52.96342138300008], [120.1479395130001, 52.830647749000036], [120.11969156500004, 52.61241020400007], [120.57623470800002, 52.56973629400005], [120.689410156, 52.48603250800005], [120.63171286900001, 52.35340099100006], [120.75376482200011, 52.24075800900005], [120.63171286900001, 51.91206067300004], [120.09912252400011, 51.65534378900003], [119.58428519200004, 50.91559735700008], [119.52214965100006, 50.804938710000044], [119.41563158200006, 50.70807255500006], [119.27138836600011, 50.56733083700004], [119.21812933100011, 50.48833132200008], [119.19149981300006, 50.42333989200006], [119.24697797400006, 50.304429414000026], [119.32464739800002, 50.18806265400008], [119.30023700900006, 50.121236500000066], [119.128387857, 50.00978506800004], [118.84433967500001, 49.982395444000076], [118.65970835600001, 49.96869478200006], [118.5812400430001, 49.94448074200005], [118.2949727350001, 49.75130487700005], [118.126319125, 49.67812634400008], [118.00648629900002, 49.597646405000035], [117.87555784000006, 49.57462770400008], [117.71799986200006, 49.57606669000006], [117.36293963300011, 49.653708993000066], [117.06779581800004, 49.70827203500005], [116.72826947300007, 49.848704773000065], [116.56405411700007, 49.64652508700004], [116.0580932900001, 48.87171237200005], [116.12466708400007, 48.80306299600005], [116.08250368200004, 48.73139218400007], [115.91385007200006, 48.61855990300006], [115.8339615210001, 48.27559218600004], [115.5077499360001, 48.15582029400008], [115.5991502060001, 47.90390764400007], [115.96669302100008, 47.67094042800005], [116.24755121100009, 47.85972421900004], [116.46599646900006, 47.843436616000076], [117.04504977200008, 47.85972421900004], [117.41259258700006, 47.663935276000075], [117.76973324700009, 48.006082494000054], [118.4597428730001, 47.98984092000006], [118.82381830200006, 47.78755456300007], [119.08040479700003, 47.78289501100005], [119.1693085490001, 47.56323759500003], [119.46001411200007, 47.369715057000064], [119.72852841100007, 47.199609750000036], [119.78178744500008, 47.10906598200006], [119.8838672600001, 46.95630216400008], [119.92603066400011, 46.88051467100007], [119.87055250300011, 46.75599109700005], [119.52214965100006, 46.667739303000076], [118.39705255000001, 46.78031102500006], [117.76779705900003, 46.579770272000076], [117.51925489900009, 46.62855800800003], [117.40137490400002, 46.52996151700006], [117.32610213400005, 46.43607983100003], [116.84748094500003, 46.456630293000046], [116.56627324500005, 46.29642545100006], [116.41981089900003, 46.17670091800005], [116.37542837100011, 46.09366167300004], [116.28888244000007, 45.988915606000035], [116.25337641700003, 45.908681674000036], [116.25559554300003, 45.85924921800006], [116.27112942800011, 45.786565550000034], [115.64169640700004, 45.44651470000008], [114.65255408700011, 45.444498499000076], [114.503456529, 45.20558847400008], [113.64701242300009, 44.81090599000004], [112.73162276900007, 44.882198679000055], [112.5513187460001, 45.04167211300006], [111.92025466600006, 45.07106489000006], [111.44175553000008, 44.37138360300003], [112.02774360400008, 43.83606856500006], [112.00000452300003, 43.728423951000025], [111.58391831700004, 43.51003866800005], [111.06727794400007, 43.36400787700006], [110.41929302700004, 42.78511665000008], [109.42308729700005, 42.46795975800006], [108.23442435900006, 42.43693955100008], [107.90155539200003, 42.38829966900005], [107.39531717500006, 42.45996633000004], [107.24275223300003, 42.360122499000056], [106.84400295200004, 42.30116574700003], [105.91127637500006, 42.026162389000035], [105.62001603100003, 41.88175905600008], [105.14845166200007, 41.66972125400008], [105.00282149200007, 41.56862808900007], [104.60753959500005, 41.63085802200004], [104.57286574500006, 41.80426557200008], [103.79963887900004, 41.78617025600005], [103.09575971200007, 41.96689347000006], [102.22891345100004, 42.093095564000066], [101.84750109500004, 42.411344316000054], [100.33745490500007, 42.57577114800006], [100.06114765800004, 42.55981083000006], [99.30265717800006, 42.44797427200007], [97.45248218600005, 42.56554703900008], [97.36665056300006, 42.54598349100007], [97.40643098000004, 42.167507931000046], [97.57438244200006, 41.95835290900004], [97.40101319000007, 41.67975711300005], [97.42810213600006, 41.46088059400006], [97.78025843100005, 40.97592607800004], [97.99696999700006, 40.84490503500007], [98.23535271800006, 40.61499379500003], [98.40330418200006, 40.536807776000046], [98.60918016800008, 40.56150796900005], [99.05885666700004, 40.861296863000064], [100.13699670600005, 40.91454229100003], [100.41872174300005, 40.75878141600003], [100.43497511000004, 40.45440801500007], [100.00155197800007, 40.173492346000046], [99.81734714700008, 39.97864749300004], [99.97988082200004, 39.79573458100003], [100.28869480200007, 39.68325105400004], [100.44039289800008, 39.53716594500003], [100.88703543500009, 39.52697023500008], [100.92517667200008, 39.457398916000045], [100.89743759000004, 39.37703783100005], [100.91824190000006, 39.15422309100006], [101.11935023300003, 39.04389674000004], [101.27884994600004, 39.035817302000055], [101.39327365300005, 38.960364679000065], [101.60825152600006, 38.92260820300004], [102.37454362300008, 38.94418579400008], [102.83223844900004, 39.08428006500003], [103.38008528700004, 39.46810672700008], [103.83431272900003, 39.454721705000054], [104.21919246900006, 39.21603787500004], [104.24790241700003, 39.007585885000026], [104.12141221200005, 38.87468248700003], [104.15469910700006, 38.772678916000075], [104.13916522200009, 38.56476346200003], [104.02155152200004, 38.46579222200006], [103.73084595900008, 38.42234087000003], [103.72640770600003, 38.223871289000044], [103.61767051100009, 38.05457048000005], [103.63542352300004, 37.79900673900005], [103.96385423400005, 37.69372319100006], [103.97938812000007, 37.623450982000065], [104.30559970500008, 37.52671813300003], [104.50975933700005, 37.54607475500006], [104.59852439500008, 37.61993562600003], [105.09560871500008, 37.674404965000065], [105.30198747200006, 37.88487715000008], [105.45288807000009, 38.003878531000055], [105.90558986300005, 38.293571616000065], [105.90558986300005, 38.75710620500007], [106.09643473500006, 38.966188174000024], [106.09199648300006, 39.13163370600006], [106.32056650600003, 39.241715328000055], [106.38048291900009, 39.341327817000035], [106.52028788500007, 39.34304403200008], [106.66009284900008, 39.432229076000056], [106.87312898700009, 39.40479966400005], [106.87312898700009, 39.26405458600004], [107.06619298700008, 39.11613965300006], [106.63595984900007, 38.386473815000045], [106.93415496500006, 38.228665326000055], [107.24621961900004, 38.23955969200006], [107.50974088200007, 38.081431724000026]]]}}, {"type": "Feature", "properties": {"name": "East Kazakhstan Region", "country": "KAZ"}, "geometry": {"type": "Polygon", "coordinates": [[[77.6971702, 50.2218527], [77.7022768, 50.2039699], [77.6785447, 50.1607153], [77.4760701, 50.050699], [77.4458148, 50.0213149], [77.4176623, 50.015993], [77.2770287, 49.970305], [77.2317852, 49.9431917], [77.2148766, 49.9412308], [77.2031607, 49.945408], [77.1924747, 49.9440409], [77.1658457, 49.9286694], [77.1464265, 49.8781696], [77.1618761, 49.8619055], [77.1510614, 49.8178434], [77.1453966, 49.7720782], [77.1826471, 49.7565547], [77.1769823, 49.7060692], [77.1670259, 49.6834168], [77.1048416, 49.6155911], [77.1511901, 49.5249727], [77.1594299, 49.4979996], [76.8416904, 49.5143283], [76.6048199, 49.4401402], [76.5899964, 49.3824644], [76.6701649, 49.3222998], [76.6678539, 49.2886461], [76.7523118, 49.2703674], [76.9030539, 49.1891982], [76.9053809, 49.1253779], [76.986297, 49.0947076], [77.0345457, 49.0434513], [76.9386056, 49.0166059], [76.9182844, 49.0359164], [76.8354513, 49.0130827], [76.83661, 48.9454614], [76.8510296, 48.8904124], [76.8345501, 48.8696404], [76.833048, 48.8484292], [76.8838598, 48.8140769], [76.8905546, 48.8199546], [77.2893883, 48.8544582], [77.3144295, 48.7818785], [77.3316492, 48.7418577], [77.3163636, 48.7379573], [77.3132063, 48.732376], [77.317058, 48.729326], [77.312348, 48.726304], [77.318914, 48.7176265], [77.3137964, 48.7160338], [77.3157812, 48.7138818], [77.3083569, 48.7045932], [77.3117472, 48.6947646], [77.3172189, 48.6895238], [77.3182703, 48.6809532], [77.3104168, 48.6663303], [77.304473, 48.6641053], [77.3017694, 48.6545098], [77.3049451, 48.6514338], [77.3004604, 48.6489104], [77.3032929, 48.6391986], [77.3103953, 48.6376672], [77.3099018, 48.6340513], [77.3166149, 48.6299192], [77.1575136, 48.4908307], [76.9601057, 48.5021826], [76.904086, 48.4828216], [76.901194, 48.4703361], [76.9051846, 48.4568037], [76.9006034, 48.426951], [76.8904442, 48.4116822], [76.8683305, 48.4041114], [76.8267421, 48.4045788], [76.841391, 48.3693546], [76.885045, 48.348983], [76.937219, 48.3295808], [76.9816873, 48.2864219], [77.0933993, 48.2715917], [77.1548714, 48.2697723], [77.1469915, 48.2443476], [77.1167362, 48.2382033], [77.0601249, 48.2370878], [77.0485599, 48.2159379], [77.046622, 48.2015182], [77.0597117, 48.1757173], [77.1628904, 48.1048669], [77.2271894, 48.1080619], [77.2928132, 48.1000669], [77.3378697, 48.073024], [77.218919, 48.0331325], [77.1679767, 48.0198812], [77.1940021, 47.9586985], [77.141605, 47.9434474], [77.1198434, 47.8539646], [77.0944389, 47.8515903], [77.0399808, 47.8579144], [77.0470877, 47.8369925], [77.0019595, 47.7168689], [76.9877785, 47.7023601], [76.9754848, 47.6714998], [76.9708977, 47.6452202], [77.0097531, 47.6144348], [77.0146828, 47.5730526], [77.034877, 47.4961906], [77.0459677, 47.4752406], [77.0564624, 47.4177045], [76.9780773, 47.4401031], [76.8721603, 47.4425432], [76.8493833, 47.3216356], [76.8487055, 47.2904793], [76.7833602, 47.2471585], [76.8339351, 47.2285841], [76.8833202, 47.1806804], [77.1384388, 47.0809954], [77.1717156, 47.082618], [77.2302281, 47.1752451], [77.2881011, 47.1845784], [77.3323882, 47.1647784], [77.3877186, 47.1502059], [77.4655045, 47.1609928], [77.6086196, 47.2095137], [77.8672627, 47.1699935], [78.0143057, 47.2825622], [78.1420444, 47.1910276], [78.303405, 47.3308936], [78.4722593, 47.233962], [78.5919868, 47.180988], [78.6418065, 47.1410302], [78.7682575, 47.1333358], [78.8168486, 47.047246], [79.2629325, 47.0816655], [79.5772777, 46.7795593], [79.9158978, 46.8715815], [80.0082511, 46.9147543], [80.1556224, 46.8803276], [80.1909846, 46.8661869], [80.1907486, 46.8361916], [80.1981913, 46.8092362], [80.2165943, 46.8045199], [80.2371508, 46.7837624], [80.5910307, 46.6670012], [80.8632159, 46.562769], [81.1046362, 46.5655979], [81.1423159, 46.5600506], [81.2023115, 46.5127577], [81.255269, 46.489707], [81.2920368, 46.513256], [81.3095462, 46.5127983], [81.3273547, 46.4930481], [81.3376544, 46.4708259], [81.3395199, 46.4525377], [81.3655722, 46.4593893], [81.3737261, 46.4791338], [81.3805926, 46.4826209], [81.3829958, 46.4895943], [81.4018786, 46.506965], [81.4131224, 46.5105093], [81.4120066, 46.5207866], [81.4397299, 46.5265151], [81.4448798, 46.5204913], [81.4365113, 46.5159583], [81.4359963, 46.5110557], [81.4026082, 46.4803898], [81.3777602, 46.4450198], [81.3806784, 46.4408206], [81.3994753, 46.4341958], [81.4120066, 46.4390462], [81.4457381, 46.4728093], [81.4693415, 46.4842757], [81.4695132, 46.4937307], [81.4726031, 46.4953852], [81.4859068, 46.4916035], [81.4951766, 46.4948534], [81.5598929, 46.4871715], [81.6028512, 46.5192806], [81.5851271, 46.4965078], [81.5639269, 46.4768287], [81.5565884, 46.4574086], [81.5126753, 46.4170619], [81.536901, 46.3658245], [81.7599224, 46.1865217], [81.884849, 46.1036552], [81.9617104, 45.9117856], [81.9779605, 45.8806526], [82.0266637, 45.8500171], [82.0630378, 45.8175543], [82.0967609, 45.7786979], [82.1243877, 45.7613205], [82.1207828, 45.6480931], [82.1395797, 45.6220766], [82.1732711, 45.6099547], [82.2364425, 45.5558909], [82.2682238, 45.5357186], [82.2799588, 45.5351376], [82.270252, 45.5505421], [82.2579086, 45.6165769], [82.2757599, 45.6321053], [82.2826764, 45.6494019], [82.2845852, 45.6696224], [82.2824269, 45.6834167], [82.2881234, 45.7087896], [82.2990702, 45.7195581], [82.3103158, 45.7379569], [82.3185828, 45.7640991], [82.337604, 45.7807936], [82.3450812, 45.7956763], [82.3428378, 45.8112918], [82.3454056, 45.8389546], [82.3350351, 45.8609069], [82.3299547, 45.8869463], [82.3407047, 45.9080862], [82.3356564, 45.9391583], [82.3756967, 45.9641161], [82.4103939, 45.9690968], [82.4265272, 45.9673915], [82.4561069, 45.9771683], [82.5118959, 46.1546288], [82.608009, 46.2984008], [82.7397784, 46.5181631], [82.7691774, 46.5999209], [82.7742165, 46.6367248], [82.7733525, 46.6589226], [82.7864463, 46.6809361], [82.7876167, 46.6922385], [82.8650074, 46.8039101], [82.8667076, 46.8165569], [82.8901216, 46.8755377], [82.9193098, 46.9278958], [82.9215491, 46.9531563], [82.9324117, 46.9720131], [82.930061, 46.9779971], [82.9328009, 46.9798783], [82.9326737, 46.9860928], [82.9296074, 46.9905546], [82.9376557, 47.0051691], [82.9351657, 47.0072613], [82.9380671, 47.0160963], [82.9515987, 47.0200513], [82.9667654, 47.0356154], [82.968867, 47.0489779], [82.9931017, 47.0643503], [83.0029327, 47.1014015], [83.0104064, 47.1144271], [83.0031396, 47.1208494], [83.0195744, 47.1328519], [83.0186895, 47.141724], [83.0114314, 47.1429597], [83.01229, 47.1471588], [83.0280638, 47.1619905], [83.0260193, 47.1697504], [83.0294717, 47.1750066], [83.0240358, 47.187038], [83.0281811, 47.1920825], [83.0251124, 47.1999371], [83.0278989, 47.20679], [83.0233734, 47.21461], [83.0317564, 47.223613], [83.0421513, 47.2150037], [83.0516257, 47.225277], [83.0632232, 47.2277391], [83.0833289, 47.2282094], [83.0941481, 47.2237893], [83.1099363, 47.2292993], [83.1508936, 47.2346519], [83.1736792, 47.2204296], [83.2004594, 47.2163289], [83.2083481, 47.2101926], [83.2068777, 47.1989022], [83.209051, 47.195967], [83.2208862, 47.1879509], [83.2364816, 47.1890704], [83.2354482, 47.1817231], [83.2405909, 47.1788367], [83.2800875, 47.1751998], [83.2884539, 47.1819923], [83.2930715, 47.1819985], [83.3181208, 47.1714321], [83.3355094, 47.1699743], [83.3648907, 47.1777807], [83.3617584, 47.1710714], [83.3645325, 47.1638665], [83.3862801, 47.1502218], [83.3880652, 47.141844], [83.407287, 47.1284465], [83.4137282, 47.1205132], [83.4134662, 47.1159925], [83.428751, 47.1145463], [83.4298919, 47.1232471], [83.4407553, 47.1253496], [83.4492361, 47.131404], [83.4707806, 47.1280202], [83.4650378, 47.1248899], [83.464903, 47.1190278], [83.4811574, 47.1175318], [83.4842205, 47.1134315], [83.4832018, 47.1091283], [83.4938649, 47.1099607], [83.4986422, 47.1073653], [83.5059297, 47.1095069], [83.5160123, 47.0945999], [83.5268647, 47.0907856], [83.5249815, 47.0852174], [83.5660068, 47.0781228], [83.5596967, 47.0611355], [83.5651079, 47.0563578], [83.5734988, 47.0602946], [83.5850222, 47.0598134], [83.6038533, 47.0546344], [83.6073911, 47.0462812], [83.6219308, 47.048455], [83.6802048, 47.035182], [83.6956365, 47.0357719], [83.7007209, 47.0294002], [83.7022951, 47.0207155], [83.6977413, 47.0188688], [83.6992007, 47.0173908], [83.7070594, 47.0175119], [83.7120001, 47.0238876], [83.732447, 47.0274798], [83.7402355, 47.0330737], [83.7478271, 47.0326582], [83.7579634, 47.024186], [83.768341, 47.0268847], [83.7835121, 47.024266], [83.7936999, 47.0169185], [83.8122754, 47.0164403], [83.8291175, 47.0103767], [83.8372803, 47.0033519], [83.8349937, 46.9947106], [83.8592353, 46.9979424], [83.8697271, 46.995355], [83.8708287, 46.9869775], [83.8857636, 46.9853531], [83.8919522, 46.9883669], [83.9040732, 46.9816352], [83.9031728, 46.9756116], [83.9069039, 46.9747689], [83.9172339, 46.9746904], [83.9262247, 46.9847255], [83.9336839, 46.984476], [83.9472098, 46.9909876], [83.9565511, 46.989376], [83.9607247, 46.9824428], [83.9674575, 46.984007], [83.9865236, 46.9956643], [84.0075463, 46.9892662], [84.0102776, 46.9831715], [84.0201477, 46.9830343], [84.050778, 46.969089], [84.0565283, 46.9686887], [84.059279, 46.9724641], [84.0792324, 46.9682161], [84.1246188, 46.9670148], [84.1583457, 46.980858], [84.1592673, 46.9882778], [84.1646777, 46.9905481], [84.1657155, 46.9942883], [84.1759854, 46.9926167], [84.1778055, 46.9974572], [84.1956379, 46.9989668], [84.2011446, 47.0022784], [84.2249982, 46.9971921], [84.2385406, 47.0037117], [84.295311, 46.9979706], [84.3386536, 47.0011253], [84.3823471, 46.9996872], [84.424263, 47.0087166], [84.4433746, 47.0086899], [84.464119, 46.99543], [84.5141525, 46.9801788], [84.5712051, 46.9979172], [84.6397781, 46.9999695], [84.6777344, 47.0037346], [84.7222977, 47.0154877], [84.7362061, 47.0140686], [84.7522945, 47.0049076], [84.7548551, 46.9990714], [84.7625206, 46.9987343], [84.7756841, 46.9918357], [84.7823139, 46.9736877], [84.81384, 46.9573441], [84.8236438, 46.9603605], [84.8400854, 46.9571103], [84.8472673, 46.95382], [84.8508626, 46.9476022], [84.858121, 46.9469439], [84.8612452, 46.9440668], [84.858335, 46.9390989], [84.8584897, 46.9278512], [84.8688389, 46.9222695], [84.8776816, 46.9114784], [84.9056568, 46.8984707], [84.91378, 46.890312], [84.9155341, 46.8800309], [84.9301127, 46.8756592], [84.944232, 46.8628509], [84.9631078, 46.8663738], [84.9658387, 46.8726692], [84.9795496, 46.8735525], [84.9733385, 46.8873595], [84.9791396, 46.8920164], [84.9828792, 46.9151082], [84.9884783, 46.9185869], [85.0012638, 46.9211469], [85.0020146, 46.9251042], [85.0061471, 46.9264562], [85.0335787, 46.921729], [85.0492474, 46.928572], [85.0663279, 46.9256637], [85.0679746, 46.9286585], [85.0781001, 46.9309561], [85.0776323, 46.937591], [85.0826021, 46.9404773], [85.0852346, 46.9496307], [85.0788428, 46.9578936], [85.0899258, 46.9577278], [85.0973343, 46.9654134], [85.1087445, 46.9673934], [85.1131232, 46.9711594], [85.1191217, 46.969935], [85.1279621, 46.9752979], [85.1284232, 46.9810621], [85.1345447, 46.9815605], [85.1454993, 46.9892856], [85.1662271, 46.9864777], [85.1759709, 46.9921661], [85.1786117, 46.9967371], [85.175607, 47.0034542], [85.1877866, 47.0066844], [85.1884154, 47.0101114], [85.194095, 47.0126442], [85.2045295, 47.0323668], [85.2117828, 47.039275], [85.2106767, 47.044153], [85.2168977, 47.0523679], [85.2338099, 47.0492259], [85.240839, 47.0537355], [85.2534699, 47.0530664], [85.2614626, 47.0498754], [85.2748211, 47.0563955], [85.2723965, 47.063949], [85.2763604, 47.0687742], [85.2823351, 47.0634736], [85.2993583, 47.0649837], [85.3069613, 47.0508575], [85.3235233, 47.0429154], [85.3395604, 47.0480943], [85.3418672, 47.0540841], [85.3457082, 47.0548428], [85.3664567, 47.0524407], [85.3824177, 47.0460355], [85.4059322, 47.0516737], [85.4125171, 47.0599526], [85.4240605, 47.0606247], [85.430099, 47.057211], [85.4383196, 47.0605062], [85.4533527, 47.0603675], [85.4603513, 47.0639884], [85.485282, 47.0525324], [85.5052592, 47.0562482], [85.5319474, 47.0490779], [85.5376029, 47.0485643], [85.5469926, 47.0534082], [85.559008, 47.0504224], [85.5608335, 47.0599137], [85.5759893, 47.0892855], [85.57851, 47.1096256], [85.5863138, 47.1138488], [85.5830381, 47.1196323], [85.5746733, 47.1235985], [85.5787285, 47.1407306], [85.6101954, 47.1604865], [85.6323249, 47.1811414], [85.6399052, 47.1840212], [85.6499343, 47.205569], [85.6617885, 47.2143899], [85.6781449, 47.2191982], [85.6856976, 47.2287249], [85.685379, 47.2367817], [85.6889388, 47.2404339], [85.6876539, 47.2451334], [85.6800457, 47.2508753], [85.6955377, 47.2724922], [85.6941232, 47.2787202], [85.698654, 47.2887132], [85.6838022, 47.3051466], [85.6846745, 47.3087767], [85.6748549, 47.3113923], [85.6729343, 47.32086], [85.6856394, 47.330021], [85.6879188, 47.3651907], [85.6980767, 47.3670035], [85.7029578, 47.3800725], [85.6850878, 47.3971762], [85.6831837, 47.4302465], [85.6754862, 47.4363051], [85.6691165, 47.4471727], [85.6499169, 47.4532388], [85.6395224, 47.4638094], [85.6372797, 47.4720868], [85.6323664, 47.4741159], [85.6264719, 47.485305], [85.6151124, 47.4917524], [85.6078337, 47.5089193], [85.6102744, 47.515165], [85.609109, 47.5328572], [85.6183282, 47.5440165], [85.6179181, 47.5484528], [85.627502, 47.5580114], [85.6286178, 47.577545], [85.63587, 47.5864033], [85.5530404, 47.9819481], [85.5394152, 47.9856539], [85.5396895, 47.9965096], [85.5445276, 48.0010311], [85.5471772, 48.0101734], [85.5394803, 48.0205887], [85.5265731, 48.0258791], [85.532682, 48.0305558], [85.5289238, 48.0351061], [85.5314491, 48.038974], [85.5294264, 48.0438514], [85.5364519, 48.0458274], [85.5345986, 48.0492442], [85.541902, 48.0534611], [85.5386742, 48.0591942], [85.5424967, 48.0627142], [85.5345201, 48.0708216], [85.5415129, 48.0742557], [85.5403593, 48.0775763], [85.5482873, 48.0793228], [85.5447378, 48.083093], [85.5450809, 48.089284], [85.5500913, 48.0955002], [85.5432368, 48.0979104], [85.5491187, 48.101641], [85.5449433, 48.1051845], [85.5545768, 48.1065337], [85.5490522, 48.1077802], [85.5508703, 48.1099909], [85.5468189, 48.114706], [85.5515325, 48.1153022], [85.5492842, 48.1276026], [85.5536054, 48.1294332], [85.5583559, 48.1256813], [85.5585514, 48.1316816], [85.5639555, 48.1325623], [85.5548787, 48.1363276], [85.5539653, 48.140197], [85.5633286, 48.1461109], [85.5593334, 48.1494464], [85.56413, 48.1493291], [85.5621686, 48.1524057], [85.5679826, 48.1574857], [85.5742413, 48.1566041], [85.5775604, 48.1603737], [85.5870743, 48.1792564], [85.5921249, 48.1989708], [85.603714, 48.2000847], [85.6104965, 48.2104721], [85.6216812, 48.2042694], [85.637085, 48.2312317], [85.6639175, 48.2458344], [85.6769485, 48.2729797], [85.6860352, 48.277462], [85.6842422, 48.2888451], [85.6880493, 48.297123], [85.6974716, 48.3018417], [85.6936569, 48.3122787], [85.6978455, 48.3196487], [85.6953201, 48.3323898], [85.7037735, 48.335495], [85.7094955, 48.3479118], [85.7172699, 48.3512306], [85.7136993, 48.3644066], [85.7226028, 48.3650131], [85.7479172, 48.3864098], [85.755394, 48.3981667], [85.7782593, 48.4119911], [85.8267059, 48.4216347], [85.8381958, 48.4272881], [85.8618317, 48.4294662], [85.8897629, 48.4266815], [85.9088516, 48.4312935], [85.9618835, 48.4349937], [86.0396194, 48.4354935], [86.1581955, 48.4304161], [86.2137756, 48.4319687], [86.2392578, 48.4373894], [86.2769775, 48.4542503], [86.2876816, 48.4660034], [86.3015671, 48.4745979], [86.3040924, 48.4837532], [86.3019104, 48.4885216], [86.3211899, 48.4878197], [86.3430862, 48.4928436], [86.3510742, 48.4897308], [86.358963, 48.4907265], [86.3721466, 48.5009041], [86.4040146, 48.4761276], [86.4153366, 48.4751282], [86.586633, 48.540539], [86.59369, 48.547346], [86.597429, 48.558267], [86.594728, 48.567186], [86.597019, 48.572323], [86.593918, 48.574974], [86.597718, 48.57616], [86.601377, 48.584518], [86.610093, 48.587866], [86.611918, 48.597136], [86.629142, 48.604953], [86.634338, 48.612701], [86.635018, 48.62646], [86.668662, 48.631144], [86.68895, 48.640015], [86.691774, 48.643195], [86.689007, 48.648328], [86.698765, 48.655191], [86.700475, 48.668937], [86.726037, 48.68316], [86.739902, 48.698171], [86.773001, 48.720398], [86.777837, 48.735753], [86.771996, 48.747548], [86.773463, 48.75012], [86.751221, 48.777878], [86.753307, 48.787702], [86.75736, 48.789216], [86.761641, 48.80469], [86.787263, 48.815091], [86.819222, 48.833126], [86.816503, 48.856312], [86.797982, 48.869742], [86.783921, 48.874853], [86.775156, 48.889472], [86.751382, 48.896068], [86.751337, 48.903333], [86.741709, 48.912088], [86.740908, 48.918549], [86.735443, 48.923498], [86.730179, 48.940168], [86.731514, 48.949452], [86.726706, 48.951153], [86.731521, 48.97156], [86.726428, 48.979148], [86.730346, 48.984283], [86.726388, 48.987993], [86.729908, 48.989546], [86.728784, 48.994148], [86.741288, 49.005785], [86.749756, 49.009323], [86.749645, 49.015031], [86.762884, 49.020755], [86.766269, 49.02561], [86.780886, 49.027309], [86.794943, 49.039097], [86.800773, 49.038931], [86.834461, 49.052468], [86.839347, 49.060436], [86.847502, 49.0653], [86.842111, 49.08757], [86.843535, 49.100629], [86.862307, 49.11756], [86.874529, 49.120522], [86.878704, 49.128484], [86.896307, 49.134822], [86.943692, 49.130021], [86.968806, 49.133441], [86.999315, 49.142674], [87.064046, 49.127058], [87.073928, 49.132218], [87.082474, 49.131059], [87.089729, 49.138035], [87.100575, 49.140051], [87.100072, 49.146811], [87.104137, 49.151124], [87.14183, 49.152374], [87.151514, 49.150749], [87.153263, 49.14521], [87.168671, 49.138877], [87.200004, 49.142945], [87.214986, 49.130341], [87.213546, 49.122777], [87.227372, 49.119458], [87.230303, 49.1144], [87.253524, 49.11171], [87.259993, 49.114839], [87.272364, 49.113887], [87.2775, 49.117732], [87.28579, 49.115872], [87.286276, 49.120791], [87.297042, 49.132452], [87.294057, 49.139913], [87.299459, 49.148658], [87.289965, 49.155999], [87.293127, 49.16316], [87.303812, 49.172181], [87.300761, 49.184046], [87.2926947, 49.1901042], [87.2915929, 49.201769], [87.3156316, 49.2310833], [87.303657, 49.235279], [87.269325, 49.23257], [87.255265, 49.240168], [87.243298, 49.237869], [87.232023, 49.24483], [87.198325, 49.252499], [87.175643, 49.246746], [87.165779, 49.25017], [87.141721, 49.245908], [87.128274, 49.256051], [87.094709, 49.252063], [87.060354, 49.254606], [87.047175, 49.250485], [87.0307157, 49.2528804], [87.0185332, 49.2690166], [87.0060455, 49.2988636], [86.982143, 49.30089], [86.970987, 49.305851], [86.958967, 49.317622], [86.962708, 49.325412], [86.954126, 49.335238], [86.9403677, 49.3397189], [86.9264692, 49.3488781], [86.9249693, 49.3582505], [86.927097, 49.359784], [86.9231005, 49.3623292], [86.9247153, 49.3698176], [86.9367763, 49.3689182], [86.9492001, 49.3799416], [86.9450732, 49.3914794], [86.9362659, 49.4001947], [86.9477722, 49.4064175], [86.9473282, 49.4096239], [86.9301213, 49.4200618], [86.9144436, 49.4166369], [86.9065016, 49.427643], [86.8683051, 49.4348227], [86.8575631, 49.4443211], [86.8510814, 49.4445937], [86.8470507, 49.4517024], [86.8333774, 49.4522466], [86.8386619, 49.4627196], [86.8309528, 49.4697529], [86.8342578, 49.4771334], [86.8297196, 49.4817399], [86.855415, 49.4991404], [86.8510494, 49.5106244], [86.8248181, 49.5230345], [86.8148466, 49.5323219], [86.8273607, 49.5387381], [86.8271741, 49.5454254], [86.8044304, 49.5491587], [86.798372, 49.5541162], [86.7902327, 49.5527722], [86.7747125, 49.557549], [86.7771891, 49.5634761], [86.7645707, 49.5618355], [86.7596263, 49.5636907], [86.7588018, 49.5687712], [86.7395126, 49.571169], [86.721383, 49.5682209], [86.6823965, 49.5690592], [86.6809745, 49.5637969], [86.6659047, 49.5602717], [86.6295593, 49.5656815], [86.6182488, 49.5703775], [86.602492, 49.6055533], [86.5975765, 49.609524], [86.6085769, 49.6170992], [86.6155494, 49.6285236], [86.6356928, 49.6319262], [86.6591592, 49.6437888], [86.6532607, 49.6524874], [86.6632251, 49.6568084], [86.6657335, 49.6655024], [86.6819148, 49.6686591], [86.6842375, 49.6751482], [86.7006673, 49.6806515], [86.6997247, 49.6849729], [86.7094733, 49.6872606], [86.7241897, 49.6766511], [86.7294064, 49.678198], [86.7384205, 49.6884204], [86.7490531, 49.6907724], [86.7579594, 49.6877851], [86.7677226, 49.6891316], [86.7789236, 49.6960165], [86.7784569, 49.7031465], [86.7708979, 49.710565], [86.7663363, 49.7249357], [86.7568385, 49.7322157], [86.7580186, 49.7371252], [86.7529975, 49.7423948], [86.7645845, 49.7502326], [86.7644746, 49.7581408], [86.7747529, 49.7679956], [86.7834645, 49.7931126], [86.7551037, 49.791785], [86.746511, 49.7865978], [86.7358617, 49.7871536], [86.7285086, 49.7928578], [86.7153406, 49.7942163], [86.710829, 49.8012137], [86.6883746, 49.8108988], [86.6762148, 49.8075773], [86.6538786, 49.8125599], [86.6456149, 49.8065271], [86.636417, 49.8079682], [86.6197642, 49.8044494], [86.5899075, 49.8070677], [86.590297, 49.8010231], [86.596694, 49.7959547], [86.5973192, 49.7875149], [86.604765, 49.7842966], [86.6029505, 49.779866], [86.6105839, 49.7720407], [86.6024097, 49.7440475], [86.5860133, 49.7396669], [86.5784234, 49.733919], [86.580549, 49.7229677], [86.526557, 49.702045], [86.5182799, 49.6933279], [86.5092392, 49.6909505], [86.5083639, 49.6782157], [86.4884508, 49.6579097], [86.4562683, 49.6383159], [86.4477538, 49.6377689], [86.4286117, 49.6293521], [86.4200029, 49.60759], [86.3867759, 49.6013724], [86.3713508, 49.5936219], [86.3618183, 49.5924001], [86.3313998, 49.5932033], [86.3159148, 49.5992797], [86.2866119, 49.5918468], [86.2716, 49.5827], [86.2662499, 49.5686232], [86.2670042, 49.5465394], [86.255045, 49.5387201], [86.2538292, 49.5338981], [86.2394052, 49.5254418], [86.2387547, 49.517681], [86.2282702, 49.4951895], [86.2171585, 49.4777627], [86.2020375, 49.4661128], [86.1739095, 49.4789794], [86.1706147, 49.497644], [86.1663447, 49.5033038], [86.1129225, 49.5243832], [86.0371994, 49.5218458], [86.0332695, 49.516782], [86.032837, 49.508074], [86.0245069, 49.5037268], [85.9864642, 49.4889455], [85.9689905, 49.4871162], [85.9533888, 49.5027498], [85.955036, 49.5077376], [85.9444382, 49.5132894], [85.9378281, 49.5279], [85.9294085, 49.5358659], [85.9494498, 49.5537785], [85.9442813, 49.5613256], [85.9279268, 49.5587965], [85.9172675, 49.5651686], [85.8901753, 49.5619632], [85.8837372, 49.5669068], [85.8410632, 49.5476503], [85.826225, 49.5442537], [85.8160024, 49.5469945], [85.8055008, 49.5573542], [85.8099119, 49.5658807], [85.7806054, 49.5749996], [85.7617812, 49.5731087], [85.75689, 49.5771504], [85.6939273, 49.5641207], [85.6841267, 49.558939], [85.6776892, 49.5503959], [85.6272319, 49.5777868], [85.6228429, 49.5858793], [85.6216481, 49.600869], [85.6072246, 49.6092699], [85.5899141, 49.6143806], [85.5837034, 49.6136727], [85.5739539, 49.6041236], [85.5667422, 49.6030825], [85.5532877, 49.5944136], [85.5325438, 49.598487], [85.5238793, 49.5956797], [85.4902051, 49.5981292], [85.38844, 49.6348027], [85.3212611, 49.5908468], [85.2575191, 49.5885235], [85.2586463, 49.5992169], [85.2549831, 49.6039977], [85.2646714, 49.6197876], [85.254512, 49.6272583], [85.2101246, 49.6270855], [85.2163452, 49.6370155], [85.2053279, 49.6480751], [85.2036298, 49.6574402], [85.2100854, 49.661842], [85.2083133, 49.672758], [85.2141206, 49.6752514], [85.2149409, 49.6890682], [85.208002, 49.6978015], [85.2103348, 49.7025264], [85.2054614, 49.7098626], [85.2068298, 49.7154085], [85.2133497, 49.7151468], [85.215526, 49.7185296], [85.1985789, 49.7371908], [85.2040504, 49.7417661], [85.2033689, 49.7452678], [85.1819553, 49.7545221], [85.1752877, 49.7545638], [85.1656995, 49.7690824], [85.1487477, 49.7679097], [85.1481531, 49.7737659], [85.1431256, 49.778634], [85.1448704, 49.7811213], [85.1395003, 49.7853787], [85.1396815, 49.7906451], [85.1445651, 49.7964186], [85.1355603, 49.8003481], [85.1285916, 49.8128614], [85.1212802, 49.817961], [85.1124649, 49.8183156], [85.108442, 49.8232939], [85.101607, 49.8242126], [85.0997521, 49.828144], [85.1049324, 49.8344193], [85.1054987, 49.8431157], [85.1008287, 49.8453266], [85.1004266, 49.8521156], [85.0845827, 49.8601758], [85.0803856, 49.8685762], [85.0596988, 49.8850363], [85.0232711, 49.8910524], [85.0114973, 49.8982907], [85.004756, 49.8982758], [84.9952089, 49.9055937], [84.9854889, 49.9067722], [84.9871379, 49.9234157], [84.978111, 49.9425262], [84.9849266, 49.9499191], [84.9729465, 49.9542789], [84.9947261, 49.9701275], [84.9780463, 49.9762943], [84.983576, 49.983967], [84.9934653, 49.988835], [85.0252916, 49.9999241], [85.0321626, 49.9990559], [85.0378305, 50.0090701], [85.0492582, 50.0103974], [85.0353651, 50.0188759], [85.0373823, 50.0201948], [85.0323637, 50.0333558], [85.0335224, 50.0418265], [85.0394823, 50.0484214], [85.0355435, 50.0524943], [85.026135, 50.0540746], [85.0241391, 50.0602182], [85.0062455, 50.058167], [84.9748274, 50.0669581], [84.9663, 50.0725], [84.9458311, 50.0966095], [84.9239949, 50.0921596], [84.9052835, 50.0954081], [84.8865853, 50.1042151], [84.8768451, 50.1020799], [84.87278, 50.095991], [84.8643733, 50.0960678], [84.8563631, 50.0921128], [84.8507, 50.0939], [84.8335, 50.1051], [84.8325813, 50.1142754], [84.8166148, 50.1166971], [84.8139079, 50.120772], [84.8134244, 50.1361621], [84.8253745, 50.1429846], [84.8052256, 50.1472004], [84.7577173, 50.1368998], [84.7492686, 50.1400029], [84.7323641, 50.1537314], [84.7271804, 50.1642278], [84.6994711, 50.1778279], [84.6920117, 50.1886227], [84.6626991, 50.1937373], [84.6584938, 50.1997841], [84.6498239, 50.2001086], [84.6281869, 50.2106789], [84.6055569, 50.2119278], [84.5811688, 50.2080688], [84.5696638, 50.2012537], [84.5675221, 50.1968412], [84.5413602, 50.2073965], [84.5302577, 50.2060354], [84.5157846, 50.215063], [84.5028077, 50.2314659], [84.4568009, 50.2472563], [84.4469701, 50.2463503], [84.4338384, 50.236084], [84.4315582, 50.2300155], [84.412569, 50.2164529], [84.4098473, 50.2092264], [84.3910652, 50.2158311], [84.3765497, 50.2144663], [84.3625226, 50.2054649], [84.3574604, 50.2138081], [84.3258485, 50.2285811], [84.3249793, 50.2389024], [84.3208601, 50.2401855], [84.3183194, 50.2470276], [84.300498, 50.2484516], [84.280651, 50.2615431], [84.2787915, 50.2669981], [84.265734, 50.273222], [84.2549615, 50.2861109], [84.2560518, 50.2893119], [84.2506785, 50.2925126], [84.2518466, 50.2971724], [84.2597118, 50.3010524], [84.2632161, 50.3144311], [84.2720294, 50.3206594], [84.2617622, 50.3255682], [84.2695448, 50.3383385], [84.2659785, 50.3483399], [84.2695591, 50.3537549], [84.2604326, 50.3661125], [84.2420265, 50.3768546], [84.2396862, 50.3875249], [84.245728, 50.3927506], [84.2419879, 50.4086615], [84.2267093, 50.4307652], [84.2164508, 50.4342309], [84.2065435, 50.4541438], [84.2039747, 50.4689746], [84.2325711, 50.4830655], [84.2375128, 50.5009828], [84.2353063, 50.5042146], [84.2487069, 50.5155657], [84.2432417, 50.5176226], [84.2305773, 50.5402423], [84.2156352, 50.5433263], [84.1967257, 50.5416217], [84.1761508, 50.5516105], [84.1691364, 50.5517446], [84.1720818, 50.563411], [84.1668552, 50.5674962], [84.1675084, 50.5701509], [84.1517487, 50.5739441], [84.156871, 50.5873405], [84.1449605, 50.6059665], [84.1152943, 50.6091944], [84.107825, 50.6230903], [84.0807346, 50.6348461], [84.0812665, 50.6387651], [84.0739046, 50.6439219], [84.0714768, 50.6587254], [84.0514775, 50.6669258], [84.0500733, 50.6719954], [84.0346523, 50.6829906], [84.0232179, 50.697862], [83.9892713, 50.7087056], [83.979951, 50.7200877], [83.9661114, 50.7279926], [83.9637072, 50.7364045], [83.9489166, 50.7505568], [83.9517482, 50.7539374], [83.9516926, 50.7635669], [83.9762238, 50.779943], [83.9726623, 50.7953988], [83.9669308, 50.7966853], [83.9643364, 50.8009987], [83.9104902, 50.8162608], [83.8955914, 50.8300454], [83.8762618, 50.8385005], [83.8769953, 50.8472065], [83.8487956, 50.8561825], [83.8494551, 50.8638013], [83.8363262, 50.8699516], [83.833666, 50.8800221], [83.8066076, 50.8828348], [83.7974142, 50.8878163], [83.7546446, 50.8900747], [83.7433456, 50.8941851], [83.7143839, 50.8929728], [83.703568, 50.8962114], [83.6926192, 50.9089643], [83.677846, 50.9154467], [83.6808676, 50.9218354], [83.6786076, 50.9279627], [83.6564957, 50.9395348], [83.648704, 50.9547766], [83.6302324, 50.943596], [83.6269774, 50.9498708], [83.5976998, 50.9607349], [83.5935072, 50.9494263], [83.5842875, 50.9467184], [83.5722768, 50.9548811], [83.5375945, 50.9608683], [83.5122732, 50.9485465], [83.5069156, 50.9497161], [83.5010759, 50.952505], [83.5043918, 50.9579256], [83.5024137, 50.9740053], [83.4995071, 50.9766292], [83.4888187, 50.9792389], [83.4474816, 50.9771369], [83.4302231, 50.9867139], [83.4398071, 51.0049494], [83.4324488, 51.0093789], [83.4043065, 51.0131384], [83.3871094, 51.0037416], [83.3662971, 50.9986147], [83.3582263, 51.0019571], [83.3582012, 51.0075455], [83.3201138, 51.010511], [83.2915581, 51.008962], [83.2844364, 51.0150364], [83.2771448, 51.013343], [83.2683749, 51.006025], [83.2256795, 51.0011814], [83.2020454, 50.9933378], [83.1796199, 51.0037975], [83.1750429, 51.0115701], [83.1210213, 51.0110042], [83.1220341, 51.0047971], [83.119193, 51.0012376], [83.1223062, 50.9845235], [83.114776, 50.9783532], [83.1124789, 50.9659531], [83.0923938, 50.9553371], [83.0886263, 50.9488605], [83.0589646, 50.9346123], [83.0059935, 50.9251995], [82.9796427, 50.8838498], [82.9617874, 50.8932929], [82.9266863, 50.8986557], [82.9110477, 50.9076824], [82.8958683, 50.9048269], [82.8891155, 50.9064951], [82.8854665, 50.8979673], [82.8788883, 50.8975302], [82.8478121, 50.90966], [82.8379932, 50.9180323], [82.7942112, 50.9180652], [82.7812716, 50.9199856], [82.7713518, 50.9271287], [82.7328173, 50.9272716], [82.7288008, 50.9228584], [82.7331553, 50.9153598], [82.731415, 50.9072059], [82.7173387, 50.90093], [82.7174511, 50.8939978], [82.7306833, 50.857299], [82.7391939, 50.8504319], [82.7064742, 50.8318982], [82.7106872, 50.8281648], [82.7099724, 50.8225069], [82.7015324, 50.8122002], [82.6751059, 50.807954], [82.6802161, 50.8005861], [82.6680144, 50.7932451], [82.6470532, 50.7943349], [82.630422, 50.7790917], [82.6054565, 50.7759965], [82.5674696, 50.7468424], [82.4852149, 50.7422572], [82.4808563, 50.751706], [82.4718234, 50.756125], [82.4082923, 50.7638408], [82.3807239, 50.7757198], [82.377832, 50.7804293], [82.3665958, 50.7778932], [82.3573143, 50.7845959], [82.350775, 50.7756261], [82.3213317, 50.7612487], [82.3167364, 50.7529586], [82.3051639, 50.7557875], [82.2958582, 50.7693844], [82.27038, 50.7697911], [82.2570167, 50.7611348], [82.2491419, 50.7488949], [82.2370219, 50.7455915], [82.2240772, 50.7368492], [82.215829, 50.7412541], [82.2119059, 50.7369226], [82.1994525, 50.7349052], [82.1855112, 50.7370321], [82.1727021, 50.7300643], [82.1753046, 50.7452719], [82.1721617, 50.7468046], [82.1589321, 50.7469534], [82.1523775, 50.7437712], [82.1468079, 50.7451018], [82.1472348, 50.7473269], [82.078382, 50.7508377], [82.0611321, 50.7573664], [82.0629189, 50.7657995], [82.0359721, 50.769114], [82.0262942, 50.7791634], [82.0125735, 50.7857508], [81.9971791, 50.7879389], [81.9919294, 50.7847519], [81.9819893, 50.7847499], [81.9650383, 50.7895315], [81.9060702, 50.7954781], [81.8854154, 50.804307], [81.7967795, 50.7719818], [81.7903997, 50.789776], [81.7895735, 50.8165709], [81.7758571, 50.820919], [81.7554323, 50.7818034], [81.7278273, 50.7601264], [81.5825039, 50.7423881], [81.5259673, 50.7517194], [81.5250593, 50.7579507], [81.5140539, 50.7586594], [81.5026377, 50.7531673], [81.4493382, 50.755926], [81.4610477, 50.8020813], [81.4859883, 50.8241775], [81.4717172, 50.8434137], [81.4716819, 50.8625668], [81.435616, 50.8631523], [81.4357552, 50.8723667], [81.4212515, 50.8724284], [81.4213278, 50.8817848], [81.4427349, 50.8918761], [81.4428381, 50.9107656], [81.4355569, 50.9108117], [81.4354055, 50.9298615], [81.4135224, 50.9298602], [81.4125874, 50.9757418], [81.2929587, 50.9745733], [81.2664113, 50.9617624], [81.2322287, 50.963261], [81.1909179, 50.9510667], [81.1791762, 50.9575994], [81.1575453, 50.9510644], [81.0597635, 50.9479034], [81.0958765, 51.0314374], [81.1029345, 51.0605741], [81.1065874, 51.0662649], [81.1162465, 51.0644417], [81.1418167, 51.0791026], [81.1553834, 51.1014323], [81.1729074, 51.1416275], [81.1649481, 51.1540214], [81.1769757, 51.1617059], [81.1744395, 51.1827977], [81.1665298, 51.1849488], [81.1463635, 51.2118797], [81.1151585, 51.2115228], [81.1025261, 51.1801609], [81.0470905, 51.1814559], [81.0460156, 51.1896323], [80.9198003, 51.219025], [80.9406108, 51.2592571], [80.9100331, 51.2587094], [80.8558032, 51.2769275], [80.7521868, 51.2979963], [80.6776732, 51.3167498], [80.6351094, 51.2627895], [80.6346995, 51.2068038], [80.492555, 51.2039976], [80.4470866, 51.2082857], [80.4373931, 51.1767349], [80.433651, 51.135163], [80.4364803, 51.1190042], [80.4531993, 51.117823], [80.4545197, 51.1091626], [80.4822163, 51.109428], [80.4822429, 50.9686871], [80.4773999, 50.9651305], [80.4397469, 50.9599253], [80.4210757, 50.9620463], [80.3759666, 50.927119], [80.3251039, 50.9275281], [80.3244587, 50.9178904], [80.2454005, 50.9185405], [80.2441917, 50.8993091], [80.1929508, 50.9003662], [80.1923362, 50.8508578], [80.1857079, 50.8508578], [80.1849175, 50.827367], [80.083038, 50.8281677], [80.0834091, 50.8529499], [80.0679769, 50.8528895], [80.0673105, 50.8465556], [80.0630469, 50.8465651], [80.063932, 50.8091042], [80.079552, 50.7387807], [80.0758658, 50.7382076], [79.898963, 50.9770033], [79.8430686, 51.0433906], [79.7316539, 51.1910062], [79.720481, 51.2171802], [79.5326896, 51.4664616], [79.4091384, 51.6155729], [79.3390577, 51.7086611], [79.2508589, 51.6976792], [79.2480262, 51.6921534], [79.2591918, 51.6884398], [79.2308712, 51.6807357], [79.2329552, 51.677181], [79.2308221, 51.6709625], [79.2461991, 51.6617444], [79.2485357, 51.6518276], [79.2456498, 51.6458547], [79.2023884, 51.6190927], [79.1106397, 51.5936093], [79.0615351, 51.5868209], [79.1013495, 51.5254022], [78.9833666, 51.4492583], [78.9192288, 51.4578577], [78.8416298, 51.4539414], [78.8377725, 51.4756105], [78.8558945, 51.4851827], [78.847098, 51.4904574], [78.8245709, 51.4937645], [78.6797715, 51.496185], [78.6714611, 51.4910635], [78.6801313, 51.4700688], [78.7034237, 51.4658849], [78.7402528, 51.467654], [78.747458, 51.3814305], [78.7899527, 51.3825344], [78.7832936, 51.3733469], [78.7847657, 51.2988322], [78.6981039, 51.3118879], [78.6958582, 51.2934482], [78.6882354, 51.2958179], [78.6415011, 51.2917468], [78.6320607, 51.2733602], [78.5421787, 51.2377273], [78.5137216, 51.2311696], [78.3906483, 51.2188854], [78.3401497, 51.2447613], [78.3243877, 51.2339058], [78.3102463, 51.2114917], [78.2863137, 51.2003359], [78.2442778, 51.1887898], [78.1937411, 51.1856313], [78.1554871, 51.1722232], [78.1190978, 51.1549657], [78.1132222, 51.1486072], [78.0820233, 51.1486979], [78.0687895, 51.1421356], [78.0637907, 51.1272302], [78.0742827, 51.1014075], [78.0739394, 51.0901956], [78.0797758, 51.0798438], [78.0899818, 51.0726209], [78.1131775, 51.0728905], [78.129378, 51.066378], [78.1345493, 51.0589475], [78.1330473, 51.0503153], [78.1236059, 51.0337207], [78.129378, 51.0263794], [78.1719982, 51.0259791], [78.1806671, 51.0232123], [78.188349, 51.0155724], [78.1942284, 51.001396], [78.1962025, 50.9813257], [78.2017952, 50.9648963], [78.2287779, 50.9537104], [78.2421675, 50.9383523], [78.2493773, 50.9138987], [78.2613936, 50.9022084], [78.26929, 50.8872664], [78.2782164, 50.8825013], [78.3159819, 50.8833677], [78.3362379, 50.8801186], [78.3496275, 50.8718864], [78.3654204, 50.8536837], [78.3880797, 50.8530335], [78.4143076, 50.8409708], [78.4358015, 50.843279], [78.4598341, 50.8393766], [78.4673872, 50.8304867], [78.464984, 50.8192092], [78.4673872, 50.8124848], [78.4793789, 50.7997669], [78.4698923, 50.7832402], [78.4738354, 50.7795179], [78.4516076, 50.7693379], [78.4577723, 50.7597354], [78.4576925, 50.7365793], [78.5237358, 50.6809948], [78.6084041, 50.6840862], [78.6829013, 50.6952176], [78.7121904, 50.7078647], [78.7189747, 50.7014907], [78.6963133, 50.6602857], [78.7098671, 50.6351926], [78.6949866, 50.5939796], [78.7048536, 50.4728243], [78.7800223, 50.4506013], [78.8198098, 50.3210485], [78.7615592, 50.2662309], [78.7099484, 50.1963726], [78.6134261, 50.0884324], [78.5029112, 50.0449604], [78.4143217, 50.0377446], [78.1196864, 50.1003091], [77.80306, 50.1922235], [77.755593, 50.2352669], [77.6971702, 50.2218527]]]}}]}