{"type": "FeatureCollection", "features": [{"type": "Feature", "properties": {"name": "Kazakhstan"}, "geometry": {"type": "Polygon", "coordinates": [[[80.021296, 50.766877], [80.054989, 50.752872], [80.085995, 50.752149], [80.031115, 50.808786], [80.015405, 50.839482], [80.049305, 50.852349], [80.101601, 50.82155], [80.142736, 50.817106], [80.181286, 50.875655], [80.234823, 50.893225], [80.267276, 50.915653], [80.36019, 50.919219], [80.402875, 50.93374], [80.439048, 50.958131], [80.459409, 50.992651], [80.464473, 51.043707], [80.451657, 51.073499], [80.410523, 51.10484], [80.407629, 51.135743], [80.421995, 51.187574], [80.452071, 51.207935], [80.561315, 51.202095], [80.599245, 51.208555], [80.632422, 51.277956], [80.664564, 51.300151], [80.682754, 51.302012], [80.842538, 51.257518], [80.882484, 51.284855], [80.905738, 51.283563], [80.924238, 51.216074], [80.936072, 51.205687], [81.022113, 51.177394], [81.070121, 51.171994], [81.112857, 51.195946], [81.152028, 51.186541], [81.158643, 51.174268], [81.14717, 51.13595], [81.080508, 51.030866], [81.051517, 50.955702], [81.058287, 50.947072], [81.104382, 50.936685], [81.158849, 50.938236], [81.277447, 50.962679], [81.400798, 50.959113], [81.401212, 50.922991], [81.416095, 50.88966], [81.466117, 50.833746], [81.42612, 50.788167], [81.418782, 50.762484], [81.431081, 50.740728], [81.460226, 50.730341], [81.674115, 50.736026], [81.697214, 50.745017], [81.744137, 50.784912], [81.822426, 50.76574], [81.895032, 50.774215], [81.945365, 50.769202], [81.990323, 50.759642], [82.095536, 50.70812], [82.147316, 50.701609], [82.198786, 50.708792], [82.255733, 50.745224], [82.288393, 50.737421], [82.32839, 50.752097], [82.362497, 50.742124], [82.408282, 50.748376], [82.475823, 50.714012], [82.604239, 50.769047], [82.672762, 50.789769], [82.698032, 50.810957], [82.699996, 50.880978], [82.726454, 50.900718], [82.764539, 50.906661], [82.844121, 50.891727], [82.975896, 50.881908], [83.021475, 50.891778], [83.057855, 50.917152], [83.107568, 50.992651], [83.179605, 50.987277], [83.323782, 51.002418], [83.433956, 50.992651], [83.462016, 50.964332], [83.498345, 50.945419], [83.609759, 50.932034], [83.712802, 50.882218], [83.778173, 50.879428], [83.820496, 50.868007], [83.882817, 50.81199], [83.921988, 50.800725], [83.950565, 50.780416], [83.949738, 50.717887], [83.975835, 50.686365], [84.101719, 50.62859], [84.133035, 50.600788], [84.151225, 50.552574], [84.185951, 50.527976], [84.195615, 50.51144], [84.19794, 50.493146], [84.176753, 50.439145], [84.239385, 50.344628], [84.239643, 50.278224], [84.249978, 50.259931], [84.304394, 50.243239], [84.331369, 50.213474], [84.368783, 50.21182], [84.440768, 50.244635], [84.535697, 50.190943], [84.641996, 50.184897], [84.720286, 50.136631], [84.790669, 50.132755], [84.826119, 50.086711], [84.838676, 50.08082], [84.887976, 50.096737], [84.910248, 50.095083], [84.986729, 50.066971], [85.028329, 50.020514], [85.025435, 50.004081], [85.00422316849385, 50.0], [80.0, 50.0], [80.0, 50.783712569381315], [80.021296, 50.766877]]]}}, {"type": "Feature", "properties": {"name": "Mongolia"}, "geometry": {"type": "MultiPolygon", "coordinates": [[[[90.004924, 50.050745], [90.020531, 50.070743], [90.051226, 50.084179], [90.222947, 50.11441], [90.34387, 50.174665], [90.425002, 50.186912], [90.475232, 50.21461], [90.51895, 50.218383], [90.604939, 50.205981], [90.683901, 50.216212], [90.712633, 50.237968], [90.717594, 50.280756], [90.726586, 50.291867], [90.839964, 50.320806], [90.877068, 50.339357], [90.975149, 50.413926], [91.012046, 50.425295], [91.129765, 50.426174], [91.260093, 50.466585], [91.382153, 50.454958], [91.415743, 50.461365], [91.432486, 50.478057], [91.450366, 50.519088], [91.475067, 50.535986], [91.575733, 50.561979], [91.602708, 50.579601], [91.653144, 50.640063], [91.749779, 50.684091], [91.824193, 50.701558], [91.899951, 50.707242], [92.062732, 50.686313], [92.15885, 50.689103], [92.242772, 50.720006], [92.294449, 50.791268], [92.301683, 50.843358], [92.315223, 50.855863], [92.360905, 50.868369], [92.384572, 50.865579], [92.399869, 50.850592], [92.418989, 50.811732], [92.443277, 50.786307], [92.554588, 50.743002], [92.611845, 50.687657], [92.649776, 50.674066], [92.695251, 50.68192], [92.735249, 50.705227], [92.76026, 50.770752], [92.796123, 50.788012], [92.857722, 50.795505], [92.921077, 50.792456], [92.961695, 50.777884], [92.973994, 50.742175], [92.973374, 50.694374], [93.011408, 50.623319], [93.04262, 50.609884], [93.104942, 50.598825], [93.421512, 50.609367], [93.536337, 50.584717], [94.237586, 50.565235], [94.25867, 50.557535], [94.273346, 50.544771], [94.279754, 50.492681], [94.327503, 50.404366], [94.332257, 50.301013], [94.354478, 50.223602], [94.391788, 50.185568], [94.491731, 50.152289], [94.509094, 50.109862], [94.563974, 50.071002], [94.603455, 50.019739], [94.650997, 50.017827], [94.746392, 50.040358], [94.921575, 50.045887], [94.953718, 50.040616], [94.98059, 50.024751], [94.99985696281384, 50.0], [89.99732638448803, 50.0], [90.004924, 50.050745]]], [[[95.787672, 50.011729], [95.827876, 50.020152], [95.867047, 50.014984], [95.88410220779515, 50.0], [95.77307349696582, 50.0], [95.787672, 50.011729]]], [[[98.047999, 50.023046], [98.105567, 50.06387], [98.262457, 50.283805], [98.272275, 50.318997], [98.261836, 50.367469], [98.266281, 50.400697], [98.298217, 50.460125], [98.300697, 50.49294], [98.293462, 50.518623], [98.251294, 50.550559], [98.135953, 50.570971], [98.038491, 50.622958], [97.944026, 50.774473], [97.947437, 50.79597], [97.990225, 50.835606], [97.984644, 50.846923], [97.953018, 50.86284], [97.919428, 50.897411], [97.835713, 50.940716], [97.808531, 50.970482], [97.80636, 51.001126], [97.870129, 51.086805], [97.900308, 51.168428], [97.92904, 51.21504], [97.92811, 51.251472], [97.916328, 51.285889], [97.922839, 51.318471], [97.974515, 51.368597], [98.039731, 51.4573], [98.111355, 51.484714], [98.220392, 51.475205], [98.233828, 51.516521], [98.224319, 51.560006], [98.228247, 51.583416], [98.273515, 51.654833], [98.33222, 51.718317], [98.425031, 51.746222], [98.618714, 51.780665], [98.682689, 51.819474], [98.711111, 51.845105], [98.776637, 51.930113], [98.800201, 51.992745], [98.846504, 52.039331], [98.855599, 52.106691], [98.886398, 52.128551], [98.927636, 52.129584], [98.962465, 52.112557], [98.974454, 52.080388], [98.994712, 52.058296], [99.232837, 51.994243], [99.295365, 51.943549], [99.32389, 51.934221], [99.556848, 51.891459], [99.679321, 51.888669], [99.709655, 51.880581], [99.917911, 51.749478], [100.0, 51.73293006128984], [100.0, 50.0], [97.98260261409618, 50.0], [98.047999, 50.023046]]]]}}, {"type": "Feature", "properties": {"name": "Russia"}, "geometry": {"type": "Polygon", "coordinates": [[[85.025435, 50.004081], [85.028329, 50.020514], [84.986729, 50.066971], [84.910248, 50.095083], [84.887976, 50.096737], [84.838676, 50.08082], [84.826119, 50.086711], [84.790669, 50.132755], [84.720286, 50.136631], [84.641996, 50.184897], [84.535697, 50.190943], [84.440768, 50.244635], [84.368783, 50.21182], [84.331369, 50.213474], [84.304394, 50.243239], [84.249978, 50.259931], [84.239643, 50.278224], [84.239385, 50.344628], [84.176753, 50.439145], [84.19794, 50.493146], [84.195615, 50.51144], [84.185951, 50.527976], [84.151225, 50.552574], [84.133035, 50.600788], [84.101719, 50.62859], [83.975835, 50.686365], [83.949738, 50.717887], [83.950565, 50.780416], [83.921988, 50.800725], [83.882817, 50.81199], [83.820496, 50.868007], [83.778173, 50.879428], [83.712802, 50.882218], [83.609759, 50.932034], [83.498345, 50.945419], [83.462016, 50.964332], [83.433956, 50.992651], [83.323782, 51.002418], [83.179605, 50.987277], [83.107568, 50.992651], [83.057855, 50.917152], [83.021475, 50.891778], [82.975896, 50.881908], [82.844121, 50.891727], [82.764539, 50.906661], [82.726454, 50.900718], [82.699996, 50.880978], [82.698032, 50.810957], [82.672762, 50.789769], [82.604239, 50.769047], [82.475823, 50.714012], [82.408282, 50.748376], [82.362497, 50.742124], [82.32839, 50.752097], [82.288393, 50.737421], [82.255733, 50.745224], [82.198786, 50.708792], [82.147316, 50.701609], [82.095536, 50.70812], [81.990323, 50.759642], [81.945365, 50.769202], [81.895032, 50.774215], [81.822426, 50.76574], [81.744137, 50.784912], [81.697214, 50.745017], [81.674115, 50.736026], [81.460226, 50.730341], [81.431081, 50.740728], [81.418782, 50.762484], [81.42612, 50.788167], [81.466117, 50.833746], [81.416095, 50.88966], [81.401212, 50.922991], [81.400798, 50.959113], [81.277447, 50.962679], [81.158849, 50.938236], [81.104382, 50.936685], [81.058287, 50.947072], [81.051517, 50.955702], [81.080508, 51.030866], [81.14717, 51.13595], [81.158643, 51.174268], [81.152028, 51.186541], [81.112857, 51.195946], [81.070121, 51.171994], [81.022113, 51.177394], [80.936072, 51.205687], [80.924238, 51.216074], [80.905738, 51.283563], [80.882484, 51.284855], [80.842538, 51.257518], [80.682754, 51.302012], [80.664564, 51.300151], [80.632422, 51.277956], [80.599245, 51.208555], [80.561315, 51.202095], [80.452071, 51.207935], [80.421995, 51.187574], [80.407629, 51.135743], [80.410523, 51.10484], [80.451657, 51.073499], [80.464473, 51.043707], [80.459409, 50.992651], [80.439048, 50.958131], [80.402875, 50.93374], [80.36019, 50.919219], [80.267276, 50.915653], [80.234823, 50.893225], [80.181286, 50.875655], [80.142736, 50.817106], [80.101601, 50.82155], [80.049305, 50.852349], [80.015405, 50.839482], [80.031115, 50.808786], [80.085995, 50.752149], [80.054989, 50.752872], [80.021296, 50.766877], [80.0, 50.783712569381315], [80.0, 70.0], [100.0, 70.0], [100.0, 51.73293006128984], [99.917911, 51.749478], [99.709655, 51.880581], [99.679321, 51.888669], [99.556848, 51.891459], [99.32389, 51.934221], [99.295365, 51.943549], [99.232837, 51.994243], [98.994712, 52.058296], [98.974454, 52.080388], [98.962465, 52.112557], [98.927636, 52.129584], [98.886398, 52.128551], [98.855599, 52.106691], [98.838545, 52.025275], [98.800201, 51.992745], [98.776637, 51.930113], [98.711111, 51.845105], [98.682689, 51.819474], [98.618714, 51.780665], [98.425031, 51.746222], [98.33222, 51.718317], [98.273515, 51.654833], [98.228247, 51.583416], [98.224319, 51.560006], [98.233828, 51.516521], [98.220392, 51.475205], [98.111355, 51.484714], [98.039731, 51.4573], [97.974515, 51.368597], [97.922839, 51.318471], [97.916328, 51.285889], [97.92811, 51.251472], [97.92904, 51.21504], [97.900308, 51.168428], [97.870129, 51.086805], [97.80636, 51.001126], [97.808531, 50.970482], [97.835713, 50.940716], [97.919428, 50.897411], [97.953018, 50.86284], [97.984644, 50.846923], [97.990225, 50.835606], [97.947437, 50.79597], [97.944026, 50.774473], [98.038491, 50.622958], [98.135953, 50.570971], [98.251294, 50.550559], [98.293462, 50.518623], [98.300697, 50.49294], [98.298217, 50.460125], [98.266281, 50.400697], [98.261836, 50.367469], [98.272275, 50.318997], [98.262457, 50.283805], [98.105567, 50.06387], [98.047999, 50.023046], [97.98260261409618, 50.0], [95.88410220779515, 50.0], [95.867047, 50.014984], [95.827876, 50.020152], [95.787672, 50.011729], [95.77307349696582, 50.0], [94.99985696281384, 50.0], [94.98059, 50.024751], [94.953718, 50.040616], [94.921575, 50.045887], [94.746392, 50.040358], [94.650997, 50.017827], [94.603455, 50.019739], [94.563974, 50.071002], [94.509094, 50.109862], [94.491731, 50.152289], [94.391788, 50.185568], [94.354478, 50.223602], [94.332257, 50.301013], [94.327503, 50.404366], [94.279754, 50.492681], [94.273346, 50.544771], [94.25867, 50.557535], [94.237586, 50.565235], [93.536337, 50.584717], [93.421512, 50.609367], [93.104942, 50.598825], [93.04262, 50.609884], [93.011408, 50.623319], [92.973374, 50.694374], [92.973994, 50.742175], [92.961695, 50.777884], [92.921077, 50.792456], [92.857722, 50.795505], [92.796123, 50.788012], [92.76026, 50.770752], [92.735249, 50.705227], [92.695251, 50.68192], [92.649776, 50.674066], [92.611845, 50.687657], [92.554588, 50.743002], [92.443277, 50.786307], [92.418989, 50.811732], [92.399869, 50.850592], [92.384572, 50.865579], [92.360905, 50.868369], [92.315223, 50.855863], [92.301683, 50.843358], [92.294449, 50.791268], [92.242772, 50.720006], [92.15885, 50.689103], [92.062732, 50.686313], [91.899951, 50.707242], [91.824193, 50.701558], [91.749779, 50.684091], [91.653144, 50.640063], [91.602708, 50.579601], [91.575733, 50.561979], [91.475067, 50.535986], [91.450366, 50.519088], [91.432486, 50.478057], [91.415743, 50.461365], [91.382153, 50.454958], [91.260093, 50.466585], [91.129765, 50.426174], [91.012046, 50.425295], [90.975149, 50.413926], [90.877068, 50.339357], [90.839964, 50.320806], [90.726586, 50.291867], [90.717594, 50.280756], [90.712633, 50.237968], [90.683901, 50.216212], [90.604939, 50.205981], [90.51895, 50.218383], [90.475232, 50.21461], [90.425002, 50.186912], [90.34387, 50.174665], [90.222947, 50.11441], [90.051226, 50.084179], [90.020531, 50.070743], [90.004924, 50.050745], [89.99732638448803, 50.0], [85.00422316849385, 50.0], [85.025435, 50.004081]]]}}]}