{"type": "FeatureCollection", "features": [{"type": "Feature", "properties": {"name": "Brazil"}, "geometry": {"type": "MultiPolygon", "coordinates": [[[[-39.985707, -2.848403], [-39.903066, -2.901788], [-39.860911, -2.915704], [-39.807485, -2.967543], [-39.743031, -3.003676], [-39.725942, -3.022393], [-39.731842, -3.032159], [-39.704579, -3.039646], [-39.712026, -3.025974], [-39.697906, -3.017185], [-39.643137, -3.039646], [-39.618886, -3.039646], [-39.608306, -3.060154], [-39.571116, -3.090916], [-39.497141, -3.131117], [-39.485463, -3.145766], [-39.396718, -3.183526], [-39.358266, -3.183526], [-39.286855, -3.232029], [-39.272572, -3.232029], [-39.258901, -3.251886], [-39.165273, -3.322849], [-39.115549, -3.334405], [-39.080556, -3.377048], [-39.015492, -3.384047], [-38.985178, -3.395929], [-38.942738, -3.444594], [-38.916331, -3.50506], [-38.897206, -3.500258], [-38.855458, -3.532973], [-38.807485, -3.547296], [-38.763051, -3.59824], [-38.694407, -3.636651], [-38.659657, -3.676446], [-38.594716, -3.690688], [-38.526194, -3.718032], [-38.494374, -3.721287], [-38.477406, -3.697442], [-38.409779, -3.793145], [-38.395823, -3.84059], [-38.378041, -3.869724], [-38.32079, -3.922784], [-38.251332, -3.961847], [-38.106679, -4.157892], [-38.029612, -4.2374], [-37.919423, -4.314548], [-37.854237, -4.375909], [-37.81371, -4.39129], [-37.768625, -4.396417], [-37.710805, -4.515395], [-37.683746, -4.548435], [-37.607249, -4.608087], [-37.537343, -4.638116], [-37.513824, -4.623793], [-37.488026, -4.629978], [-37.427113, -4.661065], [-37.324818, -4.696466], [-37.292551, -4.71795], [-37.274403, -4.742364], [-37.231109, -4.842055], [-37.182932, -4.910903], [-37.134918, -4.93141], [-37.098134, -4.920587], [-37.049387, -4.937921], [-36.982981, -4.929783], [-36.898752, -4.938246], [-36.820709, -5.007745], [-36.790883, -5.051202], [-36.756581, -5.066827], [-36.696116, -5.075453], [-36.695709, -5.089614], [-36.606923, -5.096368], [-36.544423, -5.127618], [-36.530914, -5.122735], [-36.52538, -5.105564], [-36.570546, -5.091729], [-36.579986, -5.080987], [-36.545074, -5.089614], [-36.422353, -5.080987], [-36.339752, -5.089044], [-36.281361, -5.104587], [-36.257232, -5.102146], [-36.257232, -5.09588], [-36.291982, -5.09588], [-36.291982, -5.089044], [-36.131215, -5.09588], [-35.997182, -5.04754], [-35.659413, -5.111261], [-35.581939, -5.11891], [-35.510569, -5.143731], [-35.454905, -5.196954], [-35.420522, -5.211521], [-35.390045, -5.244561], [-35.362416, -5.300877], [-35.353505, -5.345798], [-35.318756, -5.383233], [-35.262278, -5.483331], [-35.245269, -5.546157], [-35.223134, -5.582615], [-35.230621, -5.5888], [-35.2058, -5.678806], [-35.195668, -5.689548], [-35.195221, -5.760024], [-35.171132, -5.796319], [-35.171539, -5.844334], [-35.14745, -5.876723], [-35.145334, -5.932061], [-35.105051, -5.995538], [-35.111195, -6.057794], [-35.099355, -6.066583], [-35.092844, -6.185805], [-35.120717, -6.164727], [-35.124989, -6.182794], [-35.150868, -6.215997], [-35.134267, -6.224298], [-35.095937, -6.192071], [-35.07787, -6.22088], [-35.038197, -6.236505], [-35.024241, -6.342869], [-34.989166, -6.377618], [-34.972279, -6.433364], [-34.958974, -6.536879], [-34.958485, -6.582615], [-34.96996, -6.617283], [-34.953277, -6.674737], [-34.93517, -6.705987], [-34.942738, -6.766209], [-34.904164, -6.887302], [-34.860097, -6.914646], [-34.860097, -6.96266], [-34.862864, -6.976007], [-34.880605, -6.993341], [-34.878163, -7.028009], [-34.894195, -7.082778], [-34.907582, -7.093194], [-34.921498, -7.082778], [-34.907826, -7.104181], [-34.914662, -7.130548], [-34.859364, -7.071466], [-34.836171, -6.991795], [-34.839589, -6.972914], [-34.825795, -6.98447], [-34.824208, -7.003351], [-34.832753, -7.041192], [-34.827952, -7.13006], [-34.797353, -7.158461], [-34.793609, -7.176202], [-34.804799, -7.223321], [-34.804799, -7.370782], [-34.814443, -7.444513], [-34.814605, -7.483819], [-34.804799, -7.514093], [-34.819163, -7.548272], [-34.880605, -7.541599], [-34.928944, -7.555759], [-34.865468, -7.553399], [-34.835386, -7.562727], [-34.8314, -7.582438], [-34.805304, -7.622716], [-34.830304, -7.680888], [-34.837295, -7.679757], [-34.839589, -7.643813], [-34.845815, -7.671808], [-34.873769, -7.617771], [-34.876047, -7.637302], [-34.86017, -7.685987], [-34.864368, -7.70523], [-34.887257, -7.708382], [-34.907216, -7.733819], [-34.877531, -7.714503], [-34.865876, -7.71754], [-34.892096, -7.762618], [-34.893525, -7.804927], [-34.884944, -7.815663], [-34.848038, -7.822838], [-34.845815, -7.884698], [-34.832753, -7.857354], [-34.811635, -7.905857], [-34.818837, -7.919041], [-34.811635, -7.93255], [-34.851186, -8.068617], [-34.863678, -8.070408], [-34.912668, -8.035414], [-34.928944, -8.034926], [-34.90685, -8.052667], [-34.887359, -8.103774], [-34.880605, -8.089532], [-34.90038, -8.17962], [-34.920766, -8.214451], [-34.938873, -8.272068], [-34.938588, -8.347101], [-34.952504, -8.364679], [-35.026235, -8.57586], [-35.068959, -8.672296], [-35.08023, -8.681085], [-35.086008, -8.740655], [-35.127349, -8.806248], [-35.14745, -8.911879], [-35.188873, -8.990655], [-35.232249, -9.047784], [-35.305084, -9.193048], [-35.392161, -9.305759], [-35.414947, -9.323419], [-35.414947, -9.316583], [-35.437815, -9.328383], [-35.482045, -9.367852], [-35.493235, -9.404067], [-35.58259, -9.532892], [-35.657541, -9.577081], [-35.696156, -9.672947], [-35.752309, -9.682712], [-35.778066, -9.700128], [-35.749094, -9.659845], [-35.746246, -9.641778], [-35.773427, -9.600356], [-35.799916, -9.584731], [-35.812164, -9.597833], [-35.791737, -9.642185], [-35.794911, -9.679132], [-35.858144, -9.734552], [-35.877349, -9.686619], [-35.908437, -9.638767], [-35.905426, -9.62477], [-35.919586, -9.608087], [-35.941884, -9.599786], [-35.963043, -9.610772], [-35.908437, -9.659275], [-35.873647, -9.755466], [-35.860911, -9.760024], [-35.853179, -9.741143], [-35.805572, -9.731052], [-35.798573, -9.720636], [-35.810618, -9.744806], [-35.86205, -9.794041], [-35.88268, -9.855645], [-35.949371, -9.913181], [-35.973297, -9.965753], [-36.002187, -9.995538], [-36.00440473185237, -10.0], [-40.0, -10.0], [-40.0, -2.848403], [-39.985707, -2.848403]]], [[[-32.392161, -3.834161], [-32.386586, -3.841241], [-32.399729, -3.861993], [-32.441518, -3.880792], [-32.462799, -3.878351], [-32.43692, -3.849867], [-32.392161, -3.834161]]], [[[-29.381459, 0.891343], [-29.356191, 0.882758], [-29.345326, 0.866645], [-29.349029, 0.852607], [-29.369374, 0.833564], [-29.410268, 0.834866], [-29.426381, 0.858547], [-29.423411, 0.871568], [-29.40803, 0.884833], [-29.381459, 0.891343]]], [[[-34.836052, -7.696933], [-34.830196, -7.703828], [-34.822331, -7.738797], [-34.838015, -7.810799], [-34.845373, -7.813504], [-34.884229, -7.804026], [-34.880504, -7.75362], [-34.860004, -7.727775], [-34.85275, -7.697379], [-34.836052, -7.696933]]]]}}]}