{"type": "FeatureCollection", "features": [{"type": "Feature", "properties": {"name": "Canada"}, "geometry": {"type": "MultiPolygon", "coordinates": [[[[-119.997629, 69.347357], [-119.787221, 69.347357], [-119.725494, 69.329779], [-119.476186, 69.305162], [-119.258168, 69.296454], [-118.868764, 69.256171], [-118.666371, 69.225491], [-118.476918, 69.129462], [-118.220815, 69.078192], [-118.040883, 69.024604], [-117.834706, 68.994289], [-117.686757, 68.985663], [-117.370717, 68.950914], [-117.301869, 68.925686], [-117.165395, 68.893948], [-116.981353, 68.906806], [-116.961659, 68.913764], [-117.010081, 68.940375], [-116.973622, 68.946275], [-116.94164, 68.938707], [-116.847076, 68.887681], [-116.787262, 68.897773], [-116.756825, 68.88581], [-116.467844, 68.863756], [-116.421783, 68.867255], [-116.412953, 68.88581], [-116.386138, 68.885321], [-116.328603, 68.878119], [-116.208119, 68.831204], [-115.971181, 68.809272], [-115.941233, 68.817532], [-116.098704, 68.856391], [-116.1256, 68.878974], [-116.085276, 68.878974], [-116.085276, 68.88581], [-116.311106, 68.947699], [-116.323598, 68.95482], [-116.317983, 68.968329], [-116.268951, 68.985053], [-116.160471, 68.984117], [-115.879221, 68.927395], [-115.83788, 68.940375], [-115.769928, 68.940375], [-115.865549, 68.968329], [-115.941233, 69.003119], [-115.916412, 69.010159], [-115.714711, 68.968329], [-115.56725, 68.971869], [-115.497141, 68.94595], [-115.442983, 68.942328], [-115.378896, 68.921129], [-115.211252, 68.895738], [-115.114369, 68.856431], [-115.063588, 68.852281], [-115.07726, 68.865912], [-115.034983, 68.875149], [-114.987782, 68.867418], [-114.829335, 68.81391], [-114.742055, 68.755316], [-114.522572, 68.717231], [-114.439809, 68.687201], [-114.467763, 68.666693], [-114.418853, 68.641181], [-114.401194, 68.616929], [-114.201039, 68.571926], [-114.182851, 68.564032], [-114.186594, 68.550686], [-114.169667, 68.530097], [-114.128285, 68.520087], [-114.079945, 68.494452], [-114.056793, 68.440823], [-114.111684, 68.439643], [-114.124664, 68.43183], [-114.110829, 68.413479], [-114.059438, 68.397406], [-114.004994, 68.399807], [-113.988393, 68.434394], [-113.967152, 68.440823], [-113.905385, 68.399807], [-113.948394, 68.392239], [-113.963246, 68.367825], [-114.0419, 68.32217], [-114.056793, 68.304185], [-114.015248, 68.252672], [-114.035471, 68.241197], [-114.20519, 68.257514], [-114.268463, 68.235907], [-114.337392, 68.235907], [-114.450347, 68.269477], [-114.624257, 68.252102], [-114.837026, 68.262641], [-114.941518, 68.291327], [-114.968617, 68.283149], [-114.887278, 68.24787], [-114.838694, 68.236314], [-114.755116, 68.194322], [-114.833648, 68.191067], [-114.860178, 68.156562], [-114.896067, 68.151353], [-115.241689, 68.186916], [-115.179514, 68.141832], [-115.183705, 68.122382], [-115.228098, 68.091295], [-115.249135, 68.042914], [-115.204742, 68.025702], [-115.111969, 68.016181], [-115.202992, 67.982245], [-115.302398, 67.973334], [-115.468251, 67.940497], [-115.511586, 67.938666], [-115.533803, 67.934394], [-115.543365, 67.923407], [-115.536122, 67.903388], [-115.518219, 67.89525], [-115.393544, 67.879096], [-115.256012, 67.885891], [-115.282704, 67.872219], [-115.187245, 67.824449], [-115.126332, 67.812893], [-115.118235, 67.8039], [-114.99649, 67.792711], [-114.789215, 67.816962], [-114.716542, 67.811591], [-114.599029, 67.774563], [-114.542836, 67.782864], [-114.535268, 67.796942], [-114.397857, 67.741889], [-114.329823, 67.728217], [-114.261627, 67.728217], [-114.172109, 67.742255], [-113.981313, 67.724189], [-113.858754, 67.696234], [-113.680776, 67.694729], [-113.315826, 67.710883], [-113.19286, 67.700263], [-113.041982, 67.67357], [-112.833404, 67.687323], [-112.749379, 67.676459], [-112.42101, 67.68244], [-112.354604, 67.694281], [-112.343088, 67.70303], [-112.371002, 67.735053], [-112.327626, 67.745551], [-112.186106, 67.728217], [-112.02774, 67.748684], [-111.997711, 67.740627], [-111.980051, 67.694037], [-111.926015, 67.694037], [-111.885487, 67.685207], [-111.870758, 67.694037], [-111.899241, 67.713202], [-111.931549, 67.721991], [-111.92219, 67.734036], [-111.904286, 67.735053], [-111.904286, 67.741889], [-111.931549, 67.748684], [-111.87975, 67.764065], [-111.545644, 67.721381], [-111.575917, 67.748684], [-111.534983, 67.769232], [-111.459218, 67.769232], [-111.469309, 67.744289], [-111.452789, 67.735663], [-111.424916, 67.739569], [-111.400868, 67.752143], [-111.356313, 67.793931], [-111.291982, 67.826117], [-111.167388, 67.846096], [-111.155141, 67.841783], [-111.152821, 67.831244], [-111.164418, 67.816962], [-111.212229, 67.7897], [-111.184193, 67.797065], [-111.171742, 67.794582], [-111.171254, 67.782864], [-111.212229, 67.762356], [-111.156321, 67.767727], [-111.088124, 67.790676], [-111.037506, 67.766832], [-111.018951, 67.768134], [-110.904205, 67.800523], [-110.847076, 67.806871], [-110.739573, 67.865424], [-110.576568, 67.888495], [-110.531972, 67.915717], [-110.420806, 67.948391], [-110.328359, 67.947943], [-110.342641, 67.968411], [-110.279286, 67.964179], [-110.219106, 67.947943], [-110.158193, 67.918402], [-110.12975, 67.926825], [-110.188385, 67.954169], [-110.203033, 67.974066], [-110.177846, 67.998847], [-110.130971, 68.010443], [-110.059641, 68.005072], [-109.971181, 67.967271], [-109.974721, 67.935736], [-109.999379, 67.885891], [-109.994781, 67.852607], [-109.966908, 67.833808], [-109.933095, 67.834174], [-109.910634, 67.858547], [-109.952219, 67.879096], [-109.952219, 67.885891], [-109.870676, 67.882717], [-109.832021, 67.873603], [-109.783437, 67.838935], [-109.698354, 67.810126], [-109.708323, 67.798529], [-109.73762, 67.790961], [-109.746165, 67.776028], [-109.622629, 67.741889], [-109.720774, 67.75023], [-109.742747, 67.745307], [-109.74356, 67.728705], [-109.716705, 67.719184], [-109.538726, 67.689032], [-109.518463, 67.691352], [-109.49767, 67.703315], [-109.490834, 67.717963], [-109.512766, 67.728217], [-109.495513, 67.74079], [-109.451894, 67.744289], [-109.405873, 67.769761], [-109.391713, 67.768988], [-109.382436, 67.75552], [-109.404164, 67.741889], [-109.312327, 67.722561], [-109.259836, 67.735053], [-109.067047, 67.72016], [-109.061513, 67.707709], [-109.006256, 67.67357], [-108.978383, 67.590399], [-108.985178, 67.590399], [-108.933665, 67.546332], [-108.929433, 67.531806], [-109.022572, 67.487698], [-109.013092, 67.46133], [-108.996938, 67.449042], [-108.929921, 67.434027], [-108.932607, 67.416938], [-108.865956, 67.414618], [-108.848012, 67.395494], [-108.841176, 67.367662], [-108.824127, 67.357164], [-108.801991, 67.361884], [-108.779693, 67.379381], [-108.756907, 67.414618], [-108.744456, 67.45425], [-108.738393, 67.593207], [-108.730702, 67.61579], [-108.710805, 67.62519], [-108.639882, 67.629462], [-108.59911, 67.625312], [-108.581125, 67.608466], [-108.584788, 67.577338], [-108.519643, 67.494818], [-108.525868, 67.450426], [-108.510406, 67.392035], [-108.493153, 67.365383], [-108.471262, 67.351467], [-108.448354, 67.350287], [-108.431223, 67.369371], [-108.430287, 67.385565], [-108.443959, 67.406073], [-108.443959, 67.434027], [-108.370269, 67.447577], [-108.32429, 67.435126], [-108.286936, 67.392401], [-108.26415, 67.381252], [-107.992543, 67.282457], [-107.964426, 67.249213], [-107.947377, 67.241604], [-107.936594, 67.217515], [-107.882314, 67.155178], [-107.875356, 67.139228], [-107.916371, 67.139228], [-107.88561, 67.092515], [-107.879709, 67.053412], [-107.885365, 67.048245], [-108.02123, 67.083564], [-108.077748, 67.070136], [-108.139394, 67.080024], [-108.156565, 67.077704], [-108.163401, 67.063422], [-108.197499, 67.055976], [-108.189768, 67.031724], [-108.214955, 67.027411], [-108.302968, 67.040351], [-108.484731, 67.100409], [-108.589223, 67.158189], [-108.62206, 67.159654], [-108.62206, 67.152818], [-108.576975, 67.123603], [-108.549387, 67.068549], [-108.5183, 67.037177], [-108.488881, 67.041938], [-108.49234, 67.063422], [-108.464996, 67.074897], [-108.364735, 67.017157], [-108.339711, 66.990424], [-108.221506, 66.979438], [-108.163564, 66.964504], [-108.119456, 66.939399], [-108.113271, 66.923245], [-108.122426, 66.885932], [-108.11498, 66.878485], [-108.136057, 66.860093], [-108.231679, 66.851142], [-108.186513, 66.838853], [-108.053538, 66.851142], [-107.995229, 66.832221], [-107.936838, 66.782294], [-107.95051, 66.735093], [-107.888905, 66.669745], [-107.86852, 66.672105], [-107.875356, 66.707221], [-107.857533, 66.723822], [-107.889027, 66.761786], [-107.857737, 66.760077], [-107.832387, 66.748277], [-107.765736, 66.691352], [-107.689809, 66.645738], [-107.71109, 66.645006], [-107.724517, 66.632066], [-107.635162, 66.570014], [-107.565541, 66.530748], [-107.54776, 66.531562], [-107.540354, 66.540513], [-107.553293, 66.556342], [-107.521148, 66.553412], [-107.497955, 66.5362], [-107.432525, 66.454739], [-107.364898, 66.433498], [-107.275787, 66.360826], [-107.241526, 66.348538], [-107.209869, 66.359117], [-107.201772, 66.378485], [-107.237945, 66.391832], [-107.249867, 66.413886], [-107.293324, 66.441718], [-107.43517, 66.51081], [-107.451405, 66.548041], [-107.563547, 66.59455], [-107.57372, 66.62523], [-107.626698, 66.662543], [-107.658681, 66.707709], [-107.767405, 66.739407], [-107.799672, 66.768622], [-107.71349, 66.752997], [-107.689809, 66.768622], [-107.701405, 66.788153], [-107.697255, 66.802802], [-107.717763, 66.878485], [-107.765533, 66.946112], [-107.765859, 66.996324], [-107.758656, 67.008857], [-107.737457, 67.011461], [-107.687571, 66.982164], [-107.634836, 66.967108], [-107.6079, 66.974066], [-107.611724, 66.992987], [-107.666493, 67.063422], [-107.642974, 67.077094], [-107.617828, 67.073961], [-107.523997, 67.020413], [-107.484364, 66.91942], [-107.53185, 66.929877], [-107.548166, 66.917955], [-107.568918, 66.919094], [-107.604807, 66.929999], [-107.646474, 66.955756], [-107.697255, 66.953559], [-107.616322, 66.885403], [-107.579945, 66.885932], [-107.587392, 66.899604], [-107.532786, 66.878485], [-107.53482, 66.867987], [-107.57372, 66.844957], [-107.562978, 66.839504], [-107.512318, 66.823228], [-107.477528, 66.844957], [-107.431467, 66.807847], [-107.40925, 66.817084], [-107.451812, 66.847805], [-107.484364, 66.885932], [-107.41161, 66.878974], [-107.395619, 66.892157], [-107.404205, 66.918687], [-107.441396, 66.962958], [-107.43928, 66.96955], [-107.401031, 66.974311], [-107.354115, 66.96133], [-107.308502, 66.934638], [-107.221547, 66.902045], [-107.131907, 66.830268], [-107.087717, 66.823228], [-107.087717, 66.830715], [-107.162221, 66.878485], [-107.134877, 66.892157], [-107.267405, 66.989407], [-107.313059, 67.015041], [-107.403391, 67.041164], [-107.361155, 67.06684], [-107.246449, 67.084215], [-107.251576, 67.097602], [-107.203196, 67.124905], [-107.223744, 67.131659], [-107.285756, 67.124905], [-107.336334, 67.142401], [-107.390004, 67.14883], [-107.423492, 67.157945], [-107.527008, 67.212348], [-107.545562, 67.230129], [-107.559071, 67.26789], [-107.588857, 67.310492], [-107.656728, 67.372463], [-107.71642, 67.404608], [-107.72232, 67.420966], [-107.697255, 67.4265], [-107.651438, 67.400336], [-107.635162, 67.406073], [-107.628326, 67.450426], [-107.583648, 67.478013], [-107.577707, 67.490424], [-107.585846, 67.501166], [-107.668691, 67.52912], [-107.707753, 67.570624], [-107.745595, 67.592597], [-107.811269, 67.620307], [-107.865875, 67.630927], [-107.989613, 67.693345], [-108.005727, 67.709662], [-108.018788, 67.735053], [-108.012603, 67.759101], [-107.94164, 67.854315], [-107.86734, 67.862454], [-107.699778, 67.902899], [-107.666493, 67.930569], [-107.659332, 67.946723], [-107.750803, 67.965481], [-107.803944, 67.955024], [-107.834381, 67.981513], [-107.909535, 67.995103], [-107.918609, 68.00552], [-107.901763, 68.013658], [-107.895863, 68.026435], [-107.889882, 68.073554], [-107.879506, 68.093004], [-107.846303, 68.107123], [-107.813954, 68.091295], [-107.750111, 68.091864], [-107.697255, 68.077623], [-107.718902, 68.061184], [-107.813954, 68.057196], [-107.802113, 68.044867], [-107.738189, 68.042914], [-107.818227, 68.024604], [-107.834381, 68.009426], [-107.774078, 67.988593], [-107.751861, 67.995103], [-107.738189, 68.016181], [-107.681752, 68.048733], [-107.582997, 68.066555], [-107.506744, 68.062323], [-107.4287, 68.04267], [-107.37267, 68.047431], [-107.272084, 68.077623], [-107.191558, 68.117865], [-107.146637, 68.131822], [-107.107574, 68.126044], [-107.134877, 68.091295], [-107.025624, 68.104967], [-106.952545, 68.100084], [-106.970448, 68.111802], [-106.926096, 68.126451], [-106.758168, 68.104967], [-106.745758, 68.139553], [-106.762807, 68.168158], [-106.813385, 68.207994], [-106.788808, 68.224026], [-106.682444, 68.228461], [-106.699818, 68.19831], [-106.644887, 68.173285], [-106.627187, 68.185207], [-106.639394, 68.237616], [-106.6315, 68.249579], [-106.599517, 68.246324], [-106.49649, 68.202582], [-106.443471, 68.152777], [-106.401845, 68.180732], [-106.346588, 68.186916], [-106.48412, 68.228664], [-106.494374, 68.245836], [-106.448842, 68.271308], [-106.426015, 68.304267], [-106.432281, 68.315579], [-106.470774, 68.331529], [-106.445668, 68.351264], [-106.354075, 68.351386], [-106.251088, 68.393012], [-106.182118, 68.393012], [-106.14859, 68.365058], [-106.122426, 68.366034], [-106.052398, 68.399807], [-105.991038, 68.39643], [-105.97053, 68.42772], [-105.874094, 68.410468], [-105.843251, 68.424018], [-105.829945, 68.450995], [-105.81843, 68.455146], [-105.798573, 68.42772], [-105.747629, 68.420966], [-105.727122, 68.426581], [-105.730295, 68.440823], [-105.697581, 68.488837], [-105.718129, 68.513414], [-105.757639, 68.523342], [-105.778676, 68.550686], [-105.706044, 68.594672], [-105.692738, 68.622626], [-105.648346, 68.638739], [-105.727691, 68.638251], [-105.791005, 68.611965], [-105.81664, 68.61286], [-105.87914, 68.63935], [-105.941233, 68.640082], [-106.052398, 68.619534], [-106.0572, 68.601508], [-106.087026, 68.592515], [-106.522043, 68.526679], [-106.553334, 68.515855], [-106.422353, 68.515855], [-106.538889, 68.507799], [-106.55956, 68.488593], [-106.530914, 68.484931], [-106.51183, 68.472886], [-106.509755, 68.458564], [-106.532216, 68.447577], [-106.549143, 68.448554], [-106.569732, 68.468695], [-106.635243, 68.468695], [-106.627309, 68.452379], [-106.592641, 68.427436], [-106.487945, 68.407416], [-106.487538, 68.389228], [-106.556223, 68.358791], [-106.566314, 68.341132], [-106.528066, 68.301093], [-106.552724, 68.29678], [-106.592885, 68.300727], [-106.651723, 68.351386], [-106.716868, 68.351386], [-106.724029, 68.382473], [-106.786733, 68.414944], [-106.806223, 68.410834], [-106.811106, 68.398424], [-106.792307, 68.385565], [-106.809967, 68.370795], [-106.914418, 68.385728], [-106.956776, 68.372504], [-107.025624, 68.365058], [-107.022288, 68.348456], [-107.121653, 68.308173], [-107.140777, 68.272121], [-107.155141, 68.270087], [-107.189524, 68.276923], [-107.273915, 68.268744], [-107.300771, 68.307278], [-107.335561, 68.318793], [-107.508901, 68.323554], [-107.546539, 68.351752], [-107.692494, 68.342515], [-107.745025, 68.331529], [-107.826975, 68.34455], [-107.847279, 68.333238], [-107.889027, 68.269477], [-107.842193, 68.24494], [-107.765533, 68.235907], [-107.729563, 68.207221], [-107.603098, 68.175035], [-107.614654, 68.16706], [-107.731435, 68.180732], [-107.84435, 68.180732], [-107.864735, 68.177151], [-107.895863, 68.152777], [-107.924672, 68.148017], [-108.009633, 68.154608], [-107.989247, 68.172268], [-108.149078, 68.173285], [-108.18456, 68.169623], [-108.243276, 68.145494], [-108.389231, 68.111029], [-108.436269, 68.136786], [-108.43399, 68.156155], [-108.418121, 68.164781], [-108.377553, 68.166327], [-108.361399, 68.159613], [-108.382476, 68.139716], [-108.354237, 68.140448], [-108.337636, 68.155097], [-108.32787, 68.204576], [-108.340443, 68.2237], [-108.361969, 68.235907], [-108.380523, 68.231635], [-108.409779, 68.180732], [-108.45759, 68.186916], [-108.450307, 68.211127], [-108.40217, 68.268948], [-108.39977, 68.287299], [-108.416615, 68.304185], [-108.452707, 68.312649], [-108.56017, 68.278795], [-108.584096, 68.260077], [-108.697499, 68.255805], [-108.732167, 68.234931], [-108.79601, 68.25495], [-108.815053, 68.274237], [-108.779693, 68.283149], [-108.744049, 68.306342], [-108.755605, 68.327541], [-108.749013, 68.34455], [-108.594594, 68.399156], [-108.406117, 68.560858], [-108.347157, 68.600084], [-108.280832, 68.621568], [-107.806386, 68.65351], [-107.753082, 68.645982], [-107.628326, 68.67414], [-107.483225, 68.685126], [-107.425689, 68.700141], [-107.292592, 68.701402], [-107.152903, 68.749701], [-107.075063, 68.757392], [-106.910797, 68.80036], [-106.799428, 68.817532], [-106.703236, 68.811265], [-106.665679, 68.81623], [-106.566314, 68.852281], [-106.451039, 68.865139], [-106.380483, 68.886298], [-106.305816, 68.89643], [-106.272125, 68.906928], [-106.244211, 68.940375], [-106.22175, 68.94599], [-105.997792, 68.899482], [-105.796498, 68.882717], [-105.678456, 68.832221], [-105.469594, 68.721991], [-105.485463, 68.691474], [-105.537953, 68.67536], [-105.545318, 68.666693], [-105.539174, 68.650051], [-105.466624, 68.597561], [-105.409169, 68.530585], [-105.387441, 68.52025], [-105.326243, 68.515855], [-105.324127, 68.482489], [-105.340199, 68.469713], [-105.402211, 68.493638], [-105.437327, 68.490424], [-105.47704, 68.468695], [-105.535959, 68.449897], [-105.551503, 68.42772], [-105.543935, 68.413886], [-105.366933, 68.420559], [-105.333079, 68.413479], [-105.353505, 68.379299], [-105.323069, 68.354438], [-105.095123, 68.269517], [-105.039215, 68.259101], [-104.996653, 68.276923], [-105.086008, 68.31037], [-105.033437, 68.309149], [-104.996816, 68.325019], [-104.953196, 68.30744], [-104.903391, 68.331448], [-104.894195, 68.351386], [-104.848866, 68.327094], [-104.839589, 68.31037], [-104.842193, 68.291897], [-104.856516, 68.280829], [-104.944976, 68.260565], [-104.951894, 68.251776], [-104.93517, 68.235907], [-104.909169, 68.226711], [-104.884633, 68.229478], [-104.820058, 68.265123], [-104.785064, 68.249091], [-104.634145, 68.249579], [-104.601959, 68.235338], [-104.617258, 68.20246], [-104.675689, 68.139716], [-104.617258, 68.139594], [-104.603668, 68.12873], [-104.591624, 68.083319], [-104.506663, 68.070746], [-104.499867, 68.060736], [-104.51061, 68.042914], [-104.483876, 68.033922], [-104.363271, 68.036689], [-104.317006, 68.057074], [-104.229482, 68.029853], [-104.147613, 68.024237], [-103.990305, 68.048651], [-103.87857, 68.023342], [-103.792592, 68.026272], [-103.7565, 68.036689], [-103.70873, 68.070868], [-103.6162, 68.057196], [-103.557932, 68.063422], [-103.541615, 68.075019], [-103.547678, 68.113227], [-103.528432, 68.133002], [-103.442535, 68.167385], [-103.414866, 68.169379], [-103.371246, 68.148586], [-103.338775, 68.111802], [-103.37975, 68.077623], [-103.363515, 68.011461], [-103.317779, 68.007717], [-103.242014, 67.969957], [-103.15453, 67.967597], [-103.082997, 67.927476], [-103.016672, 67.919989], [-102.948354, 67.926825], [-102.909169, 67.885077], [-102.83849, 67.844916], [-102.762563, 67.815131], [-102.45108, 67.782294], [-102.34081, 67.750922], [-102.305898, 67.723253], [-102.253814, 67.730414], [-102.242055, 67.725084], [-102.231801, 67.695054], [-102.218902, 67.69184], [-102.201039, 67.700263], [-102.227447, 67.724799], [-102.228383, 67.735053], [-102.218495, 67.742011], [-102.167551, 67.755479], [-102.130727, 67.775092], [-102.082997, 67.750067], [-102.025706, 67.750474], [-101.988759, 67.769232], [-101.993723, 67.783149], [-101.98058, 67.791571], [-101.939076, 67.785753], [-101.89977, 67.749132], [-101.837961, 67.741889], [-101.826487, 67.717271], [-101.797963, 67.708116], [-101.78425, 67.711249], [-101.770334, 67.728217], [-101.741811, 67.727647], [-101.673451, 67.694037], [-101.621938, 67.700629], [-101.529449, 67.680406], [-101.47175, 67.697211], [-101.456614, 67.689683], [-101.415924, 67.690253], [-101.39977, 67.694037], [-101.410471, 67.705024], [-101.445912, 67.713324], [-101.454416, 67.721991], [-101.447662, 67.734361], [-101.409657, 67.731676], [-101.382069, 67.718451], [-101.34081, 67.728217], [-101.262563, 67.721991], [-101.241811, 67.736884], [-101.252431, 67.769721], [-101.234975, 67.775987], [-101.173818, 67.755479], [-101.094838, 67.786607], [-101.097646, 67.749091], [-100.956858, 67.749213], [-100.919342, 67.755479], [-100.892201, 67.770575], [-100.92219, 67.803168], [-100.923085, 67.820746], [-100.907297, 67.828559], [-100.849599, 67.79682], [-100.831288, 67.795966], [-100.769114, 67.826483], [-100.753774, 67.82746], [-100.734975, 67.816962], [-100.707387, 67.851142], [-100.645619, 67.831244], [-100.592763, 67.847032], [-100.584137, 67.834662], [-100.595448, 67.808092], [-100.590403, 67.796454], [-100.458892, 67.842515], [-100.412831, 67.851142], [-100.166412, 67.844916], [-100.080474, 67.816962], [-100.028676, 67.824408], [-100.0, 67.81767551328248], [-100.0, 50.0], [-120.0, 50.0], [-120.0, 69.3477935763473], [-119.997629, 69.347357]]], [[[-107.864369, 66.970201], [-107.839101, 67.000678], [-107.811513, 67.015204], [-107.793446, 66.994574], [-107.830678, 66.902655], [-107.88858, 66.867092], [-107.92398, 66.854682], [-107.95051, 66.857978], [-107.901967, 66.89232], [-107.883046, 66.914008], [-107.864369, 66.970201]]], [[[-107.993642, 66.956], [-107.966868, 66.949286], [-107.936838, 66.953559], [-107.979115, 66.927314], [-107.999379, 66.925035], [-107.998891, 66.912584], [-108.036773, 66.90233], [-108.04898, 66.910102], [-108.053538, 66.929999], [-108.098215, 66.974066], [-108.098053, 67.00141], [-108.11498, 67.036811], [-108.046702, 66.981513], [-107.993642, 66.956]]], [[[-107.320465, 67.104438], [-107.34553, 67.088813], [-107.383616, 67.083726], [-107.517486, 67.081977], [-107.543568, 67.088446], [-107.566884, 67.104438], [-107.614654, 67.165839], [-107.626129, 67.188381], [-107.624176, 67.204535], [-107.608754, 67.210028], [-107.579945, 67.200629], [-107.416656, 67.11872], [-107.320465, 67.104438]]], [[[-108.08495, 67.383002], [-108.127594, 67.396715], [-108.149078, 67.412909], [-108.128407, 67.421698], [-108.039866, 67.392401], [-108.043365, 67.40058], [-108.032379, 67.412909], [-108.080881, 67.4265], [-108.051991, 67.446479], [-107.973866, 67.457831], [-107.95051, 67.475002], [-107.971588, 67.481147], [-107.919667, 67.487698], [-107.901682, 67.485907], [-107.881581, 67.467475], [-107.889027, 67.406073], [-107.936838, 67.357652], [-107.907541, 67.331448], [-107.907338, 67.31684], [-107.929677, 67.310492], [-107.952992, 67.316107], [-108.013173, 67.357652], [-108.005727, 67.371975], [-108.08495, 67.383002]]], [[[-108.302642, 67.526597], [-108.299916, 67.494818], [-108.382476, 67.467475], [-108.419586, 67.471869], [-108.452707, 67.488837], [-108.499176, 67.535793], [-108.480946, 67.536689], [-108.471262, 67.549506], [-108.49234, 67.563707], [-108.458241, 67.573676], [-108.361399, 67.549506], [-108.330149, 67.564154], [-108.314198, 67.563707], [-108.293324, 67.555487], [-108.286936, 67.535793], [-108.302642, 67.526597]]], [[[-108.111969, 67.675971], [-108.003814, 67.660549], [-107.985219, 67.645697], [-107.962717, 67.597805], [-107.922515, 67.549506], [-107.93456, 67.537014], [-107.953196, 67.535102], [-107.970286, 67.541327], [-107.977773, 67.553168], [-108.070302, 67.539496], [-108.071116, 67.531562], [-108.043284, 67.519355], [-108.034901, 67.504381], [-108.061838, 67.481024], [-108.105784, 67.468207], [-108.118764, 67.501899], [-108.142242, 67.529608], [-108.137563, 67.550523], [-108.073394, 67.563707], [-108.118642, 67.582953], [-108.133209, 67.612209], [-108.128651, 67.645697], [-108.111969, 67.675971]]], [[[-109.120676, 67.809638], [-109.070709, 67.810981], [-109.039784, 67.7897], [-109.136057, 67.768134], [-109.179514, 67.76911], [-109.211741, 67.7897], [-109.120676, 67.809638]]], [[[-114.086293, 67.882392], [-113.974517, 67.891791], [-113.926503, 67.879096], [-113.99059, 67.878974], [-114.008412, 67.872219], [-114.237782, 67.879096], [-114.296457, 67.892727], [-114.296457, 67.899563], [-114.216298, 67.906195], [-114.086293, 67.882392]]], [[[-113.284332, 67.938544], [-113.248036, 67.919989], [-113.295277, 67.906317], [-113.528432, 67.89525], [-113.603749, 67.906317], [-113.558583, 67.916083], [-113.421539, 67.906968], [-113.398915, 67.913764], [-113.446034, 67.919989], [-113.446034, 67.926825], [-113.284332, 67.938544]]], [[[-111.06725, 67.878892], [-110.945912, 67.913764], [-110.844472, 67.955552], [-110.808176, 67.961005], [-110.859364, 67.902899], [-110.878651, 67.892524], [-110.952138, 67.885891], [-111.075307, 67.855292], [-111.089345, 67.865424], [-111.06725, 67.878892]]], [[[-108.055572, 67.924302], [-108.069325, 67.900377], [-108.092193, 67.884711], [-108.229237, 67.881741], [-108.247874, 67.882961], [-108.258941, 67.892727], [-108.240224, 67.89761], [-108.235097, 67.930569], [-108.222239, 67.941881], [-108.177073, 67.961005], [-108.1044, 67.978502], [-108.067616, 67.976508], [-108.053538, 67.954779], [-108.055572, 67.924302]]], [[[-108.881988, 67.917711], [-108.873402, 67.900702], [-108.88329, 67.881415], [-108.910064, 67.872219], [-108.94107, 67.875881], [-109.139231, 67.932847], [-109.184682, 67.957343], [-109.19811, 67.995103], [-109.163197, 67.980536], [-109.047231, 67.954779], [-109.074574, 67.975287], [-109.012807, 67.968411], [-108.982411, 67.981391], [-108.935129, 67.970649], [-108.885854, 67.954779], [-108.910715, 67.919989], [-108.881988, 67.917711]]], [[[-109.316803, 68.029934], [-109.308217, 68.008368], [-109.317535, 67.985175], [-109.342397, 67.981187], [-109.383453, 67.989407], [-109.547515, 68.057196], [-109.485178, 68.043647], [-109.471791, 68.05036], [-109.482411, 68.072821], [-109.506581, 68.08511], [-109.483876, 68.099311], [-109.425038, 68.089911], [-109.403554, 68.063178], [-109.355702, 68.057196], [-109.316803, 68.029934]]], [[[-109.920644, 68.139838], [-109.875844, 68.13227], [-109.91393, 68.088324], [-110.01065, 68.077582], [-110.077748, 68.058783], [-110.157623, 68.057196], [-110.232411, 68.03856], [-110.259429, 68.042914], [-110.164784, 68.082017], [-110.061431, 68.098131], [-109.920644, 68.139838]]], [[[-109.78482, 68.180894], [-109.643178, 68.242621], [-109.567983, 68.249579], [-109.595855, 68.218329], [-109.663564, 68.21426], [-109.680409, 68.183824], [-109.781972, 68.142646], [-109.829335, 68.138129], [-109.856028, 68.159613], [-109.78482, 68.180894]]], [[[-111.528676, 68.314032], [-111.500234, 68.304185], [-111.616933, 68.283149], [-111.644846, 68.235907], [-111.676991, 68.225328], [-111.726064, 68.221503], [-111.768707, 68.229926], [-111.781361, 68.255805], [-111.770619, 68.267401], [-111.71935, 68.283149], [-111.720082, 68.301703], [-111.528676, 68.314032]]], [[[-100.077748, 68.362616], [-100.090688, 68.337714], [-100.090688, 68.290595], [-100.120961, 68.278632], [-100.163157, 68.288235], [-100.234039, 68.324042], [-100.155507, 68.337592], [-100.120758, 68.354885], [-100.118642, 68.379299], [-100.077748, 68.362616]]], [[[-110.755727, 68.535834], [-110.718739, 68.515041], [-110.698883, 68.488593], [-110.902415, 68.469875], [-111.095204, 68.480048], [-111.034047, 68.50967], [-110.836049, 68.550686], [-110.755727, 68.535834]]], [[[-110.520741, 68.550686], [-110.55248, 68.528713], [-110.614329, 68.52261], [-110.726186, 68.537014], [-110.760487, 68.56623], [-110.657297, 68.569159], [-110.629994, 68.578559], [-110.622548, 68.571112], [-110.644276, 68.550686], [-110.520741, 68.550686]]], [[[-104.452301, 68.491929], [-104.429433, 68.444973], [-104.46581, 68.416897], [-104.52892, 68.403306], [-104.655181, 68.398017], [-104.901357, 68.457831], [-105.004058, 68.50967], [-105.062164, 68.549506], [-105.086008, 68.550686], [-104.990875, 68.578559], [-104.888905, 68.587348], [-104.681304, 68.578559], [-104.575673, 68.554389], [-104.452301, 68.491929]]], [[[-113.941884, 68.620307], [-113.835276, 68.614447], [-113.762034, 68.597805], [-113.795766, 68.581732], [-113.967437, 68.597805], [-113.960032, 68.605211], [-113.967437, 68.612128], [-113.941884, 68.620307]]], [[[-114.071767, 68.644599], [-114.04776, 68.627183], [-114.070465, 68.619534], [-114.106842, 68.628363], [-114.192738, 68.680976], [-114.166575, 68.686184], [-114.071767, 68.644599]]], [[[-101.701405, 68.721991], [-101.679677, 68.67414], [-101.694, 68.653876], [-101.715077, 68.638739], [-101.824941, 68.653022], [-101.799794, 68.636054], [-101.79898, 68.627387], [-101.829172, 68.578355], [-101.844797, 68.571112], [-101.995961, 68.616767], [-102.064198, 68.612128], [-102.132802, 68.638739], [-102.210032, 68.642157], [-102.351918, 68.687201], [-102.261057, 68.69892], [-102.159779, 68.740627], [-102.064605, 68.764309], [-102.054107, 68.77912], [-102.057688, 68.797065], [-102.024648, 68.823798], [-101.979563, 68.825995], [-101.777984, 68.78856], [-101.707753, 68.787828], [-101.693959, 68.770331], [-101.701405, 68.721991]]], [[[-114.438385, 68.900377], [-114.353993, 68.894355], [-114.330474, 68.886176], [-114.350982, 68.872748], [-114.382192, 68.869208], [-114.473948, 68.893256], [-114.438385, 68.900377]]], [[[-100.219553, 68.793931], [-100.221059, 68.770331], [-100.310414, 68.770331], [-100.363515, 68.722073], [-100.392405, 68.715074], [-100.445424, 68.730536], [-100.494781, 68.762885], [-100.447011, 68.776557], [-100.471181, 68.79975], [-100.545033, 68.786078], [-100.579457, 68.752916], [-100.603342, 68.755561], [-100.622426, 68.772366], [-100.631337, 68.797065], [-100.63036, 68.874701], [-100.62206, 68.919623], [-100.590403, 68.927395], [-100.579742, 68.947984], [-100.589101, 68.965277], [-100.631337, 68.995673], [-100.578928, 69.011868], [-100.560658, 69.037787], [-100.537668, 69.041978], [-100.404124, 69.029731], [-100.323476, 69.003119], [-100.328521, 68.979641], [-100.309153, 68.965888], [-100.228627, 68.9289], [-100.154205, 68.923407], [-100.124867, 68.906928], [-100.180084, 68.893256], [-100.165598, 68.877265], [-100.171213, 68.864814], [-100.206776, 68.852281], [-100.180084, 68.817532], [-100.177561, 68.803371], [-100.206776, 68.8039], [-100.219553, 68.793931]]], [[[-100.0, 69.0431509537945], [-100.0, 68.96518733793012], [-100.000966, 68.960639], [-100.02184, 68.940375], [-100.165842, 68.968329], [-100.197621, 68.98192], [-100.248647, 69.022284], [-100.255198, 69.050279], [-100.238271, 69.08454], [-100.206776, 69.105536], [-100.172515, 69.114976], [-100.138539, 69.147121], [-100.12267, 69.129218], [-100.051015, 69.106879], [-100.034739, 69.096177], [-100.042307, 69.085028], [-100.0, 69.0431509537945]]], [[[-101.504547, 69.175727], [-101.506093, 69.154771], [-101.550608, 69.112982], [-101.663564, 69.08808], [-101.68224, 69.086737], [-101.701405, 69.0987], [-101.68102, 69.116889], [-101.618479, 69.132514], [-101.605214, 69.150539], [-101.619456, 69.164293], [-101.69164, 69.167141], [-101.721913, 69.180609], [-101.689076, 69.211168], [-101.627756, 69.223538], [-101.563791, 69.21955], [-101.523264, 69.201117], [-101.529449, 69.188056], [-101.504547, 69.175727]]], [[[-100.95934, 69.47248], [-100.990956, 69.449937], [-101.061187, 69.45954], [-101.092763, 69.43891], [-101.10261, 69.416083], [-101.098053, 69.407782], [-101.159535, 69.393541], [-101.198801, 69.405504], [-101.207916, 69.393541], [-101.20637, 69.380072], [-101.242502, 69.374335], [-101.28307, 69.386054], [-101.247182, 69.39411], [-101.238108, 69.404364], [-101.242055, 69.420844], [-101.257192, 69.432603], [-101.291615, 69.435981], [-101.303538, 69.448147], [-101.235178, 69.443793], [-101.186838, 69.482245], [-101.247955, 69.502346], [-101.269399, 69.502753], [-101.262563, 69.489691], [-101.280181, 69.489203], [-101.381459, 69.538153], [-101.353749, 69.57331], [-101.310862, 69.583441], [-101.260243, 69.580715], [-101.255116, 69.564195], [-101.237375, 69.548285], [-101.173207, 69.571682], [-101.180653, 69.564195], [-101.170562, 69.552151], [-101.078359, 69.53734], [-101.063547, 69.530992], [-101.077626, 69.523261], [-101.071278, 69.511908], [-100.95934, 69.47248]]], [[[-102.118967, 69.670966], [-102.159332, 69.654242], [-102.210561, 69.660305], [-102.235829, 69.684638], [-102.235829, 69.718085], [-102.226186, 69.72606], [-102.156484, 69.734931], [-102.137563, 69.73192], [-102.125966, 69.715033], [-102.118967, 69.670966]]], [[[-100.878285, 69.782945], [-100.894643, 69.761135], [-100.918568, 69.746405], [-100.947255, 69.742987], [-100.947255, 69.736151], [-100.919993, 69.719713], [-100.92512, 69.699693], [-100.964345, 69.664455], [-101.049672, 69.667873], [-101.092112, 69.661038], [-101.152984, 69.692206], [-101.166982, 69.681545], [-101.255116, 69.667873], [-101.294789, 69.670478], [-101.356516, 69.696194], [-101.378651, 69.72248], [-101.378407, 69.732001], [-101.430165, 69.766832], [-101.471547, 69.832261], [-101.426422, 69.879543], [-101.425689, 69.901068], [-101.438547, 69.909247], [-101.457387, 69.906155], [-101.552887, 69.797105], [-101.569447, 69.745673], [-101.638051, 69.695543], [-101.673451, 69.646715], [-101.706776, 69.69123], [-101.850657, 69.747138], [-101.865224, 69.749823], [-101.919789, 69.731635], [-101.937245, 69.739569], [-102.022084, 69.803941], [-102.029693, 69.847235], [-102.046702, 69.855292], [-102.124176, 69.832099], [-102.16454, 69.836086], [-102.178578, 69.854885], [-102.167226, 69.883205], [-102.179433, 69.90176], [-102.224965, 69.920478], [-102.253, 69.912502], [-102.254303, 69.8935], [-102.235829, 69.852851], [-102.296213, 69.853176], [-102.324371, 69.847398], [-102.345693, 69.832343], [-102.297231, 69.797593], [-102.335927, 69.767035], [-102.374013, 69.76435], [-102.366119, 69.790758], [-102.395375, 69.817613], [-102.403717, 69.783759], [-102.411692, 69.77912], [-102.482289, 69.790229], [-102.525258, 69.760321], [-102.582265, 69.743476], [-102.672597, 69.769436], [-102.681508, 69.756008], [-102.578359, 69.697943], [-102.487172, 69.69066], [-102.507558, 69.635484], [-102.495229, 69.599555], [-102.516998, 69.585354], [-102.509592, 69.564195], [-102.570221, 69.548733], [-102.634877, 69.544338], [-102.714996, 69.551174], [-102.783844, 69.536851], [-103.010813, 69.581244], [-103.023508, 69.592108], [-103.08788, 69.596015], [-103.157379, 69.616889], [-103.297597, 69.694525], [-103.347524, 69.680813], [-103.37975, 69.681545], [-103.420725, 69.708808], [-103.489613, 69.694525], [-103.478871, 69.676581], [-103.510081, 69.619452], [-103.447662, 69.613186], [-103.328196, 69.573554], [-103.220774, 69.555487], [-103.188385, 69.533026], [-103.125559, 69.439887], [-103.112864, 69.441636], [-103.095448, 69.458075], [-103.0985, 69.515082], [-103.085194, 69.523261], [-103.041127, 69.515326], [-103.016672, 69.482245], [-103.010406, 69.448147], [-102.989329, 69.420844], [-103.037099, 69.366197], [-103.019276, 69.343736], [-103.016347, 69.326239], [-103.023508, 69.28026], [-103.038319, 69.257392], [-103.072743, 69.240424], [-103.208404, 69.201117], [-103.213979, 69.192532], [-103.208404, 69.170722], [-103.219228, 69.140204], [-103.198069, 69.120307], [-103.168568, 69.11758], [-103.153798, 69.126654], [-103.133372, 69.166938], [-103.046213, 69.20246], [-102.948354, 69.297919], [-102.882883, 69.328315], [-102.877553, 69.361762], [-102.84789, 69.373277], [-102.842926, 69.384711], [-102.70519, 69.390123], [-102.629628, 69.413153], [-102.547353, 69.41352], [-102.516998, 69.42829], [-102.483713, 69.471137], [-102.464223, 69.480658], [-102.384429, 69.483059], [-102.282582, 69.503648], [-102.217926, 69.490302], [-102.054799, 69.484442], [-101.939076, 69.42064], [-101.946645, 69.405911], [-102.038726, 69.357408], [-102.119456, 69.366523], [-102.173166, 69.352525], [-102.167551, 69.34512], [-102.173166, 69.34512], [-102.173166, 69.318427], [-102.11026, 69.332953], [-102.094879, 69.314683], [-102.037831, 69.288031], [-102.053944, 69.266547], [-102.09081, 69.239976], [-102.15567, 69.276068], [-102.210561, 69.279283], [-102.235829, 69.263129], [-102.216542, 69.249945], [-102.221547, 69.229071], [-102.157948, 69.212592], [-102.139556, 69.194892], [-102.089833, 69.18244], [-102.067209, 69.189154], [-102.046986, 69.229438], [-102.022328, 69.242621], [-101.92748, 69.261542], [-101.853993, 69.219468], [-101.771555, 69.193793], [-101.756012, 69.160142], [-101.768381, 69.122952], [-101.865875, 69.044094], [-101.818227, 69.01911], [-101.811269, 69.006252], [-101.846791, 68.988349], [-101.964508, 68.969631], [-101.990305, 68.973375], [-102.057362, 69.003119], [-102.077301, 68.999701], [-102.149159, 68.956244], [-102.167348, 68.95303], [-102.214101, 68.954739], [-102.310902, 68.940375], [-102.382436, 68.957831], [-102.407135, 68.954739], [-102.386057, 68.927395], [-102.39566, 68.916938], [-102.489084, 68.872748], [-102.523061, 68.865546], [-102.634877, 68.865912], [-102.697499, 68.891547], [-102.749135, 68.899482], [-102.764312, 68.892076], [-102.751698, 68.875718], [-102.701975, 68.852281], [-102.714019, 68.839748], [-102.829172, 68.83039], [-102.917063, 68.804267], [-102.965891, 68.798651], [-103.014638, 68.801744], [-103.163564, 68.842963], [-103.33137, 68.831204], [-103.361195, 68.813463], [-103.364858, 68.801337], [-103.353098, 68.790229], [-103.415435, 68.783271], [-103.568105, 68.831204], [-103.619293, 68.817532], [-103.718739, 68.826483], [-103.781972, 68.840888], [-103.864898, 68.842841], [-103.961985, 68.865912], [-104.099721, 68.858466], [-104.223256, 68.893256], [-104.264231, 68.947903], [-104.305247, 68.940375], [-104.270416, 68.906928], [-104.446848, 68.941555], [-104.459096, 68.937323], [-104.473134, 68.910346], [-104.529612, 68.874986], [-104.593617, 68.864488], [-105.123036, 68.89643], [-105.155507, 68.903632], [-105.225168, 68.94184], [-105.277821, 68.954739], [-105.221995, 68.963039], [-105.178822, 68.992255], [-105.146596, 69.001939], [-105.064849, 68.987454], [-105.031361, 69.003119], [-105.051869, 69.016791], [-104.964833, 69.03026], [-104.917063, 69.047919], [-104.918446, 69.075141], [-104.972524, 69.093411], [-105.080719, 69.106187], [-105.101308, 69.105211], [-105.127024, 69.091864], [-105.077301, 69.087063], [-105.038889, 69.064602], [-105.213938, 69.080512], [-105.257151, 69.094224], [-105.457875, 69.101142], [-105.503896, 69.135159], [-105.548451, 69.153957], [-105.885854, 69.176459], [-105.98412, 69.147121], [-106.072906, 69.160142], [-106.203969, 69.149888], [-106.329498, 69.178453], [-106.412099, 69.188056], [-106.415191, 69.205715], [-106.401926, 69.237006], [-106.294545, 69.271715], [-106.274241, 69.288072], [-106.282094, 69.314683], [-106.309478, 69.331], [-106.317535, 69.401313], [-106.350942, 69.422512], [-106.4405, 69.44123], [-106.511708, 69.489691], [-106.583892, 69.503607], [-106.620513, 69.497219], [-106.714508, 69.447699], [-106.741078, 69.444729], [-106.751332, 69.379869], [-106.96345, 69.362738], [-106.990875, 69.34512], [-106.992747, 69.327216], [-106.959055, 69.29682], [-106.947133, 69.263739], [-106.926381, 69.238959], [-106.925933, 69.227444], [-106.937367, 69.215644], [-106.964223, 69.201117], [-107.026112, 69.197943], [-107.039296, 69.188056], [-107.027333, 69.152289], [-107.108225, 69.163723], [-107.168691, 69.136868], [-107.272084, 69.057766], [-107.334828, 69.02558], [-107.474965, 68.992906], [-107.881581, 68.954779], [-107.941233, 68.941107], [-108.231679, 68.932807], [-108.327219, 68.952094], [-108.539459, 68.946967], [-108.567454, 68.934231], [-108.533315, 68.906928], [-108.564809, 68.875963], [-108.802805, 68.79385], [-108.866078, 68.784003], [-108.95165, 68.742418], [-109.028554, 68.726752], [-109.347401, 68.698065], [-109.624623, 68.641669], [-109.783681, 68.632554], [-109.903798, 68.638739], [-109.986399, 68.62519], [-110.158355, 68.632758], [-110.228668, 68.627875], [-110.347035, 68.580227], [-110.376088, 68.576361], [-110.444569, 68.611314], [-110.569447, 68.619086], [-110.605133, 68.616929], [-110.657948, 68.589545], [-110.760365, 68.584784], [-110.980092, 68.548407], [-111.041575, 68.564276], [-111.003896, 68.578274], [-110.845204, 68.59516], [-110.867502, 68.609931], [-110.890696, 68.612128], [-111.019602, 68.602932], [-111.109364, 68.580715], [-111.362416, 68.587388], [-111.418284, 68.578559], [-111.371002, 68.562323], [-111.205393, 68.550686], [-111.251047, 68.51968], [-111.348948, 68.520575], [-111.531239, 68.543769], [-112.247182, 68.515855], [-112.296702, 68.525539], [-112.39151, 68.502875], [-112.602406, 68.507758], [-112.658437, 68.474921], [-112.749013, 68.46308], [-112.89802, 68.474921], [-113.244008, 68.454413], [-113.28303, 68.460598], [-113.30309, 68.474921], [-113.298085, 68.491034], [-113.261708, 68.502875], [-113.211741, 68.504462], [-113.062815, 68.488593], [-113.039133, 68.49494], [-113.051625, 68.509589], [-113.103424, 68.537014], [-113.224233, 68.561916], [-113.281728, 68.581692], [-113.350494, 68.591539], [-113.443918, 68.646552], [-113.454823, 68.668931], [-113.439849, 68.687201], [-113.452016, 68.701606], [-113.550771, 68.743842], [-113.597279, 68.777655], [-113.655507, 68.800482], [-113.668121, 68.815375], [-113.671498, 68.827541], [-113.661733, 68.835679], [-113.619211, 68.845404], [-113.669179, 68.882392], [-113.678375, 68.898424], [-113.672109, 68.909898], [-113.571889, 68.965155], [-113.583974, 68.976874], [-113.570221, 69.029771], [-113.637847, 69.029771], [-113.624908, 69.042873], [-113.549713, 69.044094], [-113.569244, 69.057034], [-113.637318, 69.076361], [-113.65217, 69.088446], [-113.672597, 69.132799], [-113.637847, 69.139635], [-113.700551, 69.16352], [-113.687367, 69.182685], [-113.693105, 69.194892], [-113.508778, 69.174465], [-113.541127, 69.190741], [-113.583974, 69.201239], [-113.885081, 69.231147], [-113.919667, 69.252916], [-113.944488, 69.258938], [-114.022694, 69.249498], [-114.132151, 69.250637], [-114.254791, 69.283677], [-114.397288, 69.288153], [-114.855702, 69.252875], [-114.939931, 69.281968], [-115.006459, 69.284613], [-115.029408, 69.281887], [-115.077626, 69.254136], [-115.112538, 69.245185], [-115.188954, 69.242662], [-115.974843, 69.300198], [-116.029693, 69.330878], [-116.053578, 69.336005], [-116.145741, 69.341051], [-116.43163, 69.403713], [-116.527699, 69.413886], [-116.63268, 69.461819], [-116.621449, 69.476955], [-116.557607, 69.495917], [-116.603586, 69.522284], [-116.612213, 69.536851], [-116.586415, 69.544176], [-116.583079, 69.554023], [-116.596099, 69.563951], [-116.619618, 69.571682], [-116.763051, 69.577867], [-116.708404, 69.551174], [-116.7329, 69.543769], [-116.811431, 69.574774], [-116.905629, 69.592597], [-116.928131, 69.60578], [-116.848134, 69.632799], [-116.859242, 69.654202], [-116.966705, 69.685452], [-117.097401, 69.704291], [-117.143625, 69.731879], [-117.235992, 69.756008], [-117.265126, 69.782538], [-117.283681, 69.829413], [-117.367258, 69.916938], [-117.381215, 69.951239], [-117.442047, 69.989407], [-117.43101518707124, 70.0], [-100.94106760260726, 70.0], [-100.926747, 69.975735], [-100.933461, 69.962388], [-100.956044, 69.949612], [-100.958852, 69.924872], [-100.952626, 69.91767], [-100.910146, 69.911607], [-100.885854, 69.886949], [-100.889638, 69.870998], [-100.872182, 69.807807], [-100.878285, 69.782945]]], [[[-112.816507, 67.969157], [-112.761341, 67.964081], [-112.868274, 67.946508], [-112.89432, 67.929161], [-112.939342, 67.920625], [-113.121476, 67.9154], [-113.155099, 67.921774], [-113.138942, 67.937549], [-112.816507, 67.969157]]], [[[-112.74613, 68.167627], [-112.717801, 68.15592], [-112.789701, 68.130095], [-112.826459, 68.1415], [-112.912256, 68.144884], [-112.890467, 68.17348], [-112.74613, 68.167627]]]]}}]}