{"type": "FeatureCollection", "features": [{"type": "Feature", "properties": {"name": "Morocco"}, "geometry": {"type": "Polygon", "coordinates": [[[-8.81292, 27.613354], [-8.783619, 27.530362], [-8.773387, 27.46003], [-8.801706, 27.360424], [-8.795841, 27.307688], [-8.752872, 27.190486], [-8.752872, 27.150463], [-8.793903, 27.12018], [-9.000919, 27.089924], [-9.207469, 27.099691], [-9.352008, 27.097727], [-9.412056, 27.08796], [-9.486315, 27.049875], [-9.734362, 26.860429], [-9.816864, 26.84968], [-9.899365, 26.84968], [-10.031709, 26.910219], [-10.065867, 26.908281], [-10.122039, 26.879962], [-10.188443, 26.860429], [-10.250455, 26.860429], [-10.550282, 26.990292], [-10.756781, 27.019592], [-10.829076, 27.009825], [-10.921835, 27.009825], [-11.149366, 26.940501], [-11.391574, 26.882908], [-11.36031, 26.793043], [-11.315868, 26.744208], [-11.315868, 26.683644], [-11.3369, 26.632897], [-11.469709, 26.519597], [-11.510688, 26.469807], [-11.55221, 26.400457], [-11.63621, 26.294985], [-11.683546, 26.212975], [-11.717239, 26.103576], [-11.753877, 26.086006], [-11.879864, 26.070399], [-12.029752, 26.03035], [-12.060009, 25.990301], [-12.080059, 25.919969], [-12.080059, 25.870205], [-12.169873, 25.639728], [-12.310019, 25.110432], [-12.359835, 24.969795], [-12.430141, 24.830165], [-12.499982, 24.7696], [-12.629845, 24.679761], [-12.990184, 24.4698], [-13.060025, 24.400476], [-13.229963, 24.0899], [-13.31001, 23.980553], [-13.390108, 23.940504], [-13.769982, 23.790125], [-13.839797, 23.750076], [-13.890129, 23.690493], [-13.979943, 23.519599], [-14.019992, 23.410252], [-14.100065, 23.099676], [-14.120089, 22.960047], [-14.169906, 22.759852], [-14.189904, 22.589914], [-14.189904, 22.450259], [-14.220187, 22.309647], [-14.310052, 22.190507], [-14.379841, 22.120201], [-14.439915, 22.080152], [-14.459914, 22.040103], [-14.519988, 21.990338], [-14.580036, 21.91024], [-14.629852, 21.860424], [-14.609827, 21.750069], [-14.669875, 21.599665], [-14.749974, 21.500084], [-14.839813, 21.450268], [-14.970167, 21.440501], [-15.45993, 21.450268], [-15.749964, 21.490317], [-16.040024, 21.500084], [-16.189886, 21.48055], [-16.580043, 21.48055], [-16.729956, 21.469802], [-17.013743, 21.419971], [-17.012807, 21.445217], [-16.971059, 21.592597], [-16.968007, 21.697252], [-16.947662, 21.736029], [-16.947011, 21.759996], [-16.966908, 21.781155], [-16.92101, 21.931301], [-16.81664, 22.130561], [-16.78067, 22.165717], [-16.762074, 22.205024], [-16.73412, 22.226752], [-16.706776, 22.275458], [-16.659006, 22.295071], [-16.631703, 22.273912], [-16.52184, 22.314887], [-16.466624, 22.377387], [-16.429351, 22.510443], [-16.357289, 22.583075], [-16.34439, 22.646959], [-16.336822, 22.75373], [-16.316477, 22.806057], [-16.296457, 22.832099], [-16.302154, 22.868313], [-16.289622, 22.899807], [-16.238637, 22.911566], [-16.172963, 22.973456], [-16.163238, 22.993232], [-16.151275, 23.059068], [-16.159535, 23.082465], [-16.179067, 23.086127], [-16.220204, 23.075873], [-16.213124, 23.094428], [-16.186676, 23.137926], [-16.139272, 23.178534], [-16.060414, 23.34455], [-16.025543, 23.374945], [-15.981191, 23.445787], [-15.967193, 23.512926], [-15.956451, 23.531724], [-15.905507, 23.610297], [-15.830393, 23.685981], [-15.81607, 23.727607], [-15.772613, 23.787828], [-15.765452, 23.856757], [-15.781972, 23.898261], [-15.775136, 23.911933], [-15.786773, 23.903876], [-15.788197, 23.864163], [-15.795318, 23.856635], [-15.830393, 23.836249], [-15.861724, 23.836168], [-15.888173, 23.810736], [-15.939605, 23.696234], [-15.994862, 23.645006], [-16.009755, 23.655422], [-16.003163, 23.672105], [-15.981191, 23.696234], [-15.939605, 23.774807], [-15.840932, 23.902655], [-15.768137, 23.959866], [-15.735748, 23.971177], [-15.679555, 24.007514], [-15.646637, 24.010403], [-15.620107, 24.026272], [-15.514394, 24.152167], [-15.459706, 24.191881], [-15.444692, 24.221869], [-15.353383, 24.291083], [-15.298248, 24.34516], [-15.203969, 24.467475], [-15.153554, 24.505601], [-15.069407, 24.527289], [-15.014801, 24.562445], [-15.01537, 24.585679], [-14.999989, 24.614488], [-14.976226, 24.641425], [-14.907826, 24.685492], [-14.895619, 24.705715], [-14.885854, 24.770738], [-14.836049, 24.918687], [-14.84317, 24.965277], [-14.836049, 24.981391], [-14.843495, 24.987616], [-14.829213, 25.050238], [-14.843495, 25.100531], [-14.842437, 25.189032], [-14.849721, 25.214179], [-14.819244, 25.330227], [-14.782053, 25.446926], [-14.714915, 25.52558], [-14.68517, 25.590888], [-14.661366, 25.691311], [-14.620961, 25.783596], [-14.546457, 25.879218], [-14.513905, 25.936957], [-14.486562, 26.015448], [-14.490346, 26.03148], [-14.480377, 26.087795], [-14.492828, 26.132717], [-14.466135, 26.194241], [-14.400746, 26.266303], [-14.353179, 26.275946], [-14.29894, 26.302232], [-14.215932, 26.375474], [-14.180247, 26.424384], [-14.157053, 26.433783], [-14.046864, 26.444403], [-13.923736, 26.500881], [-13.619985, 26.68891], [-13.561106, 26.749091], [-13.500885, 26.858303], [-13.480336, 26.911689], [-13.461049, 26.992743], [-13.431996, 27.050767], [-13.402455, 27.177191], [-13.383656, 27.215277], [-13.301096, 27.324449], [-13.307932, 27.344957], [-13.29426, 27.351752], [-13.240834, 27.465399], [-13.171254, 27.685004], [-13.097971, 27.732245], [-13.061431, 27.742906], [-13.045155, 27.759833], [-13.003, 27.821031], [-12.979563, 27.893704], [-12.952382, 27.928616], [-12.838938, 27.970404], [-12.657826, 27.998033], [-12.513539, 27.995429], [-12.335032, 28.047268], [-12.061431, 28.089016], [-12.023101, 28.119574], [-11.485585, 28.325629], [-11.452789, 28.348456], [-11.389312, 28.434882], [-11.340972, 28.479682], [-11.325917, 28.515204], [-11.266469, 28.551581], [-11.211822, 28.616767], [-11.170318, 28.639716], [-11.0631, 28.752387], [-10.762603, 28.890204], [-10.573801, 28.990424], [-10.450917, 29.09219], [-10.320872, 29.257961], [-10.264027, 29.284125], [-10.248402, 29.299384], [-10.199127, 29.361274], [-10.177642, 29.405829], [-10.141754, 29.428616], [-10.086985, 29.509955], [-10.072621, 29.564683], [-10.052968, 29.599921], [-10.005279, 29.638414], [-9.991689, 29.666815], [-9.949941, 29.71601], [-9.820221, 29.838935], [-9.717926, 29.996568], [-9.716272685592838, 30.0], [-5.138566810492844, 30.0], [-5.176083, 29.97749], [-5.273927, 29.886635], [-5.343815, 29.767825], [-5.43467, 29.642026], [-5.539503, 29.523216], [-5.637346, 29.495261], [-5.721212, 29.523216], [-5.756156, 29.614071], [-6.000765, 29.579127], [-6.27333, 29.579127], [-6.413107, 29.565149], [-6.559872, 29.530205], [-6.699649, 29.516227], [-6.783515, 29.446339], [-6.958236, 29.509238], [-7.070057, 29.516227], [-7.146934, 29.509238], [-7.258755, 29.467305], [-7.34961, 29.383439], [-7.463286, 29.389137], [-7.506126, 29.380223], [-7.619453, 29.389422], [-7.653611, 29.376193], [-7.729989, 29.311158], [-7.777996, 29.289324], [-7.839129, 29.239043], [-7.945014, 29.176231], [-8.036326, 29.099853], [-8.069658, 29.079337], [-8.182312, 29.035541], [-8.250474, 28.994769], [-8.316774, 28.939062], [-8.368451, 28.916531], [-8.430411, 28.841006], [-8.667606, 28.711685], [-8.682385, 28.6659], [-8.682385, 27.661439], [-8.817035, 27.661464], [-8.81292, 27.613354]]]}}, {"type": "Feature", "properties": {"name": "W. Sahara"}, "geometry": {"type": "Polygon", "coordinates": [[[-8.682385, 27.661439], [-8.680809, 26.013142], [-8.687656, 26.000016], [-12.015308, 25.9949], [-12.019339, 23.460998], [-12.032723, 23.444978], [-12.134578, 23.419347], [-12.353892, 23.322479], [-12.558376, 23.290285], [-12.619432, 23.270829], [-13.015247, 23.018002], [-13.119892, 22.88354], [-13.152293, 22.820004], [-13.165497, 22.752695], [-13.15498, 22.688797], [-13.106353, 22.560226], [-13.09333, 22.495476], [-13.015247, 21.333428], [-16.958831, 21.332859], [-16.968339, 21.324591], [-17.004926, 21.141915], [-17.047378, 21.0274], [-17.077428, 20.904513], [-17.081175, 20.874748], [-17.056874, 20.766913], [-17.100209, 20.837592], [-17.104644, 20.862494], [-17.092275, 20.899888], [-17.090403, 20.961819], [-17.06786, 21.030911], [-17.013743, 21.419971], [-16.729956, 21.469802], [-16.580043, 21.48055], [-16.189886, 21.48055], [-16.040024, 21.500084], [-15.749964, 21.490317], [-15.45993, 21.450268], [-14.970167, 21.440501], [-14.839813, 21.450268], [-14.749974, 21.500084], [-14.669875, 21.599665], [-14.609827, 21.750069], [-14.629852, 21.860424], [-14.580036, 21.91024], [-14.519988, 21.990338], [-14.459914, 22.040103], [-14.439915, 22.080152], [-14.379841, 22.120201], [-14.310052, 22.190507], [-14.220187, 22.309647], [-14.189904, 22.450259], [-14.189904, 22.589914], [-14.169906, 22.759852], [-14.120089, 22.960047], [-14.100065, 23.099676], [-14.019992, 23.410252], [-13.979943, 23.519599], [-13.890129, 23.690493], [-13.839797, 23.750076], [-13.769982, 23.790125], [-13.390108, 23.940504], [-13.31001, 23.980553], [-13.229963, 24.0899], [-13.060025, 24.400476], [-12.990184, 24.4698], [-12.629845, 24.679761], [-12.499982, 24.7696], [-12.430141, 24.830165], [-12.359835, 24.969795], [-12.310019, 25.110432], [-12.169873, 25.639728], [-12.080059, 25.870205], [-12.080059, 25.919969], [-12.060009, 25.990301], [-12.029752, 26.03035], [-11.879864, 26.070399], [-11.753877, 26.086006], [-11.717239, 26.103576], [-11.683546, 26.212975], [-11.63621, 26.294985], [-11.55221, 26.400457], [-11.510688, 26.469807], [-11.469709, 26.519597], [-11.3369, 26.632897], [-11.315868, 26.683644], [-11.315868, 26.744208], [-11.36031, 26.793043], [-11.391574, 26.882908], [-11.149366, 26.940501], [-10.921835, 27.009825], [-10.829076, 27.009825], [-10.756781, 27.019592], [-10.550282, 26.990292], [-10.250455, 26.860429], [-10.188443, 26.860429], [-10.122039, 26.879962], [-10.065867, 26.908281], [-10.031709, 26.910219], [-9.899365, 26.84968], [-9.816864, 26.84968], [-9.734362, 26.860429], [-9.486315, 27.049875], [-9.412056, 27.08796], [-9.352008, 27.097727], [-9.207469, 27.099691], [-9.000919, 27.089924], [-8.793903, 27.12018], [-8.752872, 27.150463], [-8.752872, 27.190486], [-8.795841, 27.307688], [-8.801706, 27.360424], [-8.773387, 27.46003], [-8.783619, 27.530362], [-8.81292, 27.613354], [-8.817035, 27.661464], [-8.682385, 27.661439]]]}}, {"type": "Feature", "properties": {"name": "Spain"}, "geometry": {"type": "MultiPolygon", "coordinates": [[[[-17.896474, 27.840318], [-17.879262, 27.814521], [-17.926422, 27.742825], [-17.930165, 27.718655], [-17.96524, 27.686998], [-17.979482, 27.642524], [-18.015777, 27.653469], [-18.053131, 27.69123], [-18.126943, 27.700263], [-18.16039, 27.722357], [-18.167226, 27.757554], [-18.140492, 27.768785], [-18.056793, 27.756496], [-18.003245, 27.798814], [-17.989858, 27.823717], [-17.933949, 27.852037], [-17.896474, 27.840318]]], [[[-15.363637, 28.009711], [-15.376698, 27.957506], [-15.363637, 27.934638], [-15.381907, 27.92121], [-15.391591, 27.899848], [-15.375966, 27.86758], [-15.377838, 27.852281], [-15.406972, 27.838324], [-15.453033, 27.791246], [-15.539662, 27.765611], [-15.577952, 27.734361], [-15.607249, 27.750312], [-15.685699, 27.763332], [-15.739654, 27.804348], [-15.786, 27.844224], [-15.821197, 27.92178], [-15.81607, 27.996039], [-15.749827, 28.035956], [-15.708363, 28.081936], [-15.713694, 28.105902], [-15.702138, 28.115058], [-15.69811, 28.133043], [-15.706207, 28.167385], [-15.650787, 28.163886], [-15.597035, 28.147528], [-15.521311, 28.147528], [-15.45873, 28.134223], [-15.435048, 28.140937], [-15.43871, 28.174872], [-15.409291, 28.179755], [-15.400136, 28.157213], [-15.415639, 28.141506], [-15.414947, 28.114488], [-15.391591, 28.030219], [-15.363637, 28.009711]]], [[[-17.259173, 28.217717], [-17.212721, 28.205449], [-17.116119, 28.146226], [-17.09842, 28.100764], [-17.113937, 28.080967], [-17.184975, 28.031619], [-17.232706, 28.019106], [-17.257888, 28.02457], [-17.310073, 28.053474], [-17.343221, 28.09766], [-17.338817, 28.171047], [-17.309673, 28.207117], [-17.259173, 28.217717]]], [[[-16.521547, 28.057573], [-16.545766, 28.023993], [-16.57971, 28.030332], [-16.67634, 27.997096], [-16.692683, 27.999847], [-16.703552, 28.013683], [-16.704091, 28.03498], [-16.721059, 28.044501], [-16.727895, 28.078599], [-16.780629, 28.127875], [-16.7954, 28.165269], [-16.837148, 28.20897], [-16.847239, 28.262519], [-16.916058, 28.35497], [-16.83744, 28.391083], [-16.794179, 28.369127], [-16.770131, 28.366278], [-16.66418, 28.400727], [-16.584634, 28.4011], [-16.564479, 28.415335], [-16.507135, 28.424134], [-16.4204, 28.490627], [-16.408274, 28.519843], [-16.363352, 28.543036], [-16.322743, 28.553453], [-16.316396, 28.572089], [-16.202707, 28.564032], [-16.141347, 28.583441], [-16.117747, 28.572089], [-16.12707, 28.543819], [-16.231391, 28.488416], [-16.248015, 28.461123], [-16.296136, 28.417762], [-16.355514, 28.38115], [-16.365772, 28.362455], [-16.358106, 28.314631], [-16.380016, 28.288342], [-16.419233, 28.211383], [-16.427695, 28.14967], [-16.521547, 28.057573]]], [[[-13.898671, 28.753892], [-13.864573, 28.744208], [-13.83552, 28.715481], [-13.824371, 28.681789], [-13.828684, 28.551581], [-13.856557, 28.47899], [-13.856557, 28.434882], [-13.842926, 28.406928], [-13.869618, 28.376899], [-13.875152, 28.349066], [-13.933705, 28.244208], [-13.966786, 28.227973], [-14.11856, 28.200507], [-14.152008, 28.179999], [-14.19164, 28.170844], [-14.212229, 28.160549], [-14.30134, 28.067857], [-14.34317, 28.050686], [-14.369008, 28.050767], [-14.428619, 28.071194], [-14.507069, 28.071194], [-14.496897, 28.102525], [-14.436025, 28.100531], [-14.341176, 28.134508], [-14.270131, 28.175971], [-14.224436, 28.218573], [-14.207387, 28.254381], [-14.201894, 28.3039], [-14.171295, 28.352362], [-14.140859, 28.434882], [-14.098297, 28.48664], [-14.075551, 28.536119], [-14.036122, 28.587388], [-13.999908, 28.716742], [-13.972646, 28.735907], [-13.898671, 28.753892]]], [[[-17.750602, 28.774763], [-17.741438, 28.757912], [-17.721883, 28.749029], [-17.721044, 28.730644], [-17.765254, 28.677549], [-17.745604, 28.621887], [-17.759856, 28.576821], [-17.78334, 28.548596], [-17.830881, 28.45539], [-17.837066, 28.45539], [-17.865122, 28.475381], [-17.879688, 28.543713], [-17.963098, 28.671489], [-17.976145, 28.728176], [-18.002187, 28.749579], [-17.996816, 28.780097], [-17.970693, 28.813218], [-17.911145, 28.855619], [-17.890535, 28.843946], [-17.841664, 28.835435], [-17.801381, 28.849311], [-17.781484, 28.842271], [-17.755767, 28.818508], [-17.750602, 28.774763]]], [[[-13.465403, 29.243313], [-13.417795, 29.20893], [-13.438791, 29.159003], [-13.45873, 29.147406], [-13.462392, 29.132148], [-13.451894, 29.086005], [-13.465566, 29.058051], [-13.465566, 29.023912], [-13.482045, 28.999457], [-13.54304, 28.961737], [-13.589955, 28.951361], [-13.607574, 28.932603], [-13.709299, 28.9147], [-13.736073, 28.89647], [-13.774648, 28.839586], [-13.791493, 28.853461], [-13.867299, 28.864895], [-13.876332, 28.888821], [-13.842926, 28.921536], [-13.832102, 29.000393], [-13.798492, 29.048082], [-13.766835, 29.074042], [-13.690175, 29.090888], [-13.63683, 29.126939], [-13.537221, 29.138251], [-13.482981, 29.239936], [-13.465403, 29.243313]]], [[[-13.477895, 29.266262], [-13.492014, 29.242662], [-13.517079, 29.226264], [-13.541249, 29.229397], [-13.508168, 29.289455], [-13.486684, 29.284613], [-13.477895, 29.266262]]]]}}, {"type": "Feature", "properties": {"name": "Guinea"}, "geometry": {"type": "Polygon", "coordinates": [[[-14.006744, 10.001044], [-14.058339, 10.025295], [-14.061879, 10.050116], [-14.046132, 10.079495], [-14.020334, 10.094428], [-13.993764, 10.076158], [-14.028188, 10.116604], [-14.041615, 10.101304], [-14.068349, 10.118109], [-14.043813, 10.133246], [-13.999908, 10.199693], [-14.044667, 10.162177], [-14.089345, 10.138251], [-14.089345, 10.079901], [-14.100575, 10.058295], [-14.130279, 10.048896], [-14.153188, 10.05565], [-14.179799, 10.090277], [-14.178782, 10.110297], [-14.123647, 10.162584], [-14.137766, 10.179185], [-14.153147, 10.156317], [-14.184926, 10.151923], [-14.182485, 10.129543], [-14.200185, 10.112738], [-14.222401, 10.106106], [-14.2506, 10.14053], [-14.253814, 10.155341], [-14.240061, 10.175116], [-14.243886, 10.182318], [-14.259023, 10.179592], [-14.270131, 10.159735], [-14.352366, 10.226223], [-14.376698, 10.234442], [-14.418568, 10.227973], [-14.431956, 10.234442], [-14.452545, 10.214586], [-14.462636, 10.225165], [-14.465891, 10.249701], [-14.458241, 10.304267], [-14.463043, 10.330024], [-14.537262, 10.403632], [-14.548004, 10.425605], [-14.550526, 10.472113], [-14.535024, 10.508205], [-14.551422, 10.506781], [-14.596425, 10.475979], [-14.628977, 10.476264], [-14.637441, 10.487738], [-14.651194, 10.475084], [-14.657786, 10.47956], [-14.663808, 10.529202], [-14.650461, 10.570258], [-14.639394, 10.566636], [-14.596425, 10.603746], [-14.620595, 10.604315], [-14.628651, 10.617255], [-14.615224, 10.691311], [-14.607289, 10.70539], [-14.59024, 10.699368], [-14.588287, 10.714301], [-14.568512, 10.731024], [-14.531321, 10.823472], [-14.509674, 10.842475], [-14.513905, 10.871894], [-14.500234, 10.891099], [-14.519928, 10.885403], [-14.521352, 10.850816], [-14.573476, 10.812405], [-14.629709, 10.706448], [-14.657867, 10.672675], [-14.699818, 10.643134], [-14.703725, 10.670844], [-14.678334, 10.693101], [-14.705719, 10.686347], [-14.71935, 10.699368], [-14.699086, 10.756252], [-14.651357, 10.809963], [-14.664703, 10.816636], [-14.723134, 10.765123], [-14.746449, 10.710761], [-14.760325, 10.699368], [-14.792836, 10.745022], [-14.795074, 10.768256], [-14.770009, 10.776923], [-14.75414, 10.802965], [-14.740468, 10.871894], [-14.772572, 10.836493], [-14.808705, 10.823472], [-14.801259, 10.864447], [-14.807973, 10.882473], [-14.795074, 10.898586], [-14.813873, 10.900336], [-14.819732, 10.912014], [-14.808705, 10.939602], [-14.73176, 10.966457], [-14.716298, 11.000963], [-14.699452, 11.00552], [-14.664703, 11.035793], [-14.68517, 11.063666], [-14.694976, 11.038479], [-14.726796, 11.025824], [-14.741526, 10.989081], [-14.756825, 10.981187], [-14.774566, 10.987982], [-14.801259, 10.980536], [-14.795481, 10.999701], [-14.810658, 11.014472], [-14.843495, 10.967475], [-14.874623, 10.973293], [-14.894439, 11.03026], [-14.918568, 11.028957], [-14.901479, 11.011664], [-14.898793, 10.993232], [-14.911122, 10.960028], [-14.931956, 10.975653], [-14.959584, 10.980536], [-14.914418, 10.942328], [-14.911122, 10.92593], [-14.939809, 10.889106], [-14.958119, 10.876207], [-14.980051, 10.874986], [-14.973215, 10.820054], [-14.945912, 10.792792], [-14.959584, 10.768256], [-15.031565, 10.792792], [-15.079457, 10.85871], [-15.07433, 10.896877], [-15.058909, 10.915961], [-15.027821, 10.929348], [-15.014801, 10.953803], [-15.020985, 10.967475], [-14.959056, 11.035762], [-14.863145, 11.218645], [-14.828212, 11.334787], [-14.711061, 11.497568], [-14.686773, 11.51072], [-14.64538, 11.515061], [-14.562259, 11.505604], [-14.520944, 11.51289], [-14.339223, 11.61061], [-14.289692, 11.66885], [-14.161844, 11.660943], [-14.118565, 11.637999], [-14.058827, 11.644045], [-14.015135, 11.63712], [-13.945423, 11.675671], [-13.923745, 11.665026], [-13.903643, 11.665387], [-13.886409, 11.675568], [-13.870673, 11.704145], [-13.870053, 11.743677], [-13.846282, 11.737269], [-13.842975, 11.71727], [-13.820134, 11.708072], [-13.815767, 11.686833], [-13.770007, 11.688693], [-13.729932, 11.709829], [-13.719571, 11.766105], [-13.734635, 11.901859], [-13.723938, 12.002783], [-13.734919, 12.019267], [-13.807757, 12.044279], [-13.842406, 12.091304], [-13.869717, 12.10071], [-13.918396, 12.137762], [-13.972527, 12.151559], [-13.965732, 12.194244], [-13.943925, 12.218635], [-13.883153, 12.246437], [-13.840003, 12.277133], [-13.812641, 12.283592], [-13.795691, 12.278735], [-13.808558, 12.256101], [-13.740836, 12.256927], [-13.71182, 12.267521], [-13.695025, 12.292946], [-13.68301, 12.33868], [-13.684147, 12.39201], [-13.660712, 12.458672], [-13.67469, 12.496086], [-13.725075, 12.558149], [-13.734635, 12.585331], [-13.728279, 12.673388], [-13.404758, 12.661761], [-13.338613, 12.63923], [-13.284146, 12.653337], [-13.25469, 12.641813], [-13.22154, 12.648376], [-13.201903, 12.63339], [-13.169217, 12.638765], [-13.154696, 12.632822], [-13.145317, 12.643932], [-13.127308, 12.634837], [-13.076458, 12.635922], [-13.059327, 12.60347], [-13.082711, 12.515671], [-13.078267, 12.496241], [-13.051989, 12.472263], [-12.981038, 12.466992], [-12.969514, 12.476811], [-12.949489, 12.535928], [-12.913135, 12.536342], [-12.849211, 12.495001], [-12.849133, 12.475829], [-12.838617, 12.466372], [-12.783479, 12.453091], [-12.773272, 12.435056], [-12.688058, 12.435986], [-12.648009, 12.425754], [-12.603412, 12.381933], [-12.593671, 12.361572], [-12.570649, 12.363691], [-12.505072, 12.390253], [-12.466754, 12.384465], [-12.405517, 12.356456], [-12.377121, 12.313668], [-12.36092, 12.305607], [-12.192042, 12.348756], [-12.103985, 12.407357], [-12.07918, 12.408133], [-11.997583, 12.386377], [-11.923944, 12.418778], [-11.839609, 12.386687], [-11.757805, 12.383328], [-11.601535, 12.425238], [-11.481646, 12.428235], [-11.416017, 12.40498], [-11.388422, 12.403895], [-11.388628, 12.384465], [-11.431675, 12.382966], [-11.447229, 12.374543], [-11.444594, 12.289484], [-11.463249, 12.249951], [-11.507794, 12.191608], [-11.489604, 12.151197], [-11.391729, 12.093733], [-11.334678, 12.026192], [-11.274992, 11.996271], [-11.191173, 12.01441], [-11.165644, 12.04862], [-11.159392, 12.077507], [-11.136292, 12.085103], [-11.116604, 12.113732], [-11.072782, 12.149492], [-11.052318, 12.202512], [-10.952117, 12.219462], [-10.909794, 12.200135], [-10.869642, 12.138433], [-10.804943, 12.095955], [-10.798535, 12.068102], [-10.811041, 12.04154], [-10.807785, 12.022833], [-10.781017, 11.99622], [-10.740347, 11.919894], [-10.711357, 11.890386], [-10.655081, 11.898965], [-10.613792, 11.967694], [-10.55948, 11.995186], [-10.566508, 12.017252], [-10.51509, 12.052909], [-10.517312, 12.080349], [-10.504445, 12.088359], [-10.511628, 12.118073], [-10.493489, 12.124429], [-10.445688, 12.120708], [-10.428945, 12.143394], [-10.381403, 12.180136], [-10.353394, 12.166494], [-10.354118, 12.18086], [-10.329882, 12.19042], [-10.323577, 12.201995], [-10.31102, 12.19104], [-10.304974, 12.202874], [-10.26694, 12.217808], [-10.247819, 12.201065], [-10.179762, 12.178224], [-10.128654, 12.174503], [-10.097286, 12.153678], [-10.060182, 12.147528], [-9.961584, 12.096007], [-9.923188, 12.087584], [-9.870736, 12.052082], [-9.833684, 12.055131], [-9.778649, 12.026657], [-9.722994, 12.025417], [-9.686303, 12.068153], [-9.675141, 12.133989], [-9.628167, 12.170163], [-9.515616, 12.20706], [-9.479598, 12.235843], [-9.438877, 12.254757], [-9.360173, 12.246644], [-9.336816, 12.269846], [-9.335007, 12.306537], [-9.321829, 12.310206], [-9.312889, 12.32607], [-9.309169, 12.357748], [-9.339167, 12.370616], [-9.347151, 12.396454], [-9.374694, 12.41113], [-9.412573, 12.455365], [-9.398155, 12.473245], [-9.350872, 12.484614], [-9.33418, 12.496293], [-9.294079, 12.483787], [-9.265864, 12.495207], [-9.147318, 12.465493], [-8.993839, 12.387514], [-8.975907, 12.368704], [-8.963092, 12.32421], [-8.995906, 12.26101], [-8.994278, 12.224836], [-8.97384, 12.187578], [-8.942008, 12.195846], [-8.913896, 12.169853], [-8.906971, 12.125359], [-8.926298, 12.064278], [-8.922112, 12.045364], [-8.903715, 12.030378], [-8.837983, 12.028156], [-8.819793, 12.012653], [-8.814909, 11.955395], [-8.79783, 11.925113], [-8.847233, 11.657946], [-8.828526, 11.659186], [-8.777211, 11.635932], [-8.726517, 11.649471], [-8.712874, 11.640066], [-8.687346, 11.55002], [-8.656754, 11.496431], [-8.602183, 11.472092], [-8.575208, 11.470283], [-8.549577, 11.490127], [-8.527563, 11.423387], [-8.427724, 11.40008], [-8.375324, 11.367654], [-8.414133, 11.353468], [-8.42607, 11.340472], [-8.417957, 11.325511], [-8.371035, 11.32055], [-8.376719, 11.294661], [-8.406691, 11.275282], [-8.483224, 11.28492], [-8.492578, 11.277788], [-8.50312, 11.255412], [-8.498779, 11.233501], [-8.551799, 11.210738], [-8.563943, 11.193426], [-8.578154, 11.14206], [-8.615413, 11.13405], [-8.624611, 11.122035], [-8.623112, 11.091262], [-8.63368, 11.071289], [-8.679801, 11.025194], [-8.70073, 10.978452], [-8.696234, 10.962743], [-8.680938, 10.952304], [-8.647969, 10.965818], [-8.55955, 10.971605], [-8.541567, 10.983775], [-8.505755, 11.052789], [-8.410464, 11.041911], [-8.369329, 11.054236], [-8.326593, 11.02385], [-8.305096, 10.978246], [-8.303649, 10.874893], [-8.341941, 10.763246], [-8.315586, 10.753092], [-8.311142, 10.735289], [-8.295535, 10.537446], [-8.284425, 10.511246], [-8.228873, 10.423422], [-8.18903, 10.413629], [-8.135442, 10.427323], [-8.125417, 10.411665], [-8.115495, 10.360247], [-8.096116, 10.346734], [-8.015708, 10.339344], [-7.996277, 10.32826], [-7.971214, 10.281802], [-7.962584, 10.233252], [-7.96801, 10.209998], [-8.015708, 10.110366], [-8.03488, 10.085794], [-8.108777, 10.054194], [-8.127535, 10.037115], [-8.149547009522168, 10.0], [-14.005677745626194, 10.0], [-14.006744, 10.001044]]]}}, {"type": "Feature", "properties": {"name": "C\u00f4te d'Ivoire"}, "geometry": {"type": "Polygon", "coordinates": [[[-7.970904, 10.155066], [-7.929046, 10.160957], [-7.882847, 10.190826], [-7.847423, 10.197932], [-7.829001, 10.211652], [-7.778254, 10.27834], [-7.764405, 10.312912], [-7.777583, 10.329862], [-7.735337, 10.347096], [-7.723994, 10.363606], [-7.736035, 10.378282], [-7.708646, 10.402467], [-7.679036, 10.405929], [-7.664411, 10.437142], [-7.643689, 10.440475], [-7.607774, 10.418719], [-7.556382, 10.417272], [-7.515841, 10.457812], [-7.501475, 10.458639], [-7.480236, 10.450293], [-7.46618, 10.429494], [-7.465457, 10.398617], [-7.444683, 10.360816], [-7.444425, 10.334202], [-7.372336, 10.34477], [-7.366342, 10.329448], [-7.371819, 10.264517], [-7.363396, 10.252192], [-7.204749, 10.234493], [-7.106357, 10.207259], [-7.089459, 10.19757], [-7.040522, 10.140054], [-7.015769, 10.140881], [-6.971637, 10.164419], [-6.95939, 10.185503], [-6.961612, 10.211032], [-6.994891, 10.239402], [-6.997113, 10.25276], [-6.973136, 10.33229], [-6.96125, 10.344874], [-6.862755, 10.34384], [-6.803895, 10.370867], [-6.782088, 10.373037], [-6.722557, 10.344047], [-6.700336, 10.34167], [-6.677391, 10.349034], [-6.668916, 10.361022], [-6.663955, 10.397997], [-6.647781, 10.432698], [-6.683076, 10.451689], [-6.697545, 10.488301], [-6.682817, 10.565971], [-6.688967, 10.607855], [-6.669175, 10.654157], [-6.647109, 10.66134], [-6.633983, 10.65302], [-6.598585, 10.604909], [-6.537555, 10.569692], [-6.445984, 10.552251], [-6.402783, 10.569123], [-6.399217, 10.592481], [-6.430688, 10.61496], [-6.435856, 10.628706], [-6.427019, 10.686093], [-6.409811, 10.694387], [-6.341701, 10.691442], [-6.28, 10.723274], [-6.25597, 10.726478], [-6.245841, 10.720742], [-6.246617, 10.657619], [-6.216903, 10.645088], [-6.204449, 10.629611], [-6.209771, 10.617751], [-6.238658, 10.597985], [-6.231372, 10.560235], [-6.256228, 10.537239], [-6.261293, 10.514088], [-6.238658, 10.512744], [-6.222432, 10.494632], [-6.190289, 10.491144], [-6.185793, 10.481325], [-6.200366, 10.448769], [-6.180574, 10.420218], [-6.198764, 10.370815], [-6.183933, 10.358852], [-6.208324, 10.33198], [-6.206154, 10.310819], [-6.228323, 10.31609], [-6.240674, 10.302576], [-6.240002, 10.251933], [-6.224809, 10.255034], [-6.180884, 10.215838], [-6.105333, 10.189276], [-6.015933, 10.18987], [-5.985237, 10.227284], [-5.974747, 10.273638], [-5.963016, 10.282733], [-5.916404, 10.266635], [-5.904725, 10.275291], [-5.904829, 10.348284], [-5.87806, 10.37606], [-5.806282, 10.413474], [-5.594047, 10.453937], [-5.571722, 10.44988], [-5.505111, 10.415567], [-5.475294, 10.367715], [-5.474157, 10.350325], [-5.437829, 10.340016], [-5.426977, 10.316865], [-5.402534, 10.300561], [-5.365533, 10.295703], [-5.353338, 10.308261], [-5.327086, 10.302576], [-5.296649, 10.32304], [-5.217584, 10.31994], [-5.168439, 10.291337], [-5.159499, 10.292319], [-5.152058, 10.305625], [-5.135677, 10.304282], [-5.111802, 10.27865], [-5.117073, 10.208034], [-5.097849, 10.209275], [-5.084414, 10.227439], [-5.081597, 10.206897], [-5.090718, 10.177933], [-5.06395, 10.179044], [-5.070719, 10.161009], [-5.039455, 10.134344], [-5.037595, 10.126489], [-5.070099, 10.110159], [-5.042866, 10.103338], [-5.056483, 10.097111], [-5.048343, 10.085355], [-5.037233, 10.083753], [-5.015581, 10.097111], [-5.010516, 10.07905], [-4.963336, 10.040319], [-4.956411, 10.021999], [-4.960209, 10.008486], [-4.981397, 10.007737], [-4.977348324847325, 10.0], [-8.149547009522168, 10.0], [-8.127535, 10.037115], [-8.108777, 10.054194], [-8.03488, 10.085794], [-7.989663, 10.161991], [-7.970904, 10.155066]]]}}, {"type": "Feature", "properties": {"name": "Mali"}, "geometry": {"type": "Polygon", "coordinates": [[[-12.224779, 14.763441], [-12.138867, 14.784525], [-12.070395, 14.734399], [-12.049673, 14.767213], [-12.011071, 14.762743], [-11.991486, 14.76804], [-11.935985, 14.823618], [-11.877487, 14.841524], [-11.837076, 14.893097], [-11.820385, 14.89997], [-11.830927, 14.926429], [-11.813202, 14.995933], [-11.81377, 15.028541], [-11.832839, 15.049005], [-11.851029, 15.041951], [-11.860899, 15.049005], [-11.845138, 15.124556], [-11.845655, 15.179075], [-11.826793, 15.23256], [-11.816923, 15.296096], [-11.783488, 15.365885], [-11.767675, 15.437198], [-11.754859, 15.469083], [-11.729434, 15.496058], [-11.727057, 15.541171], [-11.644117, 15.526444], [-11.614868, 15.541171], [-11.579211, 15.577965], [-11.515391, 15.610082], [-11.513117, 15.625275], [-11.524382, 15.643465], [-11.458236, 15.632949], [-11.409557, 15.602201], [-11.298195, 15.451048], [-11.045393, 15.270206], [-11.012734, 15.239588], [-10.98519, 15.187498], [-10.948035, 15.151996], [-10.915169, 15.102904], [-10.890881, 15.176749], [-10.844062, 15.234549], [-10.827216, 15.287698], [-10.811041, 15.303124], [-10.78174, 15.308421], [-10.746807, 15.341132], [-10.738901, 15.362164], [-10.736368, 15.422626], [-10.725361, 15.433064], [-10.607126, 15.424434], [-10.534985, 15.441694], [-10.322647, 15.437095], [-10.223221, 15.402033], [-10.188391, 15.40472], [-10.108293, 15.365885], [-10.067624, 15.364748], [-9.951403, 15.381207], [-9.835596, 15.371104], [-9.797356, 15.380303], [-9.720823, 15.42092], [-9.672118, 15.430661], [-9.42389, 15.440532], [-9.451847, 15.559206], [-9.451692, 15.588326], [-9.375935, 15.685917], [-9.356453, 15.697854], [-9.332423, 15.687571], [-9.329322, 15.655247], [-9.342965, 15.586931], [-9.349218, 15.495644], [-5.510951, 15.494197], [-5.353286, 16.311977], [-5.364913, 16.334921], [-5.60588, 16.495893], [-5.623347, 16.527829], [-5.949115, 19.495633], [-6.593107, 24.994134], [-4.821613, 24.995065], [-4.516025, 24.803991], [0.0, 21.85132974497157], [0.0, 14.984665842510651], [-0.033404, 14.995933], [-0.166988, 15.049677], [-0.236699, 15.065619], [-0.299176, 15.054741], [-0.397671, 15.002135], [-0.425732, 15.0026], [-0.458649, 15.075463], [-0.4679, 15.079908], [-0.719719, 15.078461], [-0.752895, 15.069727], [-0.782816, 15.048385], [-1.043317, 14.817908], [-1.07856, 14.796359], [-1.116697, 14.780443], [-1.307745, 14.734657], [-1.350275, 14.714969], [-1.69692, 14.496119], [-1.836963, 14.479582], [-1.967033, 14.483742], [-1.997057, 14.470694], [-2.005015, 14.444236], [-2.023412, 14.198643], [-2.035918, 14.181229], [-2.104337, 14.151179], [-2.151879, 14.15614], [-2.385612, 14.264712], [-2.46168, 14.280912], [-2.516147, 14.267864], [-2.597382, 14.222311], [-2.69319, 14.123196], [-2.840855, 14.042994], [-2.867288, 14.000542], [-2.855377, 13.996175], [-2.89447, 13.866571], [-2.928059, 13.799624], [-2.923383, 13.746035], [-2.895245, 13.651648], [-2.97232, 13.624467], [-3.019113, 13.637515], [-3.067508, 13.606767], [-3.08221, 13.646222], [-3.125102, 13.67728], [-3.195821, 13.674903], [-3.240418, 13.707976], [-3.267057, 13.717045], [-3.286952, 13.69777], [-3.266282, 13.682344], [-3.259719, 13.658315], [-3.263905, 13.602659], [-3.283955, 13.542198], [-3.248634, 13.292781], [-3.262406, 13.283919], [-3.42653, 13.27423], [-3.448544, 13.265781], [-3.452265, 13.237514], [-3.439475, 13.184855], [-3.449475, 13.16881], [-3.54505, 13.174494], [-3.569958, 13.196767], [-3.596882, 13.199402], [-3.798626, 13.347145], [-3.8926, 13.378926], [-3.971613, 13.386755], [-3.984042, 13.39647], [-3.942726, 13.431946], [-3.918593, 13.440318], [-3.917973, 13.451066], [-3.956059, 13.46166], [-3.964482, 13.487808], [-3.981251, 13.49897], [-3.997968, 13.480522], [-3.971613, 13.469954], [-3.97691, 13.460627], [-4.052539, 13.409002], [-4.087549, 13.397995], [-4.104267, 13.382698], [-4.131578, 13.323839], [-4.16602, 13.278157], [-4.205501, 13.272989], [-4.253508, 13.22909], [-4.258107, 13.21413], [-4.230021, 13.193149], [-4.234801, 13.175605], [-4.310197, 13.175553], [-4.327044, 13.168551], [-4.351073, 13.118322], [-4.351073, 13.106075], [-4.316398, 13.070857], [-4.289733, 13.01347], [-4.229324, 12.948952], [-4.221314, 12.921254], [-4.224647, 12.864513], [-4.211883, 12.819193], [-4.23413, 12.74235], [-4.257642, 12.72093], [-4.297227, 12.712145], [-4.36885, 12.738991], [-4.485251, 12.714677], [-4.491323, 12.662794], [-4.482538, 12.646258], [-4.42249, 12.597217], [-4.387247, 12.533965], [-4.393448, 12.516446], [-4.443678, 12.459447], [-4.451636, 12.435314], [-4.415359, 12.350307], [-4.406135, 12.307467], [-4.435823, 12.301731], [-4.462488, 12.328189], [-4.488171, 12.320696], [-4.493545, 12.272844], [-4.585529, 12.197241], [-4.560466, 12.149492], [-4.570233, 12.138898], [-4.600309, 12.137555], [-4.636121, 12.117556], [-4.653716, 12.069135], [-4.673586, 12.05973], [-4.714617, 12.059007], [-4.746889, 12.015082], [-4.761281, 12.006607], [-4.806808, 11.996271], [-4.826238, 12.012705], [-4.847245, 12.013066], [-4.889955, 11.997925], [-4.95375, 12.005108], [-5.004703, 11.980665], [-5.089323, 11.97927], [-5.167819, 11.943665], [-5.275151, 11.837418], [-5.306519, 11.846048], [-5.369874, 11.820158], [-5.392302, 11.832354], [-5.412352, 11.82853], [-5.405996, 11.812303], [-5.370649, 11.791064], [-5.334269, 11.790806], [-5.28714, 11.758922], [-5.279544, 11.739026], [-5.280681, 11.699494], [-5.307604, 11.617638], [-5.299956, 11.606424], [-5.269467, 11.604099], [-5.233914, 11.575987], [-5.224663, 11.54077], [-5.218307, 11.422198], [-5.263472, 11.390184], [-5.262852, 11.251588], [-5.306726, 11.199395], [-5.322332, 11.135549], [-5.332512, 11.12157], [-5.390131, 11.094699], [-5.489764, 11.082115], [-5.504233, 11.072684], [-5.495603, 10.996203], [-5.501804, 10.97021], [-5.479118, 10.975533], [-5.431421, 10.844688], [-5.446459, 10.768698], [-5.467956, 10.752678], [-5.482632, 10.684233], [-5.475914, 10.650385], [-5.460566, 10.644571], [-5.477413, 10.61956], [-5.47855, 10.604238], [-5.468111, 10.58783], [-5.48165, 10.535327], [-5.508987, 10.490937], [-5.522578, 10.425489], [-5.594047, 10.453937], [-5.806282, 10.413474], [-5.87806, 10.37606], [-5.904829, 10.348284], [-5.904725, 10.275291], [-5.916404, 10.266635], [-5.963016, 10.282733], [-5.974747, 10.273638], [-5.985237, 10.227284], [-6.015933, 10.18987], [-6.105333, 10.189276], [-6.180884, 10.215838], [-6.224809, 10.255034], [-6.240002, 10.251933], [-6.240674, 10.302576], [-6.228323, 10.31609], [-6.206154, 10.310819], [-6.208324, 10.33198], [-6.183933, 10.358852], [-6.198764, 10.370815], [-6.180574, 10.420218], [-6.200366, 10.448769], [-6.185793, 10.481325], [-6.190289, 10.491144], [-6.222432, 10.494632], [-6.238658, 10.512744], [-6.261293, 10.514088], [-6.256228, 10.537239], [-6.231372, 10.560235], [-6.238658, 10.597985], [-6.209771, 10.617751], [-6.204449, 10.629611], [-6.216903, 10.645088], [-6.246617, 10.657619], [-6.245841, 10.720742], [-6.25597, 10.726478], [-6.28, 10.723274], [-6.341701, 10.691442], [-6.409811, 10.694387], [-6.427019, 10.686093], [-6.435856, 10.628706], [-6.430688, 10.61496], [-6.399217, 10.592481], [-6.402783, 10.569123], [-6.445984, 10.552251], [-6.537555, 10.569692], [-6.598585, 10.604909], [-6.633983, 10.65302], [-6.647109, 10.66134], [-6.669175, 10.654157], [-6.688967, 10.607855], [-6.682817, 10.565971], [-6.697545, 10.488301], [-6.683076, 10.451689], [-6.647781, 10.432698], [-6.663955, 10.397997], [-6.668916, 10.361022], [-6.677391, 10.349034], [-6.700336, 10.34167], [-6.722557, 10.344047], [-6.782088, 10.373037], [-6.803895, 10.370867], [-6.862755, 10.34384], [-6.96125, 10.344874], [-6.973136, 10.33229], [-6.997113, 10.25276], [-6.994891, 10.239402], [-6.961612, 10.211032], [-6.95939, 10.185503], [-6.971637, 10.164419], [-7.015769, 10.140881], [-7.040522, 10.140054], [-7.089459, 10.19757], [-7.106357, 10.207259], [-7.204749, 10.234493], [-7.363396, 10.252192], [-7.371819, 10.264517], [-7.366342, 10.329448], [-7.372336, 10.34477], [-7.444425, 10.334202], [-7.444683, 10.360816], [-7.465457, 10.398617], [-7.46618, 10.429494], [-7.480236, 10.450293], [-7.501475, 10.458639], [-7.515841, 10.457812], [-7.556382, 10.417272], [-7.607774, 10.418719], [-7.643689, 10.440475], [-7.664411, 10.437142], [-7.679036, 10.405929], [-7.708646, 10.402467], [-7.736035, 10.378282], [-7.723994, 10.363606], [-7.735337, 10.347096], [-7.777583, 10.329862], [-7.764405, 10.312912], [-7.778254, 10.27834], [-7.829001, 10.211652], [-7.847423, 10.197932], [-7.882847, 10.190826], [-7.929046, 10.160957], [-7.970904, 10.155066], [-7.989663, 10.161991], [-7.962584, 10.233252], [-7.971214, 10.281802], [-7.996277, 10.32826], [-8.015708, 10.339344], [-8.096116, 10.346734], [-8.115495, 10.360247], [-8.125417, 10.411665], [-8.135442, 10.427323], [-8.18903, 10.413629], [-8.228873, 10.423422], [-8.295535, 10.537446], [-8.311142, 10.735289], [-8.315586, 10.753092], [-8.341941, 10.763246], [-8.303649, 10.874893], [-8.305096, 10.978246], [-8.326593, 11.02385], [-8.369329, 11.054236], [-8.410464, 11.041911], [-8.505755, 11.052789], [-8.541567, 10.983775], [-8.55955, 10.971605], [-8.647969, 10.965818], [-8.680938, 10.952304], [-8.696234, 10.962743], [-8.696906, 10.996048], [-8.679801, 11.025194], [-8.63368, 11.071289], [-8.623112, 11.091262], [-8.624611, 11.122035], [-8.615413, 11.13405], [-8.578154, 11.14206], [-8.563943, 11.193426], [-8.551799, 11.210738], [-8.498779, 11.233501], [-8.50312, 11.255412], [-8.492578, 11.277788], [-8.483224, 11.28492], [-8.406691, 11.275282], [-8.376719, 11.294661], [-8.371035, 11.32055], [-8.417957, 11.325511], [-8.42607, 11.340472], [-8.414133, 11.353468], [-8.375324, 11.367654], [-8.427724, 11.40008], [-8.527563, 11.423387], [-8.549577, 11.490127], [-8.575208, 11.470283], [-8.602183, 11.472092], [-8.656754, 11.496431], [-8.687346, 11.55002], [-8.712874, 11.640066], [-8.726517, 11.649471], [-8.777211, 11.635932], [-8.828526, 11.659186], [-8.847233, 11.657946], [-8.797004, 11.913227], [-8.814909, 11.955395], [-8.819793, 12.012653], [-8.837983, 12.028156], [-8.903715, 12.030378], [-8.922112, 12.045364], [-8.926298, 12.064278], [-8.906971, 12.125359], [-8.913896, 12.169853], [-8.942008, 12.195846], [-8.97384, 12.187578], [-8.99756, 12.23481], [-8.995906, 12.26101], [-8.963092, 12.32421], [-8.975907, 12.368704], [-8.993839, 12.387514], [-9.147318, 12.465493], [-9.265864, 12.495207], [-9.294079, 12.483787], [-9.327307, 12.497533], [-9.398155, 12.473245], [-9.412573, 12.455365], [-9.407251, 12.445133], [-9.374694, 12.41113], [-9.347151, 12.396454], [-9.339167, 12.370616], [-9.309169, 12.357748], [-9.312889, 12.32607], [-9.321829, 12.310206], [-9.335007, 12.306537], [-9.336816, 12.269846], [-9.360173, 12.246644], [-9.438877, 12.254757], [-9.479598, 12.235843], [-9.515616, 12.20706], [-9.628167, 12.170163], [-9.675141, 12.133989], [-9.686303, 12.068153], [-9.722994, 12.025417], [-9.778649, 12.026657], [-9.833684, 12.055131], [-9.870736, 12.052082], [-9.923188, 12.087584], [-9.961584, 12.096007], [-10.060182, 12.147528], [-10.097286, 12.153678], [-10.128654, 12.174503], [-10.179762, 12.178224], [-10.247819, 12.201065], [-10.26694, 12.217808], [-10.304974, 12.202874], [-10.31102, 12.19104], [-10.323577, 12.201995], [-10.329882, 12.19042], [-10.354118, 12.18086], [-10.353394, 12.166494], [-10.381403, 12.180136], [-10.428945, 12.143394], [-10.445688, 12.120708], [-10.493489, 12.124429], [-10.511628, 12.118073], [-10.504445, 12.088359], [-10.517312, 12.080349], [-10.51509, 12.052909], [-10.566508, 12.017252], [-10.55948, 11.995186], [-10.613792, 11.967694], [-10.655081, 11.898965], [-10.711357, 11.890386], [-10.740347, 11.919894], [-10.781017, 11.99622], [-10.807785, 12.022833], [-10.811041, 12.04154], [-10.798535, 12.068102], [-10.804943, 12.095955], [-10.869642, 12.138433], [-10.909794, 12.200135], [-10.952117, 12.219462], [-11.052318, 12.202512], [-11.072782, 12.149492], [-11.116604, 12.113732], [-11.136292, 12.085103], [-11.159392, 12.077507], [-11.165644, 12.04862], [-11.191173, 12.01441], [-11.274992, 11.996271], [-11.334678, 12.026192], [-11.391729, 12.093733], [-11.489604, 12.151197], [-11.507794, 12.191608], [-11.463249, 12.249951], [-11.444594, 12.289484], [-11.447229, 12.374543], [-11.431675, 12.382966], [-11.388628, 12.384465], [-11.377776, 12.480221], [-11.390437, 12.497533], [-11.400514, 12.479549], [-11.416999, 12.529314], [-11.42475, 12.526368], [-11.429814, 12.508333], [-11.449451, 12.535205], [-11.467797, 12.543525], [-11.43984, 12.559286], [-11.437359, 12.570758], [-11.436842, 12.637473], [-11.460975, 12.658402], [-11.461905, 12.673129], [-11.447953, 12.685945], [-11.437359, 12.712248], [-11.410332, 12.718811], [-11.402168, 12.73173], [-11.41457, 12.759713], [-11.405423, 12.782348], [-11.408472, 12.804491], [-11.432502, 12.835523], [-11.415138, 12.896656], [-11.427231, 12.918618], [-11.402891, 12.916396], [-11.387801, 12.927119], [-11.388835, 12.970553], [-11.401806, 12.989492], [-11.411521, 12.960709], [-11.438703, 12.9589], [-11.433432, 12.99696], [-11.422993, 13.009414], [-11.435654, 13.016726], [-11.45896, 13.054682], [-11.450278, 13.075095], [-11.533064, 13.111811], [-11.538542, 13.16297], [-11.569341, 13.199195], [-11.572338, 13.217101], [-11.554251, 13.256866], [-11.605824, 13.319653], [-11.613111, 13.360813], [-11.643962, 13.355594], [-11.649801, 13.38412], [-11.70401, 13.380373], [-11.726902, 13.405798], [-11.741217, 13.407813], [-11.76659, 13.383164], [-11.775116, 13.343347], [-11.828136, 13.307277], [-11.844569, 13.323839], [-11.854595, 13.350556], [-11.897589, 13.371175], [-11.883482, 13.453547], [-11.890406, 13.465148], [-11.918157, 13.474708], [-11.939034, 13.50295], [-12.015153, 13.564444], [-12.070395, 13.673249], [-12.097629, 13.70441], [-12.012311, 13.751177], [-11.978825, 13.784819], [-11.962908, 13.829467], [-11.956811, 13.890342], [-11.962908, 13.909152], [-12.015308, 13.959304], [-12.025334, 13.985246], [-12.02523, 14.026742], [-12.002751, 14.103456], [-11.997583, 14.166165], [-12.044299, 14.264919], [-12.097784, 14.28807], [-12.119591, 14.310575], [-12.127808, 14.324295], [-12.113029, 14.329592], [-12.108688, 14.34202], [-12.115612, 14.35512], [-12.22173, 14.391242], [-12.21987, 14.434598], [-12.236432, 14.519451], [-12.230386, 14.536685], [-12.204186, 14.554255], [-12.198398, 14.58756], [-12.165945, 14.625181], [-12.165015, 14.641872], [-12.18982, 14.655954], [-12.192197, 14.666884], [-12.180311, 14.692825], [-12.222815, 14.70329], [-12.256508, 14.745794], [-12.26413, 14.774939], [-12.224779, 14.763441]]]}}, {"type": "Feature", "properties": {"name": "Senegal"}, "geometry": {"type": "Polygon", "coordinates": [[[-12.256508, 14.745794], [-12.222815, 14.70329], [-12.180311, 14.692825], [-12.192197, 14.666884], [-12.18982, 14.655954], [-12.165015, 14.641872], [-12.165945, 14.625181], [-12.198398, 14.58756], [-12.204186, 14.554255], [-12.230386, 14.536685], [-12.236432, 14.519451], [-12.21987, 14.434598], [-12.22173, 14.391242], [-12.115612, 14.35512], [-12.108688, 14.34202], [-12.113029, 14.329592], [-12.127808, 14.324295], [-12.119591, 14.310575], [-12.097784, 14.28807], [-12.044299, 14.264919], [-11.997583, 14.166165], [-12.002751, 14.103456], [-12.02523, 14.026742], [-12.025334, 13.985246], [-12.015308, 13.959304], [-11.962908, 13.909152], [-11.956811, 13.890342], [-11.962908, 13.829467], [-11.978825, 13.784819], [-12.012311, 13.751177], [-12.097629, 13.70441], [-12.070395, 13.673249], [-12.015153, 13.564444], [-11.939034, 13.50295], [-11.918157, 13.474708], [-11.890406, 13.465148], [-11.883482, 13.453547], [-11.897589, 13.371175], [-11.854595, 13.350556], [-11.844569, 13.323839], [-11.828136, 13.307277], [-11.775116, 13.343347], [-11.76659, 13.383164], [-11.741217, 13.407813], [-11.726902, 13.405798], [-11.70401, 13.380373], [-11.649801, 13.38412], [-11.643962, 13.355594], [-11.613111, 13.360813], [-11.605824, 13.319653], [-11.554251, 13.256866], [-11.572338, 13.217101], [-11.569341, 13.199195], [-11.538542, 13.16297], [-11.533064, 13.111811], [-11.450278, 13.075095], [-11.45896, 13.054682], [-11.435654, 13.016726], [-11.422993, 13.009414], [-11.433432, 12.99696], [-11.438703, 12.9589], [-11.411521, 12.960709], [-11.401806, 12.989492], [-11.393434, 12.980811], [-11.384443, 12.933114], [-11.402891, 12.916396], [-11.427231, 12.918618], [-11.415138, 12.896656], [-11.432502, 12.835523], [-11.408472, 12.804491], [-11.405423, 12.782348], [-11.41457, 12.759713], [-11.402168, 12.73173], [-11.410332, 12.718811], [-11.437359, 12.712248], [-11.447953, 12.685945], [-11.461905, 12.673129], [-11.460975, 12.658402], [-11.436842, 12.637473], [-11.437359, 12.570758], [-11.43984, 12.559286], [-11.467797, 12.543525], [-11.449451, 12.535205], [-11.429814, 12.508333], [-11.42475, 12.526368], [-11.416999, 12.529314], [-11.400514, 12.479549], [-11.390437, 12.497533], [-11.377776, 12.480221], [-11.388422, 12.403895], [-11.515391, 12.431645], [-11.643083, 12.417641], [-11.757805, 12.383328], [-11.839609, 12.386687], [-11.923944, 12.418778], [-11.997583, 12.386377], [-12.07918, 12.408133], [-12.103985, 12.407357], [-12.192042, 12.348756], [-12.36092, 12.305607], [-12.377121, 12.313668], [-12.405517, 12.356456], [-12.466754, 12.384465], [-12.505072, 12.390253], [-12.570649, 12.363691], [-12.593671, 12.361572], [-12.603412, 12.381933], [-12.648009, 12.425754], [-12.688058, 12.435986], [-12.773272, 12.435056], [-12.783479, 12.453091], [-12.838617, 12.466372], [-12.849133, 12.475829], [-12.849211, 12.495001], [-12.913135, 12.536342], [-12.949489, 12.535928], [-12.969514, 12.476811], [-12.981038, 12.466992], [-13.051989, 12.472263], [-13.078267, 12.496241], [-13.082711, 12.515671], [-13.060413, 12.583367], [-13.063642, 12.62228], [-13.076458, 12.635922], [-13.091703, 12.638196], [-13.127308, 12.634837], [-13.145317, 12.643932], [-13.154696, 12.632822], [-13.169217, 12.638765], [-13.201903, 12.63339], [-13.22154, 12.648376], [-13.25469, 12.641813], [-13.284146, 12.653337], [-13.338613, 12.63923], [-13.404758, 12.661761], [-13.728279, 12.673388], [-15.195114, 12.679434], [-15.249736, 12.663621], [-15.424609, 12.555049], [-15.677049, 12.439294], [-15.711517, 12.432214], [-15.893883, 12.442756], [-15.973258, 12.437226], [-16.090512, 12.464305], [-16.181876, 12.443376], [-16.22239, 12.455055], [-16.412301, 12.361727], [-16.462686, 12.361314], [-16.533327, 12.347826], [-16.668874, 12.356715], [-16.705616, 12.348033], [-16.728437, 12.332531], [-16.74413, 12.378852], [-16.798736, 12.430894], [-16.800771, 12.494452], [-16.781361, 12.522935], [-16.731679, 12.552069], [-16.678822, 12.550238], [-16.645375, 12.570746], [-16.618031, 12.605455], [-16.579742, 12.632799], [-16.56135, 12.611802], [-16.54719, 12.573879], [-16.533315, 12.565334], [-16.532704, 12.580878], [-16.52245, 12.593085], [-16.50475, 12.598049], [-16.370961, 12.550238], [-16.30956, 12.598049], [-16.246693, 12.587958], [-16.212229, 12.60635], [-16.19286, 12.577582], [-16.11498, 12.606106], [-16.057607, 12.616197], [-16.029775, 12.632961], [-15.990346, 12.62287], [-15.939605, 12.580634], [-15.863881, 12.577582], [-15.839996, 12.557074], [-15.805531, 12.564521], [-15.768788, 12.592597], [-15.747874, 12.583726], [-15.729604, 12.591498], [-15.715932, 12.581773], [-15.699452, 12.583726], [-15.673085, 12.54442], [-15.644765, 12.537258], [-15.587717, 12.55801], [-15.538686, 12.615424], [-15.509836, 12.63581], [-15.507069, 12.649563], [-15.529856, 12.665758], [-15.521311, 12.673774], [-15.543446, 12.758043], [-15.534901, 12.783026], [-15.46642, 12.796454], [-15.446156, 12.824612], [-15.425608, 12.804999], [-15.406809, 12.799709], [-15.394032, 12.810248], [-15.391591, 12.838202], [-15.407053, 12.822333], [-15.453033, 12.831448], [-15.492787, 12.807115], [-15.549469, 12.794338], [-15.555409, 12.721584], [-15.54247, 12.6494], [-15.641021, 12.559475], [-15.672109, 12.570746], [-15.666412, 12.600653], [-15.696767, 12.614163], [-15.76769, 12.625393], [-15.833485, 12.591254], [-15.860463, 12.611721], [-15.889556, 12.600165], [-15.913319, 12.601223], [-15.953277, 12.625393], [-15.952707, 12.643744], [-15.981191, 12.652655], [-16.013173, 12.696194], [-16.022125, 12.72899], [-16.02831, 12.72899], [-16.045155, 12.690497], [-16.048899, 12.656399], [-16.076812, 12.638983], [-16.117747, 12.632148], [-16.155019, 12.611721], [-16.22761, 12.619127], [-16.268625, 12.605455], [-16.323842, 12.609565], [-16.346791, 12.598049], [-16.370961, 12.564521], [-16.44518, 12.596137], [-16.467193, 12.62226], [-16.489573, 12.631822], [-16.492828, 12.648912], [-16.467193, 12.666327], [-16.467193, 12.673774], [-16.492299, 12.681708], [-16.501332, 12.707913], [-16.508168, 12.625393], [-16.565663, 12.673896], [-16.570221, 12.69359], [-16.598785, 12.664008], [-16.614613, 12.660102], [-16.634674, 12.669379], [-16.637929, 12.69359], [-16.590728, 12.76203], [-16.596913, 12.797309], [-16.603749, 12.762519], [-16.638417, 12.728502], [-16.651031, 12.705268], [-16.647206, 12.632229], [-16.677317, 12.619574], [-16.721059, 12.583726], [-16.754628, 12.572211], [-16.773101, 12.582953], [-16.780873, 12.608832], [-16.777089, 12.678046], [-16.76122, 12.713202], [-16.735463, 12.732896], [-16.700551, 12.721584], [-16.698964, 12.736396], [-16.733957, 12.75137], [-16.751536, 12.745429], [-16.783559, 12.712592], [-16.796213, 12.715318], [-16.788238, 12.732082], [-16.796213, 12.748847], [-16.770131, 12.793362], [-16.775054, 12.81094], [-16.794057, 12.794989], [-16.802968, 12.814032], [-16.755238, 12.903469], [-16.762074, 12.951158], [-16.747792, 13.040269], [-16.752125, 13.088039], [-16.708407, 13.156692], [-16.673525, 13.164314], [-15.833318, 13.156847], [-15.8266, 13.161678], [-15.818694, 13.333528], [-15.6925, 13.360348], [-15.596123, 13.355827], [-15.519539, 13.3866], [-15.379237, 13.362519], [-15.342392, 13.36257], [-15.277073, 13.380296], [-15.248341, 13.398977], [-15.227774, 13.425176], [-15.217955, 13.51468], [-15.203951, 13.536901], [-15.160491, 13.580981], [-15.13765, 13.589973], [-15.01559, 13.496051], [-14.949703, 13.463081], [-14.862576, 13.447061], [-14.829142, 13.427011], [-14.790333, 13.417348], [-14.731577, 13.359005], [-14.698142, 13.345181], [-14.661607, 13.340918], [-14.592154, 13.35314], [-14.529574, 13.307277], [-14.470326, 13.298259], [-14.43144, 13.26144], [-14.368834, 13.235705], [-14.284911, 13.238547], [-14.201687, 13.229555], [-14.116808, 13.282162], [-14.056579, 13.297174], [-13.900568, 13.314563], [-13.851036, 13.33575], [-13.822562, 13.378203], [-13.818713, 13.429362], [-13.84269, 13.476646], [-13.8846, 13.505533], [-13.901343, 13.541629], [-13.94209, 13.566925], [-13.988495, 13.579146], [-14.034022, 13.560207], [-14.092882, 13.554729], [-14.139132, 13.531552], [-14.196829, 13.518788], [-14.271217, 13.476956], [-14.329947, 13.456441], [-14.365553, 13.454839], [-14.470275, 13.522354], [-14.486863, 13.546539], [-14.50973, 13.609093], [-14.542596, 13.640822], [-14.585539, 13.660459], [-14.626674, 13.663508], [-14.667188, 13.652889], [-14.74093, 13.615449], [-14.802942, 13.65232], [-14.831312, 13.735623], [-14.879268, 13.780581], [-14.915803, 13.792441], [-15.016779, 13.796885], [-15.07631, 13.818951], [-15.097704, 13.819984], [-15.17062, 13.793784], [-15.245964, 13.746733], [-15.267255, 13.741798], [-15.304462, 13.781873], [-15.347766, 13.788643], [-15.394069, 13.771512], [-15.467501, 13.708286], [-15.496801, 13.648341], [-15.502486, 13.588267], [-15.518195, 13.5831], [-16.561399, 13.586914], [-16.576405, 13.61225], [-16.575754, 13.640326], [-16.508168, 13.687974], [-16.529286, 13.700995], [-16.507232, 13.728095], [-16.508901, 13.74022], [-16.529286, 13.742621], [-16.531484, 13.707261], [-16.542104, 13.693671], [-16.556549, 13.69477], [-16.56371, 13.673774], [-16.598866, 13.654202], [-16.618031, 13.660061], [-16.635569, 13.678046], [-16.640004, 13.696479], [-16.62975, 13.760484], [-16.576405, 13.838813], [-16.549143, 13.82453], [-16.556549, 13.845649], [-16.52184, 13.851793], [-16.512929, 13.8133], [-16.501576, 13.801988], [-16.48705, 13.804633], [-16.5006, 13.872707], [-16.515696, 13.879788], [-16.48705, 14.002631], [-16.518056, 13.95185], [-16.52595, 13.910468], [-16.549428, 13.869289], [-16.570221, 13.872952], [-16.58023, 13.859524], [-16.637929, 13.845649], [-16.659006, 13.810858], [-16.682525, 13.794094], [-16.700063, 13.769029], [-16.710194, 13.773627], [-16.715321, 13.806342], [-16.737213, 13.819648], [-16.742421, 13.839423], [-16.73412, 13.872952], [-16.744456, 13.902167], [-16.746816, 13.951361], [-16.737213, 13.967678], [-16.702504, 13.989976], [-16.646311, 13.982978], [-16.63679, 13.974921], [-16.637929, 13.961656], [-16.598988, 13.996812], [-16.576405, 13.988959], [-16.576772, 14.010972], [-16.542348, 14.03734], [-16.568349, 14.030341], [-16.590728, 14.043606], [-16.545522, 14.07099], [-16.489125, 14.128241], [-16.457021, 14.137356], [-16.441477, 14.156562], [-16.429351, 14.160956], [-16.404693, 14.145413], [-16.364735, 14.167792], [-16.427724, 14.170111], [-16.454742, 14.180162], [-16.452952, 14.20185], [-16.468739, 14.193834], [-16.471506, 14.164252], [-16.460357, 14.15412], [-16.472768, 14.147366], [-16.513173, 14.151028], [-16.556549, 14.071519], [-16.600331, 14.054185], [-16.631703, 14.010077], [-16.654164, 14.002753], [-16.721059, 14.016303], [-16.696848, 14.064683], [-16.680002, 14.069403], [-16.652252, 14.099514], [-16.665639, 14.095649], [-16.678578, 14.076117], [-16.727895, 14.064683], [-16.717112, 14.042385], [-16.76887, 13.961656], [-16.76887, 13.838813], [-16.775054, 13.838813], [-16.786, 14.059719], [-16.82079, 14.143459], [-16.829701, 14.15412], [-16.878733, 14.174547], [-16.898915, 14.259955], [-16.925893, 14.291246], [-16.945465, 14.301418], [-16.939565, 14.355862], [-16.956532, 14.390123], [-16.987945, 14.421047], [-17.070465, 14.465399], [-17.11148, 14.530219], [-17.137847, 14.599026], [-17.178212, 14.653144], [-17.22411, 14.690416], [-17.281646, 14.707261], [-17.330556, 14.736314], [-17.417388, 14.737698], [-17.439809, 14.722073], [-17.419342, 14.70897], [-17.439809, 14.688463], [-17.426829, 14.674872], [-17.439809, 14.653754], [-17.536041, 14.757392], [-17.370961, 14.800279], [-17.322133, 14.839016], [-17.172963, 14.900824], [-17.138661, 14.92772], [-16.878245, 15.2331], [-16.739166, 15.472398], [-16.669667, 15.561835], [-16.534291, 15.784369], [-16.542348, 15.808824], [-16.519736, 15.846372], [-16.509918, 15.901511], [-16.507541, 16.010393], [-16.470437, 16.106357], [-16.465993, 16.174053], [-16.458758, 16.194155], [-16.444185, 16.206299], [-16.407288, 16.214825], [-16.385378, 16.234927], [-16.334941, 16.455793], [-16.295099, 16.510621], [-16.251019, 16.527623], [-16.195363, 16.522714], [-16.132266, 16.554753], [-16.110459, 16.54695], [-16.074027, 16.504885], [-16.05377, 16.495428], [-16.007313, 16.496152], [-15.985609, 16.505867], [-15.958065, 16.498426], [-15.896932, 16.518424], [-15.861999, 16.51026], [-15.812958, 16.513773], [-15.672191, 16.481372], [-15.609663, 16.521318], [-15.551475, 16.515117], [-15.52481, 16.522197], [-15.49091, 16.56452], [-15.463987, 16.58147], [-15.448846, 16.580178], [-15.414532, 16.548035], [-15.328026, 16.571961], [-15.232476, 16.56638], [-15.125093, 16.58271], [-15.093208, 16.600176], [-15.118271, 16.642603], [-15.107574, 16.665392], [-15.078894, 16.664979], [-15.051557, 16.63418], [-15.036933, 16.632578], [-15.018743, 16.646117], [-15.006909, 16.675831], [-14.974301, 16.691385], [-14.949858, 16.672317], [-14.930944, 16.643378], [-14.912496, 16.640639], [-14.882007, 16.647667], [-14.711216, 16.635782], [-14.655974, 16.64591], [-14.60807, 16.628805], [-14.555128, 16.640587], [-14.49309, 16.632474], [-14.406635, 16.660793], [-14.335529, 16.631544], [-14.335322, 16.586482], [-14.277961, 16.581263], [-14.268065, 16.54788], [-14.214166, 16.534961], [-14.073038, 16.400654], [-14.039836, 16.382102], [-14.0156, 16.35585], [-13.97785, 16.33797], [-13.971158, 16.324224], [-13.979323, 16.30035], [-13.963045, 16.272393], [-13.964078, 16.23007], [-13.883825, 16.193741], [-13.859072, 16.142272], [-13.835766, 16.120568], [-13.819203, 16.119276], [-13.794941, 16.131213], [-13.746701, 16.182373], [-13.729416, 16.189504], [-13.71058, 16.188884], [-13.719571, 16.135605], [-13.668954, 16.105736], [-13.635029, 16.121601], [-13.484934, 16.154984], [-13.4831, 16.141031], [-13.501703, 16.095143], [-13.491549, 16.088425], [-13.440028, 16.101861], [-13.422096, 16.077211], [-13.388558, 16.052096], [-13.369774, 15.985485], [-13.315927, 15.93045], [-13.31603, 15.881771], [-13.293654, 15.855312], [-13.27996, 15.82286], [-13.286135, 15.769633], [-13.250659, 15.742761], [-13.228258, 15.71129], [-13.248747, 15.65672], [-13.237844, 15.62344], [-13.178235, 15.628194], [-13.109712, 15.596413], [-13.091806, 15.575123], [-13.094958, 15.514713], [-13.083845, 15.49275], [-13.038889, 15.486885], [-12.995843, 15.514222], [-12.96432, 15.509158], [-12.95091, 15.465414], [-12.933056, 15.438284], [-12.931015, 15.397046], [-12.918974, 15.365368], [-12.847273, 15.313278], [-12.828049, 15.283874], [-12.83345, 15.269999], [-12.884196, 15.270826], [-12.894376, 15.263359], [-12.888356, 15.250879], [-12.856782, 15.221992], [-12.806397, 15.223077], [-12.787225, 15.214163], [-12.779474, 15.199616], [-12.784667, 15.166026], [-12.779758, 15.146389], [-12.754566, 15.13856], [-12.717049, 15.10342], [-12.690306, 15.092387], [-12.622946, 15.102258], [-12.602146, 15.078771], [-12.518973, 15.028283], [-12.484892, 15.017276], [-12.471508, 14.998], [-12.447633, 14.907437], [-12.382495, 14.84602], [-12.319579, 14.817185], [-12.26413, 14.774939], [-12.256508, 14.745794]]]}}, {"type": "Feature", "properties": {"name": "Algeria"}, "geometry": {"type": "Polygon", "coordinates": [[[-5.515964, 25.423256], [-8.682385, 27.285416], [-8.678768, 28.692823], [-8.648847, 28.725948], [-8.520819, 28.787081], [-8.430411, 28.841006], [-8.383489, 28.905782], [-8.316774, 28.939062], [-8.250474, 28.994769], [-8.182312, 29.035541], [-8.069658, 29.079337], [-8.036326, 29.099853], [-7.945014, 29.176231], [-7.839129, 29.239043], [-7.777996, 29.289324], [-7.729989, 29.311158], [-7.653611, 29.376193], [-7.619453, 29.389422], [-7.506126, 29.380223], [-7.463286, 29.389137], [-7.34961, 29.383439], [-7.258755, 29.467305], [-7.146934, 29.509238], [-7.070057, 29.516227], [-6.958236, 29.509238], [-6.783515, 29.446339], [-6.699649, 29.516227], [-6.559872, 29.530205], [-6.413107, 29.565149], [-6.27333, 29.579127], [-6.000765, 29.579127], [-5.756156, 29.614071], [-5.721212, 29.523216], [-5.637346, 29.495261], [-5.539503, 29.523216], [-5.43467, 29.642026], [-5.343815, 29.767825], [-5.273927, 29.886635], [-5.176083, 29.97749], [-5.138566810492844, 30.0], [0.0, 30.0], [0.0, 21.85132974497157], [-4.516025, 24.803991], [-5.515964, 25.423256]]]}}, {"type": "Feature", "properties": {"name": "Burkina Faso"}, "geometry": {"type": "Polygon", "coordinates": [[[-0.301682, 11.162937], [-0.298297, 11.128392], [-0.318813, 11.101365], [-0.368939, 11.065217], [-0.405888, 11.101468], [-0.425215, 11.101468], [-0.444387, 11.077439], [-0.456686, 11.029612], [-0.512961, 10.989744], [-0.590579, 10.982432], [-0.617244, 10.918637], [-0.634763, 10.907966], [-0.68277, 10.953596], [-0.667991, 10.976515], [-0.673933, 10.983517], [-0.694656, 10.982742], [-0.695999, 10.994033], [-0.816974, 10.996203], [-0.827774, 11.005841], [-0.860795, 10.992922], [-0.883171, 10.968634], [-0.900586, 10.966231], [-0.89392, 10.979899], [-0.904359, 10.979486], [-0.916451, 10.996203], [-0.932471, 11.003102], [-1.070343, 11.013902], [-1.098714, 11.009562], [-1.10755, 10.994343], [-1.355287, 10.99672], [-1.436057, 11.022713], [-1.562406, 11.026589], [-1.579821, 11.021215], [-1.587004, 11.003671], [-1.598683, 10.997133], [-2.750706, 10.985842], [-2.751119, 10.996462], [-2.837341, 10.998012], [-2.838711, 10.985119], [-2.815767, 10.929153], [-2.821399, 10.90626], [-2.864239, 10.864273], [-2.882662, 10.797068], [-2.899482, 10.76999], [-2.9031, 10.747149], [-2.922323, 10.721207], [-2.905115, 10.692733], [-2.932504, 10.634313], [-2.898294, 10.562612], [-2.891524, 10.521659], [-2.87044, 10.497784], [-2.859562, 10.465616], [-2.812149, 10.428822], [-2.767552, 10.4212], [-2.78104, 10.402415], [-2.822329, 10.387584], [-2.841295, 10.343272], [-2.833182, 10.305987], [-2.80569, 10.299011], [-2.799669, 10.280924], [-2.774839, 10.27524], [-2.754943, 10.260796], [-2.757682, 10.234648], [-2.798455, 10.189534], [-2.79892, 10.169613], [-2.788481, 10.124448], [-2.788481, 10.038768], [-2.770112987108426, 10.0], [-4.977348324847325, 10.0], [-4.981397, 10.007737], [-4.960209, 10.008486], [-4.956411, 10.021999], [-4.963336, 10.040319], [-5.010516, 10.07905], [-5.015581, 10.097111], [-5.037233, 10.083753], [-5.048343, 10.085355], [-5.056483, 10.097111], [-5.042866, 10.103338], [-5.070099, 10.110159], [-5.037595, 10.126489], [-5.039455, 10.134344], [-5.070719, 10.161009], [-5.06395, 10.179044], [-5.090718, 10.177933], [-5.081597, 10.206897], [-5.084414, 10.227439], [-5.097849, 10.209275], [-5.117073, 10.208034], [-5.111802, 10.27865], [-5.119192, 10.293533], [-5.152058, 10.305625], [-5.159499, 10.292319], [-5.168439, 10.291337], [-5.217584, 10.31994], [-5.296649, 10.32304], [-5.327086, 10.302576], [-5.353338, 10.308261], [-5.365533, 10.295703], [-5.402534, 10.300561], [-5.426977, 10.316865], [-5.437829, 10.340016], [-5.474157, 10.350325], [-5.48749, 10.392933], [-5.522578, 10.425489], [-5.508987, 10.490937], [-5.48165, 10.535327], [-5.468111, 10.58783], [-5.47855, 10.604238], [-5.477413, 10.61956], [-5.460566, 10.644571], [-5.475914, 10.650385], [-5.482632, 10.684233], [-5.467956, 10.752678], [-5.446459, 10.768698], [-5.431421, 10.844688], [-5.479118, 10.975533], [-5.501804, 10.97021], [-5.495603, 10.996203], [-5.504233, 11.072684], [-5.489764, 11.082115], [-5.390131, 11.094699], [-5.332512, 11.12157], [-5.322332, 11.135549], [-5.306726, 11.199395], [-5.262852, 11.251588], [-5.263472, 11.390184], [-5.218307, 11.422198], [-5.224663, 11.54077], [-5.233914, 11.575987], [-5.269467, 11.604099], [-5.299956, 11.606424], [-5.307604, 11.617638], [-5.280681, 11.699494], [-5.279544, 11.739026], [-5.28714, 11.758922], [-5.334269, 11.790806], [-5.370649, 11.791064], [-5.405996, 11.812303], [-5.412352, 11.82853], [-5.392302, 11.832354], [-5.369874, 11.820158], [-5.306519, 11.846048], [-5.275151, 11.837418], [-5.167819, 11.943665], [-5.089323, 11.97927], [-5.004703, 11.980665], [-4.95375, 12.005108], [-4.889955, 11.997925], [-4.847245, 12.013066], [-4.826238, 12.012705], [-4.806808, 11.996271], [-4.761281, 12.006607], [-4.746889, 12.015082], [-4.714617, 12.059007], [-4.673586, 12.05973], [-4.653716, 12.069135], [-4.636121, 12.117556], [-4.600309, 12.137555], [-4.570233, 12.138898], [-4.560466, 12.149492], [-4.585529, 12.197241], [-4.493545, 12.272844], [-4.488171, 12.320696], [-4.462488, 12.328189], [-4.435823, 12.301731], [-4.406135, 12.307467], [-4.415359, 12.350307], [-4.451636, 12.435314], [-4.443678, 12.459447], [-4.393448, 12.516446], [-4.387247, 12.533965], [-4.42249, 12.597217], [-4.482538, 12.646258], [-4.491323, 12.662794], [-4.485251, 12.714677], [-4.36885, 12.738991], [-4.297227, 12.712145], [-4.257642, 12.72093], [-4.23413, 12.74235], [-4.211883, 12.819193], [-4.224647, 12.864513], [-4.221314, 12.921254], [-4.229324, 12.948952], [-4.276918, 12.996236], [-4.316398, 13.070857], [-4.351073, 13.106075], [-4.327044, 13.168551], [-4.310197, 13.175553], [-4.234801, 13.175605], [-4.230021, 13.193149], [-4.258107, 13.21413], [-4.253508, 13.22909], [-4.205501, 13.272989], [-4.16602, 13.278157], [-4.131578, 13.323839], [-4.104267, 13.382698], [-4.087549, 13.397995], [-4.052539, 13.409002], [-3.97691, 13.460627], [-3.971613, 13.469954], [-3.997968, 13.480522], [-3.977737, 13.499926], [-3.964482, 13.487808], [-3.956059, 13.46166], [-3.917973, 13.451066], [-3.918593, 13.440318], [-3.942726, 13.431946], [-3.984042, 13.39647], [-3.971613, 13.386755], [-3.8926, 13.378926], [-3.798626, 13.347145], [-3.596882, 13.199402], [-3.569958, 13.196767], [-3.54505, 13.174494], [-3.449475, 13.16881], [-3.439475, 13.184855], [-3.452265, 13.237514], [-3.448544, 13.265781], [-3.42653, 13.27423], [-3.262406, 13.283919], [-3.248634, 13.292781], [-3.283955, 13.542198], [-3.263905, 13.602659], [-3.259719, 13.658315], [-3.266282, 13.682344], [-3.286952, 13.69777], [-3.267057, 13.717045], [-3.240418, 13.707976], [-3.195821, 13.674903], [-3.125102, 13.67728], [-3.08221, 13.646222], [-3.067508, 13.606767], [-3.019113, 13.637515], [-2.97232, 13.624467], [-2.895245, 13.651648], [-2.923383, 13.746035], [-2.928059, 13.799624], [-2.89447, 13.866571], [-2.855377, 13.996175], [-2.867288, 14.000542], [-2.840855, 14.042994], [-2.69319, 14.123196], [-2.597382, 14.222311], [-2.516147, 14.267864], [-2.46168, 14.280912], [-2.385612, 14.264712], [-2.151879, 14.15614], [-2.104337, 14.151179], [-2.035918, 14.181229], [-2.023412, 14.198643], [-2.005015, 14.444236], [-1.997057, 14.470694], [-1.967033, 14.483742], [-1.836963, 14.479582], [-1.69692, 14.496119], [-1.350275, 14.714969], [-1.307745, 14.734657], [-1.116697, 14.780443], [-1.07856, 14.796359], [-1.043317, 14.817908], [-0.782816, 15.048385], [-0.752895, 15.069727], [-0.719719, 15.078461], [-0.4679, 15.079908], [-0.458649, 15.075463], [-0.425732, 15.0026], [-0.397671, 15.002135], [-0.299176, 15.054741], [-0.236699, 15.065619], [-0.166988, 15.049677], [-0.033404, 14.995933], [0.0, 14.984665842510651], [0.0, 11.101807491585669], [-0.301682, 11.162937]]]}}, {"type": "Feature", "properties": {"name": "Togo"}, "geometry": {"type": "MultiPolygon", "coordinates": [[[[0.0, 11.101445182925428], [0.0, 11.086411652068419], [-0.032267, 11.098574], [-0.103348, 11.087541], [-0.121745, 11.092192], [-0.158668, 11.118444], [-0.166109, 11.13498], [0.0, 11.101445182925428]]], [[[-0.088129, 10.633486], [-0.098336, 10.654157], [-0.09769, 10.675008], [-0.082807, 10.756218], [-0.061103, 10.791358], [-0.032061, 10.813165], [-0.036091, 10.853137], [-0.014439, 10.953596], [0.0, 10.968764792622865], [0.0, 10.59528999498992], [-0.088129, 10.633486]]]]}}, {"type": "Feature", "properties": {"name": "Ghana"}, "geometry": {"type": "Polygon", "coordinates": [[[-0.158668, 11.118444], [-0.121745, 11.092192], [-0.103348, 11.087541], [-0.032267, 11.098574], [0.0, 11.086411652068419], [0.0, 10.968764792622865], [-0.014439, 10.953596], [-0.036091, 10.853137], [-0.032061, 10.813165], [-0.061103, 10.791358], [-0.082807, 10.756218], [-0.09769, 10.675008], [-0.098336, 10.654157], [-0.088129, 10.633486], [0.0, 10.59528999498992], [0.0, 10.0], [-2.770112987108426, 10.0], [-2.788481, 10.038768], [-2.788481, 10.124448], [-2.79892, 10.169613], [-2.798455, 10.189534], [-2.757682, 10.234648], [-2.754943, 10.260796], [-2.774839, 10.27524], [-2.799669, 10.280924], [-2.80569, 10.299011], [-2.833182, 10.305987], [-2.841295, 10.343272], [-2.822329, 10.387584], [-2.78104, 10.402415], [-2.767552, 10.4212], [-2.812149, 10.428822], [-2.859562, 10.465616], [-2.87044, 10.497784], [-2.891524, 10.521659], [-2.898294, 10.562612], [-2.932504, 10.634313], [-2.905115, 10.692733], [-2.922323, 10.721207], [-2.9031, 10.747149], [-2.899482, 10.76999], [-2.882662, 10.797068], [-2.864239, 10.864273], [-2.821399, 10.90626], [-2.815767, 10.929153], [-2.838711, 10.985119], [-2.837341, 10.998012], [-2.751119, 10.996462], [-2.750706, 10.985842], [-1.598683, 10.997133], [-1.587004, 11.003671], [-1.579821, 11.021215], [-1.562406, 11.026589], [-1.436057, 11.022713], [-1.355287, 10.99672], [-1.10755, 10.994343], [-1.098714, 11.009562], [-1.070343, 11.013902], [-0.932471, 11.003102], [-0.916451, 10.996203], [-0.904359, 10.979486], [-0.89392, 10.979899], [-0.900586, 10.966231], [-0.883171, 10.968634], [-0.860795, 10.992922], [-0.827774, 11.005841], [-0.816974, 10.996203], [-0.695999, 10.994033], [-0.694656, 10.982742], [-0.673933, 10.983517], [-0.667991, 10.976515], [-0.68277, 10.953596], [-0.634763, 10.907966], [-0.617244, 10.918637], [-0.590579, 10.982432], [-0.512961, 10.989744], [-0.456686, 11.029612], [-0.444387, 11.077439], [-0.425215, 11.101468], [-0.405888, 11.101468], [-0.368939, 11.065217], [-0.318813, 11.101365], [-0.298297, 11.128392], [-0.301682, 11.162937], [-0.166109, 11.13498], [-0.158668, 11.118444]]]}}, {"type": "Feature", "properties": {"name": "Guinea-Bissau"}, "geometry": {"type": "MultiPolygon", "coordinates": [[[[-13.734635, 12.585331], [-13.725075, 12.558149], [-13.67469, 12.496086], [-13.660712, 12.458672], [-13.684147, 12.39201], [-13.68301, 12.33868], [-13.695025, 12.292946], [-13.71182, 12.267521], [-13.740836, 12.256927], [-13.808558, 12.256101], [-13.795691, 12.278735], [-13.812641, 12.283592], [-13.840003, 12.277133], [-13.883153, 12.246437], [-13.943925, 12.218635], [-13.965732, 12.194244], [-13.972527, 12.151559], [-13.918396, 12.137762], [-13.869717, 12.10071], [-13.842406, 12.091304], [-13.807757, 12.044279], [-13.734919, 12.019267], [-13.723938, 12.002783], [-13.734635, 11.901859], [-13.719571, 11.766105], [-13.729932, 11.709829], [-13.770007, 11.688693], [-13.815767, 11.686833], [-13.820134, 11.708072], [-13.842975, 11.71727], [-13.846282, 11.737269], [-13.870053, 11.743677], [-13.870673, 11.704145], [-13.886409, 11.675568], [-13.903643, 11.665387], [-13.923745, 11.665026], [-13.945423, 11.675671], [-14.015135, 11.63712], [-14.058827, 11.644045], [-14.118565, 11.637999], [-14.161844, 11.660943], [-14.289692, 11.66885], [-14.339223, 11.61061], [-14.520944, 11.51289], [-14.562259, 11.505604], [-14.64538, 11.515061], [-14.686773, 11.51072], [-14.711061, 11.497568], [-14.828212, 11.334787], [-14.863145, 11.218645], [-14.959056, 11.035762], [-15.020985, 10.967475], [-15.085194, 10.927639], [-15.09675, 10.929348], [-15.093984, 10.942532], [-15.069447, 10.960028], [-15.048329, 10.994818], [-15.083079, 10.967475], [-15.114003, 10.975165], [-15.099355, 11.057685], [-15.082753, 11.075426], [-15.065745, 11.114569], [-15.042104, 11.118313], [-15.042104, 11.138821], [-15.000559, 11.142239], [-15.020985, 11.166083], [-14.999745, 11.198961], [-15.000885, 11.216783], [-15.014801, 11.227525], [-15.038726, 11.182603], [-15.083079, 11.166083], [-15.081858, 11.140204], [-15.102895, 11.145657], [-15.110341, 11.125149], [-15.124623, 11.131985], [-15.130849, 11.103664], [-15.154775, 11.086982], [-15.206899, 11.009589], [-15.230133, 10.994818], [-15.258453, 11.013617], [-15.271108, 11.039211], [-15.230214, 11.061835], [-15.214508, 11.081448], [-15.206614, 11.125149], [-15.217356, 11.209418], [-15.206614, 11.233791], [-15.229115, 11.230373], [-15.234975, 11.215562], [-15.225087, 11.163967], [-15.23351, 11.122545], [-15.259348, 11.132636], [-15.294749, 11.131985], [-15.322621, 11.145657], [-15.358225, 11.144232], [-15.373525, 11.173774], [-15.409535, 11.189602], [-15.410064, 11.279202], [-15.426137, 11.286526], [-15.418853, 11.327135], [-15.38858, 11.36994], [-15.377919, 11.378363], [-15.351308, 11.367621], [-15.329701, 11.368476], [-15.2954, 11.390815], [-15.268056, 11.43301], [-15.343129, 11.378363], [-15.358469, 11.387356], [-15.361684, 11.399115], [-15.35676, 11.429592], [-15.331044, 11.462633], [-15.353383, 11.463324], [-15.366444, 11.450751], [-15.384185, 11.404731], [-15.42634, 11.385199], [-15.449452, 11.347073], [-15.494293, 11.333889], [-15.502675, 11.336656], [-15.507069, 11.357896], [-15.489003, 11.40469], [-15.453033, 11.460354], [-15.476715, 11.467963], [-15.4735, 11.494452], [-15.456776, 11.489081], [-15.43871, 11.501899], [-15.432485, 11.48078], [-15.420644, 11.505276], [-15.412343, 11.507717], [-15.405263, 11.494452], [-15.397817, 11.494452], [-15.412017, 11.529242], [-15.405263, 11.536038], [-15.35436, 11.525051], [-15.348866, 11.528266], [-15.35676, 11.542873], [-15.349965, 11.563381], [-15.335072, 11.552436], [-15.30956, 11.55386], [-15.30899, 11.536038], [-15.289866, 11.542792], [-15.290395, 11.556342], [-15.316477, 11.583808], [-15.336293, 11.576972], [-15.336293, 11.583808], [-15.294749, 11.604926], [-15.27477, 11.578111], [-15.258453, 11.570258], [-15.240102, 11.576972], [-15.252268, 11.578803], [-15.253774, 11.604926], [-15.277252, 11.61164], [-15.281117, 11.624823], [-15.240102, 11.611762], [-15.226471, 11.618598], [-15.233876, 11.591254], [-15.209137, 11.573961], [-15.192291, 11.591254], [-15.212758, 11.621731], [-15.194447, 11.642808], [-15.186147, 11.645901], [-15.148427, 11.628811], [-15.143951, 11.59809], [-15.124623, 11.604926], [-15.130849, 11.618598], [-15.115875, 11.617743], [-15.089915, 11.591254], [-15.143951, 11.583808], [-15.124623, 11.570217], [-15.128896, 11.554429], [-15.12328, 11.545478], [-15.114735, 11.546332], [-15.105092, 11.572903], [-15.023752, 11.582668], [-15.007314, 11.611762], [-15.039174, 11.599066], [-15.079945, 11.597968], [-15.081044, 11.61286], [-15.062001, 11.618598], [-15.062001, 11.645901], [-15.082387, 11.643256], [-15.089915, 11.618598], [-15.103627, 11.633979], [-15.124623, 11.638495], [-15.102895, 11.666409], [-15.110341, 11.686835], [-15.117177, 11.686835], [-15.130849, 11.652737], [-15.171864, 11.659573], [-15.161448, 11.674872], [-15.135162, 11.689521], [-15.130849, 11.707953], [-15.148671, 11.694525], [-15.171864, 11.701117], [-15.175771, 11.684475], [-15.192291, 11.68008], [-15.18932, 11.665473], [-15.206899, 11.666815], [-15.212758, 11.68008], [-15.228017, 11.658596], [-15.236318, 11.664293], [-15.231353, 11.681301], [-15.206614, 11.693671], [-15.219106, 11.708157], [-15.212758, 11.727851], [-15.186147, 11.721625], [-15.199452, 11.744534], [-15.226471, 11.755113], [-15.241444, 11.712104], [-15.240102, 11.693671], [-15.259348, 11.676825], [-15.274159, 11.676581], [-15.26122, 11.701117], [-15.272939, 11.706204], [-15.275014, 11.718492], [-15.268056, 11.748358], [-15.284088, 11.734117], [-15.288564, 11.711086], [-15.322621, 11.707953], [-15.281117, 11.669827], [-15.285024, 11.65644], [-15.293935, 11.653144], [-15.30899, 11.666409], [-15.322621, 11.63227], [-15.336415, 11.684394], [-15.349965, 11.68008], [-15.343129, 11.666409], [-15.35676, 11.666409], [-15.352854, 11.640082], [-15.336293, 11.618598], [-15.343129, 11.604926], [-15.391591, 11.659573], [-15.394683, 11.641913], [-15.371083, 11.591254], [-15.391591, 11.59809], [-15.396067, 11.584621], [-15.40453, 11.584459], [-15.412017, 11.611762], [-15.418853, 11.611762], [-15.42634, 11.570217], [-15.43871, 11.576972], [-15.43871, 11.557115], [-15.449127, 11.563788], [-15.468861, 11.60578], [-15.428456, 11.670478], [-15.42634, 11.693671], [-15.476145, 11.654364], [-15.493967, 11.666409], [-15.487782, 11.707953], [-15.508941, 11.704535], [-15.538075, 11.676215], [-15.551381, 11.73314], [-15.517893, 11.79267], [-15.463124, 11.839993], [-15.457387, 11.864651], [-15.43871, 11.885443], [-15.418853, 11.871243], [-15.410064, 11.884182], [-15.397817, 11.885443], [-15.312734, 11.871243], [-15.189198, 11.871243], [-15.161855, 11.892971], [-15.13561, 11.899156], [-15.089915, 11.940131], [-15.066965, 11.940131], [-15.062856, 11.924994], [-15.087148, 11.870347], [-15.086415, 11.845404], [-15.069447, 11.803616], [-15.002553, 11.783515], [-14.982411, 11.754136], [-14.935902, 11.752997], [-14.925404, 11.769436], [-14.951405, 11.760647], [-14.996816, 11.81037], [-15.046702, 11.823472], [-15.070221, 11.860745], [-15.042104, 11.896064], [-15.023061, 11.951077], [-14.993764, 11.957221], [-15.007232, 11.978339], [-15.04662, 11.976467], [-15.079701, 11.987942], [-15.093861, 11.98371], [-15.140777, 11.961168], [-15.192291, 11.913398], [-15.215077, 11.909613], [-15.313059, 11.932807], [-15.35851, 11.963202], [-15.380971, 11.968207], [-15.42634, 11.961168], [-15.456451, 11.940131], [-15.497385, 11.936998], [-15.528717, 11.905951], [-15.555409, 11.892971], [-15.593251, 11.84455], [-15.679555, 11.803616], [-15.744252, 11.791938], [-15.830393, 11.748358], [-15.809926, 11.829535], [-15.791493, 11.863227], [-15.734202, 11.85814], [-15.734202, 11.864976], [-15.753041, 11.866116], [-15.776357, 11.885688], [-15.795562, 11.885443], [-15.811594, 11.873684], [-15.817779, 11.837592], [-15.850168, 11.775336], [-15.860463, 11.769436], [-15.880035, 11.774359], [-15.877553, 11.824042], [-15.894276, 11.81623], [-15.905507, 11.761949], [-15.958974, 11.734809], [-15.969553, 11.768256], [-15.931996, 11.879584], [-15.921864, 11.896918], [-15.897817, 11.909573], [-15.891225, 11.933905], [-15.865346, 11.972235], [-15.821767, 11.99787], [-15.781972, 12.002834], [-15.767568, 11.978746], [-15.72053, 11.967434], [-15.706288, 12.008287], [-15.713694, 12.015815], [-15.742787, 11.99494], [-15.761464, 11.995307], [-15.781972, 12.015815], [-15.837066, 12.013861], [-15.863881, 12.029486], [-15.871002, 12.013007], [-15.889556, 12.00259], [-15.932769, 11.995307], [-15.925933, 11.981106], [-15.932769, 11.97484], [-15.946401, 11.983629], [-15.944732, 11.95307], [-15.967885, 11.926988], [-16.055653, 11.920233], [-16.124582, 11.885443], [-16.158762, 11.913398], [-16.183176, 11.907904], [-16.243031, 11.925442], [-16.27538, 11.981106], [-16.323232, 11.995307], [-16.338002, 12.016995], [-16.355133, 12.087348], [-16.357289, 12.101142], [-16.319569, 12.171698], [-16.282826, 12.193996], [-16.277455, 12.173285], [-16.261138, 12.180325], [-16.268625, 12.214423], [-16.257395, 12.23017], [-16.148427, 12.290676], [-16.104115, 12.337958], [-16.06314, 12.35102], [-16.107533, 12.344672], [-16.155385, 12.300035], [-16.22761, 12.282701], [-16.271962, 12.252346], [-16.305816, 12.214423], [-16.324574, 12.222154], [-16.316396, 12.282701], [-16.350209, 12.197211], [-16.365346, 12.192328], [-16.384633, 12.200832], [-16.391469, 12.193996], [-16.405751, 12.207668], [-16.415679, 12.188463], [-16.443267, 12.187161], [-16.457631, 12.171942], [-16.466298, 12.183905], [-16.50064, 12.196601], [-16.508168, 12.217841], [-16.53893, 12.256049], [-16.567006, 12.27733], [-16.576405, 12.282701], [-16.603749, 12.276516], [-16.624257, 12.30386], [-16.672678, 12.337958], [-16.721059, 12.323676], [-16.728437, 12.332531], [-16.705616, 12.348033], [-16.668874, 12.356715], [-16.533327, 12.347826], [-16.462686, 12.361314], [-16.412301, 12.361727], [-16.22239, 12.455055], [-16.181876, 12.443376], [-16.090512, 12.464305], [-15.973258, 12.437226], [-15.893883, 12.442756], [-15.711517, 12.432214], [-15.677049, 12.439294], [-15.424609, 12.555049], [-15.249736, 12.663621], [-15.195114, 12.679434], [-13.728279, 12.673388], [-13.734635, 12.585331]]], [[[-15.911692, 11.166327], [-15.894846, 11.098863], [-15.877553, 11.073635], [-15.894643, 11.054348], [-15.963246, 11.05622], [-15.978179, 11.048082], [-15.977895, 11.069037], [-15.925933, 11.090399], [-15.930491, 11.10163], [-15.941762, 11.105373], [-15.951894, 11.099921], [-15.953277, 11.083564], [-15.966949, 11.097846], [-15.953481, 11.124457], [-15.957143, 11.187242], [-15.946401, 11.200263], [-15.911692, 11.166327]]], [[[-15.974477, 11.116197], [-16.017079, 11.068671], [-16.03246, 11.121487], [-16.022125, 11.138821], [-16.044993, 11.138739], [-16.056142, 11.148586], [-16.056996, 11.16356], [-16.034535, 11.190497], [-15.981191, 11.207099], [-15.974477, 11.116197]]], [[[-16.06314, 11.118313], [-16.053334, 11.091539], [-16.062245, 11.058417], [-16.055653, 11.049465], [-16.076161, 11.036119], [-16.131988, 11.028957], [-16.131988, 11.063666], [-16.151275, 11.042548], [-16.145009, 11.028957], [-16.165517, 11.042548], [-16.188466, 11.039618], [-16.213124, 11.055569], [-16.248036, 11.104682], [-16.20165, 11.135647], [-16.186676, 11.131985], [-16.206532, 11.125149], [-16.199696, 11.110826], [-16.179433, 11.124661], [-16.169749, 11.13227], [-16.161855, 11.166205], [-16.138295, 11.186591], [-16.117747, 11.172919], [-16.115102, 11.197455], [-16.099965, 11.208197], [-16.079986, 11.206244], [-16.05663, 11.185207], [-16.069407, 11.162746], [-16.067698, 11.147895], [-16.048899, 11.118313], [-16.06314, 11.118313]]], [[[-15.831166, 11.302965], [-15.825836, 11.29267], [-15.836537, 11.25552], [-15.837554, 11.214016], [-15.846506, 11.200995], [-15.871327, 11.200263], [-15.896067, 11.218207], [-15.896474, 11.248725], [-15.880767, 11.280585], [-15.857086, 11.30268], [-15.831166, 11.302965]]], [[[-15.658437, 11.233791], [-15.663442, 11.229885], [-15.678822, 11.254136], [-15.693186, 11.25552], [-15.685699, 11.241197], [-15.698638, 11.220852], [-15.706207, 11.214504], [-15.714508, 11.224921], [-15.726796, 11.220771], [-15.720326, 11.195624], [-15.726796, 11.166083], [-15.734202, 11.179145], [-15.754018, 11.179145], [-15.763824, 11.167914], [-15.773305, 11.173082], [-15.781972, 11.200263], [-15.759511, 11.221869], [-15.775136, 11.233791], [-15.754018, 11.25552], [-15.754018, 11.275946], [-15.736684, 11.275539], [-15.723541, 11.299018], [-15.699534, 11.305813], [-15.658437, 11.30268], [-15.658437, 11.233791]]], [[[-16.251454, 11.217678], [-16.282826, 11.230658], [-16.281646, 11.242621], [-16.261138, 11.261664], [-16.262522, 11.278632], [-16.248687, 11.29442], [-16.206532, 11.310126], [-16.197499, 11.298407], [-16.158762, 11.296454], [-16.154408, 11.289211], [-16.151275, 11.25552], [-16.172841, 11.244574], [-16.172963, 11.220771], [-16.251454, 11.217678]]], [[[-15.651601, 11.488227], [-15.658437, 11.473944], [-15.652659, 11.466051], [-15.679555, 11.440416], [-15.685699, 11.453518], [-15.704661, 11.442694], [-15.735097, 11.449856], [-15.740387, 11.460354], [-15.735463, 11.469428], [-15.713694, 11.46776], [-15.693186, 11.501899], [-15.685699, 11.494452], [-15.665273, 11.508734], [-15.660064, 11.501858], [-15.665273, 11.494452], [-15.651601, 11.488227]]], [[[-16.302113, 11.453518], [-16.25536, 11.482733], [-16.236684, 11.508002], [-16.165517, 11.51557], [-16.164174, 11.49608], [-16.213979, 11.440416], [-16.302113, 11.453518]]], [[[-16.313832, 11.480536], [-16.336822, 11.501899], [-16.391469, 11.501899], [-16.419423, 11.488227], [-16.411977, 11.522406], [-16.426259, 11.529242], [-16.38915, 11.547675], [-16.309967, 11.553453], [-16.282826, 11.583808], [-16.267934, 11.57689], [-16.248036, 11.583808], [-16.241282, 11.570217], [-16.244537, 11.552151], [-16.275543, 11.49551], [-16.313832, 11.480536]]], [[[-16.001332, 11.569037], [-15.95226, 11.606757], [-15.939605, 11.604926], [-15.930898, 11.578681], [-15.922434, 11.57803], [-15.918446, 11.591254], [-15.906077, 11.578437], [-15.909291, 11.551703], [-15.89802, 11.542873], [-15.91039, 11.522691], [-15.913442, 11.498358], [-15.89802, 11.453518], [-15.965688, 11.426703], [-15.973785, 11.447252], [-15.981191, 11.447252], [-15.987416, 11.43301], [-16.001088, 11.447252], [-16.015859, 11.42829], [-16.035227, 11.419989], [-16.083608, 11.46776], [-16.022125, 11.512152], [-16.001332, 11.569037]]], [[[-15.487782, 11.594672], [-15.471669, 11.566148], [-15.521311, 11.570217], [-15.542348, 11.549709], [-15.569692, 11.549709], [-15.569692, 11.542873], [-15.548411, 11.535142], [-15.552235, 11.519517], [-15.566314, 11.510484], [-15.575836, 11.522406], [-15.621734, 11.522447], [-15.630279, 11.528998], [-15.632965, 11.538235], [-15.607411, 11.550116], [-15.585683, 11.577541], [-15.562245, 11.576972], [-15.560292, 11.59219], [-15.528717, 11.624823], [-15.51183, 11.620429], [-15.4735, 11.63227], [-15.487782, 11.594672]]], [[[-16.148061, 11.877265], [-16.079945, 11.873236], [-16.035227, 11.892971], [-16.036977, 11.899237], [-15.994862, 11.899115], [-15.985585, 11.887437], [-15.989084, 11.861518], [-16.014719, 11.824042], [-16.029408, 11.769192], [-16.041412, 11.755113], [-16.051666, 11.762193], [-16.083608, 11.755113], [-16.121165, 11.799791], [-16.154775, 11.807766], [-16.165517, 11.871243], [-16.148061, 11.877265]]]]}}, {"type": "Feature", "properties": {"name": "Mauritania"}, "geometry": {"type": "MultiPolygon", "coordinates": [[[[-5.515964, 25.423256], [-4.821613, 24.995065], [-6.593107, 24.994134], [-5.949115, 19.495633], [-5.623347, 16.527829], [-5.60588, 16.495893], [-5.364913, 16.334921], [-5.353286, 16.311977], [-5.510951, 15.494197], [-9.349218, 15.495644], [-9.342965, 15.586931], [-9.329322, 15.655247], [-9.332423, 15.687571], [-9.356453, 15.697854], [-9.375935, 15.685917], [-9.451692, 15.588326], [-9.451847, 15.559206], [-9.42389, 15.440532], [-9.672118, 15.430661], [-9.720823, 15.42092], [-9.797356, 15.380303], [-9.835596, 15.371104], [-9.951403, 15.381207], [-10.067624, 15.364748], [-10.108293, 15.365885], [-10.188391, 15.40472], [-10.223221, 15.402033], [-10.322647, 15.437095], [-10.534985, 15.441694], [-10.607126, 15.424434], [-10.725361, 15.433064], [-10.736368, 15.422626], [-10.738901, 15.362164], [-10.746807, 15.341132], [-10.78174, 15.308421], [-10.811041, 15.303124], [-10.827216, 15.287698], [-10.844062, 15.234549], [-10.890881, 15.176749], [-10.915169, 15.102904], [-10.948035, 15.151996], [-10.98519, 15.187498], [-11.012734, 15.239588], [-11.045393, 15.270206], [-11.298195, 15.451048], [-11.409557, 15.602201], [-11.458236, 15.632949], [-11.524382, 15.643465], [-11.513117, 15.625275], [-11.515391, 15.610082], [-11.579211, 15.577965], [-11.614868, 15.541171], [-11.644117, 15.526444], [-11.727057, 15.541171], [-11.729434, 15.496058], [-11.754859, 15.469083], [-11.767675, 15.437198], [-11.783488, 15.365885], [-11.816923, 15.296096], [-11.826793, 15.23256], [-11.845655, 15.179075], [-11.845138, 15.124556], [-11.860899, 15.049005], [-11.851029, 15.041951], [-11.832839, 15.049005], [-11.81377, 15.028541], [-11.813202, 14.995933], [-11.830927, 14.926429], [-11.820385, 14.89997], [-11.837076, 14.893097], [-11.877487, 14.841524], [-11.935985, 14.823618], [-11.991486, 14.76804], [-12.011071, 14.762743], [-12.049673, 14.767213], [-12.070395, 14.734399], [-12.138867, 14.784525], [-12.203256, 14.76618], [-12.246793, 14.767007], [-12.319579, 14.817185], [-12.382495, 14.84602], [-12.447633, 14.907437], [-12.471508, 14.998], [-12.484892, 15.017276], [-12.518973, 15.028283], [-12.602146, 15.078771], [-12.622946, 15.102258], [-12.690306, 15.092387], [-12.717049, 15.10342], [-12.754566, 15.13856], [-12.779758, 15.146389], [-12.784667, 15.166026], [-12.779474, 15.199616], [-12.787225, 15.214163], [-12.806397, 15.223077], [-12.856782, 15.221992], [-12.888356, 15.250879], [-12.894376, 15.263359], [-12.884196, 15.270826], [-12.83345, 15.269999], [-12.828049, 15.283874], [-12.847273, 15.313278], [-12.918974, 15.365368], [-12.931015, 15.397046], [-12.933056, 15.438284], [-12.95091, 15.465414], [-12.96432, 15.509158], [-12.995843, 15.514222], [-13.038889, 15.486885], [-13.083845, 15.49275], [-13.094958, 15.514713], [-13.091806, 15.575123], [-13.109712, 15.596413], [-13.178235, 15.628194], [-13.237844, 15.62344], [-13.248747, 15.65672], [-13.228258, 15.71129], [-13.250659, 15.742761], [-13.286135, 15.769633], [-13.27996, 15.82286], [-13.293654, 15.855312], [-13.31603, 15.881771], [-13.315927, 15.93045], [-13.369774, 15.985485], [-13.388558, 16.052096], [-13.422096, 16.077211], [-13.440028, 16.101861], [-13.491549, 16.088425], [-13.501703, 16.095143], [-13.4831, 16.141031], [-13.484934, 16.154984], [-13.635029, 16.121601], [-13.668954, 16.105736], [-13.719571, 16.135605], [-13.71058, 16.188884], [-13.729416, 16.189504], [-13.746701, 16.182373], [-13.794941, 16.131213], [-13.819203, 16.119276], [-13.835766, 16.120568], [-13.859072, 16.142272], [-13.883825, 16.193741], [-13.964078, 16.23007], [-13.963045, 16.272393], [-13.979323, 16.30035], [-13.971158, 16.324224], [-13.97785, 16.33797], [-14.0156, 16.35585], [-14.039836, 16.382102], [-14.073038, 16.400654], [-14.214166, 16.534961], [-14.268065, 16.54788], [-14.277961, 16.581263], [-14.335322, 16.586482], [-14.335529, 16.631544], [-14.406635, 16.660793], [-14.49309, 16.632474], [-14.555128, 16.640587], [-14.60807, 16.628805], [-14.655974, 16.64591], [-14.711216, 16.635782], [-14.882007, 16.647667], [-14.912496, 16.640639], [-14.930944, 16.643378], [-14.949858, 16.672317], [-14.974301, 16.691385], [-15.006909, 16.675831], [-15.018743, 16.646117], [-15.036933, 16.632578], [-15.051557, 16.63418], [-15.078894, 16.664979], [-15.107574, 16.665392], [-15.118271, 16.642603], [-15.093208, 16.600176], [-15.125093, 16.58271], [-15.232476, 16.56638], [-15.328026, 16.571961], [-15.414532, 16.548035], [-15.448846, 16.580178], [-15.463987, 16.58147], [-15.49091, 16.56452], [-15.52481, 16.522197], [-15.551475, 16.515117], [-15.609663, 16.521318], [-15.672191, 16.481372], [-15.812958, 16.513773], [-15.861999, 16.51026], [-15.896932, 16.518424], [-15.958065, 16.498426], [-15.985609, 16.505867], [-16.007313, 16.496152], [-16.05377, 16.495428], [-16.074027, 16.504885], [-16.110459, 16.54695], [-16.132266, 16.554753], [-16.195363, 16.522714], [-16.273808, 16.523179], [-16.313547, 16.49331], [-16.334941, 16.455793], [-16.385378, 16.234927], [-16.407288, 16.214825], [-16.444185, 16.206299], [-16.458758, 16.194155], [-16.470437, 16.106357], [-16.507541, 16.010393], [-16.509918, 15.901511], [-16.519736, 15.846372], [-16.542348, 15.808824], [-16.527333, 15.977362], [-16.539215, 16.267239], [-16.529286, 16.332709], [-16.494496, 16.401597], [-16.486155, 16.451728], [-16.467152, 16.492865], [-16.467193, 16.600246], [-16.459218, 16.643948], [-16.37914, 16.84101], [-16.357818, 16.874661], [-16.343088, 16.942288], [-16.278066, 17.040717], [-16.172597, 17.262356], [-16.078969, 17.544827], [-16.04898, 17.667182], [-16.024159, 17.96015], [-16.035227, 18.141425], [-16.069407, 18.484036], [-16.131988, 18.628648], [-16.15567, 18.752509], [-16.172963, 18.793118], [-16.163971, 18.81684], [-16.165598, 18.844184], [-16.204579, 18.982733], [-16.238922, 19.061021], [-16.282786, 19.130439], [-16.368276, 19.221503], [-16.467193, 19.259263], [-16.50475, 19.350002], [-16.535471, 19.380805], [-16.52184, 19.39643], [-16.463735, 19.381537], [-16.407786, 19.389228], [-16.359202, 19.415839], [-16.323232, 19.457913], [-16.284901, 19.529283], [-16.285878, 19.542711], [-16.307281, 19.543606], [-16.391469, 19.464057], [-16.350494, 19.546617], [-16.364654, 19.539252], [-16.426259, 19.482489], [-16.434193, 19.45954], [-16.428944, 19.441718], [-16.439931, 19.413235], [-16.465077, 19.412543], [-16.467193, 19.464057], [-16.43163, 19.505927], [-16.422515, 19.54385], [-16.384633, 19.57392], [-16.289133, 19.711127], [-16.270823, 19.725898], [-16.264272, 19.762844], [-16.233795, 19.793647], [-16.235951, 19.8133], [-16.248036, 19.827826], [-16.235178, 19.842434], [-16.233795, 19.861965], [-16.254872, 19.848293], [-16.257802, 19.864163], [-16.243479, 19.888739], [-16.248036, 19.902899], [-16.26651, 19.913723], [-16.279164, 19.905219], [-16.289133, 19.882473], [-16.305572, 19.873033], [-16.313303, 19.889716], [-16.297963, 19.922512], [-16.222483, 20.003567], [-16.213979, 20.033271], [-16.218373, 20.057929], [-16.261138, 20.135688], [-16.239613, 20.138129], [-16.211659, 20.175605], [-16.199696, 20.215155], [-16.20226, 20.233303], [-16.23762, 20.289984], [-16.267486, 20.298245], [-16.275136, 20.317043], [-16.295074, 20.330552], [-16.323232, 20.396389], [-16.34789, 20.417548], [-16.350494, 20.427436], [-16.339955, 20.441067], [-16.391184, 20.569485], [-16.423899, 20.601264], [-16.429555, 20.644232], [-16.446685, 20.636542], [-16.467193, 20.649604], [-16.467193, 20.65705], [-16.408681, 20.675035], [-16.480824, 20.675116], [-16.494496, 20.691148], [-16.48705, 20.697984], [-16.501332, 20.725979], [-16.529286, 20.738959], [-16.536285, 20.69538], [-16.528432, 20.598619], [-16.542348, 20.560858], [-16.598988, 20.61107], [-16.621165, 20.64647], [-16.672678, 20.677558], [-16.673451, 20.688951], [-16.659006, 20.697984], [-16.671132, 20.737128], [-16.710194, 20.770006], [-16.713694, 20.79621], [-16.73412, 20.821519], [-16.775054, 20.937649], [-16.788686, 20.923977], [-16.803212, 20.937445], [-16.81664, 20.986029], [-16.840403, 21.009508], [-16.87328, 21.064643], [-16.898549, 21.136868], [-16.917592, 21.159166], [-16.931223, 21.151516], [-17.015859, 21.031236], [-17.008412, 21.013373], [-16.997182, 21.0185], [-17.004384, 20.93244], [-17.049428, 20.90351], [-17.027903, 20.854234], [-17.038442, 20.799791], [-17.056874, 20.766913], [-17.081175, 20.874748], [-17.077428, 20.904513], [-17.047378, 21.0274], [-17.004926, 21.141915], [-16.968339, 21.324591], [-16.958831, 21.332859], [-13.015247, 21.333428], [-13.09333, 22.495476], [-13.106353, 22.560226], [-13.15498, 22.688797], [-13.165497, 22.752695], [-13.152293, 22.820004], [-13.119892, 22.88354], [-13.015247, 23.018002], [-12.619432, 23.270829], [-12.558376, 23.290285], [-12.353892, 23.322479], [-12.134578, 23.419347], [-12.032723, 23.444978], [-12.019339, 23.460998], [-12.015308, 25.9949], [-8.687656, 26.000016], [-8.680809, 26.013142], [-8.682385, 27.285416], [-5.515964, 25.423256]]], [[[-16.345937, 19.868354], [-16.336822, 19.855699], [-16.367055, 19.721096], [-16.392323, 19.658352], [-16.432485, 19.601264], [-16.452952, 19.629218], [-16.450185, 19.65648], [-16.463979, 19.684638], [-16.426259, 19.748969], [-16.426259, 19.786851], [-16.418202, 19.805609], [-16.39094, 19.826117], [-16.377797, 19.813544], [-16.345937, 19.868354]]], [[[-16.30956, 19.73078], [-16.301625, 19.722602], [-16.397694, 19.599921], [-16.358551, 19.677436], [-16.320912, 19.728502], [-16.30956, 19.73078]]], [[[-16.469594, 19.729967], [-16.471547, 19.699652], [-16.484242, 19.67772], [-16.496897, 19.705512], [-16.491119, 19.725084], [-16.469594, 19.729967]]], [[[-16.446401, 20.607327], [-16.44811, 20.57453], [-16.454172, 20.571112], [-16.467275, 20.576239], [-16.474233, 20.594184], [-16.459299, 20.614691], [-16.446401, 20.607327]]]]}}, {"type": "Feature", "properties": {"name": "Gambia"}, "geometry": {"type": "Polygon", "coordinates": [[[-16.786733, 13.090074], [-16.775502, 13.112738], [-16.796742, 13.177232], [-16.795033, 13.235907], [-16.802968, 13.262193], [-16.820058, 13.281317], [-16.824452, 13.294582], [-16.81664, 13.310614], [-16.829701, 13.338528], [-16.809967, 13.379869], [-16.762929, 13.404975], [-16.678822, 13.496161], [-16.671132, 13.478664], [-16.652252, 13.468248], [-16.616851, 13.478176], [-16.590728, 13.461371], [-16.585317, 13.443345], [-16.612782, 13.439154], [-16.624257, 13.427232], [-16.608713, 13.413723], [-16.59553, 13.385077], [-16.590728, 13.338528], [-16.545766, 13.290107], [-16.495188, 13.287909], [-16.419667, 13.255561], [-16.413482, 13.222073], [-16.419423, 13.208197], [-16.39977, 13.224311], [-16.377797, 13.215033], [-16.415273, 13.267035], [-16.439931, 13.269599], [-16.439931, 13.276435], [-16.384633, 13.283881], [-16.374745, 13.263861], [-16.257965, 13.324897], [-16.230133, 13.316392], [-16.22761, 13.256008], [-16.209706, 13.251166], [-16.151275, 13.276435], [-16.151275, 13.283881], [-16.172515, 13.279283], [-16.19929, 13.259101], [-16.210764, 13.3133], [-16.227122, 13.333686], [-16.216217, 13.372748], [-16.176178, 13.405422], [-16.161204, 13.428697], [-16.135121, 13.420478], [-15.994862, 13.413031], [-15.941314, 13.425442], [-15.891225, 13.427232], [-15.871327, 13.440904], [-15.764475, 13.436916], [-15.706207, 13.454576], [-15.668691, 13.475735], [-15.644683, 13.457913], [-15.620839, 13.45482], [-15.589589, 13.468248], [-15.565053, 13.502509], [-15.543446, 13.50967], [-15.500396, 13.488186], [-15.470041, 13.496161], [-15.45108, 13.490912], [-15.418853, 13.454576], [-15.340566, 13.440823], [-15.304799, 13.455308], [-15.294749, 13.496161], [-15.302154, 13.496161], [-15.304067, 13.481147], [-15.321848, 13.458238], [-15.351674, 13.456732], [-15.415761, 13.473212], [-15.46524, 13.510159], [-15.490834, 13.502997], [-15.556142, 13.528306], [-15.575836, 13.522895], [-15.610666, 13.489325], [-15.672109, 13.502997], [-15.769887, 13.465074], [-16.09024, 13.440497], [-16.141591, 13.454576], [-16.178456, 13.440985], [-16.27302, 13.362616], [-16.289133, 13.365871], [-16.289133, 13.406806], [-16.30602, 13.391669], [-16.302113, 13.372016], [-16.316396, 13.365871], [-16.316396, 13.359036], [-16.302113, 13.352769], [-16.321889, 13.342841], [-16.390533, 13.336859], [-16.52184, 13.359036], [-16.503529, 13.392564], [-16.503529, 13.416938], [-16.519765, 13.451321], [-16.556549, 13.485582], [-16.548004, 13.548082], [-16.561399, 13.586914], [-15.518195, 13.5831], [-15.502486, 13.588267], [-15.496801, 13.648341], [-15.467501, 13.708286], [-15.394069, 13.771512], [-15.347766, 13.788643], [-15.304462, 13.781873], [-15.267255, 13.741798], [-15.245964, 13.746733], [-15.17062, 13.793784], [-15.097704, 13.819984], [-15.016779, 13.796885], [-14.915803, 13.792441], [-14.879268, 13.780581], [-14.831312, 13.735623], [-14.802942, 13.65232], [-14.74093, 13.615449], [-14.667188, 13.652889], [-14.626674, 13.663508], [-14.585539, 13.660459], [-14.542596, 13.640822], [-14.50973, 13.609093], [-14.486863, 13.546539], [-14.470275, 13.522354], [-14.365553, 13.454839], [-14.329947, 13.456441], [-14.271217, 13.476956], [-14.196829, 13.518788], [-14.139132, 13.531552], [-14.092882, 13.554729], [-14.034022, 13.560207], [-13.988495, 13.579146], [-13.94209, 13.566925], [-13.901343, 13.541629], [-13.8846, 13.505533], [-13.84269, 13.476646], [-13.818713, 13.429362], [-13.822562, 13.378203], [-13.851036, 13.33575], [-13.900568, 13.314563], [-14.056579, 13.297174], [-14.116808, 13.282162], [-14.201687, 13.229555], [-14.284911, 13.238547], [-14.368834, 13.235705], [-14.43144, 13.26144], [-14.470326, 13.298259], [-14.529574, 13.307277], [-14.592154, 13.35314], [-14.661607, 13.340918], [-14.698142, 13.345181], [-14.731577, 13.359005], [-14.790333, 13.417348], [-14.829142, 13.427011], [-14.862576, 13.447061], [-14.949703, 13.463081], [-15.01559, 13.496051], [-15.13765, 13.589973], [-15.160491, 13.580981], [-15.203951, 13.536901], [-15.217955, 13.51468], [-15.227774, 13.425176], [-15.248341, 13.398977], [-15.277073, 13.380296], [-15.342392, 13.36257], [-15.379237, 13.362519], [-15.519539, 13.3866], [-15.596123, 13.355827], [-15.6925, 13.360348], [-15.818694, 13.333528], [-15.8266, 13.161678], [-15.833318, 13.156847], [-16.673525, 13.164314], [-16.708407, 13.156692], [-16.748508, 13.099227], [-16.753651, 13.065009], [-16.786733, 13.090074]]]}}]}