{"type": "FeatureCollection", "features": [{"type": "Feature", "properties": {"name": "Antarctica"}, "geometry": {"type": "MultiPolygon", "coordinates": [[[[80.737071, -67.884698], [80.794932, -67.882013], [80.876231, -67.892348], [81.509532, -67.773696], [81.568696, -67.77337], [81.87672, -67.700128], [81.930186, -67.709242], [82.059418, -67.671808], [82.121755, -67.66961], [82.23585, -67.689386], [82.278819, -67.710219], [82.312999, -67.700453], [82.36199, -67.704197], [82.396251, -67.672296], [82.423106, -67.658461], [82.586192, -67.603448], [82.670095, -67.609552], [82.781505, -67.598565], [82.807628, -67.603204], [82.877289, -67.635675], [82.90504, -67.636814], [82.995942, -67.609633], [83.10613, -67.61061], [83.160004, -67.588556], [83.215343, -67.579034], [83.295909, -67.596287], [83.388682, -67.64422], [83.472667, -67.65781], [83.615977, -67.63836], [83.656423, -67.59352], [83.581798, -67.570896], [83.501964, -67.565525], [83.430919, -67.545587], [83.382579, -67.479587], [83.386729, -67.446547], [83.41684, -67.428155], [83.584727, -67.398858], [83.623302, -67.383396], [83.676768, -67.32936], [83.724132, -67.313653], [84.101573, -67.261895], [84.249685, -67.224054], [84.305431, -67.181736], [84.414073, -67.123793], [84.491466, -67.110121], [84.59669, -67.1124], [84.962169, -67.076104], [85.070323, -67.088556], [85.015636, -67.129002], [85.0949, -67.126072], [85.167003, -67.159112], [85.311778, -67.168715], [85.418956, -67.190362], [85.442882, -67.189386], [85.487478, -67.171563], [85.616466, -67.188165], [85.697276, -67.165134], [85.778819, -67.162205], [85.880056, -67.137791], [85.925629, -67.094659], [86.019379, -67.069594], [86.067149, -67.040948], [86.122813, -67.03753], [86.235118, -67.048272], [86.558279, -67.02809], [86.643809, -67.058282], [86.696788, -67.063897], [86.91627, -67.011814], [87.013194, -66.96502], [87.108653, -66.933282], [87.475271, -66.873956], [87.582042, -66.842543], [87.698578, -66.823663], [87.817719, -66.824314], [87.965668, -66.770278], [88.163259, -66.777927], [88.20753, -66.799737], [88.230154, -66.853936], [88.251231, -66.859552], [88.334321, -66.846287], [88.441173, -66.841241], [88.611013, -66.796808], [88.684418, -66.79518], [88.734711, -66.784926], [88.893077, -66.809503], [89.003429, -66.788263], [89.128754, -66.809503], [89.305349, -66.805841], [89.364594, -66.812188], [89.475759, -66.841567], [89.599864, -66.845961], [89.654307, -66.840427], [89.81072, -66.788751], [89.940929, -66.793878], [90.087576, -66.770196], [90.148936, -66.771173], [90.209646, -66.780043], [90.277029, -66.801365], [90.335216, -66.801202], [90.372325, -66.820733], [90.398692, -66.819594], [90.49171, -66.742852], [90.544444, -66.744073], [90.673839, -66.705173], [90.722423, -66.706231], [90.80128, -66.673435], [91.003429, -66.613946], [91.086111, -66.578058], [91.145193, -66.573826], [91.379405, -66.600274], [91.436778, -66.595961], [91.642263, -66.558201], [91.696788, -66.537286], [91.781749, -66.537856], [91.960134, -66.498224], [92.065278, -66.514418], [92.167979, -66.511651], [92.21697, -66.520278], [92.369802, -66.594985], [92.422699, -66.602309], [92.506847, -66.597589], [92.644216, -66.626235], [92.760265, -66.633884], [92.874766, -66.612726], [93.021332, -66.562188], [93.074474, -66.565362], [93.18572, -66.589532], [93.296153, -66.580336], [93.458263, -66.587009], [93.623546, -66.582615], [93.731212, -66.604262], [93.711274, -66.632501], [93.68336, -66.651788], [93.705577, -66.668145], [93.691091, -66.682875], [93.700531, -66.706231], [93.739268, -66.747166], [93.887869, -66.6867], [93.91505, -66.685724], [93.961192, -66.704522], [93.969249, -66.719985], [93.948253, -66.734308], [94.078136, -66.71795], [94.095063, -66.712335], [94.131033, -66.673435], [94.295421, -66.653416], [94.426036, -66.621677], [94.490977, -66.569757], [94.545095, -66.543145], [94.703949, -66.512791], [94.785655, -66.507013], [94.917166, -66.475356], [94.955577, -66.48797], [95.021169, -66.492608], [95.095876, -66.514337], [95.174653, -66.507257], [95.226817, -66.511163], [95.278656, -66.527114], [95.321056, -66.556736], [95.345063, -66.600763], [95.345063, -66.637302], [95.521332, -66.651544], [95.481944, -66.708185], [95.496755, -66.700291], [95.556163, -66.710626], [95.636974, -66.679132], [95.699392, -66.6749], [95.825938, -66.649998], [95.950206, -66.657485], [96.108653, -66.570082], [96.134613, -66.573337], [96.180512, -66.60589], [96.207205, -66.613539], [96.292247, -66.59531], [96.4074, -66.583754], [96.553477, -66.61533], [96.610362, -66.614841], [96.974132, -66.508396], [97.08074, -66.492283], [97.235199, -66.507989], [97.337087, -66.581313], [97.417735, -66.567315], [97.438813, -66.571954], [97.451915, -66.611017], [97.481781, -66.635024], [97.602712, -66.645278], [97.672048, -66.677179], [97.695323, -66.678643], [97.740571, -66.658298], [97.804373, -66.591404], [97.840099, -66.566095], [97.977387, -66.547133], [98.069102, -66.508233], [98.167003, -66.484063], [98.247813, -66.447931], [98.527599, -66.448989], [98.53712, -66.45436], [98.575369, -66.486017], [98.542491, -66.553481], [98.52003, -66.58408], [98.490733, -66.603774], [98.539806, -66.622735], [98.623302, -66.609308], [98.913748, -66.504571], [98.994314, -66.491957], [99.069347, -66.489923], [99.053233, -66.52516], [99.007335, -66.552911], [98.716482, -66.642755], [98.773285, -66.657403], [98.817638, -66.728285], [98.705251, -66.774347], [98.77589, -66.798761], [98.786388, -66.878513], [98.802501, -66.900649], [98.826182, -66.909926], [98.856456, -66.904229], [98.884532, -66.882745], [98.871349, -66.836196], [98.879731, -66.807306], [98.991384, -66.724298], [99.017263, -66.694513], [99.049327, -66.698663], [99.107595, -66.743259], [99.169444, -66.753106], [99.199229, -66.710056], [99.2317, -66.701349], [99.347179, -66.698826], [99.402843, -66.662774], [99.422537, -66.662205], [99.422862, -66.618748], [99.468516, -66.582289], [99.529552, -66.557387], [99.576182, -66.548517], [99.536306, -66.622166], [99.539561, -66.648207], [99.560232, -66.672052], [99.583995, -66.669041], [99.678396, -66.592218], [99.80714, -66.55283], [99.923188, -66.499688], [99.985362, -66.500258], [100.0, -66.49750752131803], [100.0, -70.0], [80.0, -70.0], [80.0, -68.00941626614876], [80.737071, -67.884698]]], [[[85.796072, -66.769627], [85.836925, -66.793715], [85.941173, -66.889907], [85.927419, -66.91074], [85.787364, -66.968927], [85.613048, -66.986586], [85.589854, -66.981703], [85.641287, -66.939386], [85.618907, -66.940362], [85.374766, -66.877211], [85.306895, -66.832208], [85.258637, -66.766209], [85.275401, -66.737726], [85.307628, -66.723728], [85.345388, -66.719171], [85.483653, -66.720961], [85.796072, -66.769627]]], [[[86.580821, -66.71795], [86.675792, -66.719659], [86.497244, -66.784763], [86.403168, -66.795994], [86.314789, -66.78631], [86.237641, -66.744724], [86.230479, -66.730401], [86.259532, -66.704278], [86.332286, -66.678155], [86.536388, -66.669122], [86.532888, -66.6867], [86.548595, -66.703058], [86.580821, -66.71795]]], [[[85.34254, -66.60475], [85.286469, -66.637628], [85.201182, -66.646742], [85.114431, -66.635349], [85.054861, -66.606215], [85.110688, -66.520685], [85.15211, -66.516371], [85.168956, -66.524591], [85.202403, -66.567966], [85.34254, -66.60475]]], [[[98.620291, -66.370782], [98.711681, -66.364028], [98.859386, -66.389255], [98.953298, -66.418145], [98.939626, -66.43141], [98.837576, -66.477146], [98.791189, -66.4874], [98.730724, -66.482354], [98.668142, -66.462498], [98.616222, -66.430108], [98.588552, -66.387953], [98.620291, -66.370782]]], [[[97.424327, -66.42311], [97.393728, -66.430271], [97.067638, -66.404718], [97.010509, -66.381036], [97.048106, -66.344171], [97.105317, -66.328302], [97.167735, -66.325942], [97.284679, -66.340753], [97.346853, -66.360528], [97.424327, -66.42311]]], [[[96.974864, -66.074477], [97.01588, -66.105564], [97.030935, -66.140558], [97.010509, -66.17311], [96.908458, -66.211358], [96.4074, -66.227634], [96.355968, -66.221612], [96.338634, -66.197198], [96.29656, -66.183526], [96.375824, -66.091404], [96.417979, -66.067071], [96.467621, -66.050714], [96.596446, -66.035821], [96.661469, -66.040134], [96.749278, -66.069106], [96.917166, -66.054376], [96.974864, -66.074477]]], [[[92.621104, -65.726007], [92.671641, -65.7492], [92.668956, -65.784845], [92.578868, -65.81756], [92.434418, -65.824395], [92.299164, -65.802911], [92.23585, -65.750665], [92.28533, -65.712172], [92.350271, -65.694757], [92.42335, -65.693292], [92.621104, -65.726007]]]]}}]}