{"type": "FeatureCollection", "features": [{"type": "Feature", "properties": {"name": "Ethiopia"}, "geometry": {"type": "Polygon", "coordinates": [[[34.066892, 9.531176], [34.098208, 9.67972], [34.212622252086284, 10.0], [40.0, 10.0], [40.0, 3.9407016631760667], [39.848451, 3.867284], [39.828297, 3.842583], [39.764218, 3.685745], [39.574979, 3.497901], [39.553172, 3.431316], [39.536325, 3.405013], [39.504389, 3.403333], [39.488473, 3.413901], [39.466976, 3.452013], [39.436176, 3.462374], [39.311326, 3.466094], [39.320525, 3.484543], [39.315874, 3.494904], [39.302748, 3.495679], [39.257583, 3.469686], [39.219445, 3.468704], [39.180481, 3.476998], [39.06793, 3.526582], [39.010466, 3.514464], [38.963234, 3.522086], [38.895227, 3.513585], [38.722008, 3.560404], [38.703715, 3.570429], [38.66103, 3.621951], [38.660306, 3.594459], [38.601912, 3.59867], [38.593747, 3.61084], [38.57411, 3.604561], [38.547135, 3.609522], [38.533182, 3.632828], [38.508998, 3.650812], [38.499386, 3.64691], [38.496906, 3.62394], [38.445953, 3.601668], [38.389935, 3.596888], [38.176925, 3.620917], [38.101891, 3.612649], [38.078843, 3.632673], [38.036158, 3.648926], [37.976731, 3.72644], [37.111874, 4.282298], [37.094821, 4.284882], [37.075907, 4.33108], [37.048415, 4.331959], [37.015652, 4.370587], [36.974828, 4.37994], [36.903721, 4.415778], [36.844087, 4.432237], [36.651333, 4.430583], [36.619501, 4.443373], [36.277196, 4.436449], [36.236268, 4.449652], [36.041345, 4.443683], [36.018401, 4.449135], [35.940472, 4.508046], [35.933755, 4.52218], [35.936028, 4.578533], [35.920835, 4.619332], [35.784513, 4.764181], [35.760018, 4.805728], [35.751647, 4.854356], [35.755884, 5.063439], [35.807354, 5.144674], [35.807147, 5.165267], [35.775315, 5.24658], [35.782033, 5.26986], [35.809111, 5.309109], [35.80415, 5.318023], [35.749373, 5.339158], [35.683641, 5.379595], [35.658319, 5.386417], [35.598168, 5.368743], [35.57388, 5.375332], [35.508044, 5.423417], [35.469287, 5.430755], [35.430219, 5.427215], [35.344953, 5.352362], [35.320769, 5.348719], [35.287489, 5.374092], [35.250695, 5.435147], [35.27364, 5.479873], [35.261961, 5.511887], [35.098663, 5.622474], [35.088225, 5.64175], [35.079543, 5.699782], [34.974433, 5.863106], [34.979911, 5.912844], [34.955313, 5.952558], [34.969782, 5.996689], [34.959447, 6.061724], [34.951489, 6.08118], [34.898882, 6.13867], [34.844725, 6.248689], [34.832633, 6.353541], [34.784264, 6.44183], [34.776099, 6.499449], [34.733518, 6.637606], [34.714501, 6.655667], [34.703545, 6.684916], [34.618486, 6.736541], [34.553994, 6.739254], [34.524745, 6.752871], [34.511102, 6.814314], [34.524745, 6.824572], [34.523298, 6.844183], [34.503661, 6.89002], [34.439169, 6.934875], [34.297575, 6.968568], [34.280729, 6.980092], [34.270807, 7.003398], [34.198253, 7.064376], [34.195773, 7.129023], [34.181407, 7.167212], [34.167764, 7.175377], [34.132417, 7.163388], [34.085909, 7.211499], [34.033612, 7.250256], [34.030615, 7.3487], [34.02369, 7.382445], [34.006534, 7.409936], [33.882407, 7.536079], [33.852538, 7.553545], [33.811507, 7.560987], [33.761071, 7.598142], [33.71606, 7.657156], [33.637202, 7.691315], [33.572297, 7.685217], [33.550851, 7.691315], [33.516796, 7.726093], [33.462329, 7.749502], [33.393289, 7.739735], [33.347142, 7.718961], [33.29159, 7.733069], [33.233919, 7.783195], [33.164518, 7.801127], [33.132117, 7.793944], [33.120851, 7.783299], [33.058323, 7.797975], [33.040753, 7.824846], [33.023493, 7.835078], [32.9898, 7.917244], [33.021633, 7.965251], [33.031141, 7.996309], [33.100594, 8.071033], [33.117544, 8.104158], [33.164776, 8.117051], [33.185137, 8.14108], [33.187824, 8.160898], [33.16798, 8.181362], [33.169944, 8.205495], [33.181623, 8.225726], [33.206893, 8.240738], [33.208288, 8.253683], [33.185757, 8.26451], [33.164363, 8.292777], [33.161159, 8.304585], [33.174078, 8.343058], [33.161882, 8.361506], [33.174078, 8.404475], [33.202913, 8.414113], [33.210355, 8.420779], [33.206427, 8.430572], [33.23516, 8.455635], [33.25273, 8.458167], [33.361353, 8.434293], [33.392101, 8.451862], [33.480519, 8.45765], [33.489924, 8.462921], [33.484757, 8.474006], [33.505117, 8.474884], [33.552143, 8.446824], [33.600099, 8.463955], [33.620407, 8.460699], [33.651672, 8.434499], [33.695545, 8.372875], [33.74102, 8.367087], [33.756213, 8.370136], [33.824116, 8.419487], [33.95031, 8.433207], [34.090249, 8.556507], [34.103169, 8.579322], [34.11185, 8.626555], [34.066892, 9.531176]]]}}, {"type": "Feature", "properties": {"name": "S. Sudan"}, "geometry": {"type": "Polygon", "coordinates": [[[35.781222, 4.619922], [35.778439, 4.678338], [35.739402, 4.681127], [35.711518, 4.661608], [35.700365, 4.589111], [35.610641, 4.620014], [35.52218, 4.780461], [35.570836, 4.904313], [35.49564, 4.926429], [35.396117, 4.926429], [35.433715, 5.003836], [35.411598, 5.030376], [35.263419, 4.948545], [35.245726, 4.98172], [34.666277, 4.76498], [34.381188, 4.620158], [33.532609, 3.774293], [33.490648, 3.749746], [33.447343, 3.744372], [33.164466, 3.763053], [33.01724, 3.87718], [32.997241, 3.885526], [32.9189, 3.83416], [32.840352, 3.794291], [32.756429, 3.769022], [32.415571, 3.741297], [32.371801, 3.731065], [32.187782, 3.61916], [32.175948, 3.605595], [32.178997, 3.541361], [32.16799, 3.512242], [32.076161, 3.53317], [32.030168, 3.585932], [31.943662, 3.591255], [31.93002, 3.59836], [31.916274, 3.680267], [31.901908, 3.704297], [31.830697, 3.783879], [31.777884, 3.816435], [31.68683, 3.712824], [31.564771, 3.689802], [31.523739, 3.656083], [31.505446, 3.659855], [31.29502, 3.774189], [31.214818, 3.792354], [31.141489, 3.785119], [31.077668, 3.735303], [31.040358, 3.724218], [30.995968, 3.693522], [30.965996, 3.692618], [30.944447, 3.679286], [30.931734, 3.645102], [30.865692, 3.548958], [30.839543, 3.490202], [30.827658, 3.511105], [30.837683, 3.562678], [30.823214, 3.580429], [30.779082, 3.602598], [30.765129, 3.661716], [30.746939, 3.674867], [30.693351, 3.63195], [30.653767, 3.630606], [30.592427, 3.603528], [30.553463, 3.60451], [30.543438, 3.617868], [30.55491, 3.636394], [30.562868, 3.694866], [30.53889, 3.84155], [30.525247, 3.867543], [30.456828, 3.867595], [30.418949, 3.879713], [30.33792, 3.927875], [30.270948, 3.94945], [30.189351, 3.95609], [30.178085, 3.997096], [30.147493, 4.036654], [30.122688, 4.102464], [30.0429, 4.133108], [29.989363, 4.21778], [29.966005, 4.23181], [29.932157, 4.236151], [29.924147, 4.245582], [29.923217, 4.257752], [29.940115, 4.288344], [29.930348, 4.308653], [29.882703, 4.344025], [29.814852, 4.346764], [29.787825, 4.368804], [29.776198, 4.405624], [29.776766, 4.449342], [29.786998, 4.489675], [29.777696, 4.523859], [29.796713, 4.556028], [29.74514, 4.583907], [29.715323, 4.57967], [29.660287, 4.622122], [29.618533, 4.641578], [29.576675, 4.644446], [29.535024, 4.660699], [29.513268, 4.652146], [29.494096, 4.668295], [29.457612, 4.669535], [29.449241, 4.657055], [29.44273, 4.583442], [29.417305, 4.555485], [29.390226, 4.493758], [29.33886, 4.449549], [29.303927, 4.387149], [29.242845, 4.387356], [29.23158, 4.375548], [29.221296, 4.340692], [29.19613, 4.337075], [29.173495, 4.348004], [29.10983, 4.412367], [29.055983, 4.4365], [29.053193, 4.450789], [28.98622, 4.495928], [28.903641, 4.478591], [28.815274, 4.478281], [28.789953, 4.48859], [28.783648, 4.530371], [28.769179, 4.549775], [28.755433, 4.553987], [28.72453, 4.533988], [28.695178, 4.532593], [28.638644, 4.432082], [28.570535, 4.405107], [28.557306, 4.373533], [28.496844, 4.369011], [28.443927, 4.308498], [28.404137, 4.277828], [28.357421, 4.282866], [28.336854, 4.327489], [28.303161, 4.352242], [28.216965, 4.342036], [28.177587, 4.347229], [28.140225, 4.37932], [28.112371, 4.414641], [28.101726, 4.442133], [28.085551, 4.443322], [28.04974, 4.419137], [28.011241, 4.480141], [28.014031, 4.550033], [27.944526, 4.557294], [27.92923, 4.569981], [27.916104, 4.562152], [27.914037, 4.54931], [27.885512, 4.556674], [27.849132, 4.553212], [27.809238, 4.58799], [27.772444, 4.595819], [27.758801, 4.677157], [27.766863, 4.735449], [27.7526, 4.777668], [27.734823, 4.793197], [27.699063, 4.787435], [27.685938, 4.797899], [27.671882, 4.855906], [27.658756, 4.879652], [27.640979, 4.890943], [27.552716, 4.900529], [27.514578, 4.92244], [27.501349, 4.96329], [27.43634, 5.013158], [27.441301, 5.070725], [27.402131, 5.104496], [27.385801, 5.143847], [27.30131, 5.205187], [27.264465, 5.260145], [27.2378, 5.32319], [27.218059, 5.42551], [27.260744, 5.550257], [27.261054, 5.577593], [27.247515, 5.592605], [27.217336, 5.585397], [27.210669, 5.601623], [27.218369, 5.645315], [27.196407, 5.661464], [27.182351, 5.707456], [27.170413, 5.72035], [27.136307, 5.734018], [27.123801, 5.768745], [27.072745, 5.791224], [27.036055, 5.785126], [27.003499, 5.819284], [26.981071, 5.859204], [26.916475, 5.849644], [26.894255, 5.889667], [26.842165, 5.884267], [26.81891, 5.894628], [26.805061, 5.957183], [26.776329, 5.981884], [26.705016, 6.009789], [26.602179, 6.010616], [26.543578, 6.030847], [26.527972, 6.043172], [26.498827, 6.099836], [26.48105, 6.104951], [26.424826, 6.072447], [26.421312, 6.09366], [26.42927, 6.113091], [26.500067, 6.167971], [26.508955, 6.205462], [26.495829, 6.221146], [26.455625, 6.230474], [26.452008, 6.28029], [26.375837, 6.312587], [26.335219, 6.360595], [26.28964, 6.387208], [26.282819, 6.407853], [26.289124, 6.459426], [26.27021, 6.465653], [26.30504, 6.496917], [26.379867, 6.619778], [26.378007, 6.65329], [26.236207, 6.72003], [26.178743, 6.765919], [26.147634, 6.804702], [26.091203, 6.830334], [26.077354, 6.85333], [26.073633, 6.895136], [26.045418, 6.899683], [26.035806, 6.922266], [26.026091, 6.99668], [25.969453, 7.003553], [25.960461, 7.024482], [25.920257, 7.034145], [25.888735, 7.05187], [25.877469, 7.087734], [25.800781, 7.104942], [25.786209, 7.142666], [25.750242, 7.146542], [25.724507, 7.166695], [25.697015, 7.168607], [25.672727, 7.187831], [25.592422, 7.211241], [25.516768, 7.269945], [25.481163, 7.266173], [25.360033, 7.335574], [25.335952, 7.359604], [25.316211, 7.417223], [25.285102, 7.431589], [25.249962, 7.469984], [25.190431, 7.501197], [25.169037, 7.551168], [25.165213, 7.5799], [25.186504, 7.600106], [25.252546, 7.62243], [25.274974, 7.641964], [25.279418, 7.659482], [25.266809, 7.703097], [25.269909, 7.760768], [25.23942, 7.835957], [25.216889, 7.864069], [25.191568, 7.872389], [25.173171, 7.888564], [25.134414, 7.892543], [25.089559, 7.884895], [25.059173, 7.896108], [24.952616, 7.996567], [24.950549, 8.014396], [24.930085, 8.035454], [24.927811, 8.070956], [24.917993, 8.087027], [24.832107, 8.16573], [24.800171, 8.180277], [24.742293, 8.18684], [24.710564, 8.204307], [24.614859, 8.217148], [24.51285, 8.207149], [24.464274, 8.233194], [24.431097, 8.271408], [24.396578, 8.267817], [24.332085, 8.245725], [24.302733, 8.26544], [24.206615, 8.283268], [24.152872, 8.317891], [24.131374, 8.343058], [24.121556, 8.372307], [24.137162, 8.438866], [24.193179, 8.532426], [24.25054, 8.579632], [24.211266, 8.627071], [24.235761, 8.682003], [24.217674, 8.691512], [24.170328, 8.689327], [24.176953, 8.709857], [24.240566, 8.761534], [24.380093, 8.844216], [24.493833, 8.858349], [24.558377, 8.886746], [24.559307, 8.999865], [24.659869, 9.176986], [24.680178, 9.373357], [24.694957, 9.402916], [24.785236, 9.497509], [24.792522, 9.520402], [24.796398, 9.818859], [24.803685, 9.829169], [24.844819, 9.841674], [24.913859, 9.890715], [24.976284, 9.967351], [24.99008499433823, 10.0], [26.094343068142383, 10.0], [26.102623, 9.987841], [26.179466, 9.95898], [26.556859, 9.520454], [26.625744, 9.480663], [26.694318, 9.476942], [27.080393, 9.606831], [27.33924, 9.612799], [27.385129, 9.60479], [27.528066, 9.605358], [27.609301, 9.595178], [27.641496, 9.601947], [27.769602, 9.583318], [27.895072, 9.59541], [27.997076, 9.38493], [28.04511, 9.331407], [28.843841, 9.324545], [28.831489, 9.349248], [28.828745, 9.427474], [28.84933, 9.465901], [28.913833, 9.529031], [29.009474, 9.603239], [29.132258, 9.667731], [29.252354, 9.711165], [29.483089, 9.761679], [29.567321, 9.841364], [29.613882, 9.914461], [29.614804744387065, 10.0], [30.440378777907704, 10.0], [30.484578, 9.972028], [30.765284, 9.724291], [30.779082, 9.719873], [30.804817, 9.738942], [30.83696, 9.749354], [31.164382, 9.764005], [31.234817, 9.792323], [31.446474148092143, 10.0], [33.96233020399029, 10.0], [33.956097, 9.933994], [33.973254, 9.854852], [33.904886, 9.7107], [33.883905, 9.619853], [33.881425, 9.499215], [33.900855, 9.45529], [34.070698, 9.454592], [34.11185, 8.626555], [34.103169, 8.579322], [34.090249, 8.556507], [33.970774, 8.445377], [33.931706, 8.428143], [33.824116, 8.419487], [33.751872, 8.368793], [33.695545, 8.372875], [33.651672, 8.434499], [33.620407, 8.460699], [33.600099, 8.463955], [33.552143, 8.446824], [33.505117, 8.474884], [33.484757, 8.474006], [33.489924, 8.462921], [33.480519, 8.45765], [33.392101, 8.451862], [33.361353, 8.434293], [33.25273, 8.458167], [33.23516, 8.455635], [33.206427, 8.430572], [33.210355, 8.420779], [33.202913, 8.414113], [33.174078, 8.404475], [33.161882, 8.361506], [33.174078, 8.343058], [33.161159, 8.304585], [33.164363, 8.292777], [33.185757, 8.26451], [33.208288, 8.253683], [33.206893, 8.240738], [33.181623, 8.225726], [33.169944, 8.205495], [33.16798, 8.181362], [33.187824, 8.160898], [33.185137, 8.14108], [33.164776, 8.117051], [33.117544, 8.104158], [33.100594, 8.071033], [33.031141, 7.996309], [33.021633, 7.965251], [32.9898, 7.917244], [33.023493, 7.835078], [33.040753, 7.824846], [33.058323, 7.797975], [33.120851, 7.783299], [33.132117, 7.793944], [33.164518, 7.801127], [33.233919, 7.783195], [33.29159, 7.733069], [33.347142, 7.718961], [33.393289, 7.739735], [33.462329, 7.749502], [33.516796, 7.726093], [33.550851, 7.691315], [33.572297, 7.685217], [33.637202, 7.691315], [33.71606, 7.657156], [33.761071, 7.598142], [33.811507, 7.560987], [33.852538, 7.553545], [33.882407, 7.536079], [34.006534, 7.409936], [34.02369, 7.382445], [34.030615, 7.3487], [34.033612, 7.250256], [34.085909, 7.211499], [34.132417, 7.163388], [34.167764, 7.175377], [34.181407, 7.167212], [34.195773, 7.129023], [34.198253, 7.064376], [34.270807, 7.003398], [34.280729, 6.980092], [34.297575, 6.968568], [34.439169, 6.934875], [34.503661, 6.89002], [34.523298, 6.844183], [34.524745, 6.824572], [34.511102, 6.814314], [34.524745, 6.752871], [34.553994, 6.739254], [34.618486, 6.736541], [34.703545, 6.684916], [34.714501, 6.655667], [34.733518, 6.637606], [34.776099, 6.499449], [34.784264, 6.44183], [34.832633, 6.353541], [34.844725, 6.248689], [34.898882, 6.13867], [34.951489, 6.08118], [34.959447, 6.061724], [34.969782, 5.996689], [34.955313, 5.952558], [34.979911, 5.912844], [34.974433, 5.863106], [35.079543, 5.699782], [35.088225, 5.64175], [35.098663, 5.622474], [35.261961, 5.511887], [35.27364, 5.479873], [35.250695, 5.435147], [35.287489, 5.374092], [35.320769, 5.348719], [35.344953, 5.352362], [35.430219, 5.427215], [35.469287, 5.430755], [35.508044, 5.423417], [35.57388, 5.375332], [35.598168, 5.368743], [35.658319, 5.386417], [35.683641, 5.379595], [35.749373, 5.339158], [35.80415, 5.318023], [35.809111, 5.309109], [35.782033, 5.26986], [35.775315, 5.24658], [35.807147, 5.165267], [35.807354, 5.144674], [35.755884, 5.063439], [35.751647, 4.854356], [35.760018, 4.805728], [35.784513, 4.764181], [35.920835, 4.619332], [35.781222, 4.619922]]]}}, {"type": "Feature", "properties": {"name": "Kenya"}, "geometry": {"type": "Polygon", "coordinates": [[[35.711518, 4.661608], [35.739402, 4.681127], [35.778439, 4.678338], [35.781222, 4.619922], [35.920835, 4.619332], [35.936028, 4.578533], [35.933755, 4.52218], [35.940472, 4.508046], [36.018401, 4.449135], [36.041345, 4.443683], [36.236268, 4.449652], [36.277196, 4.436449], [36.619501, 4.443373], [36.651333, 4.430583], [36.844087, 4.432237], [36.903721, 4.415778], [36.974828, 4.37994], [37.015652, 4.370587], [37.048415, 4.331959], [37.075907, 4.33108], [37.094821, 4.284882], [37.111874, 4.282298], [37.976731, 3.72644], [38.036158, 3.648926], [38.078843, 3.632673], [38.101891, 3.612649], [38.176925, 3.620917], [38.389935, 3.596888], [38.445953, 3.601668], [38.496906, 3.62394], [38.499386, 3.64691], [38.508998, 3.650812], [38.533182, 3.632828], [38.547135, 3.609522], [38.57411, 3.604561], [38.593747, 3.61084], [38.601912, 3.59867], [38.660306, 3.594459], [38.66103, 3.621951], [38.703715, 3.570429], [38.722008, 3.560404], [38.895227, 3.513585], [38.963234, 3.522086], [39.010466, 3.514464], [39.06793, 3.526582], [39.180481, 3.476998], [39.219445, 3.468704], [39.257583, 3.469686], [39.302748, 3.495679], [39.315874, 3.494904], [39.320525, 3.484543], [39.311326, 3.466094], [39.436176, 3.462374], [39.466976, 3.452013], [39.488473, 3.413901], [39.504389, 3.403333], [39.536325, 3.405013], [39.553172, 3.431316], [39.574979, 3.497901], [39.764218, 3.685745], [39.828297, 3.842583], [39.848451, 3.867284], [40.0, 3.9407016631760667], [40.0, -3.361951631250667], [39.989106, -3.373224], [39.971446, -3.376072], [39.991954, -3.307061], [39.966075, -3.321222], [39.957774, -3.382257], [39.96518, -3.399184], [39.900564, -3.524184], [39.890147, -3.58172], [39.865977, -3.616469], [39.835623, -3.608819], [39.817719, -3.590753], [39.786388, -3.587579], [39.79127, -3.574884], [39.780935, -3.566583], [39.773123, -3.584893], [39.77589, -3.600193], [39.787934, -3.609145], [39.808116, -3.608819], [39.796072, -3.622979], [39.800141, -3.634698], [39.81422, -3.639337], [39.848969, -3.625177], [39.860118, -3.633233], [39.868988, -3.663344], [39.867035, -3.69492], [39.786388, -3.917169], [39.760753, -3.941827], [39.732107, -3.946384], [39.711925, -3.931329], [39.712087, -3.897393], [39.683767, -3.917169], [39.712087, -3.96502], [39.745291, -3.968683], [39.742442, -3.985935], [39.699474, -4.048435], [39.681163, -4.047947], [39.659841, -4.007582], [39.660492, -3.970798], [39.643077, -3.985528], [39.605724, -3.969659], [39.594737, -3.978692], [39.604666, -3.988214], [39.643077, -3.9992], [39.63559, -4.017022], [39.594737, -4.032647], [39.56422, -4.032892], [39.560557, -4.039809], [39.567393, -4.08115], [39.581879, -4.061619], [39.615082, -4.05934], [39.650076, -4.069594], [39.669688, -4.087986], [39.665863, -4.112074], [39.615896, -4.197849], [39.583832, -4.279392], [39.54005, -4.430434], [39.531098, -4.417413], [39.522472, -4.418145], [39.506033, -4.438084], [39.505382, -4.455987], [39.484874, -4.478936], [39.450694, -4.581964], [39.443858, -4.519952], [39.431, -4.529962], [39.409679, -4.574477], [39.391368, -4.571059], [39.390636, -4.593438], [39.406261, -4.615167], [39.396169, -4.629002], [39.362478, -4.633966], [39.324392, -4.624607], [39.300466, -4.594985], [39.293712, -4.615492], [39.264334, -4.606622], [39.224376, -4.655857], [39.190603, -4.677504], [37.770955, -3.655435], [37.747184, -3.616987], [37.729821, -3.555389], [37.708323, -3.527174], [37.668326, -3.512498], [37.599079, -3.513428], [37.596185, -3.499682], [37.608174, -3.463612], [37.579442, -3.446352], [37.58523, -3.412969], [37.627191, -3.370284], [37.669876, -3.356125], [37.671943, -3.324292], [37.700055, -3.31437], [37.660161, -3.070561], [37.644865, -3.045963], [34.052526, -1.0404], [34.015422, -1.037507], [34.001986, -1.028722], [34.000022, -1.002573], [33.904214, -1.002573], [33.894809, -0.662749], [33.953514, -0.154356], [33.95248, -0.115702], [33.890468, 0.090073], [33.893569, 0.109814], [34.04064, 0.305874], [34.085185, 0.347008], [34.087976, 0.367369], [34.075677, 0.422249], [34.104409, 0.462247], [34.132417, 0.572834], [34.149574, 0.603634], [34.2521, 0.655], [34.276181, 0.680838], [34.298402, 0.759283], [34.388009, 0.815817], [34.457152, 0.957617], [34.463663, 1.022936], [34.487021, 1.082467], [34.507485, 1.102518], [34.540351, 1.089392], [34.561228, 1.093371], [34.580452, 1.152541], [34.628925, 1.163599], [34.683805, 1.209075], [34.766074, 1.217498], [34.797907, 1.231916], [34.810516, 1.272533], [34.782714, 1.352993], [34.778993, 1.388547], [34.838421, 1.437174], [34.859505, 1.517919], [34.882553, 1.552232], [34.933712, 1.575693], [34.972676, 1.654241], [34.978671, 1.675945], [34.979704, 1.8703], [35.006473, 1.916861], [34.962031, 1.977813], [34.956657, 2.018508], [34.967509, 2.101914], [34.865603, 2.347506], [34.859091, 2.38678], [34.867876, 2.411482], [34.906117, 2.436907], [34.920896, 2.454632], [34.923584, 2.477318], [34.8871, 2.522379], [34.875628, 2.591212], [34.865603, 2.604855], [34.841832, 2.58775], [34.81868, 2.597982], [34.776512, 2.685625], [34.76132, 2.772493], [34.730107, 2.85285], [34.696517, 2.867733], [34.685045, 2.880962], [34.660344, 2.858638], [34.6405, 2.860137], [34.58469, 2.928711], [34.574664, 2.946126], [34.545622, 3.097383], [34.53384, 3.118467], [34.444853, 3.159136], [34.434001, 3.182029], [34.424079, 3.304812], [34.41116, 3.344707], [34.383978, 3.388347], [34.398551, 3.433642], [34.381291, 3.476869], [34.415501, 3.497023], [34.434518, 3.52622], [34.443923, 3.566295], [34.446403, 3.646704], [34.439686, 3.667736], [34.387492, 3.692747], [34.35504, 3.727371], [34.337056, 3.734579], [34.309874, 3.726699], [34.290444, 3.70316], [34.278868, 3.709723], [34.240938, 3.78362], [34.173655, 3.771399], [34.152468, 3.775636], [34.17903, 3.7961], [34.148954, 3.822688], [34.196703, 3.847389], [34.207555, 3.860877], [34.204971, 3.874545], [34.182854, 3.886095], [34.108026, 3.868938], [34.084772, 3.877336], [34.109576, 3.943352], [34.107096, 3.959501], [34.068959, 3.991876], [34.061104, 4.007767], [34.072679, 4.064663], [34.069269, 4.08802], [34.04095, 4.120421], [34.041054, 4.164812], [34.028548, 4.188014], [33.977078, 4.219692], [34.381188, 4.620158], [34.666277, 4.76498], [35.245726, 4.98172], [35.263419, 4.948545], [35.411598, 5.030376], [35.433715, 5.003836], [35.396117, 4.926429], [35.49564, 4.926429], [35.570836, 4.904313], [35.52218, 4.780461], [35.610641, 4.620014], [35.700365, 4.589111], [35.711518, 4.661608]]]}}, {"type": "Feature", "properties": {"name": "Malawi"}, "geometry": {"type": "Polygon", "coordinates": [[[33.365591, -9.898826], [33.343473, -9.83144], [33.287766, -9.803845], [33.25273, -9.754029], [33.216711, -9.727054], [33.204567, -9.698115], [33.214282, -9.654707], [33.19542, -9.616259], [33.175422, -9.602307], [33.121471, -9.599516], [33.09832, -9.588458], [33.08044, -9.662251], [33.058323, -9.654293], [33.046747, -9.622047], [33.03574, -9.616983], [33.000135, -9.632796], [32.986906, -9.628455], [32.97471, -9.601273], [32.992384, -9.529133], [32.99197, -9.501848], [32.961895, -9.48035], [32.937503, -9.487792], [32.927788, -9.479834], [32.920863, -9.4079], [32.936263, -9.391674], [32.97471, -9.381235], [33.103901, -9.487895], [33.172941, -9.511046], [33.202397, -9.493476], [33.249112, -9.500711], [33.282392, -9.486035], [33.300272, -9.492236], [33.374996, -9.54908], [33.404245, -9.604891], [33.438971, -9.62153], [33.480519, -9.624424], [33.559481, -9.593315], [33.650638, -9.610988], [33.734612, -9.584117], [33.787529, -9.626491], [33.86525, -9.66959], [33.911862, -9.717959], [33.954857, -9.660598], [33.964469, -9.594659], [33.945866, -9.55001], [33.960748, -9.524896], [34.012735, -9.477457], [34.079811, -9.511046], [34.161873, -9.593625], [34.190812, -9.606751], [34.288067, -9.70845], [34.317936, -9.719199], [34.331682, -9.769222], [34.382325, -9.819658], [34.4833, -9.946162], [34.51892581284328, -10.0], [33.31619744368936, -10.0], [33.365591, -9.898826]]]}}, {"type": "Feature", "properties": {"name": "Tanzania"}, "geometry": {"type": "MultiPolygon", "coordinates": [[[[32.83074, -9.370176], [32.784334, -9.339687], [32.752295, -9.337413], [32.739686, -9.307338], [32.713228, -9.28584], [32.518046, -9.258245], [32.490089, -9.227343], [32.459703, -9.168018], [32.423426, -9.143834], [32.383015, -9.133912], [32.231448, -9.133808], [32.211294, -9.12678], [32.134141, -9.064148], [32.096418, -9.069109], [32.057247, -9.049576], [32.031719, -9.045958], [31.980559, -9.0719], [31.938081, -9.061771], [31.917721, -9.022497], [31.917824, -8.973095], [31.936634, -8.93258], [31.787599, -8.892169], [31.764345, -8.894133], [31.709775, -8.919661], [31.672671, -8.913047], [31.576449, -8.839666], [31.55335, -8.809074], [31.539036, -8.70355], [31.519089, -8.687014], [31.480641, -8.676162], [31.427518, -8.633477], [31.38597, -8.632547], [31.372638, -8.623865], [31.36592, -8.598647], [31.353311, -8.587175], [31.260913, -8.623969], [31.237349, -8.613943], [31.206756, -8.580767], [31.182675, -8.580767], [31.119836, -8.616631], [31.077824, -8.61632], [31.03364, -8.600301], [30.959536, -8.550485], [30.891892, -8.479171], [30.828278, -8.388117], [30.778255, -8.289105], [30.728129, -8.104104], [30.654955, -7.92737], [30.441635, -7.596331], [30.369598, -7.31025], [30.29446, -7.149433], [30.234671, -7.057139], [30.090855, -6.890018], [30.012721, -6.825215], [29.873091, -6.754212], [29.738629, -6.652409], [29.707003, -6.619336], [29.684369, -6.581509], [29.633932, -6.446944], [29.56603, -6.359507], [29.537711, -6.312378], [29.525515, -6.273104], [29.476113, -6.002113], [29.49606, -5.938654], [29.570887, -5.837989], [29.60303, -5.781661], [29.612435, -5.704354], [29.593521, -5.620328], [29.49637, -5.391711], [29.455649, -5.229964], [29.377824, -5.087544], [29.344234, -5.005998], [29.32377, -4.920164], [29.321032, -4.836345], [29.340824, -4.751699], [29.401337, -4.586851], [29.410897, -4.502308], [29.404179, -4.449805], [29.638273, -4.446808], [29.732841, -4.463344], [29.744365, -4.454456], [29.751651, -4.416112], [29.775009, -4.402262], [29.784104, -4.37384], [29.80033, -4.363919], [29.847356, -4.370533], [29.900479, -4.345625], [29.936343, -4.312035], [30.003005, -4.271935], [30.051478, -4.180157], [30.119587, -4.12352], [30.149766, -4.08683], [30.191418, -4.002494], [30.208781, -3.930457], [30.273273, -3.856249], [30.31172, -3.789897], [30.33699, -3.773774], [30.381587, -3.788346], [30.384998, -3.770776], [30.373112, -3.703597], [30.428871, -3.602208], [30.432282, -3.551875], [30.460135, -3.531928], [30.46892, -3.513014], [30.507161, -3.511051], [30.511502, -3.497718], [30.544988, -3.48914], [30.565968, -3.466712], [30.612891, -3.444905], [30.639142, -3.41948], [30.640434, -3.392815], [30.603279, -3.372558], [30.640538, -3.33287], [30.712006, -3.301865], [30.721463, -3.280987], [30.747921, -3.294113], [30.775671, -3.291012], [30.799753, -3.274579], [30.814842, -3.247708], [30.809364, -3.216805], [30.832205, -3.172777], [30.832929, -3.147662], [30.812258, -3.123477], [30.817684, -3.099086], [30.778255, -3.04741], [30.825488, -2.978577], [30.732057, -2.99346], [30.683687, -2.969998], [30.637592, -2.974443], [30.62953, -2.947674], [30.53889, -2.898995], [30.513052, -2.913981], [30.488454, -2.94354], [30.469644, -2.914188], [30.474191, -2.903233], [30.456001, -2.898272], [30.415797, -2.851659], [30.413626, -2.8344], [30.446906, -2.782723], [30.450523, -2.741795], [30.516101, -2.668311], [30.52256, -2.649398], [30.442668, -2.681127], [30.423238, -2.680921], [30.412128, -2.670172], [30.416003, -2.645574], [30.457655, -2.598032], [30.508091, -2.463466], [30.5546, -2.400628], [30.573927, -2.389259], [30.63785, -2.39701], [30.674799, -2.351742], [30.698467, -2.353395], [30.758825, -2.381094], [30.834376, -2.345334], [30.848949, -2.306266], [30.844711, -2.237847], [30.853393, -2.193818], [30.887809, -2.082507], [30.879438, -2.053465], [30.853496, -2.0237], [30.835461, -2.014708], [30.816754, -2.018739], [30.829932, -1.960551], [30.826934, -1.934093], [30.796962, -1.929338], [30.824247, -1.902053], [30.816599, -1.884173], [30.83789, -1.836838], [30.826418, -1.786195], [30.83789, -1.758703], [30.824247, -1.730694], [30.837476, -1.641087], [30.831017, -1.594165], [30.807246, -1.60326], [30.791588, -1.590961], [30.772261, -1.532463], [30.738878, -1.489469], [30.732935, -1.476446], [30.743219, -1.432831], [30.737534, -1.406683], [30.632424, -1.367616], [30.555323, -1.31842], [30.549949, -1.3024], [30.5546, -1.273461], [30.521217, -1.210829], [30.511191, -1.170418], [30.494655, -1.155329], [30.476051, -1.16122], [30.467266, -1.155329], [30.470884, -1.118122], [30.453004, -1.097348], [30.481012, -1.059107], [30.511657, -1.07337], [30.592737, -1.063448], [30.638626, -1.07337], [30.687098, -1.025001], [30.777118, -0.98583], [30.828381, -1.002573], [34.000022, -1.002573], [34.001986, -1.028722], [34.015422, -1.037507], [34.052526, -1.0404], [37.644865, -3.045963], [37.660161, -3.070561], [37.700055, -3.31437], [37.671943, -3.324292], [37.669876, -3.356125], [37.627191, -3.370284], [37.58523, -3.412969], [37.579442, -3.446352], [37.608174, -3.463612], [37.596185, -3.499682], [37.599079, -3.513428], [37.668326, -3.512498], [37.708323, -3.527174], [37.729821, -3.555389], [37.747184, -3.616987], [37.770955, -3.655435], [39.197439, -4.68377], [39.215099, -4.688653], [39.221528, -4.716729], [39.216075, -4.749119], [39.170177, -4.779962], [39.215994, -4.795668], [39.213552, -4.856378], [39.162283, -4.938653], [39.156505, -4.924005], [39.169607, -4.865899], [39.163341, -4.848321], [39.145681, -4.899835], [39.130382, -4.918145], [39.108653, -4.916599], [39.128673, -4.953383], [39.132172, -5.010186], [39.122325, -5.024509], [39.098155, -5.02337], [39.084483, -5.047784], [39.082774, -5.061456], [39.129161, -5.04754], [39.142751, -5.09588], [39.094086, -5.144952], [39.04363, -5.232192], [39.040375, -5.239353], [39.048188, -5.246677], [39.074555, -5.218845], [39.080577, -5.231134], [39.026378, -5.378513], [38.981293, -5.417413], [38.978282, -5.431085], [38.997406, -5.449395], [38.99879, -5.465265], [38.985362, -5.504978], [38.921641, -5.616306], [38.888927, -5.63714], [38.902599, -5.643324], [38.895193, -5.710545], [38.83253, -5.815606], [38.821625, -5.860528], [38.8213, -5.924981], [38.801036, -5.959731], [38.778005, -6.030694], [38.779063, -6.054864], [38.799571, -6.082208], [38.813243, -6.130629], [38.856781, -6.16367], [38.860037, -6.231622], [38.841156, -6.267755], [38.852224, -6.348728], [38.864757, -6.37363], [38.898285, -6.394708], [38.91505, -6.4367], [38.928884, -6.449395], [38.953868, -6.455011], [38.964692, -6.47324], [39.005056, -6.476983], [39.026052, -6.486993], [39.036876, -6.483168], [39.035899, -6.475193], [38.991384, -6.452081], [39.040863, -6.470147], [39.155528, -6.580743], [39.187266, -6.6242], [39.212738, -6.641778], [39.24586, -6.731052], [39.263927, -6.744399], [39.28004, -6.727146], [39.280284, -6.830499], [39.300466, -6.849379], [39.293712, -6.815199], [39.312022, -6.816339], [39.354991, -6.839125], [39.427908, -6.858087], [39.464529, -6.85768], [39.494314, -6.9013], [39.502696, -6.930841], [39.553722, -7.000746], [39.54005, -7.02809], [39.547537, -7.118259], [39.532563, -7.116876], [39.509044, -7.16839], [39.497895, -7.177179], [39.481293, -7.168064], [39.477875, -7.151056], [39.435883, -7.180271], [39.414399, -7.240899], [39.389903, -7.264825], [39.367442, -7.271417], [39.375662, -7.295587], [39.369802, -7.306899], [39.32781, -7.309259], [39.354259, -7.349298], [39.35434, -7.370782], [39.330414, -7.424249], [39.303966, -7.4485], [39.27475, -7.596449], [39.296235, -7.688409], [39.286876, -7.717543], [39.302013, -7.754083], [39.29713, -7.771661], [39.252615, -7.823337], [39.283214, -7.816583], [39.305024, -7.791762], [39.32781, -7.726332], [39.355235, -7.752537], [39.3567, -7.76686], [39.340831, -7.781671], [39.395518, -7.77988], [39.440278, -7.818536], [39.443533, -7.832615], [39.420909, -7.902032], [39.437022, -7.99391], [39.45753, -7.979669], [39.454356, -8.010431], [39.409679, -8.089532], [39.361827, -8.206801], [39.340831, -8.206801], [39.34783, -8.221612], [39.348318, -8.275079], [39.333995, -8.268813], [39.32781, -8.295587], [39.293712, -8.268813], [39.302094, -8.295099], [39.28004, -8.309259], [39.305349, -8.38893], [39.303071, -8.505466], [39.336436, -8.539483], [39.357677, -8.588311], [39.360037, -8.694431], [39.35434, -8.713962], [39.389334, -8.72381], [39.402192, -8.74505], [39.439138, -8.755466], [39.452647, -8.805352], [39.488536, -8.826918], [39.519542, -8.892022], [39.553722, -8.922296], [39.520681, -8.923028], [39.449392, -8.858657], [39.413097, -8.867364], [39.388682, -8.898858], [39.403819, -8.904555], [39.464203, -8.898858], [39.447602, -8.925551], [39.491873, -8.938409], [39.484874, -8.994399], [39.498546, -9.008722], [39.492361, -9.042901], [39.506033, -9.056248], [39.493337, -9.079522], [39.502696, -9.106622], [39.498546, -9.1242], [39.569184, -9.093032], [39.643809, -9.18906], [39.648611, -9.219903], [39.632091, -9.258477], [39.649913, -9.282485], [39.642833, -9.368585], [39.615977, -9.397149], [39.569102, -9.404962], [39.567393, -9.447524], [39.608409, -9.440118], [39.615896, -9.4249], [39.650727, -9.444757], [39.649913, -9.474298], [39.680675, -9.505304], [39.700938, -9.579522], [39.724946, -9.604099], [39.712087, -9.625095], [39.740896, -9.666762], [39.737478, -9.687107], [39.746593, -9.706476], [39.718272, -9.720636], [39.696951, -9.744887], [39.752289, -9.74863], [39.769705, -9.793064], [39.800629, -9.823826], [39.807302, -9.852227], [39.800059, -9.872654], [39.781261, -9.88242], [39.752289, -9.879002], [39.790212, -9.923028], [39.714203, -9.952081], [39.726329, -9.988865], [39.72516208354797, -10.0], [34.51892581284328, -10.0], [34.4833, -9.946162], [34.382325, -9.819658], [34.331682, -9.769222], [34.317936, -9.719199], [34.288067, -9.70845], [34.190812, -9.606751], [34.161873, -9.593625], [34.079811, -9.511046], [34.012735, -9.477457], [33.960748, -9.524896], [33.945866, -9.55001], [33.964469, -9.594659], [33.954857, -9.660598], [33.911862, -9.717959], [33.86525, -9.66959], [33.787529, -9.626491], [33.734612, -9.584117], [33.650638, -9.610988], [33.559481, -9.593315], [33.480519, -9.624424], [33.438971, -9.62153], [33.404245, -9.604891], [33.374996, -9.54908], [33.300272, -9.492236], [33.282392, -9.486035], [33.249112, -9.500711], [33.202397, -9.493476], [33.172941, -9.511046], [33.103901, -9.487895], [32.97471, -9.381235], [32.95528, -9.382062], [32.920863, -9.4079], [32.83074, -9.370176]]], [[[39.763194, -9.982843], [39.797048, -9.992446], [39.826915, -9.99033], [39.8366597834132, -10.0], [39.748859060742646, -10.0], [39.763194, -9.982843]]], [[[39.910981, -7.654474], [39.893403, -7.754083], [39.823253, -7.913995], [39.783702, -7.905857], [39.754649, -7.915297], [39.726329, -7.973403], [39.686778, -7.988865], [39.649913, -7.99391], [39.629731, -7.985772], [39.587169, -7.945489], [39.621918, -7.939223], [39.631684, -7.914972], [39.649913, -7.911879], [39.693044, -7.870294], [39.70753, -7.847426], [39.698253, -7.836196], [39.703868, -7.819431], [39.814301, -7.788507], [39.808767, -7.78045], [39.773448, -7.781671], [39.773448, -7.775486], [39.8449, -7.737726], [39.851817, -7.712091], [39.883556, -7.673435], [39.895681, -7.637628], [39.910981, -7.654474]]], [[[39.574067, -6.377618], [39.569509, -6.420831], [39.544281, -6.45086], [39.508474, -6.462823], [39.47169, -6.452081], [39.443696, -6.421563], [39.414236, -6.316339], [39.416515, -6.301365], [39.394054, -6.308201], [39.409679, -6.345798], [39.403575, -6.373712], [39.375662, -6.363377], [39.380056, -6.344171], [39.37436, -6.32879], [39.300466, -6.239353], [39.286876, -6.246759], [39.293712, -6.267755], [39.280284, -6.258477], [39.276052, -6.274102], [39.279552, -6.296645], [39.290294, -6.308201], [39.282481, -6.312188], [39.264171, -6.302423], [39.198578, -6.220798], [39.177013, -6.157892], [39.212901, -6.11419], [39.186209, -5.994317], [39.19044, -5.914239], [39.197439, -5.896661], [39.211111, -5.917739], [39.227794, -5.89072], [39.28004, -5.841974], [39.295258, -5.736505], [39.313487, -5.718438], [39.355724, -5.803806], [39.361827, -5.838962], [39.35434, -5.896661], [39.372569, -5.970798], [39.391775, -6.002211], [39.402843, -6.048028], [39.430186, -6.054864], [39.423839, -6.122328], [39.437022, -6.157892], [39.416515, -6.192071], [39.431, -6.185968], [39.45753, -6.212009], [39.464854, -6.187433], [39.472911, -6.1867], [39.477875, -6.198907], [39.484874, -6.192071], [39.500987, -6.196222], [39.498546, -6.123793], [39.515961, -6.146661], [39.524913, -6.175063], [39.543468, -6.321222], [39.574067, -6.377618]]], [[[39.643565, -5.379002], [39.656749, -5.349216], [39.650564, -5.338474], [39.698253, -5.34238], [39.663585, -5.287205], [39.716563, -5.289646], [39.726329, -5.280369], [39.705089, -5.274102], [39.690766, -5.259861], [39.746104, -5.253025], [39.764171, -5.262384], [39.774099, -5.259535], [39.780935, -5.239353], [39.760753, -5.24684], [39.736339, -5.240004], [39.690766, -5.211358], [39.680919, -5.217706], [39.668712, -5.213962], [39.649913, -5.190851], [39.67449, -5.202325], [39.68393, -5.197686], [39.746104, -5.205173], [39.738617, -5.197686], [39.746267, -5.178318], [39.742524, -5.161798], [39.731781, -5.156508], [39.718272, -5.170505], [39.726329, -5.143731], [39.72047, -5.136326], [39.702647, -5.131036], [39.690766, -5.137465], [39.700694, -5.079197], [39.725434, -5.080499], [39.718272, -5.061782], [39.677257, -5.044366], [39.698253, -5.01336], [39.68393, -5.020196], [39.675792, -5.001723], [39.681163, -4.987237], [39.694672, -4.982517], [39.712087, -4.992852], [39.715994, -4.976821], [39.677257, -4.945082], [39.684093, -4.890313], [39.702322, -4.907892], [39.712087, -4.93141], [39.723155, -4.929864], [39.735199, -4.910333], [39.759776, -4.934503], [39.805919, -4.96087], [39.821544, -4.993829], [39.828136, -4.986017], [39.823741, -4.957208], [39.835623, -4.945082], [39.841645, -4.96559], [39.849864, -4.949151], [39.855968, -4.897231], [39.869477, -4.90602], [39.866873, -4.950291], [39.878184, -4.987726], [39.866954, -5.005792], [39.835623, -5.026462], [39.840587, -5.044203], [39.828136, -5.102146], [39.838634, -5.137465], [39.84783, -5.133233], [39.848481, -5.108982], [39.861176, -5.114516], [39.855642, -5.229425], [39.848481, -5.245538], [39.855968, -5.253025], [39.844005, -5.267022], [39.814301, -5.355401], [39.802501, -5.370375], [39.796072, -5.406834], [39.787283, -5.409112], [39.781505, -5.401056], [39.786388, -5.383233], [39.780935, -5.383233], [39.765961, -5.410577], [39.764008, -5.432306], [39.729015, -5.454197], [39.738617, -5.431085], [39.705414, -5.442966], [39.698253, -5.431085], [39.648936, -5.427504], [39.643565, -5.379002]]], [[[39.796737, -7.992453], [39.801492, -8.006587], [39.719439, -8.092572], [39.702796, -8.091393], [39.696853, -8.074908], [39.7028, -8.049004], [39.74204, -7.994825], [39.796737, -7.992453]]], [[[39.238521, -5.812955], [39.231648, -5.823217], [39.237862, -5.856047], [39.21447, -5.858106], [39.214412, -5.77738], [39.226104, -5.769169], [39.238521, -5.812955]]], [[[39.598887, -5.408501], [39.621161, -5.441083], [39.652181, -5.450943], [39.662138, -5.46374], [39.659811, -5.47597], [39.6329, -5.477752], [39.615331, -5.463799], [39.569029, -5.406201], [39.575458, -5.394548], [39.598887, -5.408501]]]]}}, {"type": "Feature", "properties": {"name": "Dem. Rep. Congo"}, "geometry": {"type": "Polygon", "coordinates": [[[20.003977, 4.974478], [20.08635, 4.916264], [20.171719, 4.87836], [20.236625, 4.806349], [20.338944, 4.771906], [20.373671, 4.724441], [20.395478, 4.677106], [20.420593, 4.662352], [20.456456, 4.621502], [20.463071, 4.600935], [20.44209, 4.550499], [20.452322, 4.528924], [20.580273, 4.415003], [20.603114, 4.409732], [20.68838, 4.42278], [20.767859, 4.42278], [20.791836, 4.426191], [20.832351, 4.450686], [20.871521, 4.453373], [20.963505, 4.433736], [21.076057, 4.395469], [21.113574, 4.340847], [21.150057, 4.326714], [21.158119, 4.310203], [21.195739, 4.302917], [21.210932, 4.291574], [21.23243, 4.297827], [21.265916, 4.330073], [21.288344, 4.33338], [21.37485, 4.278164], [21.473138, 4.269301], [21.49722, 4.251473], [21.538147, 4.244652], [21.634162, 4.294209], [21.737308, 4.293382], [21.771001, 4.273487], [21.819887, 4.271937], [21.86774, 4.241551], [21.949905, 4.233464], [22.001478, 4.244652], [22.057806, 4.219537], [22.127879, 4.203078], [22.15165, 4.179462], [22.207254, 4.150316], [22.303269, 4.128716], [22.422641, 4.134787], [22.457368, 4.149076], [22.510491, 4.19127], [22.546148, 4.237184], [22.539327, 4.278164], [22.568575, 4.331546], [22.599891, 4.352552], [22.613741, 4.374359], [22.589039, 4.421953], [22.59245, 4.473707], [22.61033, 4.484224], [22.675649, 4.48474], [22.689498, 4.491665], [22.697043, 4.535745], [22.713683, 4.551222], [22.73115, 4.587266], [22.723605, 4.62884], [22.757401, 4.660802], [22.78603, 4.724648], [22.802876, 4.730643], [22.853829, 4.711264], [22.865302, 4.738678], [22.895584, 4.765395], [22.882872, 4.800742], [22.898374, 4.823583], [22.92969, 4.820611], [22.977439, 4.834306], [23.017334, 4.750512], [23.099396, 4.711652], [23.12389, 4.715631], [23.168746, 4.73811], [23.20864, 4.690542], [23.251841, 4.662972], [23.264864, 4.635067], [23.295146, 4.6276], [23.316437, 4.60773], [23.353954, 4.60357], [23.38837, 4.587266], [23.414519, 4.590832], [23.427438, 4.601348], [23.430022, 4.62884], [23.448315, 4.659407], [23.506089, 4.676434], [23.588048, 4.73395], [23.63404, 4.745138], [23.672694, 4.767204], [23.760027, 4.787435], [23.816665, 4.820611], [23.855215, 4.813222], [23.88188, 4.82689], [23.948336, 4.817692], [23.943169, 4.851695], [23.950817, 4.867792], [23.963116, 4.868696], [23.977998, 4.854149], [24.046935, 4.888928], [24.08962, 4.920218], [24.10843, 4.92306], [24.152768, 4.902596], [24.209612, 4.956184], [24.229766, 4.961171], [24.246199, 4.954066], [24.25302, 4.929881], [24.259222, 4.929881], [24.267697, 4.935721], [24.284646, 4.992435], [24.296635, 5.003262], [24.368466, 5.012434], [24.398645, 5.036024], [24.396888, 5.048194], [24.361231, 5.062948], [24.367846, 5.084549], [24.396371, 5.122298], [24.41146, 5.081861], [24.430684, 5.067418], [24.436679, 5.100594], [24.459623, 5.107441], [24.513676, 5.087236], [24.533003, 5.073257], [24.553467, 5.039099], [24.601216, 5.026103], [24.610105, 5.016723], [24.615479, 4.985097], [24.670773, 4.957218], [24.654236, 4.929416], [24.730614, 4.917505], [24.749838, 4.918745], [24.766374, 4.929881], [24.77826, 4.918538], [24.789422, 4.919856], [24.819498, 4.94448], [24.848333, 4.936728], [24.958094, 4.99135], [25.006463, 4.980937], [25.076123, 4.951844], [25.084804, 4.954221], [25.100927, 4.994554], [25.129453, 5.018635], [25.163663, 5.005639], [25.227535, 5.009566], [25.248515, 5.024139], [25.307633, 5.032278], [25.320966, 5.052251], [25.324996, 5.088114], [25.34236, 5.111472], [25.349284, 5.141677], [25.341223, 5.155604], [25.314454, 5.163252], [25.307736, 5.185292], [25.335538, 5.228442], [25.343393, 5.271927], [25.355899, 5.286448], [25.376466, 5.293011], [25.36365, 5.310556], [25.39569, 5.333965], [25.413363, 5.323552], [25.435067, 5.328694], [25.481989, 5.356858], [25.504469, 5.342285], [25.540849, 5.354429], [25.532787, 5.372231], [25.543743, 5.37528], [25.58126, 5.374919], [25.600483, 5.34045], [25.622911, 5.34076], [25.609165, 5.320297], [25.623428, 5.309935], [25.650093, 5.320297], [25.691124, 5.299807], [25.743731, 5.250611], [25.771739, 5.245469], [25.781144, 5.258879], [25.769259, 5.265158], [25.792306, 5.262832], [25.794683, 5.238389], [25.814631, 5.244591], [25.811427, 5.230922], [25.826103, 5.194697], [25.849357, 5.217874], [25.872405, 5.217099], [25.910852, 5.170099], [25.912506, 5.190382], [25.925632, 5.201777], [25.958601, 5.197384], [25.958394, 5.214825], [25.971934, 5.227667], [25.996635, 5.219243], [26.026917, 5.189969], [26.037356, 5.197953], [26.067845, 5.200846], [26.077147, 5.216324], [26.095234, 5.211053], [26.088412, 5.244591], [26.112494, 5.238389], [26.12996, 5.258879], [26.157349, 5.232472], [26.170888, 5.238389], [26.18453, 5.225341], [26.198276, 5.238389], [26.213573, 5.199141], [26.226182, 5.204257], [26.226182, 5.183147], [26.246646, 5.189969], [26.253984, 5.172321], [26.272484, 5.159066], [26.317339, 5.146431], [26.353306, 5.147775], [26.362711, 5.135967], [26.390616, 5.149015], [26.400125, 5.133641], [26.441879, 5.104289], [26.462653, 5.059641], [26.502547, 5.047471], [26.528282, 5.048091], [26.561355, 5.067056], [26.568176, 5.059641], [26.579855, 5.074343], [26.598355, 5.080621], [26.629671, 5.067056], [26.635666, 5.077624], [26.657577, 5.073257], [26.691683, 5.094393], [26.739432, 5.094393], [26.760619, 5.088114], [26.808368, 5.039099], [26.832656, 5.053388], [26.849296, 5.039099], [26.867073, 5.037549], [26.884126, 5.053388], [26.90397, 5.094393], [26.961641, 5.151185], [27.027476, 5.189969], [27.073675, 5.203327], [27.11636, 5.200304], [27.239712, 5.144881], [27.301878, 5.131988], [27.342754, 5.100594], [27.391382, 5.092223], [27.441301, 5.070725], [27.43634, 5.013158], [27.501349, 4.96329], [27.514578, 4.92244], [27.552716, 4.900529], [27.640979, 4.890943], [27.658756, 4.879652], [27.671882, 4.855906], [27.685938, 4.797899], [27.699063, 4.787435], [27.734823, 4.793197], [27.744229, 4.787848], [27.759215, 4.766273], [27.766863, 4.735449], [27.758801, 4.677157], [27.772444, 4.595819], [27.809238, 4.58799], [27.849132, 4.553212], [27.885512, 4.556674], [27.914037, 4.54931], [27.916104, 4.562152], [27.92923, 4.569981], [27.944526, 4.557294], [28.014031, 4.550033], [28.011241, 4.480141], [28.04974, 4.419137], [28.085551, 4.443322], [28.101726, 4.442133], [28.112371, 4.414641], [28.140225, 4.37932], [28.177587, 4.347229], [28.216965, 4.342036], [28.303161, 4.352242], [28.336854, 4.327489], [28.357421, 4.282866], [28.381502, 4.275296], [28.404137, 4.277828], [28.425427, 4.290824], [28.496844, 4.369011], [28.557306, 4.373533], [28.570535, 4.405107], [28.638644, 4.432082], [28.695178, 4.532593], [28.72453, 4.533988], [28.755433, 4.553987], [28.769179, 4.549775], [28.783648, 4.530371], [28.789953, 4.48859], [28.815274, 4.478281], [28.903641, 4.478591], [28.98622, 4.495928], [29.053193, 4.450789], [29.055983, 4.4365], [29.10983, 4.412367], [29.173495, 4.348004], [29.19613, 4.337075], [29.221296, 4.340692], [29.23158, 4.375548], [29.242845, 4.387356], [29.303927, 4.387149], [29.33886, 4.449549], [29.390226, 4.493758], [29.417305, 4.555485], [29.44273, 4.583442], [29.449241, 4.657055], [29.457612, 4.669535], [29.494096, 4.668295], [29.513268, 4.652146], [29.535024, 4.660699], [29.576675, 4.644446], [29.618533, 4.641578], [29.660287, 4.622122], [29.715323, 4.57967], [29.74514, 4.583907], [29.796713, 4.556028], [29.777696, 4.523859], [29.786998, 4.489675], [29.776766, 4.449342], [29.776198, 4.405624], [29.787825, 4.368804], [29.814852, 4.346764], [29.882703, 4.344025], [29.930348, 4.308653], [29.940115, 4.288344], [29.923217, 4.257752], [29.924147, 4.245582], [29.932157, 4.236151], [29.966005, 4.23181], [29.989363, 4.21778], [30.0429, 4.133108], [30.122688, 4.102464], [30.147493, 4.036654], [30.178085, 3.997096], [30.189351, 3.95609], [30.270948, 3.94945], [30.33792, 3.927875], [30.418949, 3.879713], [30.456828, 3.867595], [30.525247, 3.867543], [30.53889, 3.84155], [30.562868, 3.694866], [30.55491, 3.636394], [30.543024, 3.612907], [30.562248, 3.601358], [30.592427, 3.603528], [30.653767, 3.630606], [30.693351, 3.63195], [30.746939, 3.674867], [30.765129, 3.661716], [30.779082, 3.602598], [30.823214, 3.580429], [30.837683, 3.562678], [30.827658, 3.511105], [30.839543, 3.490202], [30.896388, 3.519967], [30.909307, 3.496144], [30.902899, 3.458911], [30.916335, 3.414806], [30.91003, 3.393412], [30.868482, 3.343337], [30.842437, 3.288741], [30.822129, 3.281403], [30.804197, 3.246005], [30.743839, 3.055474], [30.745079, 3.036302], [30.757068, 3.02147], [30.82094, 2.973153], [30.843988, 2.932794], [30.85484, 2.89321], [30.853393, 2.853367], [30.828691, 2.786084], [30.801613, 2.769083], [30.758928, 2.633794], [30.73526, 2.593073], [30.737017, 2.519537], [30.707665, 2.46228], [30.710559, 2.445123], [30.80492, 2.434374], [30.809675, 2.392362], [30.819803, 2.37598], [30.854943, 2.339703], [30.87179, 2.332055], [30.900573, 2.345956], [30.930907, 2.405591], [30.968011, 2.405436], [31.041288, 2.331228], [31.045939, 2.319653], [31.035501, 2.30694], [31.055241, 2.290249], [31.112602, 2.282084], [31.177559, 2.30291], [31.179058, 2.25976], [31.190116, 2.221519], [31.267476, 2.173253], [31.280447, 2.15341], [31.271455, 2.102999], [31.242826, 2.051168], [31.025837, 1.778239], [30.681724, 1.500349], [30.478274, 1.238634], [30.43161, 1.207008], [30.364947, 1.202047], [30.323813, 1.155848], [30.295701, 1.172643], [30.277976, 1.171609], [30.238857, 1.136004], [30.231519, 1.097764], [30.215292, 1.077093], [30.220977, 1.017097], [30.154831, 0.90868], [30.038352, 0.878914], [29.996391, 0.859949], [29.947298, 0.824602], [29.926834, 0.774889], [29.932312, 0.723161], [29.919496, 0.618103], [29.940477, 0.498317], [29.922907, 0.46018], [29.839605, 0.358481], [29.797127, 0.164797], [29.787205, 0.158493], [29.761263, 0.172135], [29.711809, 0.099582], [29.703075, 0.072503], [29.714341, -0.007492], [29.694032, -0.063096], [29.629385, -0.442401], [29.649745, -0.504309], [29.653053, -0.565597], [29.650882, -0.57955], [29.622874, -0.588438], [29.618843, -0.599394], [29.630573, -0.622028], [29.615536, -0.644146], [29.60303, -0.7229], [29.613365, -0.803826], [29.610781, -0.863977], [29.596725, -0.891882], [29.567166, -0.901908], [29.554661, -0.928573], [29.560345, -0.972084], [29.54846, -1.002573], [29.57006, -1.077918], [29.557038, -1.181787], [29.581429, -1.234807], [29.571507, -1.279249], [29.587113, -1.310565], [29.577915, -1.38839], [29.538641, -1.402342], [29.498747, -1.431074], [29.437407, -1.506212], [29.342787, -1.516547], [29.303823, -1.587861], [29.233337, -1.658657], [29.130501, -1.843349], [29.12771, -1.915696], [29.156339, -2.108656], [29.134841, -2.197746], [29.10983, -2.23671], [29.075413, -2.263892], [28.993661, -2.277741], [28.945447, -2.354222], [28.866331, -2.391946], [28.860853, -2.439592], [28.878216, -2.489718], [28.857236, -2.518346], [28.860956, -2.531162], [28.891342, -2.553073], [28.89806, -2.576327], [28.891342, -2.652705], [28.936404, -2.685055], [29.000121, -2.703658], [29.028595, -2.744896], [29.008234, -2.74748], [28.995522, -2.758435], [28.986892, -2.796779], [28.994902, -2.813626], [29.049058, -2.827475], [29.08978, -2.926074], [29.138407, -2.950361], [29.156752, -3.004828], [29.211529, -3.021158], [29.234629, -3.046583], [29.242328, -3.110765], [29.225017, -3.129369], [29.214113, -3.166472], [29.216904, -3.233135], [29.223828, -3.252669], [29.240881, -3.266311], [29.213079, -3.291943], [29.206672, -3.334524], [29.225172, -3.588565], [29.22326, -3.66701], [29.206568, -3.781939], [29.215043, -3.899864], [29.224552, -3.926529], [29.277727, -3.988954], [29.33948, -4.093237], [29.37276, -4.208166], [29.410897, -4.502308], [29.401337, -4.586851], [29.340824, -4.751699], [29.321032, -4.836345], [29.32377, -4.920164], [29.344234, -5.005998], [29.377824, -5.087544], [29.455649, -5.229964], [29.49637, -5.391711], [29.593521, -5.620328], [29.612435, -5.704354], [29.60303, -5.781661], [29.570887, -5.837989], [29.49606, -5.938654], [29.476113, -6.002113], [29.478696, -6.041801], [29.508824, -6.153732], [29.537711, -6.312378], [29.633932, -6.446944], [29.684369, -6.581509], [29.707003, -6.619336], [29.738629, -6.652409], [29.873091, -6.754212], [30.012721, -6.825215], [30.090855, -6.890018], [30.234671, -7.057139], [30.29446, -7.149433], [30.369598, -7.31025], [30.441635, -7.596331], [30.654955, -7.92737], [30.728129, -8.104104], [30.752107, -8.194124], [28.915268, -8.472867], [28.889172, -8.483099], [28.935474, -8.590792], [28.930461, -8.679883], [28.893099, -8.765769], [28.765407, -8.934027], [28.59906, -9.096395], [28.506198, -9.164401], [28.372304, -9.235094], [28.35246, -9.271991], [28.368532, -9.308578], [28.460464, -9.335036], [28.495397, -9.353226], [28.515964, -9.378341], [28.519685, -9.445624], [28.562783, -9.484898], [28.5741, -9.539158], [28.617767, -9.543292], [28.583557, -9.563756], [28.606502, -9.594349], [28.621798, -9.638274], [28.631255, -9.715582], [28.644949, -9.735115], [28.66996, -9.750928], [28.672337, -9.765501], [28.698486, -9.791959], [28.678073, -9.803845], [28.668462, -9.821622], [28.658695, -9.864823], [28.627947, -9.929419], [28.628178710856094, -10.0], [22.180391483120186, -10.0], [22.159918, -9.931486], [22.090982, -9.877122], [22.079923, -9.871644], [22.065764, -9.881049], [22.055842, -9.875365], [21.998378, -9.809116], [21.986285, -9.781107], [21.984425, -9.748758], [21.95652, -9.76178], [21.94236, -9.72292], [21.878902, -9.657084], [21.854097, -9.61781], [21.819887, -9.447691], [21.791982, -9.406143], [21.810172, -9.338137], [21.841075, -9.275815], [21.851617, -9.233751], [21.839731, -9.092364], [21.859885, -8.846384], [21.884793, -8.782305], [21.90691, -8.645466], [21.935953, -8.583144], [21.916212, -8.57684], [21.939983, -8.499945], [21.943911, -8.455917], [21.935953, -8.413025], [21.899882, -8.348843], [21.920553, -8.329], [21.873217, -8.264094], [21.857301, -8.156917], [21.815133, -8.096766], [21.79963, -8.040852], [21.758496, -8.015117], [21.753948, -7.99734], [21.751054, -7.929231], [21.772138, -7.8882], [21.764594, -7.850682], [21.770485, -7.806758], [21.83291, -7.614211], [21.854097, -7.585996], [21.846656, -7.514269], [21.860918, -7.469827], [21.846656, -7.449053], [21.851617, -7.416497], [21.83291, -7.390762], [21.842418, -7.369885], [21.808829, -7.306426], [21.784954, -7.283379], [20.520535, -7.286376], [20.524463, -7.143129], [20.611486, -6.915959], [20.319514, -6.918543], [20.298637, -6.95451], [20.294296, -7.001949], [20.0, -7.001949], [20.0, 4.975450442415184], [20.003977, 4.974478]]]}}, {"type": "Feature", "properties": {"name": "Zambia"}, "geometry": {"type": "Polygon", "coordinates": [[[32.927788, -9.479834], [32.937503, -9.487792], [32.961895, -9.48035], [32.99197, -9.501848], [32.992384, -9.529133], [32.97471, -9.601273], [32.986906, -9.628455], [33.000135, -9.632796], [33.03574, -9.616983], [33.046747, -9.622047], [33.058323, -9.654293], [33.08044, -9.662251], [33.09832, -9.588458], [33.121471, -9.599516], [33.175422, -9.602307], [33.19542, -9.616259], [33.214282, -9.654707], [33.204567, -9.698115], [33.216711, -9.727054], [33.25273, -9.754029], [33.287766, -9.803845], [33.343473, -9.83144], [33.365591, -9.898826], [33.31619744368936, -10.0], [28.628178710856094, -10.0], [28.627947, -9.929419], [28.658695, -9.864823], [28.668462, -9.821622], [28.678073, -9.803845], [28.698486, -9.791959], [28.672337, -9.765501], [28.66996, -9.750928], [28.644949, -9.735115], [28.631255, -9.715582], [28.621798, -9.638274], [28.606502, -9.594349], [28.583557, -9.563756], [28.617767, -9.543292], [28.5741, -9.539158], [28.562783, -9.484898], [28.519685, -9.445624], [28.515964, -9.378341], [28.495397, -9.353226], [28.460464, -9.335036], [28.368532, -9.308578], [28.35246, -9.271991], [28.372304, -9.235094], [28.506198, -9.164401], [28.59906, -9.096395], [28.765407, -8.934027], [28.893099, -8.765769], [28.930461, -8.679883], [28.935474, -8.590792], [28.889172, -8.483099], [28.915268, -8.472867], [30.752107, -8.194124], [30.778255, -8.289105], [30.828278, -8.388117], [30.891892, -8.479171], [30.959536, -8.550485], [31.03364, -8.600301], [31.077824, -8.61632], [31.119836, -8.616631], [31.182675, -8.580767], [31.206756, -8.580767], [31.237349, -8.613943], [31.260913, -8.623969], [31.353311, -8.587175], [31.36592, -8.598647], [31.372638, -8.623865], [31.38597, -8.632547], [31.427518, -8.633477], [31.480641, -8.676162], [31.519089, -8.687014], [31.539036, -8.70355], [31.55335, -8.809074], [31.576449, -8.839666], [31.672671, -8.913047], [31.709775, -8.919661], [31.764345, -8.894133], [31.787599, -8.892169], [31.936634, -8.93258], [31.917824, -8.973095], [31.917721, -9.022497], [31.938081, -9.061771], [31.980559, -9.0719], [32.031719, -9.045958], [32.057247, -9.049576], [32.096418, -9.069109], [32.134141, -9.064148], [32.211294, -9.12678], [32.231448, -9.133808], [32.383015, -9.133912], [32.423426, -9.143834], [32.459703, -9.168018], [32.490089, -9.227343], [32.518046, -9.258245], [32.713228, -9.28584], [32.739686, -9.307338], [32.752295, -9.337413], [32.784334, -9.339687], [32.83074, -9.370176], [32.920863, -9.4079], [32.927788, -9.479834]]]}}, {"type": "Feature", "properties": {"name": "Central African Rep."}, "geometry": {"type": "Polygon", "coordinates": [[[23.624015, 9.907768], [23.644789, 9.863068], [23.674038, 9.69034], [23.669077, 9.652022], [23.606135, 9.537171], [23.619984, 9.447719], [23.646339, 9.425033], [23.621845, 9.34062], [23.63218, 9.277574], [23.549498, 9.185254], [23.474257, 9.170682], [23.45772, 9.146161], [23.435706, 9.018934], [23.43829, 8.994543], [23.451416, 8.974182], [23.478081, 8.958912], [23.505469, 8.961082], [23.542573, 8.997281], [23.560143, 8.996455], [23.567481, 8.974828], [23.553632, 8.883154], [23.482318, 8.783393], [23.49007, 8.732595], [23.505262, 8.710736], [23.525726, 8.701485], [23.540506, 8.704793], [23.578023, 8.730476], [23.59642, 8.734145], [23.657088, 8.710012], [23.72127, 8.702002], [23.768916, 8.721252], [23.803436, 8.72213], [23.866687, 8.70779], [23.922291, 8.713449], [23.962082, 8.697015], [24.009624, 8.698876], [24.114011, 8.681642], [24.217674, 8.691512], [24.235761, 8.682003], [24.211266, 8.627071], [24.25054, 8.579632], [24.193179, 8.532426], [24.137162, 8.438866], [24.121556, 8.372307], [24.131374, 8.343058], [24.152872, 8.317891], [24.206615, 8.283268], [24.302733, 8.26544], [24.332085, 8.245725], [24.396578, 8.267817], [24.431097, 8.271408], [24.464274, 8.233194], [24.51285, 8.207149], [24.614859, 8.217148], [24.710564, 8.204307], [24.742293, 8.18684], [24.800171, 8.180277], [24.832107, 8.16573], [24.917993, 8.087027], [24.927811, 8.070956], [24.930085, 8.035454], [24.950549, 8.014396], [24.952616, 7.996567], [25.059173, 7.896108], [25.089559, 7.884895], [25.134414, 7.892543], [25.173171, 7.888564], [25.191568, 7.872389], [25.216889, 7.864069], [25.23942, 7.835957], [25.269909, 7.760768], [25.266809, 7.703097], [25.279418, 7.659482], [25.274974, 7.641964], [25.252546, 7.62243], [25.186504, 7.600106], [25.165213, 7.5799], [25.169037, 7.551168], [25.190431, 7.501197], [25.249962, 7.469984], [25.285102, 7.431589], [25.316211, 7.417223], [25.335952, 7.359604], [25.360033, 7.335574], [25.481163, 7.266173], [25.516768, 7.269945], [25.592422, 7.211241], [25.672727, 7.187831], [25.697015, 7.168607], [25.724507, 7.166695], [25.750242, 7.146542], [25.786209, 7.142666], [25.800781, 7.104942], [25.877469, 7.087734], [25.888735, 7.05187], [25.920257, 7.034145], [25.960461, 7.024482], [25.969453, 7.003553], [26.026091, 6.99668], [26.035806, 6.922266], [26.045418, 6.899683], [26.073633, 6.895136], [26.077354, 6.85333], [26.091203, 6.830334], [26.147634, 6.804702], [26.178743, 6.765919], [26.236207, 6.72003], [26.378007, 6.65329], [26.379867, 6.619778], [26.30504, 6.496917], [26.27021, 6.465653], [26.289124, 6.459426], [26.282819, 6.407853], [26.28964, 6.387208], [26.335219, 6.360595], [26.375837, 6.312587], [26.452008, 6.28029], [26.455625, 6.230474], [26.495829, 6.221146], [26.508955, 6.205462], [26.500067, 6.167971], [26.42927, 6.113091], [26.421312, 6.09366], [26.424826, 6.072447], [26.48105, 6.104951], [26.498827, 6.099836], [26.527972, 6.043172], [26.543578, 6.030847], [26.602179, 6.010616], [26.705016, 6.009789], [26.776329, 5.981884], [26.805061, 5.957183], [26.81891, 5.894628], [26.842165, 5.884267], [26.894255, 5.889667], [26.916475, 5.849644], [26.981071, 5.859204], [27.003499, 5.819284], [27.036055, 5.785126], [27.072745, 5.791224], [27.123801, 5.768745], [27.136307, 5.734018], [27.170413, 5.72035], [27.182351, 5.707456], [27.196407, 5.661464], [27.218369, 5.645315], [27.210669, 5.601623], [27.217336, 5.585397], [27.247515, 5.592605], [27.261054, 5.577593], [27.260744, 5.550257], [27.218059, 5.42551], [27.2378, 5.32319], [27.264465, 5.260145], [27.30131, 5.205187], [27.385801, 5.143847], [27.402131, 5.104496], [27.441301, 5.070725], [27.391382, 5.092223], [27.342754, 5.100594], [27.301878, 5.131988], [27.239712, 5.144881], [27.11636, 5.200304], [27.073675, 5.203327], [27.027476, 5.189969], [26.961641, 5.151185], [26.90397, 5.094393], [26.884126, 5.053388], [26.867073, 5.037549], [26.849296, 5.039099], [26.832656, 5.053388], [26.808368, 5.039099], [26.760619, 5.088114], [26.739432, 5.094393], [26.691683, 5.094393], [26.657577, 5.073257], [26.635666, 5.077624], [26.629671, 5.067056], [26.598355, 5.080621], [26.579855, 5.074343], [26.568176, 5.059641], [26.561355, 5.067056], [26.528282, 5.048091], [26.502547, 5.047471], [26.462653, 5.059641], [26.441879, 5.104289], [26.400125, 5.133641], [26.390616, 5.149015], [26.362711, 5.135967], [26.353306, 5.147775], [26.317339, 5.146431], [26.272484, 5.159066], [26.253984, 5.172321], [26.246646, 5.189969], [26.226182, 5.183147], [26.226182, 5.204257], [26.213573, 5.199141], [26.198276, 5.238389], [26.18453, 5.225341], [26.170888, 5.238389], [26.157349, 5.232472], [26.12996, 5.258879], [26.112494, 5.238389], [26.088412, 5.244591], [26.095234, 5.211053], [26.077147, 5.216324], [26.067845, 5.200846], [26.037356, 5.197953], [26.026917, 5.189969], [25.996635, 5.219243], [25.971934, 5.227667], [25.958394, 5.214825], [25.958601, 5.197384], [25.925632, 5.201777], [25.912506, 5.190382], [25.910852, 5.170099], [25.872405, 5.217099], [25.849357, 5.217874], [25.826103, 5.194697], [25.811427, 5.230922], [25.814631, 5.244591], [25.794683, 5.238389], [25.792306, 5.262832], [25.769259, 5.265158], [25.781144, 5.258879], [25.771739, 5.245469], [25.743731, 5.250611], [25.691124, 5.299807], [25.650093, 5.320297], [25.623428, 5.309935], [25.609165, 5.320297], [25.622911, 5.34076], [25.600483, 5.34045], [25.58126, 5.374919], [25.543743, 5.37528], [25.532787, 5.372231], [25.540849, 5.354429], [25.504469, 5.342285], [25.481989, 5.356858], [25.435067, 5.328694], [25.413363, 5.323552], [25.39569, 5.333965], [25.36365, 5.310556], [25.376466, 5.293011], [25.355899, 5.286448], [25.343393, 5.271927], [25.335538, 5.228442], [25.307736, 5.185292], [25.314454, 5.163252], [25.341223, 5.155604], [25.349284, 5.141677], [25.34236, 5.111472], [25.324996, 5.088114], [25.320966, 5.052251], [25.307633, 5.032278], [25.248515, 5.024139], [25.227535, 5.009566], [25.163663, 5.005639], [25.129453, 5.018635], [25.100927, 4.994554], [25.084804, 4.954221], [25.076123, 4.951844], [25.006463, 4.980937], [24.958094, 4.99135], [24.848333, 4.936728], [24.819498, 4.94448], [24.789422, 4.919856], [24.77826, 4.918538], [24.766374, 4.929881], [24.749838, 4.918745], [24.730614, 4.917505], [24.654236, 4.929416], [24.670773, 4.957218], [24.615479, 4.985097], [24.610105, 5.016723], [24.601216, 5.026103], [24.553467, 5.039099], [24.533003, 5.073257], [24.513676, 5.087236], [24.459623, 5.107441], [24.436679, 5.100594], [24.430684, 5.067418], [24.41146, 5.081861], [24.396371, 5.122298], [24.367846, 5.084549], [24.361231, 5.062948], [24.396888, 5.048194], [24.398645, 5.036024], [24.368466, 5.012434], [24.296635, 5.003262], [24.284646, 4.992435], [24.267697, 4.935721], [24.259222, 4.929881], [24.25302, 4.929881], [24.246199, 4.954066], [24.229766, 4.961171], [24.209612, 4.956184], [24.152768, 4.902596], [24.10843, 4.92306], [24.08962, 4.920218], [24.046935, 4.888928], [23.977998, 4.854149], [23.963116, 4.868696], [23.950817, 4.867792], [23.943169, 4.851695], [23.948336, 4.817692], [23.88188, 4.82689], [23.855215, 4.813222], [23.816665, 4.820611], [23.760027, 4.787435], [23.672694, 4.767204], [23.63404, 4.745138], [23.588048, 4.73395], [23.506089, 4.676434], [23.448315, 4.659407], [23.430022, 4.62884], [23.427438, 4.601348], [23.414519, 4.590832], [23.38837, 4.587266], [23.353954, 4.60357], [23.316437, 4.60773], [23.295146, 4.6276], [23.264864, 4.635067], [23.251841, 4.662972], [23.20864, 4.690542], [23.168746, 4.73811], [23.12389, 4.715631], [23.099396, 4.711652], [23.017334, 4.750512], [22.977439, 4.834306], [22.92969, 4.820611], [22.898374, 4.823583], [22.882872, 4.800742], [22.895584, 4.765395], [22.865302, 4.738678], [22.853829, 4.711264], [22.802876, 4.730643], [22.78603, 4.724648], [22.757401, 4.660802], [22.723605, 4.62884], [22.73115, 4.587266], [22.713683, 4.551222], [22.697043, 4.535745], [22.689498, 4.491665], [22.675649, 4.48474], [22.61033, 4.484224], [22.59245, 4.473707], [22.589039, 4.421953], [22.613741, 4.374359], [22.599891, 4.352552], [22.568575, 4.331546], [22.539327, 4.278164], [22.546148, 4.237184], [22.510491, 4.19127], [22.457368, 4.149076], [22.422641, 4.134787], [22.303269, 4.128716], [22.207254, 4.150316], [22.15165, 4.179462], [22.127879, 4.203078], [22.057806, 4.219537], [22.001478, 4.244652], [21.949905, 4.233464], [21.86774, 4.241551], [21.819887, 4.271937], [21.771001, 4.273487], [21.737308, 4.293382], [21.634162, 4.294209], [21.538147, 4.244652], [21.49722, 4.251473], [21.473138, 4.269301], [21.37485, 4.278164], [21.288344, 4.33338], [21.265916, 4.330073], [21.23243, 4.297827], [21.210932, 4.291574], [21.195739, 4.302917], [21.158119, 4.310203], [21.150057, 4.326714], [21.113574, 4.340847], [21.076057, 4.395469], [20.963505, 4.433736], [20.871521, 4.453373], [20.832351, 4.450686], [20.791836, 4.426191], [20.767859, 4.42278], [20.68838, 4.42278], [20.603114, 4.409732], [20.580273, 4.415003], [20.452322, 4.528924], [20.44209, 4.550499], [20.463071, 4.600935], [20.456456, 4.621502], [20.420593, 4.662352], [20.395478, 4.677106], [20.373671, 4.724441], [20.338944, 4.771906], [20.236625, 4.806349], [20.171719, 4.87836], [20.08635, 4.916264], [20.003977, 4.974478], [20.0, 4.975450442415184], [20.0, 9.09750351498303], [20.006871, 9.11022], [20.024338, 9.089756], [20.031159, 9.11022], [20.060512, 9.134353], [20.099372, 9.13071], [20.101026, 9.148073], [20.109604, 9.151174], [20.137613, 9.121822], [20.154563, 9.116421], [20.212647, 9.144973], [20.256985, 9.116421], [20.359408, 9.116421], [20.412428, 9.142053], [20.435166, 9.138126], [20.481778, 9.204659], [20.507203, 9.213263], [20.51299, 9.223883], [20.496144, 9.270882], [20.533661, 9.289641], [20.541826, 9.321629], [20.572315, 9.308218], [20.667916, 9.302017], [20.654894, 9.342971], [20.750495, 9.384545], [20.757937, 9.377129], [20.77654, 9.407799], [20.801965, 9.42555], [20.82615, 9.418083], [20.841446, 9.484409], [20.874209, 9.502496], [20.912656, 9.544328], [20.925058, 9.569598], [20.955961, 9.589416], [20.962265, 9.606934], [20.983143, 9.603678], [20.975804, 9.630964], [20.989964, 9.635615], [20.996062, 9.648301], [21.000092, 9.697394], [21.019936, 9.747933], [21.042674, 9.767079], [21.065825, 9.754496], [21.09311, 9.77434], [21.105202, 9.77403], [21.106753, 9.79545], [21.131971, 9.849426], [21.195429, 9.887305], [21.205661, 9.916838], [21.256924, 9.975749], [21.27129, 9.987247], [21.339503, 9.95991], [21.374333, 9.973113], [21.396086397288254, 10.0], [23.56631412761534, 10.0], [23.624015, 9.907768]]]}}, {"type": "Feature", "properties": {"name": "Sudan"}, "geometry": {"type": "MultiPolygon", "coordinates": [[[[34.098208, 9.67972], [34.066892, 9.531176], [34.070698, 9.454592], [33.900855, 9.45529], [33.881425, 9.499215], [33.883905, 9.619853], [33.904886, 9.7107], [33.973254, 9.854852], [33.956097, 9.933994], [33.96233020399029, 10.0], [34.212622252086284, 10.0], [34.098208, 9.67972]]], [[[31.234817, 9.792323], [31.164382, 9.764005], [30.83696, 9.749354], [30.804817, 9.738942], [30.779082, 9.719873], [30.765284, 9.724291], [30.484578, 9.972028], [30.440378777907704, 10.0], [31.446474148092143, 10.0], [31.234817, 9.792323]]], [[[29.613882, 9.914461], [29.567321, 9.841364], [29.483089, 9.761679], [29.252354, 9.711165], [29.132258, 9.667731], [29.009474, 9.603239], [28.913833, 9.529031], [28.84933, 9.465901], [28.828745, 9.427474], [28.831489, 9.349248], [28.843841, 9.324545], [28.04511, 9.331407], [27.997076, 9.38493], [27.895072, 9.59541], [27.769602, 9.583318], [27.641496, 9.601947], [27.609301, 9.595178], [27.528066, 9.605358], [27.385129, 9.60479], [27.33924, 9.612799], [27.080393, 9.606831], [26.694318, 9.476942], [26.625744, 9.480663], [26.556859, 9.520454], [26.179466, 9.95898], [26.102623, 9.987841], [26.094343068142383, 10.0], [29.614804744387065, 10.0], [29.613882, 9.914461]]], [[[24.976284, 9.967351], [24.913859, 9.890715], [24.844819, 9.841674], [24.803685, 9.829169], [24.796398, 9.818859], [24.792522, 9.520402], [24.785236, 9.497509], [24.694957, 9.402916], [24.680178, 9.373357], [24.659869, 9.176986], [24.559307, 8.999865], [24.558377, 8.886746], [24.493833, 8.858349], [24.380093, 8.844216], [24.240566, 8.761534], [24.182999, 8.717919], [24.170328, 8.689327], [24.114011, 8.681642], [24.009624, 8.698876], [23.962082, 8.697015], [23.922291, 8.713449], [23.866687, 8.70779], [23.803436, 8.72213], [23.768916, 8.721252], [23.72127, 8.702002], [23.657088, 8.710012], [23.59642, 8.734145], [23.525726, 8.701485], [23.505262, 8.710736], [23.49007, 8.732595], [23.482318, 8.783393], [23.553632, 8.883154], [23.567481, 8.974828], [23.560143, 8.996455], [23.542573, 8.997281], [23.505469, 8.961082], [23.478081, 8.958912], [23.451416, 8.974182], [23.43829, 8.994543], [23.435706, 9.018934], [23.45772, 9.146161], [23.474257, 9.170682], [23.549498, 9.185254], [23.63218, 9.277574], [23.621845, 9.34062], [23.646339, 9.425033], [23.619984, 9.447719], [23.606135, 9.537171], [23.669077, 9.652022], [23.674038, 9.69034], [23.644789, 9.863068], [23.624015, 9.907768], [23.56631412761534, 10.0], [24.99008499433823, 10.0], [24.976284, 9.967351]]]]}}, {"type": "Feature", "properties": {"name": "Angola"}, "geometry": {"type": "Polygon", "coordinates": [[[20.294296, -7.001949], [20.298637, -6.95451], [20.319514, -6.918543], [20.611486, -6.915959], [20.524463, -7.143129], [20.520535, -7.286376], [21.784954, -7.283379], [21.808829, -7.306426], [21.842418, -7.369885], [21.83291, -7.390762], [21.851617, -7.416497], [21.846656, -7.449053], [21.860918, -7.469827], [21.846656, -7.514269], [21.854097, -7.585996], [21.83291, -7.614211], [21.770485, -7.806758], [21.764594, -7.850682], [21.772138, -7.8882], [21.751054, -7.929231], [21.753948, -7.99734], [21.758496, -8.015117], [21.79963, -8.040852], [21.815133, -8.096766], [21.857301, -8.156917], [21.873217, -8.264094], [21.920553, -8.329], [21.899882, -8.348843], [21.935953, -8.413025], [21.943911, -8.455917], [21.939983, -8.499945], [21.916212, -8.57684], [21.935953, -8.583144], [21.90691, -8.645466], [21.884793, -8.782305], [21.859885, -8.846384], [21.839731, -9.092364], [21.851617, -9.233751], [21.841075, -9.275815], [21.810172, -9.338137], [21.791982, -9.406143], [21.819887, -9.447691], [21.854097, -9.61781], [21.878902, -9.657084], [21.94236, -9.72292], [21.95652, -9.76178], [21.984425, -9.748758], [21.986285, -9.781107], [21.998378, -9.809116], [22.055842, -9.875365], [22.065764, -9.881049], [22.079923, -9.871644], [22.090982, -9.877122], [22.159918, -9.931486], [22.180391483120186, -10.0], [20.0, -10.0], [20.0, -7.001949], [20.294296, -7.001949]]]}}, {"type": "Feature", "properties": {"name": "Chad"}, "geometry": {"type": "Polygon", "coordinates": [[[21.374333, 9.973113], [21.339503, 9.95991], [21.27129, 9.987247], [21.256924, 9.975749], [21.205661, 9.916838], [21.195429, 9.887305], [21.131971, 9.849426], [21.106753, 9.79545], [21.105202, 9.77403], [21.09311, 9.77434], [21.065825, 9.754496], [21.042674, 9.767079], [21.019936, 9.747933], [21.000092, 9.697394], [20.996062, 9.648301], [20.989964, 9.635615], [20.975804, 9.630964], [20.983143, 9.603678], [20.962265, 9.606934], [20.955961, 9.589416], [20.925058, 9.569598], [20.912656, 9.544328], [20.874209, 9.502496], [20.841446, 9.484409], [20.82615, 9.418083], [20.801965, 9.42555], [20.77654, 9.407799], [20.757937, 9.377129], [20.750495, 9.384545], [20.654894, 9.342971], [20.667916, 9.302017], [20.572315, 9.308218], [20.541826, 9.321629], [20.533661, 9.289641], [20.496144, 9.270882], [20.51299, 9.223883], [20.507203, 9.213263], [20.481778, 9.204659], [20.435166, 9.138126], [20.412428, 9.142053], [20.359408, 9.116421], [20.256985, 9.116421], [20.212647, 9.144973], [20.154563, 9.116421], [20.137613, 9.121822], [20.109604, 9.151174], [20.101026, 9.148073], [20.099372, 9.13071], [20.060512, 9.134353], [20.031159, 9.11022], [20.024338, 9.089756], [20.006871, 9.11022], [20.0, 9.09750351498303], [20.0, 10.0], [21.396086397288254, 10.0], [21.374333, 9.973113]]]}}, {"type": "Feature", "properties": {"name": "Burundi"}, "geometry": {"type": "Polygon", "coordinates": [[[30.508091, -2.463466], [30.457655, -2.598032], [30.416003, -2.645574], [30.412128, -2.670172], [30.423238, -2.680921], [30.442668, -2.681127], [30.52256, -2.649398], [30.516101, -2.668311], [30.450523, -2.741795], [30.446906, -2.782723], [30.413626, -2.8344], [30.415797, -2.851659], [30.456001, -2.898272], [30.474191, -2.903233], [30.469644, -2.914188], [30.488454, -2.94354], [30.513052, -2.913981], [30.53889, -2.898995], [30.62953, -2.947674], [30.637592, -2.974443], [30.683687, -2.969998], [30.732057, -2.99346], [30.825488, -2.978577], [30.778255, -3.04741], [30.817684, -3.099086], [30.812258, -3.123477], [30.832929, -3.147662], [30.832205, -3.172777], [30.809364, -3.216805], [30.814842, -3.247708], [30.799753, -3.274579], [30.775671, -3.291012], [30.747921, -3.294113], [30.721463, -3.280987], [30.712006, -3.301865], [30.640538, -3.33287], [30.603279, -3.372558], [30.640434, -3.392815], [30.639142, -3.41948], [30.612891, -3.444905], [30.565968, -3.466712], [30.544988, -3.48914], [30.511502, -3.497718], [30.507161, -3.511051], [30.46892, -3.513014], [30.460135, -3.531928], [30.432282, -3.551875], [30.428871, -3.602208], [30.373112, -3.703597], [30.384998, -3.770776], [30.381587, -3.788346], [30.33699, -3.773774], [30.31172, -3.789897], [30.273273, -3.856249], [30.208781, -3.930457], [30.191418, -4.002494], [30.149766, -4.08683], [30.119587, -4.12352], [30.051478, -4.180157], [30.003005, -4.271935], [29.936343, -4.312035], [29.900479, -4.345625], [29.847356, -4.370533], [29.80033, -4.363919], [29.784104, -4.37384], [29.775009, -4.402262], [29.751651, -4.416112], [29.744365, -4.454456], [29.732841, -4.463344], [29.638273, -4.446808], [29.404179, -4.449805], [29.37276, -4.208166], [29.33948, -4.093237], [29.277727, -3.988954], [29.224552, -3.926529], [29.215043, -3.899864], [29.206568, -3.781939], [29.22326, -3.66701], [29.225172, -3.588565], [29.206672, -3.334524], [29.213079, -3.291943], [29.240881, -3.266311], [29.223828, -3.252669], [29.216904, -3.233135], [29.214113, -3.166472], [29.225017, -3.129369], [29.242328, -3.110765], [29.234629, -3.046583], [29.211529, -3.021158], [29.156752, -3.004828], [29.138407, -2.950361], [29.08978, -2.926074], [29.049058, -2.827475], [28.994902, -2.813626], [28.986892, -2.796779], [28.995522, -2.758435], [29.008234, -2.74748], [29.028595, -2.744896], [29.015365, -2.720711], [29.032574, -2.620666], [29.05526, -2.598445], [29.113447, -2.594621], [29.294418, -2.651052], [29.306614, -2.660147], [29.309714, -2.691049], [29.337516, -2.723812], [29.318086, -2.762569], [29.339687, -2.826441], [29.425366, -2.803394], [29.480867, -2.813729], [29.504121, -2.826855], [29.541845, -2.808561], [29.574091, -2.806081], [29.619256, -2.787684], [29.678684, -2.805357], [29.719922, -2.805461], [29.729637, -2.79957], [29.744727, -2.759985], [29.803379, -2.767324], [29.842395, -2.752441], [29.876191, -2.71358], [29.897896, -2.671102], [29.907921, -2.5354], [29.929573, -2.459849], [29.92239, -2.382954], [29.931692, -2.316912], [29.949934, -2.321149], [29.976134, -2.34368], [30.013341, -2.348331], [30.072975, -2.408792], [30.116797, -2.43153], [30.139121, -2.430807], [30.156174, -2.419024], [30.20134, -2.362387], [30.207489, -2.339236], [30.262731, -2.358356], [30.297974, -2.353705], [30.331151, -2.340269], [30.362518, -2.307817], [30.37859, -2.303062], [30.418484, -2.311847], [30.434142, -2.339236], [30.488454, -2.383781], [30.521733, -2.399387], [30.5546, -2.400628], [30.508091, -2.463466]]]}}, {"type": "Feature", "properties": {"name": "Rwanda"}, "geometry": {"type": "Polygon", "coordinates": [[[29.000121, -2.703658], [28.936404, -2.685055], [28.891342, -2.652705], [28.89806, -2.576327], [28.891342, -2.553073], [28.860956, -2.531162], [28.857236, -2.518346], [28.878216, -2.489718], [28.864574, -2.459435], [28.858838, -2.418198], [28.866331, -2.391946], [28.880387, -2.379854], [28.928136, -2.364454], [28.959658, -2.339753], [28.993661, -2.277741], [29.075413, -2.263892], [29.10983, -2.23671], [29.134841, -2.197746], [29.156339, -2.108656], [29.12771, -1.915696], [29.130501, -1.843349], [29.233337, -1.658657], [29.303823, -1.587861], [29.342787, -1.516547], [29.437407, -1.506212], [29.498747, -1.431074], [29.538641, -1.402342], [29.577915, -1.38839], [29.657703, -1.383945], [29.710517, -1.352526], [29.734805, -1.348185], [29.774906, -1.366272], [29.798212, -1.330925], [29.816143, -1.322554], [29.836091, -1.329478], [29.864203, -1.370303], [29.871024, -1.432418], [29.880739, -1.453605], [29.897896, -1.469625], [29.917429, -1.475206], [29.960424, -1.464767], [30.038662, -1.424977], [30.06078, -1.389733], [30.147183, -1.345085], [30.165579, -1.277492], [30.212192, -1.259509], [30.269759, -1.200494], [30.287536, -1.155432], [30.317405, -1.137035], [30.337455, -1.066239], [30.352752, -1.060761], [30.403188, -1.070373], [30.445614, -1.058694], [30.471786, -1.066837], [30.453004, -1.097348], [30.470884, -1.118122], [30.467266, -1.155329], [30.476051, -1.16122], [30.494655, -1.155329], [30.511191, -1.170418], [30.521217, -1.210829], [30.5546, -1.273461], [30.549949, -1.3024], [30.555323, -1.31842], [30.632424, -1.367616], [30.737534, -1.406683], [30.743219, -1.432831], [30.732935, -1.476446], [30.738878, -1.489469], [30.772261, -1.532463], [30.791588, -1.590961], [30.807246, -1.60326], [30.831017, -1.594165], [30.838303, -1.615352], [30.824247, -1.730694], [30.83789, -1.758703], [30.826418, -1.786195], [30.83789, -1.836838], [30.816599, -1.884173], [30.824247, -1.902053], [30.796962, -1.929338], [30.826934, -1.934093], [30.829932, -1.960551], [30.816754, -2.018739], [30.835461, -2.014708], [30.853496, -2.0237], [30.879438, -2.053465], [30.887809, -2.082507], [30.853393, -2.193818], [30.844711, -2.237847], [30.848949, -2.306266], [30.834376, -2.345334], [30.758825, -2.381094], [30.687718, -2.349985], [30.663327, -2.360733], [30.63785, -2.39701], [30.573927, -2.389259], [30.5546, -2.400628], [30.521733, -2.399387], [30.488454, -2.383781], [30.434142, -2.339236], [30.418484, -2.311847], [30.37859, -2.303062], [30.362518, -2.307817], [30.331151, -2.340269], [30.297974, -2.353705], [30.262731, -2.358356], [30.207489, -2.339236], [30.20134, -2.362387], [30.156174, -2.419024], [30.139121, -2.430807], [30.116797, -2.43153], [30.072975, -2.408792], [30.013341, -2.348331], [29.976134, -2.34368], [29.949934, -2.321149], [29.931692, -2.316912], [29.92239, -2.382954], [29.929573, -2.459849], [29.907921, -2.5354], [29.897896, -2.671102], [29.876191, -2.71358], [29.842395, -2.752441], [29.803379, -2.767324], [29.744727, -2.759985], [29.729637, -2.79957], [29.719922, -2.805461], [29.678684, -2.805357], [29.619256, -2.787684], [29.574091, -2.806081], [29.541845, -2.808561], [29.504121, -2.826855], [29.480867, -2.813729], [29.425366, -2.803394], [29.339687, -2.826441], [29.318086, -2.762569], [29.337516, -2.723812], [29.309714, -2.691049], [29.306614, -2.660147], [29.276125, -2.640613], [29.212769, -2.630278], [29.113447, -2.594621], [29.05526, -2.598445], [29.032574, -2.620666], [29.015365, -2.720711], [29.000121, -2.703658]]]}}, {"type": "Feature", "properties": {"name": "Uganda"}, "geometry": {"type": "Polygon", "coordinates": [[[30.445614, -1.058694], [30.403188, -1.070373], [30.352752, -1.060761], [30.337455, -1.066239], [30.317405, -1.137035], [30.287536, -1.155432], [30.269759, -1.200494], [30.212192, -1.259509], [30.165579, -1.277492], [30.147183, -1.345085], [30.06078, -1.389733], [30.038662, -1.424977], [29.938462, -1.472932], [29.897896, -1.469625], [29.880739, -1.453605], [29.871024, -1.432418], [29.864203, -1.370303], [29.825135, -1.323897], [29.798212, -1.330925], [29.774906, -1.366272], [29.734805, -1.348185], [29.710517, -1.352526], [29.6391, -1.38901], [29.577915, -1.38839], [29.587113, -1.310565], [29.571507, -1.279249], [29.581429, -1.234807], [29.557038, -1.181787], [29.57006, -1.077918], [29.54846, -1.002573], [29.560345, -0.972084], [29.554661, -0.928573], [29.567166, -0.901908], [29.596725, -0.891882], [29.610781, -0.863977], [29.613365, -0.803826], [29.60303, -0.7229], [29.615536, -0.644146], [29.630573, -0.622028], [29.618843, -0.599394], [29.622874, -0.588438], [29.650882, -0.57955], [29.653053, -0.565597], [29.649745, -0.504309], [29.629385, -0.442401], [29.694032, -0.063096], [29.714341, -0.007492], [29.703075, 0.072503], [29.711809, 0.099582], [29.761263, 0.172135], [29.787205, 0.158493], [29.797127, 0.164797], [29.839605, 0.358481], [29.922907, 0.46018], [29.940477, 0.498317], [29.919496, 0.618103], [29.932312, 0.723161], [29.926834, 0.774889], [29.947298, 0.824602], [29.996391, 0.859949], [30.038352, 0.878914], [30.154831, 0.90868], [30.220977, 1.017097], [30.215292, 1.077093], [30.231519, 1.097764], [30.238857, 1.136004], [30.277976, 1.171609], [30.295701, 1.172643], [30.323813, 1.155848], [30.364947, 1.202047], [30.43161, 1.207008], [30.478274, 1.238634], [30.681724, 1.500349], [31.025837, 1.778239], [31.242826, 2.051168], [31.271455, 2.102999], [31.280447, 2.15341], [31.267476, 2.173253], [31.190116, 2.221519], [31.179058, 2.25976], [31.177559, 2.30291], [31.112602, 2.282084], [31.055241, 2.290249], [31.035501, 2.30694], [31.045939, 2.319653], [31.041288, 2.331228], [30.968011, 2.405436], [30.930907, 2.405591], [30.900573, 2.345956], [30.87179, 2.332055], [30.854943, 2.339703], [30.819803, 2.37598], [30.809675, 2.392362], [30.80492, 2.434374], [30.710559, 2.445123], [30.707665, 2.46228], [30.737017, 2.519537], [30.73526, 2.593073], [30.758928, 2.633794], [30.801613, 2.769083], [30.828691, 2.786084], [30.853393, 2.853367], [30.85484, 2.89321], [30.843988, 2.932794], [30.82094, 2.973153], [30.757068, 3.02147], [30.745079, 3.036302], [30.743839, 3.055474], [30.804197, 3.246005], [30.822129, 3.281403], [30.842437, 3.288741], [30.868482, 3.343337], [30.91003, 3.393412], [30.916335, 3.414806], [30.902899, 3.458911], [30.909307, 3.496144], [30.896388, 3.519967], [30.839543, 3.490202], [30.865692, 3.548958], [30.931734, 3.645102], [30.944447, 3.679286], [30.965996, 3.692618], [30.995968, 3.693522], [31.040358, 3.724218], [31.077668, 3.735303], [31.141489, 3.785119], [31.214818, 3.792354], [31.29502, 3.774189], [31.505446, 3.659855], [31.523739, 3.656083], [31.564771, 3.689802], [31.68683, 3.712824], [31.777884, 3.816435], [31.830697, 3.783879], [31.901908, 3.704297], [31.916274, 3.680267], [31.93002, 3.59836], [31.943662, 3.591255], [32.030168, 3.585932], [32.076161, 3.53317], [32.16799, 3.512242], [32.178997, 3.541361], [32.175948, 3.605595], [32.187782, 3.61916], [32.371801, 3.731065], [32.415571, 3.741297], [32.756429, 3.769022], [32.840352, 3.794291], [32.9189, 3.83416], [32.997241, 3.885526], [33.01724, 3.87718], [33.164466, 3.763053], [33.447343, 3.744372], [33.490648, 3.749746], [33.532609, 3.774293], [33.977078, 4.219692], [34.006017, 4.205713], [34.028548, 4.188014], [34.041054, 4.164812], [34.04095, 4.120421], [34.069269, 4.08802], [34.072679, 4.064663], [34.061104, 4.007767], [34.068959, 3.991876], [34.107096, 3.959501], [34.109576, 3.943352], [34.084772, 3.877336], [34.108026, 3.868938], [34.182854, 3.886095], [34.204971, 3.874545], [34.207555, 3.860877], [34.196703, 3.847389], [34.148954, 3.822688], [34.17903, 3.7961], [34.152468, 3.775636], [34.173655, 3.771399], [34.240938, 3.78362], [34.278868, 3.709723], [34.290444, 3.70316], [34.309874, 3.726699], [34.337056, 3.734579], [34.35504, 3.727371], [34.387492, 3.692747], [34.439686, 3.667736], [34.446403, 3.646704], [34.443923, 3.566295], [34.434518, 3.52622], [34.415501, 3.497023], [34.381291, 3.476869], [34.398551, 3.433642], [34.383978, 3.388347], [34.41116, 3.344707], [34.424079, 3.304812], [34.434001, 3.182029], [34.444853, 3.159136], [34.53384, 3.118467], [34.545622, 3.097383], [34.574664, 2.946126], [34.58469, 2.928711], [34.6405, 2.860137], [34.660344, 2.858638], [34.685045, 2.880962], [34.696517, 2.867733], [34.730107, 2.85285], [34.76132, 2.772493], [34.776512, 2.685625], [34.81868, 2.597982], [34.841832, 2.58775], [34.865603, 2.604855], [34.875628, 2.591212], [34.8871, 2.522379], [34.923584, 2.477318], [34.920896, 2.454632], [34.906117, 2.436907], [34.867876, 2.411482], [34.859091, 2.38678], [34.865603, 2.347506], [34.967509, 2.101914], [34.956657, 2.018508], [34.962031, 1.977813], [35.006473, 1.916861], [34.979704, 1.8703], [34.978671, 1.675945], [34.972676, 1.654241], [34.933712, 1.575693], [34.882553, 1.552232], [34.859505, 1.517919], [34.838421, 1.437174], [34.778993, 1.388547], [34.782714, 1.352993], [34.810516, 1.272533], [34.797907, 1.231916], [34.766074, 1.217498], [34.683805, 1.209075], [34.628925, 1.163599], [34.580452, 1.152541], [34.561228, 1.093371], [34.540351, 1.089392], [34.507485, 1.102518], [34.487021, 1.082467], [34.463663, 1.022936], [34.457152, 0.957617], [34.388009, 0.815817], [34.298402, 0.759283], [34.276181, 0.680838], [34.2521, 0.655], [34.149574, 0.603634], [34.132417, 0.572834], [34.104409, 0.462247], [34.075677, 0.422249], [34.087976, 0.367369], [34.085185, 0.347008], [34.04064, 0.305874], [33.893569, 0.109814], [33.890468, 0.090073], [33.95248, -0.115702], [33.953514, -0.154356], [33.894809, -0.662749], [33.904214, -1.002573], [30.828381, -1.002573], [30.777118, -0.98583], [30.687098, -1.025001], [30.638626, -1.07337], [30.592737, -1.063448], [30.511657, -1.07337], [30.493415, -1.060244], [30.471786, -1.066837], [30.445614, -1.058694]]]}}]}