{"type": "FeatureCollection", "features": [{"type": "Feature", "properties": {"name": "Russia"}, "geometry": {"type": "MultiPolygon", "coordinates": [[[[160.024913, 70.41942], [160.094249, 70.309882], [160.106293, 70.263739], [160.088145, 70.238349], [160.0, 70.19518703872694], [160.0, 70.44163427323531], [160.024913, 70.41942]]], [[[170.538748, 70.007066], [170.528982, 70.030341], [170.552908, 70.057807], [170.556814, 70.092434], [170.529959, 70.105536], [170.406749, 70.11286], [170.432465, 70.134101], [170.481619, 70.142035], [170.53419, 70.139635], [170.61085, 70.116278], [171.038097, 70.080756], [171.316254, 70.073188], [171.547537, 70.03856], [171.946462, 70.005561], [171.96783659293948, 70.0], [170.53709672947247, 70.0], [170.538748, 70.007066]]], [[[180.0, 70.992423], [179.874869, 70.960346], [179.866241, 70.942386], [179.80698, 70.913097], [179.666993, 70.874779], [179.131033, 70.87873], [178.793305, 70.804999], [178.783458, 70.842841], [178.693207, 70.955797], [178.656912, 70.986802], [178.622732, 71.037746], [178.626475, 71.06094], [178.667654, 71.099026], [178.847667, 71.183783], [178.869151, 71.209662], [178.848643, 71.209662], [178.905447, 71.237006], [179.182953, 71.303534], [179.391287, 71.383287], [179.440278, 71.392279], [179.499766, 71.432196], [179.563487, 71.451483], [179.700043, 71.458564], [179.766612, 71.469713], [179.75294, 71.484036], [179.865408, 71.498847], [179.866059, 71.507554], [179.848643, 71.517524], [180.0, 71.53642], [180.0, 70.992423]]], [[[168.264659, 70.024115], [168.50096523194873, 70.0], [168.16620692885283, 70.0], [168.264659, 70.024115]]], [[[162.434581, 70.672838], [162.484141, 70.65412], [162.350759, 70.64053], [162.237804, 70.65412], [162.237804, 70.660956], [162.292491, 70.665758], [162.345551, 70.662055], [162.381684, 70.681464], [162.434581, 70.672838]]], [[[161.694591, 70.750434], [161.638682, 70.757799], [161.570567, 70.787665], [161.463145, 70.804999], [161.48699, 70.817369], [161.483653, 70.839748], [161.530528, 70.84162], [161.586681, 70.81802], [161.656261, 70.813381], [161.676036, 70.798774], [161.662283, 70.791327], [161.694591, 70.750434]]], [[[160.763974, 70.804045], [160.59725, 70.792969], [160.504066, 70.805012], [160.509562, 70.833546], [160.545552, 70.851474], [160.552811, 70.884788], [160.503673, 70.890611], [160.481389, 70.877396], [160.450746, 70.872186], [160.40797, 70.914252], [160.424815, 70.927924], [160.456554, 70.93476], [160.517833, 70.935289], [160.674385, 70.914211], [160.693772, 70.896298], [160.723481, 70.838446], [160.763974, 70.804045]]]]}}]}