{"type": "FeatureCollection", "features": [{"type": "Feature", "properties": {"name": "Chile"}, "geometry": {"type": "MultiPolygon", "coordinates": [[[[-69.510089, -17.506588], [-69.302406, -17.976214], [-69.081722, -18.039983], [-69.155438, -18.140235], [-68.951445, -18.867323], [-68.989609, -18.946491], [-68.447626, -19.434627], [-68.703218, -19.71554], [-68.541574, -19.920385], [-68.588341, -20.055571], [-68.792592, -20.106627], [-68.678516, -20.328629], [-68.76541, -20.421233], [-68.480957, -20.624735], [-68.572786, -20.742867], [-68.555113, -20.913916], [-68.41631, -20.959805], [-68.207537, -21.284333], [-68.096226, -21.953956], [-67.960627, -22.102887], [-67.951894, -22.334088], [-67.859187, -22.547305], [-67.887092, -22.818709], [-67.616772, -22.897258], [-67.193904, -22.822223], [-67.013967, -23.000714], [-67.362369, -24.030367], [-68.244486, -24.385384], [-68.326807, -24.498245], [-68.397655, -24.500519], [-68.451502, -24.629297], [-68.49553, -24.601805], [-68.572373, -24.769856], [-68.366649, -25.123427], [-68.516046, -25.183578], [-68.605963, -25.436999], [-68.409024, -26.144243], [-68.575164, -26.30351], [-68.595317, -26.457299], [-68.305361, -26.897995], [-68.330476, -27.044963], [-68.518009, -27.076899], [-68.585861, -27.162785], [-68.814322, -27.120307], [-68.931447, -27.395226], [-69.01741, -27.460442], [-69.190191, -27.951368], [-69.303233, -27.99953], [-69.420306, -28.212644], [-69.490508, -28.198381], [-69.653031, -28.397852], [-69.753386, -28.673391], [-69.803926, -29.098688], [-70.040655, -29.297539], [-69.915599, -29.805621], [-69.980375, -30.072479], [-69.835758, -30.161879], [-69.964588, -30.374786], [-70.173412, -30.364657], [-70.143931, -30.439588], [-70.217105, -30.515139], [-70.339216, -30.938162], [-70.266559, -31.036451], [-70.339785, -31.041722], [-70.408643, -31.150036], [-70.467787, -31.089367], [-70.5414, -31.188173], [-70.589769, -31.567684], [-70.464144, -31.838262], [-70.244467, -31.942235], [-70.284697, -32.046777], [-70.389084, -32.053081], [-70.321801, -32.280147], [-70.160829, -32.485303], [-70.155739, -32.738414], [-70.000219, -32.876597], [-70.111194, -33.038447], [-70.109463, -33.169602], [-70.010011, -33.299103], [-69.940558, -33.242879], [-69.836844, -33.26572], [-69.787674, -33.379408], [-69.914255, -33.771943], [-69.828885, -34.23331], [-70.05758, -34.291187], [-70.067579, -34.414591], [-70.316298, -34.74563], [-70.276713, -34.798237], [-70.386629, -35.16669], [-70.578891, -35.259707], [-70.428384, -35.357066], [-70.471766, -35.37939], [-70.357329, -35.815229], [-70.420245, -35.868352], [-70.386939, -36.058728], [-70.451483, -36.152262], [-70.581424, -36.143167], [-70.710511, -36.265847], [-70.71865, -36.414572], [-70.890371, -36.400413], [-70.934968, -36.472553], [-71.043282, -36.484335], [-71.057441, -36.68763], [-71.145343, -36.68825], [-71.195159, -36.839146], [-71.135679, -36.95149], [-71.207148, -36.972367], [-71.089119, -37.103419], [-71.205597, -37.292658], [-71.117696, -37.466497], [-71.18503, -37.706069], [-71.007418, -38.071008], [-70.973751, -38.424682], [-70.837584, -38.584465], [-70.945045, -38.747246], [-71.399901, -38.910544], [-71.412045, -39.317961], [-71.541959, -39.532315], [-71.503512, -39.601664], [-71.714352, -39.601354], [-71.684586, -39.833485], [-71.616632, -39.909863], [-71.683708, -40.098998], [-71.814036, -40.0929], [-71.823751, -40.210103], [-71.674044, -40.324101], [-71.729286, -40.421356], [-71.796414, -40.414535], [-71.853103, -40.616383], [-71.955577, -40.720356], [-71.851449, -40.938327], [-71.903953, -41.367655], [-71.853258, -41.567332], [-71.925915, -41.653012], [-71.736263, -42.08389], [-71.923796, -42.176908], [-72.039913, -42.144662], [-72.133706, -42.287599], [-72.03919, -42.48123], [-72.148434, -42.592645], [-72.129314, -43.04223], [-71.742981, -43.190127], [-71.75068, -43.295341], [-71.901731, -43.322006], [-71.955112, -43.443549], [-71.7143, -43.602195], [-71.709184, -43.684361], [-71.819203, -43.758051], [-71.659885, -43.92631], [-71.858736, -44.107798], [-71.80401, -44.314813], [-71.860596, -44.377135], [-71.209783, -44.427571], [-71.122398, -44.549424], [-71.2134, -44.607095], [-71.29784, -44.795611], [-71.497104, -44.742901], [-72.088748, -44.782795], [-72.073503, -44.902168], [-71.588726, -44.978132], [-71.317167, -45.26721], [-71.389359, -45.37077], [-71.508318, -45.40839], [-71.489094, -45.498514], [-71.765098, -45.572411], [-71.801788, -45.72403], [-71.758483, -45.848156], [-71.612291, -45.970526], [-71.770162, -46.112636], [-71.914701, -46.152324], [-71.763341, -46.244515], [-71.68717, -46.690069], [-71.9501, -46.813989], [-71.970357, -46.948451], [-71.914805, -46.998474], [-72.005187, -47.061932], [-71.874135, -47.142548], [-71.880698, -47.221923], [-72.030301, -47.197531], [-72.038156, -47.287035], [-72.170551, -47.407544], [-72.361186, -47.450953], [-72.344443, -47.602261], [-72.543914, -47.9148], [-72.343047, -48.07045], [-72.295092, -48.333276], [-72.61471, -48.510009], [-72.592334, -48.791129], [-72.781212, -48.93386], [-73.009725, -48.990394], [-73.18434, -49.214256], [-73.097627, -49.266552], [-73.145014, -49.303656], [-73.471118, -49.317195], [-73.586589, -49.529999], [-73.462979, -49.787141], [-73.57274, -49.932352], [-73.478585, -50.009453], [-73.541475, -50.113736], [-73.301438, -50.299564], [-73.177725, -50.749459], [-73.051738, -50.757831], [-72.755787, -50.616444], [-72.662614, -50.667811], [-72.505983, -50.601251], [-72.302843, -50.648897], [-72.347388, -50.743155], [-72.263466, -50.836276], [-72.265946, -50.960713], [-72.404594, -51.10582], [-72.258815, -51.245191], [-72.351212, -51.475978], [-72.450069, -51.552666], [-71.981726, -51.844948], [-71.965241, -51.970625], [-69.952754, -52.007419], [-68.448208, -52.310394], [-68.898461, -52.303537], [-69.234708, -52.203143], [-69.470937, -52.272719], [-69.496938, -52.385349], [-69.672351, -52.530857], [-69.84658, -52.486543], [-70.517734, -52.723255], [-70.525878, -52.659927], [-70.698178, -52.739432], [-70.863759, -52.721368], [-70.73884, -52.783868], [-70.889215, -52.913626], [-70.809153, -52.961602], [-70.992747, -53.382989], [-70.939443, -53.592218], [-70.973622, -53.756036], [-71.285024, -53.886], [-71.644643, -53.823663], [-71.87442, -53.696547], [-72.103871, -53.68906], [-72.453277, -53.407322], [-72.412343, -53.310968], [-72.282297, -53.242771], [-72.114613, -53.256768], [-72.080434, -53.329034], [-72.099599, -53.390069], [-72.241689, -53.434503], [-72.092519, -53.422621], [-72.015126, -53.392999], [-72.021718, -53.247328], [-71.855621, -53.225356], [-71.789174, -53.441339], [-72.007965, -53.554295], [-71.814198, -53.520685], [-71.754465, -53.462498], [-71.742421, -53.223403], [-71.360219, -53.116143], [-71.198582, -52.923904], [-71.118764, -52.919636], [-71.169285, -52.812813], [-71.352115, -52.807111], [-71.398793, -52.728204], [-71.398629, -52.831715], [-71.906233, -53.010889], [-72.021962, -53.125421], [-72.286, -53.02988], [-72.268951, -53.071466], [-72.380035, -53.050388], [-72.56314, -53.078871], [-72.367096, -53.068129], [-72.191396, -53.180597], [-72.538197, -53.197361], [-72.412343, -53.256443], [-72.535878, -53.270115], [-72.522206, -53.366306], [-72.645131, -53.317804], [-72.364573, -53.536879], [-72.531728, -53.542087], [-72.763173, -53.387791], [-72.794667, -53.440118], [-73.303049, -53.153416], [-72.95637, -53.160577], [-72.719553, -53.292576], [-72.689198, -53.24033], [-72.795969, -53.173272], [-72.652577, -53.153416], [-72.933746, -53.10475], [-72.876088, -53.036391], [-72.926422, -53.024591], [-72.960357, -52.824965], [-72.762441, -52.769789], [-72.703481, -52.707696], [-72.611318, -52.774102], [-72.714833, -52.869399], [-72.588206, -52.795994], [-72.431264, -52.856622], [-72.160874, -52.652118], [-71.850529, -52.69471], [-71.478103, -52.646138], [-71.571611, -52.561278], [-72.309926, -52.516534], [-72.41926, -52.653009], [-72.549143, -52.591567], [-72.389638, -52.507582], [-72.569976, -52.556899], [-72.858022, -52.502211], [-72.988352, -52.704278], [-72.819203, -52.586521], [-72.673899, -52.65252], [-73.015614, -52.841729], [-72.953603, -52.893324], [-72.979563, -53.054783], [-73.139719, -53.099216], [-73.176666, -53.015232], [-73.198476, -53.104913], [-73.455963, -52.986505], [-73.241567, -52.961602], [-73.213857, -52.887791], [-73.56371, -52.797052], [-73.233062, -52.790623], [-73.30663, -52.715427], [-73.152699, -52.633966], [-73.122141, -52.550063], [-73.003977, -52.558282], [-73.117991, -52.53281], [-73.091624, -52.493829], [-72.905832, -52.496026], [-73.143544, -52.490004], [-73.194976, -52.429864], [-73.235341, -52.496026], [-73.159657, -52.563735], [-73.26891, -52.673598], [-73.393625, -52.544122], [-73.397328, -52.636489], [-73.616444, -52.749119], [-73.699534, -52.714532], [-73.570546, -52.632013], [-73.687856, -52.597833], [-73.494862, -52.475518], [-73.515289, -52.420343], [-73.666168, -52.424005], [-73.562978, -52.322849], [-73.61266, -52.277439], [-73.580556, -52.208429], [-73.735015, -52.029962], [-73.55012, -52.186944], [-73.468332, -52.169041], [-73.495717, -52.131931], [-73.303049, -52.221775], [-73.204091, -52.108087], [-72.997792, -52.064874], [-72.987457, -52.142999], [-73.079254, -52.237074], [-72.994537, -52.186944], [-72.866444, -52.256768], [-72.754872, -52.056817], [-72.883697, -52.198337], [-72.947377, -52.166436], [-72.947377, -52.049737], [-72.802805, -51.937433], [-72.686676, -51.988377], [-72.703481, -52.060317], [-72.535878, -52.221775], [-72.601715, -52.339288], [-72.930531, -52.448175], [-72.721425, -52.406671], [-72.522206, -52.448337], [-72.637563, -52.397638], [-72.497141, -52.315362], [-72.466949, -52.204278], [-72.648671, -52.049005], [-72.669667, -51.961033], [-72.468984, -51.929295], [-72.508372, -51.837091], [-72.466949, -51.789727], [-72.689036, -51.593438], [-73.053538, -51.487481], [-73.077138, -51.419692], [-73.260365, -51.471124], [-73.054311, -51.502618], [-73.098256, -51.60475], [-72.989166, -51.526625], [-72.54955, -51.741306], [-72.72411, -51.838149], [-73.280019, -51.606215], [-73.224477, -51.71087], [-73.070058, -51.724542], [-72.994537, -51.789727], [-73.106028, -51.744887], [-73.13915, -51.76922], [-73.060374, -51.76922], [-73.049794, -51.831313], [-73.207428, -51.879083], [-72.972401, -51.82171], [-72.919423, -51.858575], [-73.145334, -51.940037], [-73.223704, -52.091485], [-73.326772, -51.726983], [-73.38622, -51.65252], [-73.316233, -52.166111], [-73.563547, -52.039972], [-73.645579, -51.848728], [-73.599273, -51.822686], [-73.39981, -52.01572], [-73.589182, -51.749607], [-73.460683, -51.6867], [-73.654856, -51.688572], [-73.699452, -51.785252], [-73.812001, -51.688572], [-73.714589, -51.638849], [-73.899526, -51.625177], [-73.816965, -51.536554], [-73.920644, -51.498305], [-73.934316, -51.399347], [-73.88036, -51.367934], [-73.604482, -51.611423], [-73.604604, -51.512953], [-73.659983, -51.494887], [-73.59789, -51.432794], [-73.692209, -51.414483], [-73.782826, -51.234796], [-73.759592, -51.195001], [-73.682729, -51.275974], [-73.694081, -51.139255], [-73.769846, -51.118097], [-73.879384, -51.237888], [-74.023305, -51.111017], [-74.029897, -51.207615], [-74.129506, -51.187677], [-74.152943, -51.060968], [-74.071441, -50.953709], [-74.232249, -51.035577], [-74.256418, -50.939386], [-74.151031, -50.872817], [-73.926829, -50.864353], [-73.803334, -50.960545], [-73.879709, -50.834161], [-73.741851, -50.820489], [-73.789662, -50.796563], [-73.772939, -50.670668], [-73.474355, -50.672459], [-73.725087, -50.559503], [-73.56371, -50.404962], [-73.759389, -50.51572], [-73.822621, -50.757908], [-74.042714, -50.822035], [-74.126088, -50.762465], [-74.06017, -50.712009], [-74.147125, -50.728692], [-74.235951, -50.604181], [-74.19872, -50.559015], [-74.297353, -50.480645], [-74.207997, -50.463637], [-74.126088, -50.590509], [-74.14981, -50.483087], [-73.879709, -50.542739], [-74.128896, -50.422947], [-74.016225, -50.363946], [-74.252553, -50.440525], [-74.321278, -50.384454], [-74.282704, -50.264907], [-74.354848, -50.359552], [-74.43932, -50.35711], [-74.536366, -50.296319], [-74.48176, -50.24863], [-74.694651, -50.183038], [-74.57372, -50.099298], [-74.504384, -50.131931], [-74.495432, -50.076593], [-74.347646, -50.086114], [-74.289906, -50.13128], [-74.324696, -50.172784], [-74.194407, -50.259698], [-74.121449, -50.223077], [-73.8579, -50.289483], [-74.006093, -50.201918], [-74.193715, -50.186456], [-74.364858, -49.951104], [-74.228139, -49.940525], [-73.885894, -50.076593], [-73.913197, -50.007745], [-74.00768, -49.991388], [-73.879709, -49.919041], [-73.906361, -49.856866], [-74.08727, -49.959893], [-74.324696, -49.871189], [-74.348256, -49.792087], [-74.071441, -49.741469], [-74.289906, -49.741469], [-74.326772, -49.677179], [-74.303578, -49.603692], [-74.078521, -49.536879], [-74.02302, -49.617852], [-73.940745, -49.559666], [-73.89269, -49.658298], [-73.711985, -49.765558], [-73.687856, -49.72031], [-73.85497, -49.650811], [-73.879709, -49.528497], [-74.090972, -49.497166], [-74.123525, -49.422621], [-74.074452, -49.261651], [-73.844879, -49.349786], [-73.985097, -49.27337], [-74.043528, -49.08294], [-73.94225, -49.023533], [-73.821848, -49.04225], [-73.889231, -49.00742], [-74.057485, -49.012465], [-74.036041, -49.144952], [-74.106435, -49.221287], [-74.19286, -49.208185], [-74.145904, -49.302016], [-74.241119, -49.527927], [-74.42276, -49.384698], [-74.371897, -49.186619], [-74.468658, -49.031671], [-74.365631, -48.932061], [-74.453481, -48.830987], [-74.371897, -48.719171], [-74.334828, -48.75506], [-74.0572, -48.74033], [-74.306223, -48.727716], [-74.392161, -48.599054], [-74.197133, -48.473321], [-73.993479, -48.597263], [-74.028554, -48.448012], [-73.89269, -48.41131], [-74.237904, -48.350763], [-74.107167, -48.306085], [-74.27009, -48.335626], [-74.31786, -48.212091], [-74.442494, -48.182387], [-74.512074, -48.089939], [-74.468658, -48.027765], [-74.588036, -48.079985], [-74.632571, -48.034924], [-74.537465, -47.963067], [-74.415395, -47.983657], [-74.205637, -48.231052], [-74.330922, -48.000421], [-73.891103, -48.022231], [-73.879709, -48.095961], [-73.769846, -48.027765], [-73.804189, -48.108087], [-73.601308, -48.130141], [-73.556264, -48.24684], [-73.486399, -48.17254], [-73.35143, -48.219496], [-73.276682, -48.13836], [-73.281809, -48.079278], [-73.374827, -48.16253], [-73.481801, -48.123305], [-73.642201, -47.983575], [-73.653147, -47.898045], [-73.507069, -47.97796], [-73.227854, -48.004083], [-73.481313, -47.963067], [-73.516835, -47.878513], [-73.619008, -47.863865], [-73.55012, -47.808038], [-73.731923, -47.743097], [-73.666168, -47.616306], [-73.721425, -47.527439], [-73.77599, -47.588962], [-73.730946, -47.623712], [-73.772939, -47.779474], [-73.923695, -47.842706], [-74.067738, -47.770766], [-74.548899, -47.784763], [-74.735585, -47.718683], [-74.656728, -47.644138], [-74.567616, -47.680922], [-74.632192, -47.62127], [-74.556711, -47.550063], [-74.52066, -47.603204], [-74.437652, -47.554783], [-74.344553, -47.636651], [-74.48176, -47.698826], [-74.344553, -47.670831], [-74.295888, -47.725356], [-74.205068, -47.756606], [-74.159657, -47.746515], [-74.303578, -47.678318], [-74.043528, -47.60947], [-74.140004, -47.586196], [-74.0572, -47.534275], [-74.314117, -47.595798], [-74.453521, -47.481052], [-74.394399, -47.446547], [-74.528554, -47.431736], [-74.324696, -47.218927], [-74.177602, -47.205255], [-74.112416, -47.335545], [-74.115387, -47.192966], [-74.016225, -47.177423], [-73.9735, -47.254978], [-73.989573, -47.167413], [-74.0572, -47.156915], [-73.941274, -47.027927], [-74.153228, -46.967218], [-74.208648, -46.893976], [-74.126088, -46.828546], [-74.243316, -46.864679], [-74.266835, -46.781671], [-74.591624, -46.725518], [-74.477651, -46.772393], [-74.640004, -46.780043], [-74.673492, -46.849054], [-74.43456, -46.85589], [-74.479156, -46.902276], [-74.680979, -46.883884], [-74.815256, -46.768487], [-74.856353, -46.813897], [-75.0065, -46.753513], [-75.083363, -46.640883], [-74.94164, -46.516778], [-74.934193, -46.437595], [-75.201731, -46.629978], [-75.414866, -46.632745], [-75.575063, -46.687921], [-75.661041, -46.767185], [-75.540598, -46.698175], [-75.422475, -46.713962], [-75.476064, -46.774021], [-75.386708, -46.780043], [-75.433909, -46.863377], [-75.346303, -46.866795], [-75.410553, -46.931573], [-75.551747, -46.948337], [-75.650217, -46.873224], [-75.708323, -46.654718], [-75.517079, -46.554295], [-75.540598, -46.513279], [-75.373036, -46.471612], [-75.345326, -46.394789], [-75.222239, -46.403985], [-75.196278, -46.298272], [-75.105784, -46.347101], [-75.029775, -46.341974], [-75.138661, -46.31406], [-75.090688, -46.216078], [-74.928049, -46.273614], [-74.958119, -46.215265], [-74.879547, -46.146742], [-74.777211, -46.212172], [-74.821197, -46.112237], [-74.701487, -46.032892], [-74.728749, -45.944024], [-74.665598, -45.823337], [-74.559967, -45.826267], [-74.453359, -46.016371], [-74.39977, -45.930434], [-74.461822, -45.815037], [-74.359609, -45.790297], [-74.103139, -45.836847], [-74.192779, -45.881931], [-74.059193, -45.929864], [-74.167063, -46.005548], [-74.083852, -46.029718], [-74.167063, -46.136407], [-74.076283, -46.096124], [-74.06135, -45.98089], [-73.97057, -46.084161], [-74.313222, -46.249933], [-74.489898, -46.189386], [-74.342152, -46.260837], [-74.049713, -46.191095], [-74.077707, -46.322035], [-73.844879, -46.341974], [-74.019276, -46.20436], [-73.881825, -46.141778], [-73.769846, -46.234552], [-73.773061, -46.320896], [-73.989166, -46.559747], [-73.873891, -46.602227], [-73.787343, -46.497166], [-73.741851, -46.533787], [-73.74234, -46.420994], [-73.488637, -46.300958], [-73.568349, -46.27044], [-73.523915, -46.175226], [-73.344594, -46.026544], [-73.430287, -46.029718], [-73.687856, -46.322035], [-73.619008, -46.102309], [-73.660553, -45.975681], [-73.402089, -45.701918], [-73.18578, -45.66253], [-73.32726, -45.619073], [-73.591664, -45.780206], [-73.510854, -45.451755], [-73.406077, -45.451267], [-73.392445, -45.375584], [-73.323557, -45.395929], [-73.327707, -45.340916], [-73.22643, -45.300877], [-73.014312, -45.444757], [-72.859527, -45.464451], [-72.830637, -45.418064], [-73.256663, -45.248224], [-73.448069, -45.279474], [-73.450063, -45.199477], [-73.304433, -45.144789], [-73.397776, -44.988214], [-73.117096, -44.948337], [-72.727651, -44.758559], [-72.67984, -44.543552], [-72.597971, -44.505304], [-72.591135, -44.340753], [-72.721913, -44.501397], [-72.939931, -44.306736], [-73.183502, -44.248142], [-73.128082, -44.145766], [-73.221099, -44.196873], [-73.290028, -44.152439], [-73.201772, -44.061456], [-73.116119, -44.085707], [-73.13915, -43.985121], [-73.012685, -43.772149], [-72.824615, -43.807875], [-72.847157, -43.679457], [-72.896881, -43.753106], [-73.055247, -43.71559], [-72.905832, -43.60768], [-73.026031, -43.586684], [-73.111318, -43.461033], [-73.084584, -43.316339], [-72.91218, -43.235447], [-72.934438, -43.09824], [-72.864858, -43.018731], [-72.734486, -43.079685], [-72.747141, -42.909763], [-72.864858, -42.751235], [-72.840321, -42.524835], [-72.710764, -42.496026], [-72.539418, -42.558282], [-72.843739, -42.278253], [-72.594553, -42.182061], [-72.419789, -42.43963], [-72.481313, -42.288507], [-72.412343, -42.2374], [-72.481313, -42.199151], [-72.426015, -42.147231], [-72.488026, -42.127537], [-72.464345, -41.97617], [-72.737294, -42.01393], [-72.88858, -41.910821], [-72.645131, -41.722833], [-72.30309, -41.648207], [-72.343414, -41.61297], [-72.30309, -41.380792], [-72.426178, -41.663995], [-72.609446, -41.70672], [-72.751576, -41.548435], [-72.957265, -41.483575], [-73.111887, -41.586196], [-73.059193, -41.697442], [-73.141713, -41.754815], [-73.515045, -41.803643], [-73.759946, -41.748841], [-73.696632, -41.637125], [-73.554758, -41.608494], [-73.494862, -41.510431], [-73.615224, -41.599867], [-73.798166, -41.565688], [-73.940585, -41.049964], [-73.946904, -40.972841], [-73.85464, -40.916163], [-73.89323, -40.863782], [-73.808885, -40.705986], [-73.841495, -40.666707], [-73.728498, -40.54418], [-73.782826, -40.424574], [-73.735015, -40.174737], [-73.659983, -40.109552], [-73.711171, -39.968683], [-73.458404, -39.833754], [-73.378774, -39.900486], [-73.406077, -39.69492], [-73.224477, -39.41725], [-73.209828, -39.19378], [-73.245432, -39.221287], [-73.543284, -38.420668], [-73.462961, -38.051202], [-73.666575, -37.725518], [-73.685129, -37.598403], [-73.599273, -37.447849], [-73.680409, -37.347833], [-73.607574, -37.15545], [-73.460683, -37.241957], [-73.209055, -37.160252], [-73.145375, -36.833917], [-73.207428, -36.775323], [-73.131703, -36.736423], [-73.118642, -36.597101], [-73.070221, -36.7138], [-72.981923, -36.690362], [-72.986195, -36.521417], [-72.93224, -36.523614], [-72.826161, -36.287042], [-72.80016, -35.978123], [-72.583567, -35.770603], [-72.646596, -35.566583], [-72.529652, -35.490411], [-72.398061, -35.233494], [-72.23058, -35.116143], [-72.187815, -34.885512], [-72.05724, -34.658787], [-72.048085, -34.403904], [-71.989084, -34.355239], [-72.018544, -34.140802], [-71.816518, -33.787286], [-71.671864, -33.6985], [-71.624664, -33.541436], [-71.705922, -33.43434], [-71.671864, -33.325779], [-71.761871, -33.101983], [-71.568227, -33.001886], [-71.407948, -32.386326], [-71.542144, -32.205173], [-71.501129, -31.889825], [-71.666168, -31.169854], [-71.71345, -30.614923], [-71.637766, -30.241469], [-71.542144, -30.285333], [-71.398793, -30.17669], [-71.412465, -29.991795], [-71.282582, -29.880141], [-71.335927, -29.728123], [-71.308827, -29.408868], [-71.486928, -29.211847], [-71.521962, -28.940118], [-71.301869, -28.6749], [-71.316233, -28.572931], [-71.188588, -28.40545], [-71.173085, -28.09295], [-71.038686, -27.666436], [-70.912424, -27.62184], [-70.95995, -27.161391], [-70.788645, -26.99627], [-70.822418, -26.865818], [-70.732467, -26.749281], [-70.69929, -26.392999], [-70.629954, -26.340977], [-70.681443, -26.304496], [-70.635976, -25.974705], [-70.739985, -25.829323], [-70.634775, -25.625502], [-70.646881, -25.521661], [-70.444814, -25.344903], [-70.582834, -24.524835], [-70.498525, -23.784601], [-70.390736, -23.576918], [-70.496983, -23.469472], [-70.539315, -23.532273], [-70.631612, -23.517039], [-70.600123, -23.244225], [-70.562245, -23.059828], [-70.506174, -23.010024], [-70.425423, -23.08853], [-70.291575, -22.901951], [-70.192128, -21.884373], [-70.058695, -21.433377], [-70.171295, -21.014581], [-70.127462, -20.935275], [-70.213844, -20.811577], [-70.136871, -19.849054], [-70.177887, -19.640232], [-70.242544, -19.598203], [-70.199574, -19.534356], [-70.356597, -18.77337], [-70.303561, -18.445439], [-70.394703, -18.337746], [-69.970345, -18.250625], [-69.783095, -17.981598], [-69.849835, -17.69159], [-69.683902, -17.656036], [-69.510089, -17.506588]]], [[[-68.641998, -54.799168], [-68.665842, -54.886407], [-68.928578, -54.778497], [-68.965688, -54.784438], [-68.737864, -54.896091], [-69.067006, -54.948826], [-69.648305, -54.822524], [-69.627065, -54.692071], [-69.678822, -54.764744], [-69.716054, -54.68906], [-69.730784, -54.803155], [-69.774403, -54.71559], [-69.80899, -54.810968], [-69.91161, -54.818617], [-69.969553, -54.676853], [-69.993276, -54.835056], [-70.092844, -54.849054], [-70.087148, -54.778578], [-70.164866, -54.845961], [-70.309438, -54.838556], [-70.244537, -54.68906], [-70.365346, -54.835219], [-70.581166, -54.778985], [-70.758778, -54.84059], [-70.837026, -54.787693], [-70.624582, -54.731541], [-70.45287, -54.633722], [-70.815907, -54.750421], [-70.922109, -54.712579], [-70.774322, -54.681573], [-70.944814, -54.672133], [-71.027577, -54.777032], [-70.951568, -54.616388], [-71.062367, -54.592706], [-71.050038, -54.657403], [-71.179677, -54.702569], [-71.289662, -54.676446], [-71.192698, -54.626886], [-71.255767, -54.613865], [-71.233632, -54.531345], [-71.347076, -54.517185], [-71.336049, -54.565525], [-71.412465, -54.579197], [-71.336049, -54.606378], [-71.487864, -54.687433], [-71.494293, -54.592706], [-71.583119, -54.65488], [-71.555776, -54.58587], [-71.597768, -54.580987], [-71.645172, -54.65488], [-71.652008, -54.599542], [-71.754465, -54.592706], [-71.944325, -54.654555], [-71.980946, -54.613214], [-71.88976, -54.568129], [-72.001454, -54.57171], [-72.007721, -54.505304], [-71.940012, -54.510837], [-71.9735, -54.448663], [-71.671864, -54.57171], [-71.748199, -54.510837], [-71.583119, -54.545017], [-71.840688, -54.465916], [-71.850657, -54.414646], [-71.749135, -54.397149], [-71.563222, -54.510837], [-71.494293, -54.476007], [-71.614125, -54.410903], [-71.389272, -54.457289], [-71.323069, -54.427667], [-71.432932, -54.400974], [-71.364613, -54.372979], [-71.09024, -54.510837], [-71.144887, -54.435154], [-70.972401, -54.469008], [-70.952504, -54.3388], [-70.800649, -54.315851], [-70.610463, -54.3388], [-70.727162, -54.427667], [-70.764394, -54.599542], [-70.740224, -54.551202], [-70.634023, -54.600274], [-70.696929, -54.494806], [-70.585194, -54.390558], [-70.24942, -54.575372], [-70.301991, -54.496515], [-70.130727, -54.545017], [-70.427642, -54.437677], [-70.577707, -54.274835], [-70.843251, -54.263116], [-70.898508, -54.181817], [-70.822743, -54.195489], [-70.932688, -54.113539], [-70.136871, -54.427667], [-70.074818, -54.369806], [-70.199045, -54.320571], [-70.034495, -54.256931], [-69.874867, -54.420994], [-69.883656, -54.503351], [-69.785227, -54.484145], [-69.77538, -54.554864], [-69.741322, -54.47796], [-69.85912, -54.280369], [-69.691884, -54.317804], [-69.558583, -54.436456], [-69.522939, -54.337498], [-69.23998, -54.441339], [-69.41747, -54.623305], [-69.377187, -54.681573], [-69.269439, -54.532403], [-69.169911, -54.57822], [-69.15746, -54.453058], [-68.994944, -54.468438], [-69.279612, -54.321547], [-70.014027, -54.113539], [-70.178212, -53.833429], [-70.136952, -53.738702], [-69.360842, -53.521675], [-69.352651, -53.355727], [-69.897822, -53.386644], [-70.202707, -53.468683], [-70.473541, -53.309259], [-70.418993, -53.011716], [-70.314865, -52.968048], [-70.335239, -53.051296], [-70.243452, -53.061725], [-70.134229, -53.011951], [-70.089175, -52.911063], [-70.21939, -52.865167], [-70.300891, -52.91493], [-70.28266, -52.798449], [-70.416127, -52.758071], [-70.128615, -52.732282], [-69.9114, -52.847904], [-69.591011, -52.641873], [-69.603871, -52.521173], [-69.417565, -52.451472], [-69.140248, -52.68377], [-68.779026, -52.548254], [-68.627617, -52.639572], [-68.641882, -54.782971], [-68.712392, -54.770929], [-68.641998, -54.799168]]], [[[-80.704701, -33.766778], [-80.777333, -33.73447], [-80.740834, -33.685154], [-80.704701, -33.766778]]], [[[-78.884877, -33.575616], [-78.757639, -33.643243], [-78.991689, -33.656915], [-78.884877, -33.575616]]], [[[-109.379628, -27.059503], [-109.24356, -27.129164], [-109.451324, -27.195489], [-109.379628, -27.059503]]], [[[-105.459543, -26.464776], [-105.470937, -26.457696], [-105.46349, -26.456964], [-105.459543, -26.464776]]], [[[-79.909413, -26.358168], [-79.890736, -26.351739], [-79.890207, -26.356052], [-79.909413, -26.358168]]], [[[-80.095693, -26.266046], [-80.090443, -26.274509], [-80.107777, -26.274998], [-80.095693, -26.266046]]], [[[-67.358551, -55.810479], [-67.22411, -55.897556], [-67.417063, -55.833591], [-67.358551, -55.810479]]], [[[-67.080637, -55.812433], [-67.07844, -55.910089], [-67.170033, -55.873793], [-67.14037, -55.817315], [-67.080637, -55.812433]]], [[[-67.589075, -55.80207], [-67.472013, -55.842599], [-67.621843, -55.918504], [-67.63203, -55.859396], [-67.80281, -55.897956], [-67.913945, -55.836566], [-67.560618, -55.837986], [-67.589075, -55.80207]]], [[[-67.228505, -55.798435], [-67.187815, -55.756931], [-67.156972, -55.778253], [-67.228505, -55.798435]]], [[[-67.252553, -55.76393], [-67.445546, -55.762628], [-67.581532, -55.709405], [-67.505849, -55.654067], [-67.420644, -55.707452], [-67.431996, -55.595473], [-67.348704, -55.575616], [-67.361806, -55.706231], [-67.252553, -55.76393]]], [[[-67.699371, -55.505466], [-67.587758, -55.58587], [-67.738596, -55.616876], [-67.699371, -55.505466]]], [[[-69.801747, -55.332615], [-69.637318, -55.38836], [-69.801747, -55.40781], [-69.801747, -55.332615]]], [[[-70.110219, -55.29225], [-69.947825, -55.283868], [-70.006459, -55.374444], [-70.110219, -55.29225]]], [[[-66.865305, -55.233005], [-66.839589, -55.302504], [-67.06017, -55.326349], [-66.992258, -55.228692], [-66.865305, -55.233005]]], [[[-66.53482, -55.162774], [-66.420806, -55.20086], [-66.643056, -55.264337], [-66.632192, -55.205987], [-66.53482, -55.162774]]], [[[-66.869008, -55.024102], [-66.806874, -55.112888], [-67.070912, -55.009454], [-67.023915, -54.992446], [-66.869008, -55.024102]]], [[[-67.965159, -55.593357], [-68.033355, -55.661554], [-67.985585, -55.675226], [-68.098297, -55.712091], [-68.15331, -55.596287], [-68.289784, -55.610121], [-68.252512, -55.524509], [-68.353627, -55.475274], [-68.500478, -55.490981], [-68.616811, -55.40781], [-68.602528, -55.462335], [-68.801137, -55.421319], [-68.7683, -55.492608], [-68.865346, -55.505304], [-68.965688, -55.40781], [-68.753407, -55.380466], [-68.808665, -55.359959], [-68.760243, -55.332615], [-68.971303, -55.37713], [-68.801137, -55.188653], [-68.986684, -55.265232], [-69.12267, -55.147638], [-69.134104, -55.247735], [-69.23998, -55.12713], [-69.438629, -55.161879], [-69.287831, -55.168145], [-69.267323, -55.230157], [-69.479604, -55.236993], [-69.459096, -55.305922], [-69.280385, -55.318943], [-69.308258, -55.359959], [-69.24059, -55.369561], [-69.300852, -55.428155], [-69.137034, -55.441827], [-69.16161, -55.514337], [-69.339223, -55.474867], [-69.362864, -55.38893], [-69.437082, -55.491306], [-69.451527, -55.408868], [-69.520579, -55.393976], [-69.416086, -55.353123], [-69.788075, -55.305922], [-69.568959, -55.271173], [-69.67398, -55.260349], [-69.500071, -55.174981], [-69.848053, -55.257908], [-69.924672, -55.222752], [-69.842681, -55.168145], [-70.031077, -55.147638], [-69.885976, -55.063572], [-69.587473, -55.041192], [-69.582021, -55.154474], [-69.527577, -55.031996], [-68.441151, -54.939711], [-68.334828, -55.062433], [-68.441396, -55.045668], [-68.510813, -55.1124], [-68.60261, -55.066095], [-68.569447, -55.135431], [-68.616078, -55.152276], [-69.061879, -55.04461], [-68.78661, -55.165216], [-68.274241, -55.230157], [-68.328847, -55.236993], [-68.22761, -55.291762], [-68.500071, -55.311456], [-68.660959, -55.257501], [-68.745961, -55.271173], [-68.561594, -55.326349], [-68.602528, -55.359959], [-68.447987, -55.326349], [-68.146474, -55.404392], [-68.177358, -55.462335], [-68.057485, -55.469008], [-68.101389, -55.527602], [-67.965159, -55.593357]]], [[[-67.883168, -55.243829], [-67.738596, -55.236993], [-67.898101, -55.168715], [-68.135081, -55.218845], [-68.18635, -54.978204], [-68.328847, -54.990655], [-68.360504, -54.930922], [-67.301829, -54.928888], [-67.053375, -55.093683], [-67.08849, -55.190525], [-67.270619, -55.306899], [-67.451161, -55.27158], [-67.423248, -55.216485], [-67.502919, -55.172133], [-67.608795, -55.188653], [-67.647369, -55.261489], [-67.883168, -55.243829]]], [[[-70.342926, -55.069106], [-70.267242, -55.112888], [-70.41808, -55.07879], [-70.446034, -55.12713], [-70.370269, -55.161879], [-70.494456, -55.209649], [-70.538482, -55.154474], [-70.548085, -55.213556], [-70.564076, -55.140313], [-70.513661, -55.106622], [-70.590077, -55.05047], [-70.71581, -55.122817], [-70.728993, -55.053969], [-71.007151, -55.04461], [-70.919016, -54.990655], [-71.012847, -54.96502], [-70.562652, -54.968927], [-70.610463, -54.942153], [-70.350453, -54.893731], [-70.524526, -54.996759], [-70.729848, -55.01336], [-70.27774, -55.048517], [-70.342926, -55.069106]]], [[[-69.917795, -55.038344], [-69.950347, -54.952895], [-69.842681, -54.942153], [-69.915598, -54.886895], [-69.71349, -54.948826], [-69.774403, -54.87949], [-69.728342, -54.864516], [-69.513743, -54.893731], [-69.530019, -54.946059], [-69.426381, -54.899591], [-69.164296, -54.955824], [-69.776438, -55.034601], [-69.917795, -55.038344]]], [[[-70.421783, -54.845961], [-70.580881, -54.897882], [-70.74767, -54.873305], [-70.607086, -54.832289], [-70.421783, -54.845961]]], [[[-70.911529, -54.921075], [-71.06428, -54.94964], [-71.279042, -54.865411], [-71.350982, -54.95436], [-71.334625, -54.902276], [-71.402821, -54.942641], [-71.459584, -54.87949], [-71.404124, -54.829848], [-71.165395, -54.832289], [-70.911529, -54.921075]]], [[[-72.104319, -54.644789], [-71.921254, -54.705255], [-71.926381, -54.736749], [-71.997467, -54.753106], [-71.991526, -54.698907], [-72.104319, -54.644789]]], [[[-72.415883, -54.304132], [-72.305328, -54.365167], [-72.470693, -54.427667], [-72.541737, -54.343032], [-72.415883, -54.304132]]], [[[-70.521108, -54.174412], [-70.28775, -54.188084], [-70.218658, -54.234633], [-70.339752, -54.265802], [-70.521108, -54.174412]]], [[[-72.314565, -54.063084], [-72.206288, -54.147719], [-72.301503, -54.251397], [-72.501698, -54.242771], [-72.51537, -54.202325], [-72.344797, -54.159601], [-72.389719, -54.128839], [-72.296946, -54.113539], [-72.393137, -54.094496], [-72.314565, -54.063084]]], [[[-73.187856, -54.053643], [-73.178456, -54.127211], [-73.474355, -54.071954], [-73.358266, -54.023614], [-73.187856, -54.053643]]], [[[-71.63093, -54.07879], [-71.612172, -53.948012], [-71.514801, -53.989435], [-71.463287, -53.941583], [-71.396352, -54.062758], [-71.398793, -53.975763], [-71.337961, -53.976251], [-71.221059, -54.184666], [-71.179677, -54.085626], [-71.155141, -54.155369], [-71.112457, -54.070489], [-71.016225, -54.095392], [-71.062367, -54.202325], [-71.004954, -54.166436], [-70.990142, -54.265802], [-71.056467, -54.330011], [-71.157948, -54.297296], [-71.082834, -54.335138], [-71.106516, -54.376642], [-71.176829, -54.327732], [-71.207509, -54.369236], [-71.357818, -54.297296], [-71.213206, -54.229099], [-71.411, -54.233331], [-71.445953, -54.185317], [-71.371449, -54.153904], [-71.416615, -54.11004], [-71.507965, -54.140313], [-71.542144, -54.269952], [-71.596791, -54.229099], [-71.549631, -54.181817], [-71.651519, -54.232029], [-71.699818, -54.166192], [-71.63093, -54.07879]]], [[[-71.905263, -54.229099], [-72.110707, -54.153904], [-72.042388, -54.140313], [-72.124379, -54.133477], [-72.042388, -54.113539], [-72.103871, -54.058364], [-72.205312, -54.091892], [-72.259104, -53.929864], [-72.064768, -53.983575], [-71.945709, -53.852797], [-71.830149, -53.920587], [-71.851877, -53.974054], [-71.792592, -53.897068], [-71.652903, -53.926365], [-71.792226, -53.997979], [-71.700592, -53.985447], [-71.768666, -54.051446], [-71.652008, -54.089044], [-71.766103, -54.163995], [-71.952301, -54.014907], [-71.915517, -54.116795], [-71.744456, -54.231052], [-71.871083, -54.283624], [-71.830149, -54.331476], [-71.987864, -54.317804], [-71.905263, -54.229099]]], [[[-70.455036, -53.611598], [-70.452219, -53.886895], [-70.342795, -54.028069], [-70.439252, -54.060409], [-70.669962, -53.950342], [-70.568918, -54.065118], [-70.540435, -54.221612], [-70.822743, -54.113539], [-70.884185, -54.027032], [-70.881505, -53.842264], [-70.606114, -53.865125], [-70.71288, -53.70143], [-70.535553, -53.560479], [-70.455036, -53.611598]]], [[[-73.854848, -53.448175], [-73.706451, -53.508233], [-73.687856, -53.523207], [-73.848541, -53.588311], [-73.824452, -53.536879], [-73.892323, -53.5263], [-73.833363, -53.505792], [-73.854848, -53.448175]]], [[[-73.392445, -53.413995], [-73.509104, -53.475518], [-73.392445, -53.530694], [-73.481801, -53.57171], [-73.803334, -53.434503], [-73.574941, -53.491143], [-73.619008, -53.455011], [-73.537017, -53.455011], [-73.5926, -53.385837], [-73.392445, -53.413995]]], [[[-72.51537, -53.982599], [-72.543284, -54.10003], [-72.635487, -54.023614], [-72.843088, -54.133559], [-73.00886, -54.092462], [-72.795969, -54.058364], [-72.880727, -54.034438], [-72.762441, -54.03045], [-72.850575, -53.955255], [-72.645131, -53.859633], [-72.768625, -53.872735], [-72.727651, -53.838637], [-72.80956, -53.859633], [-72.801666, -53.817478], [-73.007314, -53.873712], [-73.05602, -53.812758], [-73.1044, -53.934177], [-73.036204, -53.986017], [-73.098256, -54.037856], [-73.337758, -53.955255], [-73.236399, -53.89658], [-73.313059, -53.844496], [-73.252838, -53.786065], [-73.310455, -53.742364], [-73.245351, -53.715753], [-73.591664, -53.756036], [-73.484853, -53.70086], [-73.615346, -53.614028], [-73.435455, -53.563246], [-73.204213, -53.666192], [-72.95287, -53.664483], [-73.0808, -53.648207], [-73.029286, -53.584731], [-73.258656, -53.635186], [-73.262074, -53.558038], [-73.420318, -53.478936], [-73.077138, -53.530694], [-73.17516, -53.420831], [-73.037709, -53.385512], [-73.002024, -53.493259], [-73.015614, -53.407322], [-72.913238, -53.427016], [-72.884145, -53.681329], [-72.817047, -53.564874], [-72.858469, -53.452732], [-72.734486, -53.516534], [-72.678578, -53.673272], [-72.630483, -53.659926], [-72.673004, -53.536879], [-72.464182, -53.575128], [-72.397288, -53.633477], [-72.48469, -53.674005], [-72.453277, -53.742364], [-72.373036, -53.687758], [-72.138661, -53.797621], [-72.250885, -53.877537], [-72.391835, -53.845392], [-72.344065, -53.910089], [-72.419789, -53.897068], [-72.371409, -53.9485], [-72.419789, -53.969496], [-72.323598, -53.989435], [-72.329905, -54.034601], [-72.51537, -53.982599]]], [[[-74.242177, -53.310968], [-74.095815, -53.228448], [-74.058095, -53.250258], [-74.116119, -53.307387], [-74.242177, -53.310968]]], [[[-73.611724, -52.82171], [-73.378774, -52.910333], [-73.419301, -52.957696], [-73.501943, -52.885919], [-73.81078, -52.913751], [-73.601308, -52.865411], [-73.611724, -52.82171]]], [[[-73.366038, -53.271173], [-73.09081, -53.355727], [-73.317291, -53.352634], [-73.420318, -53.283136], [-73.584218, -53.317804], [-73.494862, -53.290623], [-73.880442, -53.057712], [-74.086293, -53.104913], [-74.248931, -53.037286], [-74.239858, -53.08294], [-74.318349, -53.097345], [-74.407216, -52.969008], [-74.596547, -52.922947], [-74.571156, -52.851739], [-74.749867, -52.755548], [-74.674428, -52.721287], [-74.370961, -52.872654], [-74.407216, -52.913751], [-74.358795, -52.947931], [-74.142974, -52.989679], [-74.083852, -52.961602], [-74.132883, -52.934259], [-74.074574, -52.947931], [-73.628896, -53.14658], [-73.62328, -53.059828], [-73.516347, -53.261407], [-73.459543, -53.132908], [-73.311676, -53.238865], [-73.366038, -53.271173]]], [[[-73.330963, -52.694024], [-73.369211, -52.728611], [-73.39981, -52.728204], [-73.371938, -52.707696], [-73.330963, -52.694024]]], [[[-73.796498, -52.687188], [-73.954742, -52.707696], [-73.844879, -52.597833], [-73.966949, -52.616469], [-73.872182, -52.550063], [-74.123419, -52.706617], [-74.184368, -52.586801], [-73.943999, -52.482788], [-74.03421, -52.475987], [-74.029729, -52.429918], [-73.725168, -52.404718], [-73.676991, -52.485121], [-73.787343, -52.554295], [-73.736887, -52.592869], [-73.796498, -52.687188]]], [[[-74.593839, -52.39482], [-74.815413, -52.350447], [-74.80666, -52.284244], [-74.91161, -52.202813], [-74.544422, -52.246159], [-74.593839, -52.39482]]], [[[-73.749338, -52.35768], [-73.87267, -52.376153], [-73.824452, -52.338474], [-74.092763, -52.166599], [-73.815338, -52.241143], [-73.749338, -52.35768]]], [[[-74.122548, -52.397719], [-74.245351, -52.316583], [-74.207102, -52.226332], [-74.10497, -52.248305], [-74.221669, -52.186944], [-74.145904, -52.19378], [-74.41686, -52.129002], [-74.286773, -52.088637], [-73.935699, -52.324884], [-74.122548, -52.397719]]], [[[-74.790842, -52.179457], [-74.793853, -52.123956], [-74.601796, -52.06406], [-74.671946, -52.163018], [-74.790842, -52.179457]]], [[[-74.359731, -52.056817], [-74.387807, -52.077244], [-74.407216, -52.043064], [-74.359731, -52.056817]]], [[[-74.543813, -51.920668], [-74.514068, -52.005304], [-74.735585, -52.084568], [-74.543813, -51.920668]]], [[[-73.726715, -52.125665], [-73.694081, -52.242283], [-74.112416, -51.994561], [-74.043528, -52.008884], [-74.09439, -51.927016], [-73.726715, -52.125665]]], [[[-74.680979, -51.968438], [-74.850575, -52.130141], [-74.896352, -52.113051], [-74.783355, -52.008884], [-74.844879, -51.996759], [-74.750885, -51.833917], [-74.598459, -51.837498], [-74.735585, -51.98211], [-74.680979, -51.968438]]], [[[-75.000885, -51.843845], [-75.116851, -51.894138], [-75.039784, -51.716404], [-74.96996, -51.736749], [-75.000885, -51.843845]]], [[[-74.43456, -51.844903], [-74.502838, -51.707208], [-74.163075, -51.855564], [-74.221669, -51.872247], [-74.096303, -51.877374], [-74.194732, -51.950291], [-74.43456, -51.844903]]], [[[-73.789662, -51.73504], [-73.838775, -51.812595], [-73.9405, -51.663181], [-73.851715, -51.728204], [-73.789662, -51.73504]]], [[[-74.762929, -51.782892], [-74.964223, -52.117608], [-74.947865, -52.056573], [-75.013987, -52.104099], [-74.975168, -52.036228], [-75.071401, -51.98211], [-74.968984, -51.926935], [-75.037221, -51.920668], [-74.957509, -51.815606], [-74.865346, -51.879083], [-74.831858, -51.837498], [-74.922231, -51.655857], [-74.865346, -51.618341], [-74.783355, -51.659356], [-74.762929, -51.782892]]], [[[-73.943918, -51.741306], [-74.014556, -51.799737], [-74.240631, -51.6985], [-74.071441, -51.60475], [-74.082143, -51.538181], [-73.943918, -51.741306]]], [[[-74.119374, -51.447442], [-74.238596, -51.409601], [-74.254628, -51.290785], [-74.16511, -51.287042], [-74.119374, -51.447442]]], [[[-75.102406, -51.296157], [-74.996246, -51.361749], [-75.016184, -51.413507], [-75.115956, -51.47324], [-75.160756, -51.42669], [-75.141754, -51.565037], [-75.215403, -51.549493], [-75.2058, -51.601739], [-75.312896, -51.629164], [-75.314687, -51.536554], [-75.225331, -51.490655], [-75.187408, -51.375421], [-75.219838, -51.305434], [-75.126047, -51.270196], [-75.148834, -51.36712], [-75.102406, -51.296157]]], [[[-73.79308, -51.258722], [-73.793691, -51.371026], [-73.895579, -51.335219], [-73.824452, -51.303643], [-73.920644, -51.303643], [-73.79308, -51.258722]]], [[[-74.687164, -51.283298], [-74.798655, -51.432306], [-75.024159, -51.456231], [-74.798329, -51.330011], [-74.963775, -51.343683], [-74.79308, -51.211196], [-74.555735, -51.250421], [-74.626332, -51.26214], [-74.543813, -51.365167], [-74.594228, -51.399509], [-74.687164, -51.283298]]], [[[-74.968984, -51.104425], [-74.876943, -51.158461], [-75.020497, -51.172784], [-74.968984, -51.104425]]], [[[-74.420277, -51.111261], [-74.434153, -51.205824], [-74.574371, -51.15488], [-74.605214, -51.080255], [-74.486073, -51.021254], [-74.460276, -51.062107], [-74.519521, -51.096368], [-74.420277, -51.111261]]], [[[-74.196929, -51.175388], [-74.284576, -51.23561], [-74.351959, -50.925714], [-74.196929, -51.175388]]], [[[-74.43456, -50.925714], [-74.398305, -51.086847], [-74.475494, -50.994561], [-74.725453, -51.105076], [-74.749867, -51.042413], [-74.680979, -51.008233], [-74.774566, -50.993341], [-74.831858, -51.07643], [-74.893219, -51.049249], [-74.838002, -50.974216], [-74.96642, -50.949884], [-74.903188, -50.885431], [-74.625478, -50.9249], [-74.584788, -50.885431], [-74.643056, -50.847833], [-74.558095, -50.817071], [-74.660471, -50.727716], [-74.39977, -50.844415], [-74.43456, -50.925714]]], [[[-74.85912, -50.823907], [-74.958974, -50.728285], [-74.844838, -50.748224], [-74.901112, -50.676039], [-74.804514, -50.666274], [-74.715077, -50.80283], [-74.777211, -50.80283], [-74.71817, -50.861505], [-74.660471, -50.823907], [-74.693023, -50.890069], [-74.781972, -50.882013], [-74.931264, -50.851007], [-74.85912, -50.823907]]], [[[-74.981516, -50.797784], [-75.083892, -50.783624], [-75.081695, -50.65488], [-74.985422, -50.657159], [-74.981516, -50.797784]]], [[[-74.680979, -50.514825], [-74.584096, -50.530938], [-74.640452, -50.586358], [-74.680979, -50.514825]]], [[[-75.468617, -50.494317], [-75.097401, -50.497247], [-75.215403, -50.596938], [-75.34557, -50.560724], [-75.270863, -50.620538], [-75.290598, -50.781834], [-75.461822, -50.762465], [-75.407053, -50.673761], [-75.513824, -50.649102], [-75.359364, -50.590509], [-75.468617, -50.494317]]], [[[-74.310414, -50.834161], [-74.517079, -50.731622], [-74.581207, -50.633559], [-74.420277, -50.528497], [-74.673492, -50.47381], [-74.55248, -50.423923], [-74.383127, -50.455987], [-74.239003, -50.676202], [-74.427113, -50.652602], [-74.181304, -50.782322], [-74.199208, -50.848321], [-74.269358, -50.786554], [-74.310414, -50.834161]]], [[[-74.783355, -50.480645], [-74.736724, -50.37184], [-74.544586, -50.382094], [-74.720286, -50.489353], [-74.783355, -50.480645]]], [[[-74.811269, -50.2138], [-75.119781, -50.316827], [-75.22289, -50.436456], [-75.323232, -50.400323], [-75.194895, -50.302504], [-75.454945, -50.363946], [-75.34789, -50.145196], [-75.267893, -50.158624], [-75.35261, -50.200779], [-75.270619, -50.24863], [-75.146474, -50.24863], [-75.119781, -50.138767], [-75.187978, -50.164158], [-75.38329, -50.076593], [-75.296986, -50.002862], [-75.271474, -50.067071], [-75.128733, -50.029555], [-75.052113, -50.125177], [-74.953277, -50.079767], [-75.071401, -50.186456], [-74.799713, -50.125421], [-74.811269, -50.2138]]], [[[-75.3662, -49.72031], [-75.617387, -49.864223], [-75.626786, -49.756343], [-75.510757, -49.718223], [-75.61352, -49.636375], [-75.504352, -49.556973], [-75.355339, -49.610176], [-75.180653, -49.905369], [-75.262766, -49.834568], [-75.270416, -49.898045], [-75.339711, -49.859552], [-75.3662, -49.72031]]], [[[-75.521308, -49.379099], [-75.429433, -49.466365], [-75.44042, -49.517811], [-75.544299, -49.452866], [-75.521308, -49.379099]]], [[[-74.903188, -49.076755], [-74.935699, -49.28045], [-75.057729, -49.16546], [-75.201731, -49.172296], [-75.119781, -49.13128], [-75.235585, -49.144952], [-75.126047, -49.021417], [-74.903188, -49.076755]]], [[[-75.493764, -49.263442], [-75.661041, -49.205743], [-75.33727, -48.989353], [-75.373036, -49.056248], [-75.287424, -49.086602], [-75.403798, -49.186619], [-75.415191, -49.134942], [-75.493764, -49.263442]]], [[[-75.215403, -49.014581], [-75.276031, -49.063246], [-75.316518, -48.953709], [-75.373036, -48.952569], [-75.499338, -49.039158], [-75.468617, -48.952569], [-75.597401, -48.987726], [-75.654856, -48.911065], [-75.468617, -48.842706], [-75.511057, -48.908624], [-75.394154, -48.829034], [-75.42162, -48.88421], [-75.359364, -48.91839], [-75.379262, -48.852227], [-75.305979, -48.864923], [-75.215403, -49.014581]]], [[[-75.072825, -48.97031], [-75.223012, -48.978936], [-75.308176, -48.794854], [-75.09142, -48.870701], [-75.139638, -48.921808], [-75.072825, -48.97031]]], [[[-75.009918, -49.898533], [-75.297231, -49.632989], [-75.235911, -49.555841], [-75.317779, -49.549005], [-75.256337, -49.493829], [-75.335194, -49.511163], [-75.461985, -49.306573], [-75.38329, -49.28045], [-75.166982, -49.501153], [-75.323354, -49.263604], [-75.152211, -49.377699], [-75.092437, -49.370294], [-75.187408, -49.29518], [-75.111155, -49.319431], [-75.037221, -49.260431], [-75.092437, -49.19964], [-74.893219, -49.364028], [-74.85912, -49.110772], [-74.804514, -49.103936], [-74.954701, -49.007094], [-74.818186, -49.007094], [-74.823638, -48.950372], [-74.968984, -48.986586], [-74.954701, -48.91839], [-75.015207, -48.891778], [-74.872792, -48.842706], [-75.01183, -48.873224], [-75.057973, -48.816664], [-74.94164, -48.829034], [-75.009918, -48.774347], [-74.696645, -48.679864], [-74.62267, -48.722833], [-74.634836, -48.855239], [-74.543813, -48.70615], [-74.563873, -48.900974], [-74.475494, -48.946384], [-74.530141, -49.028253], [-74.44579, -49.302341], [-74.539418, -49.519301], [-74.503651, -49.587498], [-74.605214, -49.713556], [-74.50829, -49.620294], [-74.430084, -49.657892], [-74.423655, -49.744887], [-74.536366, -49.747003], [-74.43456, -49.78867], [-74.454416, -49.884861], [-74.523305, -49.856866], [-74.474233, -49.944513], [-74.612131, -49.911554], [-74.536366, -49.994724], [-74.768422, -50.053318], [-74.856272, -49.991306], [-74.680531, -49.928399], [-74.913686, -49.925877], [-74.891225, -49.867852], [-74.728749, -49.843194], [-74.838002, -49.836358], [-74.773752, -49.767511], [-74.882558, -49.79697], [-74.920522, -49.679376], [-74.844838, -49.686212], [-74.891957, -49.614435], [-74.708323, -49.63836], [-74.886952, -49.534601], [-74.782948, -49.478692], [-74.743316, -49.518731], [-74.64623, -49.349786], [-74.811269, -49.377699], [-74.748891, -49.4249], [-74.944732, -49.542169], [-74.987701, -49.479262], [-75.044057, -49.59002], [-75.010976, -49.676039], [-74.95287, -49.640883], [-75.022572, -49.74212], [-74.961537, -49.785252], [-75.043446, -49.826349], [-75.009918, -49.898533]]], [[[-75.085032, -48.637302], [-75.109446, -48.809177], [-75.246083, -48.784763], [-75.249135, -48.766778], [-75.085032, -48.637302]]], [[[-75.044057, -48.732843], [-74.975168, -48.684991], [-75.009918, -48.637302], [-74.824941, -48.65838], [-74.988271, -48.740492], [-75.044057, -48.732843]]], [[[-75.338938, -48.6242], [-75.296986, -48.727146], [-75.384185, -48.696466], [-75.493235, -48.775567], [-75.647857, -48.778904], [-75.641835, -48.701349], [-75.507558, -48.717543], [-75.338938, -48.6242]]], [[[-75.34435, -48.427423], [-75.339915, -48.614841], [-75.541656, -48.70086], [-75.606557, -48.661065], [-75.440663, -48.610528], [-75.598948, -48.637302], [-75.675364, -48.583185], [-75.606435, -48.439223], [-75.34435, -48.427423]]], [[[-74.429026, -48.525811], [-74.510243, -48.408298], [-74.303131, -48.479913], [-74.429026, -48.525811]]], [[[-74.068593, -48.479669], [-74.179067, -48.443129], [-74.250803, -48.378025], [-74.0572, -48.425551], [-74.068593, -48.479669]]], [[[-74.495432, -48.349867], [-74.358795, -48.370294], [-74.393178, -48.313165], [-74.314117, -48.280938], [-74.223297, -48.44492], [-74.495432, -48.349867]]], [[[-74.499135, -48.583185], [-74.514068, -48.666111], [-74.60733, -48.693943], [-74.996246, -48.603692], [-75.03307, -48.50449], [-74.845937, -48.390232], [-74.781565, -48.48504], [-74.717152, -48.453546], [-74.813588, -48.342543], [-74.73766, -48.125746], [-74.680043, -48.303399], [-74.584788, -48.37656], [-74.673492, -48.418145], [-74.605214, -48.459161], [-74.599436, -48.563653], [-74.530629, -48.621759], [-74.499135, -48.583185]]], [[[-74.543813, -48.321954], [-74.521881, -48.194513], [-74.603749, -48.235447], [-74.558176, -48.122328], [-74.372629, -48.253188], [-74.543813, -48.321954]]], [[[-75.160756, -48.298435], [-75.119781, -48.261], [-75.207916, -48.212091], [-75.256337, -48.068617], [-75.017505, -48.08302], [-74.804514, -48.174493], [-74.841298, -48.359308], [-75.031117, -48.44378], [-75.160756, -48.298435]]], [[[-75.071401, -48.596287], [-75.224477, -48.706476], [-75.304107, -48.577732], [-75.270619, -48.418145], [-75.317942, -48.348891], [-75.554189, -48.397149], [-75.345774, -48.301446], [-75.543772, -48.321954], [-75.433909, -48.198989], [-75.54011, -48.226251], [-75.585317, -48.085707], [-75.338938, -48.017511], [-75.071401, -48.596287]]], [[[-75.270619, -48.027765], [-75.167773, -47.893604], [-74.788324, -47.812324], [-74.777182, -47.970612], [-74.834869, -48.007908], [-74.727379, -48.105892], [-75.052358, -47.986261], [-75.270619, -48.027765]]], [[[-74.318471, -47.981215], [-74.502838, -47.917901], [-74.364247, -47.830824], [-74.248931, -47.876886], [-74.330922, -47.822198], [-74.289906, -47.807387], [-73.808909, -47.887384], [-73.831207, -47.952569], [-73.923004, -47.963637], [-73.924875, -47.915948], [-74.318471, -47.981215]]], [[[-75.182362, -47.831476], [-75.342546, -47.782862], [-75.355913, -47.73614], [-75.091638, -47.680492], [-75.059369, -47.749887], [-75.123199, -47.781915], [-75.023682, -47.803325], [-75.227314, -47.854714], [-75.182362, -47.831476]]], [[[-74.903955, -47.685935], [-74.86804, -47.763242], [-74.957723, -47.774795], [-75.054421, -47.689572], [-74.903955, -47.685935]]], [[[-74.492177, -47.098891], [-74.356679, -47.045017], [-74.315785, -47.078058], [-74.454701, -47.167739], [-74.492177, -47.098891]]], [[[-74.177358, -47.016534], [-73.97525, -47.047621], [-74.145904, -47.171157], [-74.226471, -47.122003], [-74.177358, -47.016534]]], [[[-73.896474, -46.011489], [-73.686676, -46.072849], [-73.684071, -46.105401], [-73.775461, -46.199477], [-73.9405, -46.068129], [-73.896474, -46.011489]]], [[[-73.772125, -45.898696], [-73.683176, -46.017673], [-73.819488, -45.998712], [-73.772125, -45.898696]]], [[[-74.831858, -45.80755], [-74.721099, -45.809828], [-74.780751, -46.011489], [-74.919667, -46.104181], [-75.07433, -46.093845], [-75.084381, -46.026788], [-74.890452, -46.016209], [-74.85912, -45.998712], [-75.078765, -45.98504], [-75.029775, -45.964532], [-75.108266, -45.8742], [-74.85912, -45.923598], [-74.97053, -45.862888], [-74.889394, -45.881931], [-74.831858, -45.80755]]], [[[-73.741851, -45.793878], [-73.694081, -45.888849], [-73.789662, -45.875746], [-73.934316, -45.971938], [-73.911448, -45.875258], [-73.741851, -45.793878]]], [[[-73.926829, -45.745375], [-73.97525, -45.780206], [-74.015614, -45.913995], [-74.094594, -45.76393], [-73.926829, -45.745375]]], [[[-74.839101, -45.601821], [-74.752431, -45.69964], [-74.879262, -45.624607], [-74.839101, -45.601821]]], [[[-74.554351, -45.574802], [-74.583892, -45.735284], [-74.685699, -45.743341], [-74.679677, -45.620701], [-74.554351, -45.574802]]], [[[-74.071441, -45.690851], [-74.114654, -45.599705], [-74.050445, -45.54461], [-73.910227, -45.590997], [-73.920644, -45.697686], [-74.071441, -45.690851]]], [[[-74.502838, -45.732354], [-74.421254, -45.454278], [-74.273549, -45.495294], [-74.221669, -45.601495], [-74.289906, -45.622491], [-74.207997, -45.635512], [-74.241811, -45.675958], [-74.439687, -45.776951], [-74.502838, -45.732354]]], [[[-73.666168, -45.436944], [-73.584218, -45.512628], [-73.61148, -45.629327], [-73.680409, -45.622491], [-73.61148, -45.690851], [-73.680409, -45.752862], [-73.818267, -45.642511], [-73.741851, -45.608982], [-73.770904, -45.511977], [-73.666168, -45.436944]]], [[[-74.064036, -45.423272], [-73.816965, -45.474786], [-73.870473, -45.5617], [-74.029652, -45.517348], [-74.142649, -45.574965], [-74.064036, -45.423272]]], [[[-74.501332, -45.588067], [-74.568186, -45.523696], [-74.468658, -45.417169], [-74.445668, -45.428155], [-74.501332, -45.588067]]], [[[-73.824452, -45.395929], [-73.921742, -45.430434], [-74.02302, -45.392673], [-73.941029, -45.366306], [-73.824452, -45.395929]]], [[[-74.389272, -45.281671], [-74.310414, -45.389255], [-74.489166, -45.355076], [-74.525787, -45.295017], [-74.389272, -45.281671]]], [[[-73.824452, -45.26629], [-73.786244, -45.333917], [-74.012278, -45.353611], [-74.167063, -45.252618], [-74.070383, -45.204278], [-73.986073, -45.270766], [-73.824452, -45.26629]]], [[[-74.273549, -45.20794], [-74.325347, -45.302341], [-74.420277, -45.23211], [-74.387563, -45.155206], [-74.273549, -45.20794]]], [[[-73.700795, -45.160577], [-73.767974, -45.284601], [-73.842844, -45.239679], [-73.989573, -45.245782], [-74.084096, -45.140069], [-74.205474, -45.169366], [-74.250111, -45.109633], [-74.173899, -45.026056], [-73.866078, -44.994561], [-73.700795, -45.160577]]], [[[-74.348256, -44.974867], [-74.163726, -44.864679], [-73.913197, -44.950372], [-74.280141, -45.027439], [-74.348256, -44.974867]]], [[[-73.961578, -44.810154], [-74.071441, -44.854181], [-74.187489, -44.806329], [-73.995717, -44.772149], [-73.961578, -44.810154]]], [[[-73.930531, -44.789239], [-73.854482, -44.768731], [-73.762318, -44.929864], [-73.883209, -44.928155], [-73.930531, -44.789239]]], [[[-75.147182, -44.763767], [-75.021734, -44.843665], [-75.031272, -44.903969], [-75.152358, -44.921214], [-75.198322, -44.807232], [-75.147182, -44.763767]]], [[[-73.604726, -44.744887], [-73.627309, -44.829767], [-73.749257, -44.80283], [-73.741689, -44.754653], [-73.604726, -44.744887]]], [[[-74.427113, -44.718194], [-74.312367, -44.841404], [-74.46939, -44.826837], [-74.52774, -44.743259], [-74.427113, -44.718194]]], [[[-74.48233, -44.636326], [-74.468984, -44.697198], [-74.669504, -44.67018], [-74.62267, -44.622003], [-74.48233, -44.636326]]], [[[-73.926829, -44.628839], [-73.875885, -44.694024], [-74.258697, -44.804457], [-74.368764, -44.747491], [-74.31786, -44.704522], [-74.413808, -44.685968], [-74.400543, -44.626072], [-74.267161, -44.603123], [-73.926829, -44.628839]]], [[[-74.824941, -44.58115], [-74.747792, -44.665623], [-74.803863, -44.673761], [-74.824941, -44.58115]]], [[[-73.659983, -44.676528], [-73.591542, -44.70672], [-73.752512, -44.741388], [-73.844309, -44.65252], [-73.821401, -44.578709], [-73.679921, -44.544854], [-73.625152, -44.622003], [-73.659983, -44.676528]]], [[[-74.294342, -44.499444], [-74.132883, -44.54697], [-74.368886, -44.541111], [-74.294342, -44.499444]]], [[[-74.036041, -44.498468], [-74.143666, -44.458103], [-74.167063, -44.430271], [-73.971547, -44.471287], [-73.947336, -44.543552], [-74.132883, -44.518976], [-74.036041, -44.498468]]], [[[-74.392974, -44.54697], [-74.523305, -44.526462], [-74.541127, -44.45379], [-74.259511, -44.412856], [-74.223053, -44.46738], [-74.420277, -44.505304], [-74.392974, -44.54697]]], [[[-73.789662, -44.422784], [-73.867014, -44.466078], [-73.910959, -44.396742], [-73.887685, -44.369236], [-73.789662, -44.422784]]], [[[-73.382476, -44.587823], [-73.2412, -44.639337], [-73.280507, -44.541762], [-73.131581, -44.54518], [-73.241567, -44.51214], [-73.246246, -44.437188], [-73.167104, -44.409112], [-73.036204, -44.484796], [-73.09081, -44.402276], [-73.002024, -44.361261], [-72.926259, -44.437107], [-72.980946, -44.51214], [-72.872304, -44.437107], [-72.721181, -44.528009], [-72.813344, -44.636326], [-72.980946, -44.601495], [-72.837636, -44.710138], [-73.256988, -44.940037], [-73.407582, -44.822442], [-73.207428, -44.800063], [-73.393422, -44.78867], [-73.468129, -44.642511], [-73.382476, -44.587823]]], [[[-73.6787, -44.434503], [-73.789662, -44.38242], [-73.654124, -44.350844], [-73.728831, -44.388604], [-73.6787, -44.434503]]], [[[-74.112416, -44.327244], [-73.926829, -44.354587], [-73.9405, -44.450616], [-74.112416, -44.327244]]], [[[-73.177154, -44.367771], [-73.302724, -44.349705], [-73.249013, -44.306736], [-73.177154, -44.367771]]], [[[-73.789052, -44.309503], [-73.932485, -44.328546], [-73.97525, -44.289646], [-73.805653, -44.266371], [-73.789052, -44.309503]]], [[[-74.409901, -44.284438], [-74.303578, -44.258233], [-74.290028, -44.297296], [-74.409901, -44.284438]]], [[[-73.753163, -44.252862], [-73.675689, -44.241306], [-73.666168, -44.265069], [-73.722035, -44.30283], [-73.753163, -44.252862]]], [[[-73.989573, -44.327244], [-74.126291, -44.200291], [-74.049713, -44.196873], [-74.06432, -44.149021], [-73.893625, -44.239353], [-74.009348, -44.257257], [-73.989573, -44.327244]]], [[[-74.276967, -44.149021], [-74.337392, -44.189874], [-74.385569, -44.159601], [-74.276967, -44.149021]]], [[[-73.952707, -44.10475], [-73.832265, -44.160821], [-73.846262, -44.190199], [-74.016225, -44.142836], [-73.952707, -44.10475]]], [[[-74.298329, -44.031915], [-74.277415, -44.011895], [-74.207997, -44.019301], [-74.298329, -44.031915]]], [[[-73.754994, -43.985284], [-73.711334, -43.937188], [-73.638824, -44.00506], [-73.633412, -44.123793], [-73.754994, -43.985284]]], [[[-73.151601, -44.015802], [-73.275136, -43.994073], [-73.284169, -43.935724], [-73.159657, -43.881524], [-73.151601, -44.015802]]], [[[-74.143938, -43.827551], [-73.96735, -43.828834], [-73.865102, -43.762628], [-73.762318, -43.88893], [-73.928456, -43.840753], [-73.97525, -43.867852], [-73.906361, -43.909438], [-73.995717, -43.9367], [-74.165395, -43.875095], [-74.143938, -43.827551]]], [[[-74.758455, -43.676949], [-74.825026, -43.562412], [-74.7379, -43.530177], [-74.557486, -43.62741], [-74.758455, -43.676949]]], [[[-73.61148, -42.936212], [-73.552805, -42.918634], [-73.365102, -42.990818], [-73.450063, -42.993748], [-73.61148, -42.936212]]], [[[-73.604726, -42.579278], [-73.61677, -42.638767], [-73.755035, -42.59881], [-73.604726, -42.579278]]], [[[-73.412343, -42.525649], [-73.61266, -42.451837], [-73.646311, -42.373793], [-73.543202, -42.379164], [-73.412343, -42.525649]]], [[[-73.087636, -42.247491], [-73.141591, -42.313735], [-73.193918, -42.249119], [-73.145375, -42.278253], [-73.087636, -42.247491]]], [[[-72.508046, -42.13893], [-72.617787, -42.103611], [-72.559722, -42.05169], [-72.508046, -42.13893]]], [[[-74.084948, -43.401628], [-74.407216, -43.237888], [-74.22952, -43.022877], [-74.131391, -42.692982], [-74.189618, -42.431906], [-74.159503, -42.241298], [-74.053336, -42.130345], [-74.008778, -41.887872], [-74.064036, -41.805922], [-73.917063, -41.782647], [-73.896108, -41.842706], [-74.006174, -41.845147], [-73.769846, -41.901544], [-73.690989, -41.809015], [-73.564931, -41.804946], [-73.502309, -41.846856], [-73.57844, -41.945489], [-73.456451, -42.044366], [-73.502309, -42.116632], [-73.38622, -42.195733], [-73.378774, -42.278253], [-73.666168, -42.354099], [-73.688547, -42.452732], [-73.61148, -42.511651], [-73.753733, -42.533624], [-73.762318, -42.457127], [-73.824452, -42.514418], [-73.809153, -42.608657], [-73.491933, -42.818617], [-73.509511, -42.877699], [-73.707672, -42.867364], [-73.577382, -42.965753], [-73.522776, -43.052911], [-73.611741, -43.049549], [-73.502309, -43.128025], [-73.775746, -43.118097], [-73.669014, -43.363847], [-73.799976, -43.359776], [-73.847491, -43.423483], [-73.92953, -43.364899], [-74.084948, -43.401628]]], [[[-73.087636, -41.843438], [-73.085805, -41.747817], [-73.066884, -41.736993], [-73.003, -41.844334], [-73.087636, -41.843438]]], [[[-73.098314, -54.485808], [-72.972841, -54.445012], [-72.953784, -54.456858], [-72.989115, -54.495697], [-73.098314, -54.485808]]], [[[-70.513691, -54.091286], [-70.313253, -54.05275], [-70.298143, -54.125953], [-70.405134, -54.150442], [-70.513691, -54.091286]]], [[[-70.686814, -52.84739], [-70.619252, -52.843384], [-70.78974, -52.900541], [-70.686814, -52.84739]]], [[[-74.48196, -52.570765], [-74.394198, -52.519903], [-74.349257, -52.622981], [-74.48196, -52.570765]]], [[[-74.476368, -52.309667], [-74.452322, -52.394783], [-74.482233, -52.441658], [-74.536449, -52.368736], [-74.476368, -52.309667]]], [[[-73.900749, -51.803603], [-73.71833, -51.84886], [-73.713451, -51.996007], [-73.979358, -51.838544], [-73.900749, -51.803603]]], [[[-74.359036, -51.337941], [-74.29651, -51.395389], [-74.306249, -51.417784], [-74.396488, -51.413082], [-74.359036, -51.337941]]], [[[-75.171581, -50.46215], [-74.926597, -50.275426], [-74.889258, -50.294923], [-75.044522, -50.475994], [-75.171581, -50.46215]]], [[[-74.426015, -49.614923], [-74.468617, -49.501153], [-74.427032, -49.426528], [-74.287994, -49.548435], [-74.426015, -49.614923]]], [[[-74.68923, -47.834117], [-74.526181, -47.812868], [-74.524671, -47.868351], [-74.644016, -47.92311], [-74.68923, -47.834117]]], [[[-75.342252, -46.701737], [-75.173992, -46.677964], [-75.121802, -46.747034], [-75.132214, -46.777995], [-75.342252, -46.701737]]], [[[-74.253361, -43.350392], [-74.230726, -43.41337], [-74.257307, -43.427452], [-74.284026, -43.417838], [-74.253361, -43.350392]]], [[[-73.718524, -43.215981], [-73.656422, -43.196], [-73.661238, -43.244796], [-73.718524, -43.215981]]], [[[-73.009192, -42.695259], [-72.930444, -42.72334], [-72.918815, -42.786532], [-72.956525, -42.807804], [-73.009192, -42.695259]]], [[[-73.356927, -42.629037], [-73.241038, -42.631371], [-73.238951, -42.650826], [-73.356927, -42.629037]]], [[[-73.882436, -38.360772], [-73.912099, -38.409926], [-73.95344, -38.313572], [-73.882436, -38.360772]]], [[[-73.518884, -37.079922], [-73.523096, -36.975265], [-73.446494, -37.05917], [-73.518884, -37.079922]]]]}}, {"type": "Feature", "properties": {"name": "New Zealand"}, "geometry": {"type": "MultiPolygon", "coordinates": [[[[165.924083, -50.851251], [166.226329, -50.885431], [165.985525, -50.904392], [165.924083, -50.851251]]], [[[169.293524, -52.520198], [169.195296, -52.600313], [169.015391, -52.542657], [169.113593, -52.546453], [169.186255, -52.469199], [169.293524, -52.520198]]], [[[166.287771, -50.542739], [166.164317, -50.686782], [166.226329, -50.693536], [166.122732, -50.700372], [166.232595, -50.75506], [166.240082, -50.851007], [166.061209, -50.830743], [166.083507, -50.786798], [166.040212, -50.752048], [165.992931, -50.776137], [166.021495, -50.836033], [165.896739, -50.851251], [165.925304, -50.754002], [166.078787, -50.675551], [166.095876, -50.535903], [166.287771, -50.542739]]], [[[178.839041, -49.629164], [178.822113, -49.719822], [178.719005, -49.700128], [178.770763, -49.627211], [178.839041, -49.629164]]], [[[-176.236073, -44.241957], [-176.113881, -44.265069], [-176.218984, -44.341241], [-176.236073, -44.241957]]], [[[-176.285105, -43.769708], [-176.398793, -43.907647], [-176.372263, -43.765883], [-176.53539, -43.755629], [-176.423044, -43.805841], [-176.501536, -43.864435], [-176.456532, -43.949802], [-176.395212, -43.938572], [-176.300038, -44.042576], [-176.51179, -44.121759], [-176.581492, -44.123142], [-176.664377, -44.01922], [-176.51594, -43.922296], [-176.566151, -43.837823], [-176.85497, -43.820082], [-176.580637, -43.703383], [-176.169138, -43.731378], [-176.285105, -43.769708]]], [[[-177.848134, -29.278578], [-177.924875, -29.284356], [-177.957997, -29.222752], [-177.889394, -29.233819], [-177.848134, -29.278578]]], [[[-171.185658, -9.361261], [-171.199696, -9.344334], [-171.2058, -9.330987], [-171.185658, -9.361261]]], [[[-172.483632, -8.586521], [-172.494944, -8.554783], [-172.502553, -8.543227], [-172.483632, -8.586521]]], [[[166.637218, -47.993585], [166.637218, -48.062433], [166.56837, -48.041925], [166.637218, -47.993585]]], [[[167.426768, -47.244561], [167.454275, -47.207452], [167.48699, -47.218927], [167.426768, -47.244561]]], [[[167.69337, -46.757257], [167.682628, -46.795099], [167.662852, -46.778497], [167.69337, -46.757257]]], [[[168.542166, -46.759698], [168.605724, -46.754571], [168.563243, -46.801202], [168.542166, -46.759698]]], [[[168.199474, -47.047621], [168.259288, -47.084731], [167.901866, -47.188409], [167.764903, -47.137465], [167.61671, -47.212172], [167.726573, -47.205255], [167.671886, -47.260512], [167.521007, -47.273045], [167.545584, -47.188246], [167.630382, -47.156915], [167.627452, -47.064711], [167.743826, -47.027276], [167.737071, -46.955173], [167.81422, -46.911228], [167.758311, -46.807387], [167.787446, -46.697198], [167.96754, -46.699802], [168.17921, -46.864435], [168.167328, -46.909845], [168.008149, -46.895115], [167.966645, -46.972589], [168.048676, -46.931573], [168.131114, -46.992446], [168.230235, -46.971612], [168.247325, -47.040785], [168.199474, -47.047621]]], [[[166.711436, -45.616306], [166.739268, -45.72796], [166.650076, -45.73919], [166.623057, -45.658298], [166.506196, -45.724867], [166.566661, -45.63714], [166.711436, -45.616306]]], [[[166.966156, -45.149591], [166.997081, -45.233168], [167.034434, -45.30047], [166.893321, -45.243422], [166.966156, -45.149591]]], [[[174.38087, -41.106378], [174.38087, -41.195082], [174.197276, -41.230076], [174.351248, -41.17547], [174.325694, -41.126886], [174.38087, -41.106378]]], [[[173.777599, -40.921482], [173.784434, -40.838962], [173.845876, -40.873142], [173.832286, -40.757582], [173.887462, -40.805352], [173.964854, -40.708754], [173.921641, -40.866795], [173.777599, -40.921482]]], [[[172.748694, -43.279694], [172.747732, -43.567153], [172.832286, -43.601658], [172.681407, -43.639337], [172.875743, -43.668878], [172.893809, -43.614516], [172.928396, -43.685724], [173.064952, -43.648126], [173.092947, -43.854181], [172.996837, -43.88893], [172.948578, -43.751153], [172.965587, -43.90545], [172.817231, -43.881443], [172.763438, -43.792739], [172.422618, -43.854587], [172.647716, -43.782647], [172.417328, -43.737481], [172.376313, -43.864435], [171.346002, -44.278631], [171.173839, -44.54697], [171.203136, -44.905532], [170.926117, -45.238377], [170.865977, -45.482029], [170.62672, -45.706313], [170.759288, -45.776788], [170.556814, -45.896254], [170.776622, -45.780206], [170.778575, -45.876153], [170.333751, -45.981541], [170.21697, -46.172947], [169.899425, -46.344903], [169.848969, -46.467543], [169.659353, -46.49212], [169.755544, -46.499607], [169.704112, -46.549005], [169.035981, -46.681899], [168.889171, -46.65602], [168.8449, -46.560154], [168.617849, -46.547459], [168.645193, -46.601983], [168.591482, -46.614353], [168.4192, -46.601983], [168.565115, -46.585056], [168.365733, -46.540216], [168.378103, -46.619806], [168.267833, -46.5263], [168.385102, -46.499607], [168.368907, -46.416925], [168.301931, -46.478448], [168.171153, -46.336684], [167.838634, -46.393243], [167.740245, -46.322035], [167.789236, -46.294122], [167.712901, -46.197931], [167.590017, -46.159601], [167.45281, -46.15016], [167.405772, -46.251153], [167.295177, -46.273614], [166.761974, -46.219985], [166.671235, -46.153578], [166.952485, -45.944024], [166.616059, -46.088067], [166.658539, -46.000177], [166.808604, -45.930434], [166.691254, -45.940199], [166.743907, -45.860935], [166.629242, -45.965265], [166.474783, -45.996026], [166.489757, -45.80755], [166.889659, -45.776462], [167.020844, -45.697686], [166.774262, -45.718845], [166.890961, -45.649835], [166.77768, -45.656671], [166.781993, -45.594171], [166.991954, -45.575453], [166.952485, -45.546808], [167.054942, -45.491632], [166.71461, -45.575616], [166.767589, -45.409601], [166.952485, -45.436944], [166.809255, -45.357192], [166.825531, -45.317153], [166.890961, -45.282973], [166.93214, -45.355076], [167.047537, -45.361912], [167.011078, -45.426446], [167.097179, -45.382094], [167.20574, -45.478611], [167.047537, -45.327081], [167.308849, -45.313409], [167.247244, -45.253106], [167.047537, -45.269708], [167.012055, -45.132908], [167.170746, -45.184747], [167.054942, -45.101739], [167.1185, -45.039239], [167.192149, -45.135919], [167.274669, -45.094415], [167.151541, -45.007582], [167.335704, -45.037205], [167.198985, -44.964044], [167.385753, -44.84238], [167.459646, -44.991876], [167.514171, -44.992608], [167.457693, -44.789321], [167.555186, -44.785821], [167.568126, -44.882013], [167.548839, -44.73447], [167.679373, -44.765395], [167.594737, -44.697686], [167.751964, -44.603204], [167.932628, -44.697035], [167.836436, -44.505304], [168.028168, -44.320408], [168.127452, -44.316583], [168.103282, -44.258233], [168.30714, -44.148858], [168.37086, -44.039158], [168.645844, -43.964532], [168.803722, -43.997247], [169.419607, -43.650567], [169.717784, -43.573663], [170.104991, -43.258071], [170.23878, -43.237888], [170.303559, -43.162205], [170.200531, -43.216729], [170.289317, -43.106866], [170.858409, -42.843357], [171.225413, -42.450689], [171.48878, -41.830336], [171.46811, -41.76629], [171.855235, -41.66546], [172.070811, -41.414239], [172.139659, -41.291436], [172.106781, -40.886895], [172.507091, -40.589451], [172.592621, -40.604099], [172.595876, -40.527765], [172.83961, -40.50213], [172.996837, -40.524184], [172.742198, -40.520929], [172.660411, -40.647719], [172.694509, -40.750177], [172.856456, -40.843683], [173.017345, -40.797296], [173.058279, -40.963067], [172.996837, -41.017022], [173.103852, -41.307794], [173.212738, -41.301853], [173.588634, -41.056329], [173.674571, -41.106378], [173.747569, -41.037205], [173.681407, -41.034438], [173.707286, -40.994236], [173.992035, -40.899998], [174.034841, -40.933526], [173.917979, -41.001886], [173.780528, -41.011407], [173.778656, -41.10768], [173.828868, -41.058689], [173.95574, -41.058689], [173.829112, -41.140069], [173.859548, -41.229913], [173.774262, -41.283949], [174.133962, -41.175388], [173.896332, -41.191664], [173.948904, -41.079034], [173.976329, -41.147393], [174.045665, -41.092869], [174.033702, -41.017185], [173.948904, -41.010837], [173.998546, -40.968845], [174.094249, -41.019138], [174.183116, -40.973077], [174.207205, -41.070571], [174.326427, -41.009373], [174.257335, -41.126886], [174.167328, -41.115899], [174.216482, -41.188897], [173.935232, -41.279555], [174.325694, -41.216241], [174.050629, -41.436944], [174.225922, -41.723403], [174.292166, -41.730157], [174.21518, -41.856703], [173.703624, -42.378595], [173.723155, -42.4367], [173.558604, -42.491143], [173.287283, -42.953871], [172.91505, -43.102797], [172.748694, -43.279694]]], [[[175.011729, -36.802667], [175.190603, -36.731215], [175.21518, -36.758477], [175.182628, -36.824965], [175.011729, -36.802667]]], [[[175.847667, -36.625095], [175.797537, -36.621759], [175.771983, -36.576593], [175.799164, -36.569757], [175.847667, -36.625095]]], [[[174.84547, -36.4485], [174.895518, -36.401544], [174.906016, -36.449151], [174.84547, -36.4485]]], [[[175.080821, -36.205662], [175.154959, -36.213556], [175.100352, -36.227797], [175.080821, -36.205662]]], [[[175.501801, -36.241306], [175.565929, -36.309747], [175.522797, -36.352146], [175.333751, -36.223728], [175.375499, -36.065851], [175.53061, -36.176365], [175.501801, -36.241306]]], [[[172.138882, -34.149129], [172.144776, -34.169046], [172.114697, -34.146487], [172.138882, -34.149129]]], [[[176.953712, -39.607513], [177.118907, -39.66725], [176.861827, -40.14072], [176.681814, -40.274591], [176.628429, -40.462091], [176.424815, -40.603936], [175.966807, -41.247003], [175.237478, -41.620294], [175.181814, -41.417901], [174.865571, -41.419529], [174.889659, -41.224542], [174.785411, -41.249444], [174.810069, -41.333754], [174.609386, -41.291925], [174.611501, -41.2374], [174.865977, -41.104181], [174.84197, -41.043715], [175.141287, -40.674412], [175.23878, -40.296319], [175.183767, -40.134454], [174.967296, -39.916436], [174.567638, -39.826755], [174.319021, -39.613865], [173.851248, -39.463962], [173.759288, -39.301365], [173.852712, -39.134454], [174.211599, -38.973321], [174.41505, -38.963067], [174.594005, -38.818617], [174.709809, -38.10475], [174.84669, -38.153741], [174.942638, -38.097345], [174.792003, -38.084731], [174.888031, -37.966892], [174.788097, -37.985284], [174.79184, -37.872003], [174.976817, -37.803806], [174.977061, -37.749933], [174.850352, -37.764907], [174.717784, -37.411879], [174.837901, -37.299005], [174.706391, -37.347833], [174.558279, -37.062758], [174.667328, -37.069513], [174.740001, -37.244399], [174.73585, -37.179457], [174.804861, -37.166274], [174.716645, -37.152602], [174.855968, -37.078302], [174.948416, -37.101739], [174.785818, -37.008477], [174.832774, -36.942804], [174.667328, -36.944106], [174.500336, -37.032159], [174.407563, -36.761489], [174.182302, -36.45322], [174.257172, -36.446954], [174.431407, -36.665623], [174.490733, -36.576593], [174.465994, -36.373224], [174.331228, -36.392511], [174.271007, -36.33766], [174.524913, -36.241469], [174.353038, -36.296075], [174.305186, -36.282403], [174.45045, -36.163263], [174.393891, -36.1242], [174.385509, -36.188735], [174.33253, -36.227797], [174.284679, -36.117934], [174.182302, -36.145196], [174.318858, -36.241469], [174.26059, -36.268243], [174.075206, -36.168064], [173.900564, -35.959649], [173.946788, -35.916436], [173.90797, -35.870294], [173.880138, -35.959649], [174.20281, -36.347589], [174.079845, -36.399509], [173.407237, -35.571222], [173.457856, -35.437921], [173.541515, -35.452569], [173.660899, -35.312921], [173.592621, -35.336521], [173.565278, -35.274509], [173.566417, -35.360528], [173.406993, -35.391209], [173.369965, -35.516534], [173.272146, -35.391371], [173.31837, -35.302341], [173.24936, -35.370701], [173.201671, -35.322849], [173.256847, -35.281345], [173.177501, -35.29046], [173.092947, -35.206801], [173.198416, -35.109063], [173.156749, -34.945001], [172.674083, -34.479913], [172.70281, -34.411798], [173.079275, -34.411716], [173.038097, -34.522068], [172.970063, -34.466567], [172.907481, -34.541436], [172.996837, -34.561782], [173.007498, -34.651137], [173.035818, -34.552341], [173.18865, -34.835626], [173.123057, -34.809666], [173.298188, -34.909438], [173.266612, -35.007745], [173.3685, -34.967218], [173.357921, -34.868748], [173.444102, -34.796319], [173.503184, -34.869806], [173.404063, -34.903416], [173.458751, -34.981215], [173.586436, -35.014907], [173.588227, -34.927504], [173.784434, -35.007501], [173.724457, -35.064223], [173.760265, -35.096938], [173.89088, -35.000665], [173.990001, -35.118748], [174.12794, -35.136489], [174.15504, -35.182306], [174.058116, -35.151544], [174.014985, -35.216974], [174.093516, -35.219822], [174.151134, -35.369724], [174.251638, -35.322524], [174.15504, -35.274509], [174.353038, -35.199395], [174.34018, -35.311782], [174.422374, -35.373712], [174.33253, -35.329034], [174.569509, -35.594334], [174.565278, -35.651788], [174.476573, -35.643243], [174.606781, -35.84352], [174.496918, -35.768487], [174.385509, -35.789483], [174.359874, -35.713311], [174.352712, -35.841974], [174.503754, -35.830011], [174.496918, -35.987563], [174.621104, -36.04225], [174.824474, -36.277032], [174.806407, -36.334893], [174.880544, -36.351332], [174.750743, -36.354425], [174.778819, -36.487237], [174.716645, -36.411554], [174.722911, -36.593683], [174.856944, -36.610935], [174.723481, -36.63128], [174.819102, -36.823663], [174.703624, -36.758477], [174.621104, -36.796319], [174.682628, -36.803155], [174.680186, -36.907403], [174.750743, -36.844822], [174.875662, -36.851007], [174.891449, -36.957778], [174.935232, -36.837335], [174.963145, -36.933526], [175.02711, -36.874607], [175.093435, -36.970473], [175.240977, -36.942315], [175.32602, -37.009454], [175.367198, -37.207208], [175.562755, -37.179946], [175.609548, -37.25156], [175.527843, -36.962498], [175.436209, -36.864679], [175.53712, -36.786065], [175.497569, -36.63128], [175.354259, -36.490981], [175.532237, -36.507745], [175.628103, -36.763849], [175.851736, -36.718357], [175.713552, -36.875177], [175.850759, -36.840997], [175.868012, -37.053399], [175.919688, -37.05462], [175.88795, -37.241957], [175.975434, -37.469903], [176.169119, -37.624933], [175.943126, -37.521905], [175.997244, -37.631768], [176.214122, -37.719496], [176.216807, -37.618259], [177.131033, -38.021661], [177.556814, -37.913832], [177.73878, -37.676202], [177.992035, -37.590916], [177.992035, -37.543064], [178.27768, -37.559259], [178.550548, -37.680597], [178.348318, -38.012628], [178.381114, -38.078709], [178.318533, -38.26572], [178.362071, -38.316502], [178.300141, -38.531671], [178.079845, -38.70908], [177.932384, -38.702407], [177.882823, -39.085545], [177.998871, -39.129815], [177.911957, -39.255955], [177.8685, -39.290216], [177.841156, -39.228936], [177.852061, -39.089288], [177.413259, -39.059015], [177.064952, -39.199395], [176.937511, -39.348728], [176.953712, -39.607513]]]]}}]}