{"type": "FeatureCollection", "features": [{"type": "Feature", "properties": {"name": "Antarctica"}, "geometry": {"type": "MultiPolygon", "coordinates": [[[[-19.767649, -75.549493], [-19.67219, -75.52752], [-19.592437, -75.539972], [-19.388051, -75.545831], [-19.338246, -75.530532], [-19.240468, -75.548435], [-19.237782, -75.502048], [-19.005971, -75.520685], [-18.967152, -75.514907], [-18.935618, -75.490981], [-19.028472, -75.454278], [-18.987131, -75.442804], [-18.653635, -75.48211], [-18.625478, -75.482354], [-18.550893, -75.463962], [-18.46052, -75.480239], [-18.408274, -75.48089], [-18.251373, -75.460219], [-18.531484, -75.407403], [-18.573069, -75.358494], [-18.638661, -75.319594], [-18.737701, -75.299981], [-18.774973, -75.280043], [-18.85204, -75.263116], [-18.873525, -75.249444], [-18.864858, -75.228936], [-18.84557, -75.224867], [-18.784739, -75.230076], [-18.749745, -75.223891], [-18.721099, -75.205499], [-18.704945, -75.161554], [-18.682932, -75.1513], [-18.600087, -75.158298], [-18.546295, -75.146905], [-18.535878, -75.053155], [-18.509429, -75.022556], [-18.439809, -75.02752], [-18.319, -74.979262], [-18.257965, -74.988458], [-18.204945, -74.955987], [-18.131093, -74.938735], [-18.150502, -74.924249], [-18.146148, -74.903741], [-18.106272, -74.872654], [-18.055898, -74.858819], [-17.996978, -74.822686], [-17.915639, -74.801853], [-17.826487, -74.791436], [-17.802154, -74.776544], [-17.837758, -74.757013], [-17.871734, -74.713962], [-17.911855, -74.703871], [-17.959828, -74.666762], [-17.965688, -74.637872], [-17.810374, -74.616957], [-17.708323, -74.586847], [-17.641103, -74.594659], [-17.623158, -74.585219], [-17.604807, -74.51922], [-17.566762, -74.513849], [-17.58731, -74.486423], [-17.61734, -74.470473], [-17.589223, -74.446873], [-17.61205, -74.40252], [-17.57079, -74.369561], [-17.456288, -74.337172], [-16.597279, -74.307387], [-15.926625, -74.377537], [-15.753082, -74.430434], [-15.639027, -74.430841], [-15.616689, -74.423028], [-15.616567, -74.401951], [-15.610951, -74.40016], [-15.195546, -74.360528], [-15.280873, -74.338474], [-15.319569, -74.319106], [-15.33316, -74.288751], [-15.304351, -74.256768], [-15.302113, -74.221449], [-15.208363, -74.206313], [-15.207672, -74.193943], [-15.193227, -74.181329], [-15.130727, -74.163751], [-15.109527, -74.131524], [-15.019276, -74.129327], [-14.953725, -74.103285], [-14.827992, -74.081231], [-14.789052, -74.065037], [-14.734609, -74.02158], [-14.692983, -74.001642], [-14.525054, -73.975681], [-14.51773, -73.971368], [-14.518219, -73.934015], [-14.433013, -73.908298], [-14.361806, -73.85768], [-14.416331, -73.841974], [-14.627187, -73.839125], [-14.653676, -73.828709], [-14.697133, -73.789646], [-14.717641, -73.780532], [-14.796498, -73.802911], [-15.686269, -73.9485], [-16.175933, -73.939223], [-16.262441, -73.894789], [-16.462148, -73.894627], [-16.516998, -73.885186], [-16.554433, -73.864841], [-16.512278, -73.857029], [-16.391957, -73.879327], [-16.196401, -73.83408], [-15.90982, -73.81699], [-15.865956, -73.808201], [-15.825754, -73.78867], [-15.875478, -73.76336], [-15.929677, -73.750177], [-16.3308, -73.709242], [-16.399403, -73.722426], [-16.4947, -73.7138], [-16.583241, -73.686293], [-16.598256, -73.667739], [-16.598622, -73.601495], [-16.587717, -73.5735], [-16.546742, -73.528985], [-16.562164, -73.502537], [-16.560129, -73.484063], [-16.543568, -73.468683], [-16.438466, -73.413263], [-15.976186, -73.303806], [-15.957753, -73.290134], [-15.961659, -73.265802], [-15.993072, -73.214776], [-15.978871, -73.194594], [-15.897694, -73.149998], [-15.8697, -73.139093], [-15.640126, -73.101821], [-15.566558, -73.079278], [-15.426747, -73.091078], [-15.256907, -73.07879], [-15.202992, -73.04697], [-15.179921, -73.044122], [-14.984039, -73.052504], [-14.883209, -73.042413], [-14.612416, -73.082208], [-14.509267, -73.120375], [-14.441477, -73.164727], [-14.380971, -73.131443], [-14.36677, -73.130955], [-14.340159, -73.14544], [-14.295033, -73.128513], [-14.229807, -73.117608], [-14.097483, -73.132989], [-14.047597, -73.12477], [-14.016469, -73.129571], [-13.916819, -73.10589], [-14.014638, -73.066339], [-13.980865, -73.043064], [-13.936391, -72.994317], [-13.895253, -72.986749], [-14.029775, -72.908461], [-14.222646, -72.828302], [-14.226674, -72.797621], [-14.251536, -72.777439], [-14.386138, -72.742283], [-14.418324, -72.72381], [-14.390736, -72.713149], [-14.221099, -72.711684], [-14.014027, -72.738702], [-13.899566, -72.771091], [-13.790273, -72.786716], [-13.653066, -72.791681], [-13.519399, -72.845392], [-13.491038, -72.846287], [-13.437896, -72.832127], [-13.379384, -72.836114], [-13.264027, -72.805759], [-13.154775, -72.799493], [-13.055002, -72.74977], [-12.973785, -72.732599], [-12.934926, -72.706231], [-12.902333, -72.700372], [-12.877105, -72.680597], [-12.861195, -72.653497], [-12.578969, -72.584649], [-12.517161, -72.583103], [-12.435048, -72.554946], [-12.321156, -72.561782], [-12.244374, -72.540704], [-11.556508, -72.443617], [-11.464019, -72.441502], [-11.387522, -72.418064], [-11.356557, -72.396417], [-11.325347, -72.327895], [-11.38036, -72.321222], [-11.409739, -72.301935], [-11.368276, -72.289483], [-11.34142, -72.256524], [-11.28661, -72.239679], [-11.273427, -72.202244], [-11.249745, -72.190688], [-11.23998, -72.176528], [-11.246978, -72.16546], [-11.273793, -72.163751], [-11.358998, -72.177341], [-11.382965, -72.172133], [-11.253285, -72.138849], [-11.245473, -72.126397], [-11.272043, -72.11419], [-11.250356, -72.100763], [-11.032297, -72.048923], [-11.052602, -72.03631], [-11.117909, -72.037774], [-11.095937, -72.01865], [-11.036204, -72.004978], [-10.981191, -71.980727], [-10.97411, -71.973403], [-10.977203, -71.956801], [-10.923818, -71.909926], [-10.917836, -71.895766], [-10.922922, -71.878676], [-10.944163, -71.865411], [-10.939198, -71.851332], [-10.847157, -71.780857], [-10.888783, -71.754164], [-10.949086, -71.742852], [-11.527415, -71.755304], [-11.753529, -71.705662], [-11.987904, -71.679457], [-12.150299, -71.636407], [-12.17516, -71.623956], [-12.330922, -71.494806], [-12.367665, -71.450779], [-12.380727, -71.39544], [-12.349233, -71.356378], [-12.295481, -71.32936], [-12.208567, -71.302667], [-12.06432, -71.297052], [-11.879506, -71.260349], [-11.806508, -71.259861], [-11.660146, -71.276462], [-11.716786, -71.328709], [-11.71288, -71.355239], [-11.682607, -71.392267], [-11.651112, -71.409763], [-11.609486, -71.416925], [-11.370595, -71.423435], [-11.295806, -71.437433], [-11.218129, -71.466485], [-11.072092, -71.549005], [-11.03661, -71.561212], [-10.960683, -71.576349], [-10.839996, -71.584893], [-10.758127, -71.577407], [-10.67809, -71.558282], [-10.600331, -71.527032], [-10.641591, -71.480157], [-10.721181, -71.427423], [-10.733144, -71.409601], [-10.727651, -71.389093], [-10.703725, -71.362237], [-10.653472, -71.324965], [-10.595611, -71.297296], [-10.101064, -71.181085], [-10.036855, -71.15545], [-9.988759, -71.119317], [-10.03307, -71.08587], [-10.094106, -71.064223], [-10.215403, -71.040216], [-10.351186, -71.032322], [-10.42516, -71.01922], [-10.450063, -70.990981], [-10.430816, -70.974705], [-10.394399, -70.961114], [-10.266835, -70.93141], [-10.069651, -70.911879], [-10.002268, -70.919692], [-9.943105, -70.944513], [-9.981313, -70.987888], [-9.975819, -71.028578], [-9.939524, -71.062433], [-9.885243, -71.084161], [-9.833608, -71.092869], [-9.45165, -71.099216], [-9.105051, -71.185317], [-9.054514, -71.20672], [-9.01122, -71.236912], [-8.991444, -71.259047], [-8.987945, -71.276544], [-9.000478, -71.292413], [-9.140045, -71.367771], [-9.134511, -71.405694], [-9.113922, -71.425226], [-9.101633, -71.426935], [-9.046132, -71.418227], [-8.968861, -71.428318], [-8.853424, -71.420668], [-8.824208, -71.427504], [-8.750722, -71.473565], [-8.829823, -71.533298], [-8.73526, -71.566583], [-8.715443, -71.585707], [-8.684885, -71.656183], [-8.74649, -71.700779], [-8.718577, -71.704848], [-8.614125, -71.699884], [-8.566762, -71.712498], [-8.409739, -71.729913], [-8.392893, -71.72381], [-8.382476, -71.709161], [-8.388499, -71.692071], [-8.382314, -71.682387], [-8.310129, -71.634698], [-8.162587, -71.576593], [-8.117991, -71.581476], [-8.072255, -71.611098], [-8.071685, -71.632013], [-8.091176, -71.657647], [-7.816762, -71.67197], [-7.739369, -71.647393], [-7.651357, -71.657892], [-7.603912, -71.633966], [-7.588694, -71.611993], [-7.596588, -71.594008], [-7.733998, -71.551446], [-7.775787, -71.516697], [-7.779164, -71.494073], [-7.765207, -71.428399], [-7.635406, -71.355564], [-7.568512, -71.334649], [-7.559316, -71.201349], [-7.564198, -71.150567], [-7.594594, -71.113702], [-7.688629, -71.063165], [-7.80427, -71.029392], [-7.87564, -70.989923], [-7.961903, -70.873142], [-7.912221, -70.843683], [-7.855784, -70.82586], [-7.492055, -70.784763], [-7.284291, -70.791192], [-6.618276, -70.924005], [-6.604319, -70.914239], [-6.572092, -70.837579], [-6.553334, -70.815037], [-6.429758, -70.737888], [-6.31786, -70.70794], [-6.01358, -70.679783], [-5.675282, -70.73268], [-5.574696, -70.803806], [-5.564361, -70.820489], [-5.56664, -70.841729], [-5.577504, -70.861586], [-5.63036, -70.89422], [-5.68692, -70.95794], [-5.721791, -71.029962], [-6.043691, -71.118259], [-6.099721, -71.156834], [-6.0454, -71.188165], [-6.042836, -71.201593], [-6.057973, -71.219171], [-6.193918, -71.291436], [-6.23644, -71.305922], [-6.281117, -71.310642], [-6.14977, -71.366306], [-6.068186, -71.347345], [-5.892934, -71.361098], [-5.820058, -71.341078], [-5.592519, -71.353123], [-5.539662, -71.339776], [-5.496083, -71.348728], [-5.41161, -71.339939], [-5.298411, -71.355157], [-5.270619, -71.354181], [-5.193837, -71.330824], [-4.795969, -71.344903], [-4.709137, -71.334731], [-4.599599, -71.344985], [-4.387278, -71.322931], [-4.345448, -71.326104], [-4.173695, -71.37005], [-4.169667, -71.345147], [-4.14037, -71.342218], [-4.075917, -71.35768], [-3.937571, -71.367446], [-3.97232, -71.342869], [-3.990387, -71.315606], [-3.981923, -71.295994], [-3.937164, -71.294122], [-3.888295, -71.306573], [-3.71817, -71.378595], [-3.706451, -71.399184], [-3.714752, -71.430759], [-3.707102, -71.457127], [-3.645334, -71.464125], [-3.621897, -71.471449], [-3.571604, -71.509942], [-3.492177, -71.522719], [-3.470937, -71.521173], [-3.499094, -71.46852], [-3.48941, -71.450942], [-3.468984, -71.437677], [-3.375356, -71.445571], [-3.352651, -71.43963], [-3.337799, -71.425226], [-3.334584, -71.324884], [-3.30899, -71.290216], [-3.290151, -71.287205], [-3.239247, -71.301528], [-3.171498, -71.343194], [-3.132802, -71.356622], [-2.9912, -71.361098], [-3.016103, -71.297133], [-2.992299, -71.280938], [-2.887074, -71.267999], [-2.778066, -71.284763], [-2.727651, -71.283949], [-2.67748, -71.25742], [-2.650502, -71.288181], [-2.48526, -71.369399], [-2.436391, -71.382257], [-2.336822, -71.390069], [-2.252553, -71.377537], [-2.236724, -71.387302], [-2.196604, -71.446059], [-2.154368, -71.47324], [-2.106801, -71.485447], [-2.03954, -71.46795], [-1.986684, -71.425226], [-1.972035, -71.42254], [-1.880035, -71.448989], [-1.76183, -71.414727], [-1.61559, -71.441502], [-1.56017, -71.426446], [-1.489247, -71.458754], [-1.395375, -71.443455], [-1.306264, -71.402765], [-1.324818, -71.359308], [-1.324534, -71.34002], [-1.310699, -71.319594], [-1.230377, -71.267999], [-1.186025, -71.255466], [-1.137563, -71.255304], [-0.953969, -71.30047], [-0.812815, -71.377537], [-0.80427, -71.394789], [-0.80602, -71.421563], [-0.817698, -71.436456], [-0.865549, -71.448989], [-0.845286, -71.503188], [-0.870758, -71.54518], [-0.952138, -71.62363], [-0.876088, -71.640558], [-0.83609, -71.663344], [-0.755971, -71.656508], [-0.621938, -71.685317], [-0.599273, -71.694431], [-0.560943, -71.736749], [-0.518463, -71.765232], [-0.469309, -71.754002], [0.0, -71.49886677908398], [0.0, -90.0], [-20.0, -90.0], [-20.0, -75.52103291131876], [-19.767649, -75.549493]]], [[[-16.131703, -72.632582], [-16.109853, -72.65838], [-16.102773, -72.687433], [-16.198842, -72.709242], [-16.296254, -72.707615], [-16.381581, -72.690037], [-16.441558, -72.663751], [-16.487538, -72.622328], [-16.517201, -72.570245], [-16.516347, -72.519138], [-16.470693, -72.480645], [-16.409576, -72.456638], [-16.338002, -72.460626], [-16.291249, -72.485284], [-16.186147, -72.590509], [-16.131703, -72.632582]]], [[[-12.522694, -72.128351], [-12.489654, -72.167087], [-12.56664, -72.196384], [-12.653961, -72.199314], [-12.742299, -72.185154], [-12.877594, -72.143813], [-12.921051, -72.121189], [-12.951324, -72.09295], [-12.967356, -72.056329], [-12.897328, -72.00213], [-12.810211, -72.000665], [-12.724965, -72.028009], [-12.522694, -72.128351]]], [[[-3.476186, -70.53045], [-3.509918, -70.514418], [-3.492502, -70.481052], [-3.392486, -70.423761], [-3.296498, -70.349705], [-3.260487, -70.331231], [-3.144154, -70.300714], [-2.988596, -70.280532], [-2.833811, -70.281427], [-2.71939, -70.313897], [-2.696034, -70.343194], [-2.680572, -70.38836], [-2.676137, -70.435968], [-2.685048, -70.472345], [-2.711252, -70.497247], [-2.74706, -70.511814], [-2.829823, -70.523696], [-3.430409, -70.538507], [-3.476186, -70.53045]]], [[[-3.179067, -71.110121], [-2.986399, -71.18434], [-2.944569, -71.22503], [-3.03661, -71.2374], [-3.132721, -71.238539], [-3.224477, -71.228936], [-3.337717, -71.192966], [-3.415028, -71.129978], [-3.370351, -71.093845], [-3.409291, -71.066502], [-3.368031, -71.052911], [-3.228098, -71.05283], [-3.179067, -71.110121]]], [[[-2.611562, -70.840916], [-2.298451, -70.792739], [-2.126943, -70.810724], [-2.080719, -70.825616], [-2.131825, -70.866795], [-2.215932, -70.896254], [-2.250885, -70.919692], [-2.290598, -70.968438], [-2.297963, -70.988539], [-2.293121, -71.005141], [-2.303863, -71.016371], [-2.56432, -71.132582], [-2.734486, -71.170994], [-2.799957, -71.167739], [-2.817738, -71.156183], [-2.822336, -71.126642], [-2.843617, -71.112074], [-2.840891, -71.080011], [-2.862172, -71.053481], [-2.843617, -71.055597], [-2.752756, -71.011326], [-2.667307, -70.993748], [-2.984975, -70.935805], [-2.963287, -70.933282], [-2.948394, -70.919366], [-2.942779, -70.899509], [-2.948598, -70.879083], [-2.987294, -70.856052], [-3.187734, -70.82464], [-3.440338, -70.751886], [-3.585561, -70.738377], [-3.571034, -70.692804], [-3.525706, -70.681573], [-3.410715, -70.692478], [-3.180776, -70.668064], [-2.618072, -70.697686], [-2.504628, -70.731541], [-2.568267, -70.757582], [-2.734364, -70.792413], [-2.717681, -70.820082], [-2.611562, -70.840916]]], [[[-5.978424, -70.465102], [-5.965972, -70.498468], [-5.884918, -70.549412], [-5.921702, -70.565037], [-6.150054, -70.614841], [-6.174387, -70.606052], [-6.193105, -70.583429], [-6.179107, -70.571547], [-6.416249, -70.471612], [-6.453765, -70.444431], [-6.295888, -70.460219], [-6.086903, -70.406345], [-6.012318, -70.403578], [-5.939849, -70.422621], [-5.978424, -70.465102]]]]}}]}