{"type": "FeatureCollection", "features": [{"type": "Feature", "properties": {"name": "Antarctica"}, "geometry": {"type": "MultiPolygon", "coordinates": [[[[32.785411, -69.965102], [32.851085, -69.945489], [32.868663, -69.930271], [32.877289, -69.90488], [32.871104, -69.884047], [32.85255, -69.870375], [32.824229, -69.866143], [32.853852, -69.826267], [32.837576, -69.784763], [32.862804, -69.781671], [32.867442, -69.759535], [32.88795, -69.760349], [32.912608, -69.719985], [32.961762, -69.685968], [32.985688, -69.659356], [32.995453, -69.618097], [32.981619, -69.593357], [32.996267, -69.572198], [33.000499, -69.504815], [32.978282, -69.469822], [32.982921, -69.450291], [32.96697, -69.386814], [32.951996, -69.35947], [32.927908, -69.343683], [32.790782, -69.290948], [32.752208, -69.262628], [32.701345, -69.243585], [32.532481, -69.118829], [32.504405, -69.084649], [32.487641, -69.081638], [32.53061, -69.048517], [32.50294, -68.961602], [32.498871, -68.930922], [32.505707, -68.90309], [32.562266, -68.856378], [32.610606, -68.843683], [32.838064, -68.75213], [33.215994, -68.66961], [34.214203, -68.677911], [34.300629, -68.688165], [34.363048, -68.725518], [34.384939, -68.794203], [34.371267, -68.806329], [34.091156, -68.852472], [34.07602, -68.886326], [34.049083, -68.886977], [34.009451, -68.927423], [33.830577, -69.009373], [33.603689, -69.052423], [33.628184, -69.060968], [33.771251, -69.053481], [33.811209, -69.091404], [33.865896, -69.112563], [33.921641, -69.122247], [34.361501, -69.132908], [34.38795, -69.12713], [34.467947, -69.081638], [34.58725, -69.066827], [34.619965, -69.070733], [34.652599, -69.083429], [34.610362, -69.091241], [34.650727, -69.111423], [34.73463, -69.113051], [34.838878, -69.142267], [35.011892, -69.228774], [35.125499, -69.259535], [35.19988, -69.294122], [35.154959, -69.323826], [35.146983, -69.340265], [35.167654, -69.400486], [35.154959, -69.426039], [35.104747, -69.459649], [35.13795, -69.508071], [35.22877, -69.536716], [35.204112, -69.579767], [35.108165, -69.605727], [35.073497, -69.631931], [35.079356, -69.670587], [35.123302, -69.699395], [35.243988, -69.73561], [35.317719, -69.734145], [35.483409, -69.701349], [35.559581, -69.699477], [35.708344, -69.666111], [35.904552, -69.66725], [36.0796, -69.636651], [36.101573, -69.644952], [36.145681, -69.700779], [36.160655, -69.704522], [36.370616, -69.657973], [36.33253, -69.619236], [36.370372, -69.605564], [36.50408, -69.621515], [36.70574, -69.629815], [36.756602, -69.642267], [36.757335, -69.670099], [36.769216, -69.694024], [36.783865, -69.704197], [36.915701, -69.750421], [36.973806, -69.790623], [36.995128, -69.797296], [36.971934, -69.814548], [36.968923, -69.838311], [36.9817, -69.862237], [37.006358, -69.880548], [37.036306, -69.886651], [37.076508, -69.867852], [37.130626, -69.86297], [37.240489, -69.831801], [37.237804, -69.816095], [37.192556, -69.781996], [37.281016, -69.728448], [37.491466, -69.754571], [37.596446, -69.730076], [37.527517, -69.704685], [37.508311, -69.690199], [37.786306, -69.681899], [37.769786, -69.701837], [37.79949, -69.715102], [37.780447, -69.727634], [37.757579, -69.729099], [37.785655, -69.757094], [37.841563, -69.759047], [38.038422, -69.717462], [38.240733, -69.766534], [38.250255, -69.781671], [38.24464, -69.795668], [38.119151, -69.818617], [38.020193, -69.849379], [38.042979, -69.862726], [38.139334, -69.881443], [38.25587, -69.949151], [38.26531, -69.967218], [38.261729, -69.977472], [38.24140642000903, -70.0], [32.75644724824162, -70.0], [32.785411, -69.965102]]], [[[38.803559, -69.987726], [39.0796, -69.905857], [39.158865, -69.903741], [39.192638, -69.892511], [39.194509, -69.860772], [39.221202, -69.860935], [39.24586, -69.850518], [39.178396, -69.847426], [39.136078, -69.829522], [39.129405, -69.81113], [39.136892, -69.763767], [39.161469, -69.726658], [39.208832, -69.706638], [39.495128, -69.686293], [39.535981, -69.66839], [39.588715, -69.59881], [39.638438, -69.608575], [39.625255, -69.636163], [39.644216, -69.650974], [39.677419, -69.656915], [39.707205, -69.658298], [39.642833, -69.626072], [39.668793, -69.603448], [39.70338, -69.60003], [39.778656, -69.611423], [39.757335, -69.586196], [39.713064, -69.586847], [39.686046, -69.541111], [39.796235, -69.526462], [39.740001, -69.490492], [39.783214, -69.486017], [39.817638, -69.422133], [39.847911, -69.384698], [39.831554, -69.359552], [39.701671, -69.306817], [39.712738, -69.290704], [39.814789, -69.279962], [39.803396, -69.247735], [39.736176, -69.195977], [39.81129, -69.180922], [39.735362, -69.108005], [39.707367, -69.067966], [39.708995, -69.021173], [39.737804, -68.976251], [39.803477, -68.925551], [39.857921, -68.829522], [40.0, -68.81992850627488], [40.0, -70.0], [38.8016105417774, -70.0], [38.803559, -69.987726]]]]}}]}