{"type": "FeatureCollection", "features": [{"type": "Feature", "properties": {"name": "Papua New Guinea"}, "geometry": {"type": "MultiPolygon", "coordinates": [[[[149.854503, -10.014907], [149.895763, -10.023207], [149.939464, -10.062433], [149.977306, -10.075453], [150.074229, -10.077569], [150.135916, -10.106052], [150.187511, -10.091241], [150.214692, -10.121677], [150.253673, -10.135675], [150.287771, -10.17197], [150.382172, -10.201593], [150.404145, -10.20615], [150.457774, -10.197035], [150.524262, -10.216485], [150.559337, -10.201837], [150.601736, -10.20672], [150.581228, -10.234633], [150.627208, -10.277927], [150.718435, -10.258722], [150.783539, -10.255629], [150.828624, -10.227227], [150.848155, -10.220961], [150.874034, -10.224705], [150.871349, -10.236749], [150.852794, -10.24977], [150.812266, -10.259698], [150.653087, -10.338474], [150.615408, -10.344496], [150.56837, -10.339451], [150.523204, -10.321466], [150.46046, -10.313897], [150.426768, -10.300063], [150.399913, -10.300226], [150.366466, -10.326918], [150.346934, -10.36533], [150.361501, -10.399672], [150.368907, -10.392267], [150.383474, -10.400079], [150.428966, -10.402276], [150.647309, -10.476983], [150.670665, -10.495864], [150.677501, -10.530043], [150.692882, -10.556736], [150.687348, -10.56756], [150.550629, -10.620864], [150.535981, -10.612726], [150.48699, -10.621677], [150.434825, -10.665704], [150.429861, -10.687677], [150.398204, -10.681085], [150.368907, -10.687677], [150.356456, -10.664972], [150.340099, -10.65781], [150.272716, -10.687677], [150.251638, -10.674086], [150.211274, -10.701349], [150.180675, -10.677179], [150.190929, -10.649835], [150.180186, -10.643243], [150.115733, -10.666681], [150.094574, -10.639907], [150.067393, -10.639907], [150.046723, -10.618829], [150.012055, -10.611993], [150.03061, -10.60003], [150.0088, -10.563735], [149.992198, -10.591485], [149.983735, -10.591729], [149.958751, -10.577813], [149.964366, -10.556817], [149.943696, -10.570977], [149.925141, -10.553888], [149.896007, -10.543634], [149.902843, -10.556817], [149.896007, -10.564223], [149.854503, -10.55047], [149.894054, -10.527032], [149.896007, -10.508966], [149.87615, -10.515802], [149.893728, -10.498468], [149.902843, -10.495864], [149.909679, -10.506931], [149.947276, -10.50213], [149.991954, -10.51393], [150.046723, -10.495864], [150.053559, -10.46795], [150.081554, -10.461114], [150.026378, -10.45436], [149.995372, -10.436619], [149.954763, -10.426446], [149.940278, -10.440606], [149.92335, -10.488458], [149.911632, -10.47503], [149.907888, -10.449884], [149.872081, -10.396091], [149.748383, -10.338311], [149.649669, -10.33766], [149.597667, -10.346368], [149.572602, -10.337498], [149.549653, -10.350681], [149.53297, -10.344496], [149.526134, -10.351983], [149.539806, -10.364923], [149.5088, -10.364923], [149.491222, -10.33766], [149.460623, -10.352309], [149.443533, -10.344496], [149.454926, -10.330824], [149.421886, -10.320977], [149.412852, -10.293227], [149.368419, -10.276137], [149.326834, -10.310317], [149.294932, -10.295587], [149.24171, -10.286554], [149.15504, -10.244317], [149.101573, -10.234633], [149.067393, -10.234633], [149.008962, -10.25213], [148.978038, -10.276137], [148.958263, -10.27809], [148.859223, -10.235528], [148.792328, -10.24212], [148.747813, -10.234633], [148.737804, -10.230076], [148.740001, -10.208185], [148.730968, -10.200453], [148.737804, -10.186782], [148.724132, -10.186782], [148.737559, -10.169122], [148.761729, -10.166274], [148.767426, -10.158298], [148.744802, -10.136], [148.732921, -10.156915], [148.710216, -10.150974], [148.689301, -10.104913], [148.683116, -10.104913], [148.669119, -10.164483], [148.638682, -10.187921], [148.537852, -10.172296], [148.514822, -10.190199], [148.402029, -10.200453], [148.337087, -10.17547], [148.318126, -10.142267], [148.299001, -10.12713], [148.280121, -10.123956], [148.272309, -10.13893], [148.231293, -10.105645], [148.176036, -10.098077], [148.15504, -10.070733], [148.142914, -10.10589], [148.10377, -10.128188], [148.056, -10.135431], [148.018321, -10.12477], [148.003429, -10.14837], [147.977387, -10.166274], [147.958995, -10.154962], [147.929047, -10.098077], [147.913341, -10.0888], [147.854015, -10.098077], [147.881521, -10.069106], [147.879649, -10.052179], [147.867524, -10.04339], [147.85255, -10.050063], [147.844737, -10.078546], [147.826671, -10.063246], [147.785411, -10.054457], [147.761729, -10.059747], [147.716807, -10.098077], [147.699392, -10.014907], [147.666352, -10.003676], [147.66334655562935, -10.0], [149.85532766331772, -10.0], [149.854503, -10.014907]]], [[[153.778819, -11.593438], [153.772797, -11.611993], [153.733084, -11.605076], [153.710297, -11.618097], [153.685313, -11.612481], [153.675792, -11.625746], [153.602794, -11.612481], [153.586274, -11.626153], [153.555349, -11.635675], [153.548839, -11.619399], [153.566091, -11.618829], [153.569835, -11.605076], [153.564138, -11.599298], [153.529552, -11.602146], [153.517345, -11.58587], [153.479828, -11.58587], [153.487315, -11.570977], [153.473399, -11.566827], [153.472992, -11.55047], [153.435557, -11.578383], [153.39796, -11.557306], [153.382335, -11.566095], [153.372813, -11.559015], [153.369965, -11.529962], [153.390636, -11.504978], [153.383637, -11.495212], [153.372813, -11.490899], [153.360118, -11.503188], [153.343272, -11.489028], [153.288097, -11.523126], [153.283214, -11.502618], [153.32252, -11.484308], [153.322276, -11.46852], [153.281261, -11.461114], [153.250499, -11.423923], [153.228526, -11.426528], [153.229259, -11.388767], [153.209158, -11.382989], [153.191742, -11.361749], [153.205577, -11.317071], [153.257823, -11.353448], [153.277517, -11.358657], [153.304942, -11.353285], [153.312185, -11.369806], [153.411143, -11.408298], [153.439301, -11.431085], [153.500987, -11.454848], [153.547862, -11.484633], [153.695649, -11.521254], [153.715994, -11.547133], [153.747732, -11.560642], [153.761567, -11.58587], [153.778819, -11.593438]]], [[[154.287608, -11.37005], [154.302257, -11.385919], [154.288341, -11.407403], [154.268077, -11.420668], [154.259939, -11.405694], [154.219493, -11.396173], [154.163422, -11.417739], [154.148936, -11.416274], [154.144705, -11.392185], [154.138438, -11.392185], [154.132172, -11.41839], [154.117524, -11.429457], [154.096202, -11.429132], [154.054861, -11.421808], [154.038341, -11.396661], [154.007498, -11.385919], [154.035411, -11.364923], [154.021169, -11.344985], [154.052094, -11.36061], [154.117361, -11.372328], [154.124766, -11.364923], [154.143321, -11.368341], [154.138438, -11.351251], [154.124766, -11.358657], [154.110688, -11.35003], [154.110525, -11.338149], [154.095225, -11.328302], [154.090017, -11.310805], [154.137218, -11.317153], [154.216319, -11.310805], [154.234874, -11.329197], [154.247081, -11.324477], [154.281749, -11.34824], [154.287608, -11.37005]]], [[[153.199229, -11.263116], [153.171397, -11.242608], [153.159841, -11.247003], [153.116222, -11.215265], [153.101085, -11.197931], [153.104503, -11.185479], [153.117035, -11.180841], [153.142345, -11.197524], [153.191742, -11.207778], [153.235606, -11.238539], [153.253917, -11.242608], [153.233897, -11.270929], [153.222911, -11.266534], [153.210948, -11.276056], [153.185069, -11.277439], [153.199229, -11.263116]]], [[[152.862804, -10.653497], [152.871104, -10.674412], [152.849864, -10.687677], [152.753673, -10.708185], [152.582286, -10.660333], [152.540782, -10.632501], [152.540782, -10.625665], [152.554454, -10.618829], [152.619477, -10.637872], [152.64324, -10.636489], [152.684825, -10.660333], [152.782888, -10.622247], [152.862804, -10.653497]]], [[[151.047048, -10.627374], [151.044932, -10.636814], [151.067882, -10.639907], [151.046723, -10.660333], [151.046397, -10.669692], [151.015147, -10.66253], [150.998302, -10.635431], [150.93686, -10.632501], [150.933767, -10.672133], [150.92449, -10.680271], [150.912364, -10.637791], [150.917003, -10.618829], [150.934093, -10.599867], [150.964854, -10.591485], [151.02003, -10.591485], [151.046723, -10.605727], [151.060802, -10.593845], [151.074718, -10.605727], [151.047048, -10.627374]]], [[[150.899181, -10.550877], [150.901866, -10.562595], [150.889171, -10.577813], [150.896495, -10.584649], [150.891938, -10.647149], [150.882335, -10.653497], [150.812999, -10.633396], [150.793468, -10.639907], [150.766856, -10.605727], [150.773692, -10.598321], [150.822032, -10.622735], [150.865733, -10.623468], [150.793468, -10.558364], [150.790375, -10.539972], [150.808849, -10.53631], [150.821462, -10.55047], [150.862559, -10.545587], [150.875499, -10.53631], [150.899181, -10.550877]]], [[[151.269298, -10.07464], [151.23227, -10.13893], [151.236664, -10.149591], [151.226817, -10.182061], [151.23227, -10.200453], [151.156586, -10.146417], [151.05421, -10.118585], [150.958018, -10.104913], [150.952322, -10.034112], [150.964854, -10.029067], [150.98767833424145, -10.0], [151.05474317032855, -10.0], [151.089692, -10.027927], [151.127615, -10.042169], [151.142914, -10.036554], [151.150157, -10.015313], [151.14167659972586, -10.0], [151.29116705792356, -10.0], [151.269298, -10.07464]]], [[[152.099132, -10.390883], [152.110118, -10.39129], [152.107677, -10.400567], [152.094493, -10.402032], [152.099132, -10.390883]]], [[[151.868419, -10.337823], [151.877452, -10.334161], [151.86964, -10.344822], [151.868419, -10.337823]]], [[[151.862315, -10.250258], [151.856619, -10.264907], [151.852712, -10.259535], [151.862315, -10.250258]]]]}}, {"type": "Feature", "properties": {"name": "Australia"}, "geometry": {"type": "MultiPolygon", "coordinates": [[[[140.117442, -17.71559], [140.240489, -17.702081], [140.404307, -17.667901], [140.424083, -17.660577], [140.441417, -17.641778], [140.523204, -17.630304], [140.566173, -17.597833], [140.597911, -17.590265], [140.644705, -17.560642], [140.688975, -17.522882], [140.734141, -17.516209], [140.768321, -17.468032], [140.833263, -17.450779], [140.845225, -17.441176], [140.883067, -17.346449], [140.904633, -17.224786], [140.932628, -17.190688], [140.948985, -17.138849], [140.959972, -17.073989], [140.947032, -17.018324], [141.050548, -16.887628], [141.083507, -16.800226], [141.117686, -16.79339], [141.199474, -16.703058], [141.224132, -16.639255], [141.234223, -16.573012], [141.244802, -16.556085], [141.261567, -16.560154], [141.292654, -16.495538], [141.303966, -16.44199], [141.29127, -16.431573], [141.289561, -16.402439], [141.318614, -16.360284], [141.349783, -16.265232], [141.352794, -16.215265], [141.431163, -16.061782], [141.412934, -16.041762], [141.377696, -15.929376], [141.405528, -15.89186], [141.439708, -15.648858], [141.487071, -15.478936], [141.570567, -15.287286], [141.580903, -15.218683], [141.589203, -15.205824], [141.604259, -15.20322], [141.597992, -15.182306], [141.639008, -15.141209], [141.635997, -15.093683], [141.658946, -15.093927], [141.653331, -15.075372], [141.665701, -15.011407], [141.654063, -14.971124], [141.631521, -14.94256], [141.637218, -14.927179], [141.604259, -14.877699], [141.545909, -14.62005], [141.539806, -14.539809], [141.521658, -14.483819], [141.533376, -14.40016], [141.601085, -14.204278], [141.598481, -14.114516], [141.583995, -14.076104], [141.485037, -13.9485], [141.467784, -13.865492], [141.474132, -13.7763], [141.527029, -13.571384], [141.559825, -13.491957], [141.59962, -13.438572], [141.631521, -13.346124], [141.654145, -13.353123], [141.673106, -13.346124], [141.660981, -13.328383], [141.693614, -13.250584], [141.685069, -13.215265], [141.662446, -13.199802], [141.624685, -13.133884], [141.604259, -13.006606], [141.583751, -12.985772], [141.631521, -12.89365], [141.644542, -12.907973], [141.661388, -12.899021], [141.716075, -12.863946], [141.754731, -12.818455], [141.809744, -12.667657], [141.820079, -12.666436], [141.817149, -12.701837], [141.835948, -12.679457], [141.853363, -12.684747], [141.882091, -12.718032], [141.892833, -12.77752], [141.894054, -12.843357], [141.938731, -12.908461], [141.937999, -12.847426], [141.905284, -12.757094], [141.989024, -12.730239], [142.008311, -12.714939], [141.925304, -12.710056], [141.905284, -12.701837], [141.881521, -12.672296], [141.823253, -12.654067], [141.937999, -12.584649], [141.974132, -12.585138], [141.930919, -12.565606], [141.917735, -12.565688], [141.899099, -12.585138], [141.885509, -12.578871], [141.837576, -12.585138], [141.797618, -12.580011], [141.771739, -12.560154], [141.74822, -12.523696], [141.693614, -12.503188], [141.75115, -12.461114], [141.744802, -12.454767], [141.699962, -12.457696], [141.665701, -12.441095], [141.658946, -12.447931], [141.658946, -12.527114], [141.68686, -12.529067], [141.699962, -12.544366], [141.665701, -12.544203], [141.621837, -12.562107], [141.599946, -12.561944], [141.590587, -12.540785], [141.693614, -12.311456], [141.717133, -12.232843], [141.732432, -12.229181], [141.770763, -12.243259], [141.809744, -12.236261], [141.792328, -12.22381], [141.789236, -12.201593], [141.766287, -12.220961], [141.753429, -12.208103], [141.801036, -12.055108], [141.831228, -12.005955], [141.871349, -11.966241], [141.913341, -11.954522], [141.898204, -11.990981], [141.919607, -12.106052], [141.952159, -12.046075], [141.963878, -12.037774], [142.021983, -12.071873], [142.03297, -12.041192], [142.03004, -12.028578], [142.011729, -12.023533], [141.991547, -11.985935], [141.952973, -11.975681], [141.944184, -11.944106], [141.947602, -11.896173], [141.967296, -11.811212], [142.01002, -11.757989], [142.010509, -11.705173], [142.131847, -11.338149], [142.133474, -11.236749], [142.159353, -11.151137], [142.158051, -11.066664], [142.145356, -10.983087], [142.151052, -10.950616], [142.174571, -10.930108], [142.221202, -10.919854], [142.228038, -10.927341], [142.25766, -10.911228], [142.323416, -10.901625], [142.401134, -10.820408], [142.434093, -10.728123], [142.463227, -10.711196], [142.505138, -10.71502], [142.546153, -10.687677], [142.549571, -10.708185], [142.600841, -10.734959], [142.615896, -10.752374], [142.601085, -10.779555], [142.570079, -10.79697], [142.549571, -10.837986], [142.515391, -10.851658], [142.514822, -10.923517], [142.50172, -10.947849], [142.522716, -10.941583], [142.54005, -10.92547], [142.567149, -10.870212], [142.590831, -10.864923], [142.614513, -10.868259], [142.625255, -10.882257], [142.634451, -10.930841], [142.659434, -10.933526], [142.668224, -10.951267], [142.659516, -10.983494], [142.66627, -11.003106], [142.678396, -10.982192], [142.700938, -10.970147], [142.725108, -10.967706], [142.741954, -10.97503], [142.752289, -11.015313], [142.789806, -11.084893], [142.796641, -11.143243], [142.810069, -11.171157], [142.793712, -11.217543], [142.80128, -11.277765], [142.840587, -11.308038], [142.872244, -11.382501], [142.821056, -11.477634], [142.83961, -11.49863], [142.837576, -11.564711], [142.857921, -11.605076], [142.865489, -11.736017], [142.862315, -11.836847], [142.927501, -11.893731], [142.940196, -11.892755], [142.992198, -11.934015], [143.020681, -11.931573], [143.104177, -11.902114], [143.123383, -11.910577], [143.175304, -11.962335], [143.228038, -11.954848], [143.249034, -11.968194], [143.227224, -11.98211], [143.203949, -11.982517], [143.105805, -12.135431], [143.086274, -12.149021], [143.090343, -12.210382], [143.077159, -12.236261], [143.090668, -12.250095], [143.078461, -12.287042], [143.077159, -12.32879], [143.103363, -12.34238], [143.139171, -12.346124], [143.176036, -12.339288], [143.25294, -12.38893], [143.271739, -12.417901], [143.278331, -12.49505], [143.294932, -12.534845], [143.323497, -12.557794], [143.391124, -12.576593], [143.43393, -12.613051], [143.402192, -12.666192], [143.411876, -12.68255], [143.379405, -12.732843], [143.358897, -12.880548], [143.379405, -12.852716], [143.413259, -12.868097], [143.438324, -12.851332], [143.471934, -12.859552], [143.497244, -12.856541], [143.543793, -12.832778], [143.495453, -12.921563], [143.511485, -12.95436], [143.50294, -13.075128], [143.527599, -13.198419], [143.526622, -13.329767], [143.533539, -13.349542], [143.570567, -13.37713], [143.591075, -13.415134], [143.594574, -13.435805], [143.581716, -13.498712], [143.583263, -13.516778], [143.597911, -13.524184], [143.564464, -13.599379], [143.530121, -13.750177], [143.562266, -13.832127], [143.598318, -13.885024], [143.597911, -13.915216], [143.611339, -13.946873], [143.687266, -14.014337], [143.694102, -14.092869], [143.704438, -14.114353], [143.707774, -14.209568], [143.748709, -14.339939], [143.782725, -14.402276], [143.846202, -14.467218], [143.874278, -14.480239], [143.926036, -14.486505], [143.941173, -14.511163], [143.951996, -14.498956], [143.988943, -14.490655], [144.067231, -14.452569], [144.113455, -14.405206], [144.161632, -14.373142], [144.180024, -14.339939], [144.185395, -14.262628], [144.201182, -14.250421], [144.214854, -14.270929], [144.235362, -14.257257], [144.25587, -14.298923], [144.292166, -14.303481], [144.303559, -14.312595], [144.440278, -14.250258], [144.475271, -14.18613], [144.475597, -14.164809], [144.486339, -14.161879], [144.514903, -14.172784], [144.584727, -14.264825], [144.572765, -14.302911], [144.571788, -14.343194], [144.580414, -14.36419], [144.600108, -14.365411], [144.633149, -14.339939], [144.633474, -14.376642], [144.612478, -14.413018], [144.615977, -14.467706], [144.619477, -14.483819], [144.653575, -14.511163], [144.677582, -14.555841], [144.69752, -14.561944], [144.756602, -14.55283], [144.796723, -14.600356], [144.900727, -14.61419], [144.914317, -14.647638], [144.937999, -14.671563], [144.944102, -14.733331], [145.013845, -14.784112], [145.030528, -14.805922], [145.055024, -14.792657], [145.154796, -14.837498], [145.22283, -14.832696], [145.211681, -14.859552], [145.219981, -14.880955], [145.27711, -14.947035], [145.345714, -14.94256], [145.247325, -15.094985], [145.23585, -15.165948], [145.268809, -15.249444], [145.2942, -15.257908], [145.310069, -15.25449], [145.324555, -15.216241], [145.34197, -15.229669], [145.349457, -15.250421], [145.343761, -15.269464], [145.302582, -15.284601], [145.285899, -15.30047], [145.281016, -15.319024], [145.297862, -15.33294], [145.288259, -15.343194], [145.283702, -15.373956], [145.256358, -15.388849], [145.243907, -15.428399], [145.24586, -15.442641], [145.264415, -15.435968], [145.279796, -15.495864], [145.263927, -15.509047], [145.264903, -15.518487], [145.273774, -15.53574], [145.313975, -15.567966], [145.322765, -15.599786], [145.307384, -15.628595], [145.366384, -15.749282], [145.359386, -15.812677], [145.373057, -15.84059], [145.355317, -15.872247], [145.355805, -15.903416], [145.430186, -15.991632], [145.462413, -16.060479], [145.462413, -16.098728], [145.434418, -16.200616], [145.458995, -16.214044], [145.468598, -16.260675], [145.431, -16.302992], [145.414561, -16.334405], [145.414317, -16.408868], [145.400401, -16.443292], [145.416759, -16.473321], [145.427582, -16.478123], [145.44809, -16.470392], [145.46339, -16.481215], [145.481456, -16.531915], [145.5171, -16.56699], [145.566091, -16.656508], [145.626231, -16.712091], [145.671235, -16.734796], [145.685313, -16.776056], [145.722504, -16.800226], [145.743419, -16.848321], [145.77768, -16.885349], [145.773692, -16.89837], [145.743663, -16.909438], [145.740489, -16.922052], [145.770844, -16.957289], [145.774262, -16.988377], [145.783458, -16.991632], [145.79835, -16.983168], [145.788585, -16.962091], [145.787608, -16.929783], [145.839122, -16.881524], [145.867686, -16.904555], [145.880382, -16.905857], [145.917328, -16.871189], [145.955089, -16.873142], [145.952485, -16.896661], [145.934825, -16.915704], [145.941661, -16.929946], [145.891612, -17.007013], [145.881847, -17.059666], [145.888031, -17.074802], [145.911794, -17.088962], [145.952485, -17.162286], [145.968435, -17.242364], [146.003673, -17.293715], [146.029959, -17.356541], [146.071056, -17.392022], [146.075369, -17.505304], [146.06837, -17.515883], [146.1067, -17.574314], [146.13502, -17.600274], [146.147716, -17.632582], [146.142426, -17.647393], [146.1067, -17.684177], [146.1067, -17.769464], [146.083995, -17.795505], [146.096202, -17.805352], [146.093028, -17.834893], [146.113536, -17.864353], [146.104747, -17.87656], [146.097911, -17.931329], [146.021495, -18.08587], [146.00587, -18.142022], [146.006196, -18.185968], [146.017345, -18.211684], [146.010102, -18.236505], [146.023774, -18.263116], [146.100922, -18.349542], [146.11964, -18.361912], [146.175059, -18.369317], [146.183442, -18.380141], [146.18922, -18.424005], [146.213715, -18.49212], [146.209158, -18.51336], [146.229259, -18.507094], [146.274669, -18.523614], [146.288829, -18.515802], [146.339366, -18.527032], [146.331065, -18.612563], [146.292003, -18.710626], [146.270763, -18.851658], [146.276622, -18.874282], [146.315684, -18.922784], [146.333263, -18.95908], [146.410899, -19.010186], [146.46225, -19.074965], [146.534679, -19.105727], [146.561697, -19.139255], [146.586599, -19.142755], [146.654796, -19.18255], [146.693044, -19.192966], [146.746349, -19.172784], [146.804454, -19.2374], [146.905121, -19.30462], [146.957205, -19.296808], [147.010427, -19.252618], [147.023123, -19.21795], [147.017833, -19.177423], [147.024099, -19.177423], [147.065115, -19.246352], [147.052013, -19.29046], [147.058604, -19.316095], [147.133962, -19.410821], [147.146658, -19.398614], [147.167247, -19.399998], [147.254405, -19.424493], [147.285981, -19.410821], [147.421397, -19.412774], [147.44988, -19.39658], [147.45045, -19.378676], [147.42921, -19.342543], [147.406261, -19.327813], [147.402354, -19.303888], [147.422618, -19.31463], [147.444835, -19.341567], [147.491466, -19.451837], [147.559093, -19.53753], [147.568533, -19.588474], [147.593272, -19.636163], [147.589203, -19.66253], [147.599132, -19.6867], [147.599132, -19.702895], [147.565278, -19.705173], [147.592052, -19.722101], [147.684255, -19.828058], [147.785004, -19.835382], [147.754242, -19.767185], [147.750824, -19.691502], [147.823904, -19.714288], [147.845958, -19.734796], [147.859223, -19.824884], [147.874278, -19.854425], [147.929047, -19.897556], [147.969086, -19.911554], [148.014903, -19.911228], [148.028575, -19.883884], [148.049164, -19.890069], [148.072439, -19.877048], [148.130382, -19.936212], [148.278575, -19.965753], [148.271983, -19.985935], [148.306407, -20.033949], [148.264903, -20.047621], [148.278819, -20.065362], [148.264903, -20.083103], [148.301524, -20.099379], [148.330333, -20.137628], [148.40211, -20.173923], [148.408702, -20.182224], [148.402029, -20.1985], [148.435802, -20.199965], [148.464041, -20.185479], [148.465587, -20.174086], [148.422537, -20.164972], [148.433442, -20.153253], [148.470225, -20.143813], [148.47641, -20.132013], [148.473399, -20.121026], [148.443858, -20.104181], [148.437511, -20.090753], [148.444184, -20.061944], [148.459158, -20.056817], [148.495128, -20.083103], [148.521658, -20.083185], [148.560069, -20.052667], [148.566661, -20.059991], [148.575206, -20.147231], [148.589854, -20.17254], [148.614268, -20.178643], [148.604503, -20.205011], [148.61085, -20.213637], [148.638682, -20.203058], [148.648448, -20.164972], [148.660981, -20.180759], [148.655284, -20.1985], [148.683116, -20.185479], [148.679373, -20.208673], [148.662771, -20.226495], [148.689301, -20.239435], [148.683116, -20.274184], [148.740733, -20.251153], [148.758311, -20.253106], [148.756684, -20.229669], [148.781993, -20.240818], [148.803884, -20.266697], [148.792328, -20.287286], [148.816742, -20.321466], [148.84018, -20.328871], [148.849376, -20.348728], [148.84018, -20.390883], [148.850841, -20.421075], [148.92335, -20.472833], [148.898123, -20.477309], [148.937022, -20.534926], [148.919688, -20.529555], [148.902192, -20.534926], [148.885997, -20.519952], [148.868175, -20.52809], [148.851329, -20.503188], [148.827159, -20.493341], [148.832774, -20.456313], [148.808279, -20.433364], [148.792979, -20.433852], [148.781586, -20.464532], [148.758311, -20.472833], [148.743175, -20.469496], [148.724132, -20.445571], [148.70102, -20.439223], [148.724132, -20.500746], [148.698578, -20.543227], [148.676931, -20.556899], [148.655284, -20.555434], [148.660167, -20.572198], [148.696137, -20.630548], [148.720714, -20.633966], [148.728282, -20.646417], [148.709809, -20.678888], [148.725759, -20.685479], [148.739757, -20.718927], [148.767263, -20.731541], [148.790294, -20.768976], [148.819672, -20.760186], [148.843516, -20.77752], [148.853852, -20.832208], [148.827159, -20.890558], [148.845388, -20.887465], [148.875011, -20.842869], [148.910818, -20.873305], [148.971446, -20.870538], [149.013194, -20.908461], [149.025727, -20.898045], [149.056326, -20.898533], [149.069509, -20.90602], [149.073578, -20.924737], [149.026378, -20.919203], [149.039806, -20.951349], [149.026622, -20.976251], [149.046235, -20.979913], [149.094981, -20.969822], [149.110199, -20.992771], [149.150645, -20.996189], [149.175059, -21.037042], [149.199962, -21.048272], [149.231212, -21.089776], [149.231212, -21.126072], [149.196137, -21.180922], [149.196544, -21.220147], [149.234386, -21.281671], [149.254731, -21.254327], [149.264659, -21.255548], [149.271821, -21.279962], [149.292735, -21.281671], [149.300548, -21.305352], [149.292979, -21.319268], [149.320567, -21.377211], [149.286469, -21.397719], [149.296397, -21.409275], [149.341075, -21.424412], [149.292491, -21.461114], [149.286469, -21.483331], [149.292166, -21.510675], [149.306407, -21.50921], [149.347341, -21.479669], [149.355642, -21.494724], [149.395193, -21.503839], [149.397472, -21.549005], [149.412852, -21.555352], [149.417735, -21.575372], [149.429373, -21.583754], [149.450938, -21.57586], [149.478282, -21.528009], [149.487153, -21.535903], [149.49879, -21.569594], [149.447276, -21.620294], [149.441905, -21.637384], [149.478282, -21.726739], [149.47169, -21.73797], [149.440115, -21.75156], [149.432465, -21.76922], [149.435395, -21.789727], [149.475597, -21.851251], [149.474376, -21.929376], [149.521495, -22.012628], [149.535818, -22.095798], [149.574474, -22.158624], [149.553396, -22.186619], [149.574474, -22.192804], [149.584158, -22.21738], [149.608572, -22.244317], [149.587576, -22.282159], [149.644786, -22.306085], [149.67921, -22.352146], [149.697439, -22.344334], [149.705089, -22.383884], [149.699229, -22.446954], [149.663259, -22.493829], [149.694021, -22.488702], [149.765391, -22.445245], [149.786143, -22.425551], [149.812755, -22.378106], [149.858165, -22.421075], [149.88087, -22.46738], [149.964041, -22.533624], [150.000662, -22.608657], [150.046723, -22.645278], [150.022472, -22.553399], [149.955577, -22.401137], [149.928477, -22.356052], [149.929942, -22.338067], [149.950694, -22.344334], [149.923513, -22.298272], [149.978201, -22.173761], [149.990489, -22.162856], [150.053559, -22.141534], [150.081554, -22.162367], [150.11964, -22.244887], [150.153819, -22.26629], [150.159923, -22.304132], [150.19337, -22.3388], [150.177257, -22.350518], [150.194021, -22.378676], [150.215587, -22.394789], [150.299815, -22.418227], [150.403087, -22.473891], [150.444102, -22.514337], [150.51295, -22.535414], [150.609141, -22.610528], [150.615408, -22.603692], [150.583263, -22.559015], [150.57488, -22.530369], [150.581228, -22.508071], [150.545258, -22.481378], [150.534516, -22.427016], [150.543712, -22.366957], [150.567638, -22.323175], [150.601736, -22.344334], [150.618419, -22.334405], [150.636241, -22.342543], [150.643728, -22.356622], [150.62908, -22.364679], [150.63502, -22.38128], [150.622813, -22.392022], [150.663829, -22.419366], [150.670665, -22.41253], [150.660655, -22.38421], [150.677501, -22.358005], [150.685802, -22.403741], [150.704763, -22.439874], [150.749522, -22.453546], [150.759776, -22.470473], [150.758311, -22.482354], [150.723399, -22.519952], [150.705821, -22.528741], [150.697927, -22.504653], [150.690115, -22.4992], [150.67628, -22.506524], [150.671641, -22.520603], [150.691091, -22.535414], [150.677501, -22.562677], [150.703868, -22.556329], [150.716075, -22.562677], [150.722667, -22.623793], [150.731944, -22.628106], [150.753184, -22.610528], [150.763682, -22.534763], [150.773448, -22.530206], [150.787364, -22.569594], [150.779796, -22.62656], [150.784516, -22.653009], [150.80714, -22.652114], [150.826427, -22.697931], [150.787364, -22.926446], [150.736501, -22.932875], [150.773692, -22.966892], [150.765961, -22.995538], [150.779796, -23.039158], [150.760997, -23.120782], [150.764415, -23.158868], [150.800955, -23.17962], [150.793956, -23.197849], [150.801768, -23.227146], [150.813975, -23.241143], [150.821462, -23.227472], [150.839041, -23.248956], [150.83253, -23.275974], [150.811778, -23.299249], [150.787364, -23.30934], [150.81422, -23.41131], [150.882335, -23.488865], [150.872244, -23.500177], [150.813975, -23.502537], [150.813975, -23.50921], [150.856619, -23.519952], [150.870372, -23.532973], [150.885753, -23.571547], [150.908214, -23.565362], [150.93686, -23.542739], [150.957286, -23.544692], [150.986013, -23.56406], [151.011277, -23.566502], [151.027442, -23.579997], [151.041533, -23.612799], [151.069835, -23.623956], [151.125987, -23.675388], [151.150401, -23.727716], [151.156586, -23.761895], [151.187185, -23.804132], [151.252778, -23.823907], [151.277843, -23.823907], [151.294444, -23.858087], [151.32488, -23.861505], [151.345551, -23.895929], [151.424164, -23.974786], [151.440929, -24.005548], [151.448253, -24.009047], [151.465099, -23.988458], [151.480968, -23.988946], [151.537283, -24.021742], [151.547618, -24.03631], [151.534028, -24.053643], [151.53533, -24.072849], [151.550548, -24.091404], [151.568126, -24.098321], [151.581798, -24.043715], [151.59547, -24.056736], [151.622244, -24.050877], [151.691661, -24.098321], [151.676117, -24.046645], [151.615896, -23.995864], [151.62379, -23.984063], [151.641368, -23.978285], [151.677989, -23.981622], [151.713064, -24.01214], [151.732595, -24.016371], [151.709972, -24.042739], [151.721039, -24.058689], [151.739594, -24.063409], [151.739431, -24.05047], [151.780447, -24.022556], [151.786143, -24.088637], [151.811371, -24.142348], [151.836192, -24.163507], [151.869884, -24.173435], [151.897716, -24.14544], [151.903982, -24.187107], [151.937348, -24.217869], [152.003673, -24.410414], [152.058604, -24.51393], [152.084646, -24.531671], [152.123057, -24.591729], [152.150401, -24.619073], [152.306163, -24.724216], [152.404796, -24.748712], [152.439464, -24.771173], [152.469737, -24.805597], [152.491466, -24.847589], [152.506033, -24.999444], [152.582286, -25.108819], [152.632335, -25.142755], [152.636974, -25.160333], [152.625499, -25.173028], [152.578624, -25.167169], [152.567719, -25.178643], [152.618826, -25.191013], [152.697032, -25.251886], [152.772309, -25.264581], [152.815115, -25.283868], [152.817719, -25.247491], [152.828787, -25.242283], [152.84254, -25.270929], [152.913829, -25.287693], [152.931814, -25.416681], [152.887055, -25.444594], [152.870372, -25.475681], [152.944184, -25.43727], [152.962413, -25.437433], [152.969086, -25.452813], [152.93865, -25.475681], [152.966156, -25.497247], [152.90504, -25.560724], [152.897716, -25.584893], [152.90797, -25.66961], [152.884044, -25.674249], [152.893809, -25.688165], [152.93865, -25.715916], [152.918142, -25.722101], [152.927013, -25.740167], [152.942882, -25.753188], [152.983409, -25.763604], [153.021251, -25.825128], [153.034841, -25.903578], [153.021251, -25.927423], [153.021251, -25.969008], [153.028005, -25.969008], [153.061534, -25.903578], [153.06422, -25.852797], [153.075206, -25.838067], [153.061534, -25.81756], [153.083995, -25.836033], [153.089366, -25.865411], [153.121593, -25.93377], [153.180675, -25.944757], [153.205577, -25.934991], [153.141775, -26.061456], [153.077485, -26.280857], [153.074067, -26.316583], [153.089366, -26.366306], [153.129161, -26.378106], [153.137218, -26.392999], [153.113455, -26.457452], [153.110037, -26.646905], [153.119884, -26.6749], [153.15089, -26.684747], [153.144054, -26.750584], [153.161143, -26.798272], [153.146495, -26.823907], [153.146169, -26.891778], [153.152517, -26.924981], [153.206228, -27.046075], [153.210216, -27.077244], [153.191742, -27.099298], [153.154552, -27.084242], [153.116547, -27.089939], [153.082205, -27.110447], [153.047862, -27.152276], [153.038259, -27.193455], [153.079926, -27.203383], [153.112804, -27.191013], [153.117442, -27.196954], [153.113617, -27.242364], [153.072032, -27.274672], [153.061371, -27.294529], [153.064952, -27.310479], [153.089366, -27.332127], [153.167979, -27.363702], [153.191742, -27.449395], [153.207774, -27.46502], [153.250499, -27.472752], [153.268321, -27.49627], [153.285492, -27.546563], [153.307628, -27.578058], [153.31544, -27.65488], [153.34547, -27.6867], [153.36199, -27.73211], [153.409841, -27.781915], [153.401866, -27.809177], [153.411469, -27.815606], [153.427094, -27.810724], [153.445811, -27.791436], [153.430186, -27.878513], [153.43214, -27.935317], [153.418305, -27.908787], [153.409028, -27.917901], [153.399913, -27.954197], [153.413341, -27.97617], [153.438975, -27.948989], [153.449474, -28.073175], [153.531993, -28.177911], [153.562511, -28.174981], [153.570567, -28.19378], [153.591075, -28.268487], [153.590831, -28.318536], [153.563487, -28.46087], [153.562511, -28.504571], [153.57602, -28.589614], [153.630626, -28.661554], [153.616954, -28.695733], [153.61964, -28.729587], [153.601329, -28.761407], [153.610118, -28.826104], [153.605968, -28.867446], [153.582286, -28.896091], [153.521332, -28.943455], [153.475597, -29.000177], [153.436209, -29.085138], [153.445811, -29.151625], [153.418305, -29.164972], [153.350597, -29.28102], [153.340343, -29.322686], [153.349457, -29.361098], [153.369965, -29.396661], [153.356456, -29.424005], [153.36378, -29.470392], [153.324474, -29.57586], [153.329112, -29.618097], [153.31544, -29.642267], [153.321625, -29.697524], [153.296397, -29.73504], [153.288422, -29.771254], [153.294932, -29.826593], [153.273774, -29.857354], [153.260102, -29.943292], [153.21989562383877, -30.0], [140.0, -30.0], [140.0, -17.706188265943013], [140.117442, -17.71559]]], [[[153.548839, -27.415216], [153.508556, -27.504083], [153.455903, -27.720798], [153.403331, -27.726251], [153.391368, -27.701837], [153.39796, -27.657892], [153.411469, -27.63714], [153.39796, -27.606378], [153.411469, -27.548028], [153.39796, -27.493097], [153.43214, -27.435724], [153.434093, -27.392999], [153.458507, -27.390883], [153.487315, -27.415216], [153.548839, -27.415216]]], [[[153.397472, -27.269138], [153.376475, -27.247817], [153.369477, -27.225518], [153.36378, -27.163344], [153.369965, -27.102716], [153.360525, -27.066013], [153.363129, -27.055271], [153.383637, -27.044122], [153.418305, -27.037856], [153.451345, -27.017022], [153.462738, -27.020603], [153.469005, -27.037042], [153.466075, -27.060154], [153.418224, -27.222833], [153.418305, -27.271254], [153.43214, -27.322442], [153.42921, -27.354425], [153.423025, -27.358168], [153.411469, -27.339532], [153.397472, -27.269138]]], [[[153.006358, -25.327732], [152.993907, -25.338474], [152.953624, -25.278497], [152.962413, -25.269627], [153.006358, -25.327732]]], [[[153.373546, -25.011814], [153.34547, -25.081638], [153.267426, -25.255548], [153.160655, -25.463149], [153.083507, -25.665785], [153.085704, -25.691339], [153.101736, -25.721856], [153.099864, -25.757745], [153.083263, -25.786879], [153.055349, -25.797133], [152.99936, -25.728611], [153.002208, -25.693048], [152.984223, -25.645766], [152.986501, -25.619561], [152.958263, -25.611749], [152.9463, -25.58294], [152.948253, -25.552179], [152.98585, -25.525079], [153.000743, -25.434015], [153.034841, -25.399835], [153.068533, -25.329034], [153.056163, -25.273207], [153.068858, -25.248468], [153.054454, -25.233494], [153.015961, -25.223321], [153.014415, -25.211521], [153.038341, -25.183526], [153.178722, -25.087498], [153.226085, -25.02752], [153.242524, -24.993259], [153.249197, -24.954848], [153.239594, -24.913263], [153.194102, -24.840753], [153.163259, -24.812433], [153.137218, -24.817071], [153.195567, -24.748712], [153.281261, -24.693536], [153.284923, -24.876642], [153.302257, -24.929457], [153.369965, -24.989028], [153.373546, -25.011814]]], [[[151.388357, -23.864435], [151.383067, -23.879571], [151.362641, -23.871759], [151.352061, -23.832452], [151.328624, -23.802911], [151.321056, -23.768731], [151.333263, -23.750177], [151.339529, -23.751397], [151.351817, -23.796482], [151.372325, -23.820245], [151.388357, -23.864435]]], [[[151.287771, -23.679132], [151.297618, -23.748224], [151.266449, -23.776137], [151.213878, -23.77809], [151.168956, -23.729913], [151.147309, -23.675226], [151.067882, -23.598077], [150.979607, -23.487386], [151.022381, -23.469327], [151.018151, -23.453246], [151.027517, -23.444513], [151.04363, -23.453546], [151.0713, -23.447198], [151.081554, -23.474542], [151.141856, -23.487888], [151.150401, -23.498712], [151.180186, -23.507257], [151.191417, -23.513849], [151.177013, -23.529067], [151.195079, -23.533868], [151.239106, -23.488865], [151.227061, -23.561456], [151.22934, -23.607517], [151.251231, -23.656996], [151.287771, -23.679132]]], [[[149.736176, -22.339044], [149.766287, -22.364679], [149.75587, -22.368748], [149.751964, -22.398858], [149.724783, -22.439874], [149.710297, -22.425551], [149.71811, -22.404474], [149.710297, -22.385186], [149.727794, -22.340509], [149.736176, -22.339044]]], [[[150.558604, -22.288995], [150.555837, -22.306329], [150.51295, -22.344334], [150.495372, -22.350844], [150.48227, -22.344985], [150.47934, -22.331964], [150.491873, -22.316339], [150.471365, -22.302667], [150.457774, -22.310154], [150.493663, -22.25506], [150.478363, -22.216241], [150.504568, -22.216729], [150.536632, -22.275323], [150.558604, -22.288995]]], [[[149.909679, -22.086602], [149.927013, -22.121026], [149.928233, -22.160089], [149.908702, -22.216404], [149.88852, -22.226821], [149.877615, -22.219985], [149.882335, -22.192804], [149.869884, -22.175551], [149.869395, -22.142267], [149.882823, -22.096938], [149.896007, -22.08294], [149.889659, -22.073175], [149.893565, -22.06113], [149.916515, -22.041925], [149.909679, -22.086602]]], [[[150.317719, -21.734063], [150.341075, -21.740899], [150.368907, -21.726739], [150.342784, -21.771742], [150.293224, -21.747735], [150.293224, -21.740899], [150.317719, -21.734063]]], [[[150.293224, -21.672052], [150.290538, -21.681085], [150.280447, -21.683282], [150.257498, -21.66839], [150.246104, -21.678888], [150.241954, -21.663507], [150.251638, -21.651544], [150.246104, -21.62363], [150.305349, -21.659763], [150.300059, -21.678888], [150.293224, -21.672052]]], [[[149.098399, -20.45322], [149.115082, -20.479669], [149.092621, -20.486098], [149.072113, -20.516209], [149.053071, -20.52809], [149.039399, -20.500746], [149.070567, -20.489923], [149.081798, -20.472263], [149.094086, -20.418227], [149.098399, -20.45322]]], [[[149.039399, -20.287286], [149.018891, -20.328871], [149.003754, -20.311619], [148.980642, -20.323826], [148.971202, -20.321466], [148.971202, -20.28102], [148.947032, -20.294122], [148.927013, -20.287286], [148.964041, -20.250584], [148.968923, -20.237726], [148.950043, -20.23268], [148.969493, -20.164483], [148.984874, -20.151462], [149.005219, -20.202244], [149.00408, -20.229262], [149.029552, -20.239435], [149.046235, -20.274184], [149.067149, -20.289239], [149.073416, -20.299981], [149.067393, -20.315199], [149.039399, -20.287286]]], [[[148.92335, -20.178643], [148.925141, -20.151462], [148.915863, -20.157485], [148.909028, -20.151462], [148.902192, -20.164972], [148.881847, -20.137628], [148.915863, -20.089288], [148.909028, -20.06878], [148.920177, -20.060805], [148.937022, -20.06878], [148.948009, -20.063735], [148.963715, -20.041599], [148.980235, -20.056899], [148.943858, -20.113458], [148.95753, -20.143813], [148.92335, -20.178643]]], [[[148.474294, -19.983087], [148.480968, -20.004571], [148.470225, -20.047621], [148.45045, -20.041599], [148.444184, -19.986261], [148.45045, -19.965753], [148.474294, -19.983087]]], [[[146.868663, -19.102309], [146.874522, -19.119399], [146.867035, -19.163832], [146.856456, -19.1513], [146.820079, -19.175063], [146.798676, -19.163832], [146.780284, -19.132013], [146.79835, -19.117446], [146.822439, -19.116469], [146.832856, -19.102309], [146.860199, -19.115981], [146.868663, -19.102309]]], [[[146.353038, -18.410333], [146.353282, -18.421645], [146.333263, -18.43141], [146.310802, -18.478692], [146.291677, -18.492852], [146.223399, -18.465509], [146.199229, -18.375258], [146.172374, -18.334731], [146.098888, -18.27809], [146.093028, -18.26629], [146.097341, -18.245212], [146.121837, -18.245538], [146.217459, -18.277927], [146.223399, -18.260837], [146.218923, -18.229181], [146.229503, -18.198012], [146.235362, -18.22324], [146.248546, -18.232599], [146.302094, -18.237237], [146.278087, -18.287367], [146.278331, -18.307387], [146.308767, -18.351983], [146.339366, -18.361912], [146.337901, -18.380304], [146.319021, -18.382989], [146.353038, -18.410333]]], [[[142.278819, -10.690525], [142.283051, -10.714532], [142.206065, -10.733087], [142.187022, -10.769627], [142.145518, -10.7492], [142.112315, -10.68434], [142.123546, -10.64365], [142.145763, -10.639093], [142.180186, -10.615411], [142.193207, -10.591485], [142.21225, -10.597589], [142.255382, -10.666681], [142.278819, -10.690525]]], [[[142.294281, -10.573175], [142.318858, -10.588637], [142.325206, -10.6124], [142.303071, -10.632501], [142.274425, -10.640802], [142.253673, -10.625421], [142.247325, -10.599786], [142.262218, -10.577813], [142.294281, -10.573175]]], [[[142.314464, -10.148614], [142.332042, -10.169692], [142.340505, -10.190851], [142.334239, -10.200453], [142.316661, -10.213474], [142.289806, -10.260186], [142.248546, -10.24033], [142.221202, -10.24212], [142.201182, -10.220392], [142.193207, -10.193617], [142.211111, -10.183038], [142.214366, -10.153253], [142.2317, -10.14186], [142.293468, -10.13893], [142.314464, -10.148614]]], [[[142.197765, -10.102146], [142.190115, -10.143731], [142.167003, -10.182061], [142.142914, -10.185642], [142.138682, -10.17254], [142.099132, -10.135675], [142.097016, -10.118585], [142.1421, -10.050388], [142.169607, -10.060154], [142.190115, -10.080987], [142.197765, -10.102146]]], [[[146.683442, -18.743585], [146.684255, -18.752048], [146.674001, -18.764337], [146.65447, -18.770196], [146.57016, -18.760837], [146.582774, -18.717706], [146.581309, -18.682224], [146.651134, -18.745782], [146.683442, -18.743585]]]]}}, {"type": "Feature", "properties": {"name": "Solomon Is."}, "geometry": {"type": "MultiPolygon", "coordinates": [[[[159.965505, -11.525811], [159.969249, -11.503188], [160.0, -11.46515355916159], [160.0, -11.57019618311649], [159.965505, -11.525811]]], [[[159.839366, -11.297621], [159.851085, -11.307712], [159.853201, -11.324477], [159.793305, -11.302423], [159.777354, -11.283624], [159.839366, -11.297621]]]]}}, {"type": "Feature", "properties": {"name": "Coral Sea Is."}, "geometry": {"type": "Polygon", "coordinates": [[[154.38852, -21.029067], [154.391287, -21.028741], [154.391287, -21.030043], [154.38852, -21.029067]]]}}]}