{"type": "FeatureCollection", "features": [{"type": "Feature", "properties": {"name": "Antarctica"}, "geometry": {"type": "MultiPolygon", "coordinates": [[[[160.636485, -70.048761], [160.649425, -70.074314], [160.661388, -70.081638], [160.595958, -70.104669], [160.723318, -70.095798], [160.759776, -70.101983], [160.827159, -70.139744], [160.903331, -70.209568], [160.98585, -70.241306], [161.019705, -70.279474], [161.090505, -70.319024], [161.107595, -70.341404], [161.089366, -70.380304], [161.186778, -70.412042], [161.249034, -70.462172], [161.258311, -70.477634], [161.248057, -70.495701], [161.185395, -70.531996], [161.175059, -70.556329], [161.17921, -70.575291], [161.193858, -70.581476], [161.246837, -70.532892], [161.263845, -70.528253], [161.281749, -70.541762], [161.290701, -70.566664], [161.273936, -70.602227], [161.281505, -70.625665], [161.31422, -70.650079], [161.451671, -70.685968], [161.38087, -70.751642], [161.309825, -70.796075], [161.331716, -70.841974], [161.328624, -70.856703], [161.306814, -70.860447], [161.361176, -70.900974], [161.41627, -70.904474], [161.544932, -70.881117], [161.594005, -70.882013], [161.646332, -70.863458], [161.682465, -70.908949], [161.72755, -70.925551], [161.932953, -70.907322], [161.990082, -70.92254], [162.094086, -70.976821], [162.056977, -71.011489], [162.091075, -71.040785], [162.144542, -71.064142], [162.202159, -71.078302], [162.296886, -71.084568], [162.340831, -71.10947], [162.361583, -71.111423], [162.416677, -71.088067], [162.432465, -71.071059], [162.412608, -71.057061], [162.402354, -71.034356], [162.428477, -71.031671], [162.316661, -70.933689], [162.244802, -70.919529], [162.218598, -70.854669], [162.14503, -70.836114], [162.091075, -70.849379], [162.060395, -70.846612], [162.038097, -70.829522], [162.022309, -70.788344], [162.039399, -70.769708], [162.042817, -70.728936], [162.083018, -70.676935], [162.085623, -70.662286], [162.03533, -70.63836], [162.032481, -70.604669], [162.012218, -70.579197], [162.030284, -70.55283], [162.03004, -70.535252], [161.996104, -70.464288], [161.997895, -70.438409], [162.020274, -70.385186], [162.071951, -70.358331], [162.094412, -70.314142], [162.2046, -70.328058], [162.318858, -70.283949], [162.372813, -70.275811], [162.595225, -70.269138], [162.685069, -70.285252], [162.70753, -70.299737], [162.78004, -70.378351], [162.821462, -70.403985], [162.895518, -70.408868], [162.915538, -70.426528], [162.886485, -70.434259], [162.8567, -70.429946], [162.878184, -70.471856], [162.920177, -70.502537], [163.017914, -70.529962], [163.100271, -70.532973], [163.124522, -70.542739], [163.170258, -70.587579], [163.361583, -70.624282], [163.42213, -70.653578], [163.450043, -70.657485], [163.527192, -70.652602], [163.633311, -70.665134], [163.679698, -70.656915], [163.73113, -70.63242], [163.866547, -70.62656], [163.873709, -70.641778], [163.861827, -70.690037], [163.865245, -70.752699], [163.870616, -70.769464], [163.89503, -70.781996], [163.974376, -70.782892], [164.012055, -70.791111], [164.029796, -70.765558], [164.058116, -70.745701], [164.059744, -70.723891], [164.069102, -70.713067], [164.126313, -70.661554], [164.19988, -70.639337], [164.043142, -70.551853], [164.027599, -70.532322], [164.095714, -70.506768], [164.167328, -70.493829], [164.240408, -70.491143], [164.493907, -70.52044], [164.596202, -70.546075], [164.70045, -70.546563], [164.75766, -70.537856], [164.876475, -70.573826], [165.11199, -70.563572], [165.141124, -70.587009], [165.312266, -70.560317], [165.363943, -70.565118], [165.385265, -70.577081], [165.427013, -70.565037], [165.468516, -70.572686], [165.435395, -70.593032], [165.459972, -70.601739], [165.556163, -70.598728], [165.54005, -70.614841], [165.925792, -70.684259], [165.925059, -70.663751], [165.937511, -70.65309], [166.019379, -70.648858], [166.096934, -70.617283], [166.369477, -70.583917], [166.409841, -70.588962], [166.441417, -70.611261], [166.724457, -70.618259], [166.809418, -70.651056], [166.837413, -70.67669], [166.825043, -70.69256], [166.801768, -70.700942], [166.753184, -70.706231], [166.729747, -70.693617], [166.6963, -70.69964], [166.663259, -70.687595], [166.597504, -70.700779], [166.45753, -70.709161], [166.426443, -70.733087], [166.470714, -70.76629], [166.558604, -70.764825], [166.627615, -70.785333], [166.774587, -70.764825], [166.798676, -70.766534], [166.857188, -70.788832], [166.927908, -70.77044], [167.002615, -70.774184], [167.071625, -70.764418], [167.416189, -70.759047], [167.550466, -70.784438], [167.700857, -70.791274], [167.738943, -70.810317], [167.746349, -70.844415], [167.793468, -70.84531], [167.833018, -70.861423], [167.870128, -70.923923], [167.828787, -70.942641], [167.477712, -70.949395], [167.418793, -70.96266], [167.212901, -70.97975], [167.139985, -70.996352], [167.183279, -71.030938], [167.255544, -71.038344], [167.513031, -71.004164], [167.87794, -71.014337], [167.903656, -71.024591], [167.948985, -71.064223], [167.976817, -71.077407], [168.101329, -71.108494], [168.065196, -71.137628], [168.044281, -71.143731], [167.974946, -71.135512], [167.927908, -71.147556], [167.868337, -71.132257], [167.836436, -71.161716], [167.743337, -71.194513], [167.736176, -71.209649], [167.741059, -71.222833], [167.759939, -71.22796], [168.112315, -71.195489], [168.189301, -71.199802], [168.262869, -71.18434], [168.358572, -71.197198], [168.500255, -71.161065], [168.56186, -71.170668], [168.59547, -71.185235], [168.66977, -71.182794], [168.692149, -71.190525], [168.754242, -71.236912], [168.776215, -71.239923], [168.761485, -71.275567], [169.016612, -71.324884], [169.084321, -71.354669], [169.134532, -71.335382], [169.164806, -71.364679], [169.269216, -71.379978], [169.345063, -71.433526], [169.41863, -71.44256], [169.463715, -71.463556], [169.495291, -71.463474], [169.46461, -71.491143], [169.515961, -71.515069], [169.587901, -71.520115], [169.760265, -71.507908], [169.889496, -71.575128], [169.977387, -71.562921], [169.974946, -71.58115], [169.986176, -71.59531], [170.075857, -71.65602], [170.120128, -71.657647], [170.182791, -71.674412], [170.22877, -71.668878], [170.271739, -71.650811], [170.253591, -71.641697], [170.249034, -71.62656], [170.257009, -71.61297], [170.276541, -71.608982], [170.263194, -71.593357], [170.361827, -71.544041], [170.313813, -71.441664], [170.230642, -71.367364], [170.208669, -71.314223], [170.216075, -71.302911], [170.238617, -71.29461], [170.2824, -71.298761], [170.321788, -71.347426], [170.360118, -71.359633], [170.40268, -71.408868], [170.49171, -71.481622], [170.536388, -71.538507], [170.691173, -71.656996], [170.664236, -71.680597], [170.813731, -71.699802], [170.789236, -71.712091], [170.830903, -71.74684], [170.884776, -71.758966], [170.865408, -71.768243], [170.864513, -71.782485], [170.887543, -71.810317], [170.925466, -71.828871], [170.966075, -71.834649], [170.945811, -71.860772], [170.917003, -71.878351], [170.773611, -71.95086], [170.638927, -71.968194], [170.61378, -71.997979], [170.585297, -72.00742], [170.557384, -71.998305], [170.537608, -71.954197], [170.561209, -71.952732], [170.579112, -71.938084], [170.498057, -71.895929], [170.444835, -71.882501], [170.430512, -71.857843], [170.391775, -71.843357], [170.333995, -71.800877], [170.302419, -71.821059], [170.255707, -71.872166], [170.138438, -71.931899], [170.229666, -71.939386], [170.256358, -71.950779], [170.195811, -72.020196], [170.168712, -72.03753], [170.138438, -72.043715], [170.045746, -72.019952], [170.053233, -72.043064], [170.04005, -72.06227], [170.089203, -72.084405], [170.070974, -72.094985], [170.067638, -72.12363], [170.029307, -72.143813], [170.016368, -72.170831], [169.989513, -72.180841], [169.94988, -72.178318], [169.878917, -72.203302], [169.79713, -72.209568], [169.772634, -72.220147], [169.765391, -72.244806], [169.782725, -72.243341], [169.820323, -72.260186], [169.891775, -72.265313], [169.934093, -72.282485], [170.009939, -72.287774], [169.86671, -72.397068], [169.857677, -72.413263], [169.885265, -72.429946], [169.942882, -72.426202], [170.046397, -72.401951], [170.118175, -72.353285], [170.244477, -72.320489], [170.266287, -72.318617], [170.2824, -72.326349], [170.292166, -72.365004], [170.312999, -72.369399], [170.340505, -72.431248], [170.302257, -72.473565], [170.281993, -72.563897], [170.255382, -72.60296], [170.203949, -72.615411], [170.09962, -72.611993], [169.972341, -72.573175], [169.879649, -72.554295], [169.700206, -72.548272], [169.614513, -72.503595], [169.589122, -72.500177], [169.567149, -72.514255], [169.548595, -72.515069], [169.432465, -72.472833], [169.3921, -72.466892], [169.310557, -72.489028], [169.126475, -72.48504], [168.706716, -72.359063], [168.677908, -72.363051], [168.641612, -72.38242], [168.594249, -72.386814], [168.407888, -72.368829], [168.316173, -72.37363], [168.867361, -72.575942], [168.918793, -72.583266], [169.301768, -72.577325], [169.386404, -72.617852], [169.402354, -72.640069], [169.40211, -72.65488], [169.470225, -72.682306], [169.497244, -72.687188], [169.625662, -72.664646], [169.678884, -72.665623], [169.884044, -72.711684], [169.932465, -72.735935], [169.848806, -72.800226], [169.720876, -72.867446], [169.682302, -72.921157], [169.584483, -72.962172], [169.608165, -72.993341], [169.577322, -73.011163], [169.631196, -73.043715], [169.582286, -73.080499], [169.555024, -73.091241], [169.401215, -73.110284], [169.378673, -73.105727], [169.333751, -73.07643], [169.266449, -73.079197], [169.172211, -73.103123], [169.2199, -73.132501], [169.249522, -73.190688], [169.25115, -73.248468], [169.21461, -73.276462], [169.07309, -73.266534], [169.007823, -73.271091], [168.979747, -73.26393], [168.982758, -73.238865], [168.934581, -73.240981], [168.893891, -73.223403], [168.911306, -73.209405], [168.887706, -73.193943], [168.87908, -73.178399], [168.886892, -73.163181], [168.945079, -73.135512], [168.954845, -73.115411], [169.005707, -73.110447], [168.975108, -73.091485], [168.941173, -73.087986], [168.851085, -73.102716], [168.794607, -73.123305], [168.714529, -73.12005], [168.73585, -73.104181], [168.761729, -73.097426], [168.752615, -73.076918], [168.638927, -73.067804], [168.540538, -73.008559], [168.394054, -72.971938], [168.334972, -72.97031], [168.297618, -72.99033], [168.402517, -73.10296], [168.39796, -73.129002], [168.381114, -73.147882], [168.334158, -73.16546], [168.30421, -73.163995], [168.226899, -73.137791], [168.162934, -73.153009], [168.041515, -73.117446], [167.955333, -73.135512], [167.865896, -73.129327], [167.780772, -73.152927], [167.693696, -73.144789], [167.644786, -73.114679], [167.50408, -73.148614], [167.171397, -73.153009], [167.058442, -73.129083], [166.991222, -73.052504], [166.9463, -73.023858], [166.83546, -72.997328], [166.616466, -72.972914], [166.563975, -72.956476], [166.520518, -72.929783], [166.582856, -72.882013], [166.540212, -72.882013], [166.454845, -72.899998], [166.340831, -72.903904], [166.330821, -72.91367], [166.338878, -72.92962], [166.414073, -72.986749], [166.458507, -72.99505], [166.549164, -73.028497], [166.766775, -73.064874], [166.746349, -73.105401], [166.729747, -73.117771], [166.705577, -73.120864], [166.738455, -73.161879], [166.776378, -73.189142], [166.872081, -73.221368], [166.739513, -73.329197], [166.777599, -73.36533], [166.82252, -73.354262], [166.913097, -73.2999], [166.975108, -73.274998], [167.095225, -73.25213], [167.311534, -73.273614], [167.295909, -73.303643], [167.331391, -73.313653], [167.445974, -73.303888], [167.929373, -73.358657], [167.756847, -73.368422], [167.622895, -73.359145], [167.641124, -73.382094], [167.753184, -73.432061], [167.716482, -73.446873], [167.678966, -73.447198], [167.52003, -73.419692], [167.464692, -73.398045], [167.42628, -73.405369], [167.363129, -73.394301], [167.249685, -73.40545], [167.221934, -73.418145], [167.225841, -73.43434], [167.275401, -73.452732], [167.223643, -73.476983], [167.305349, -73.476821], [167.434744, -73.503188], [167.381847, -73.523045], [167.326996, -73.532485], [167.272797, -73.528009], [167.194591, -73.491957], [167.021739, -73.462335], [166.989268, -73.465102], [167.076915, -73.512628], [167.03297, -73.566095], [167.006684, -73.571547], [166.885427, -73.561293], [166.849132, -73.590509], [166.81544, -73.577732], [166.83961, -73.558364], [166.827322, -73.548272], [166.781749, -73.539483], [166.832774, -73.522068], [166.792166, -73.497328], [166.747325, -73.486423], [166.701915, -73.492364], [166.660167, -73.51865], [166.614268, -73.580824], [166.590343, -73.590427], [166.472179, -73.581231], [166.451427, -73.592706], [166.194835, -73.489841], [166.139822, -73.482029], [166.093435, -73.493422], [166.11964, -73.516209], [166.218516, -73.566176], [166.139415, -73.573826], [165.873709, -73.565851], [165.817068, -73.57822], [165.82545, -73.598321], [165.844737, -73.607192], [165.996349, -73.622735], [166.200857, -73.671808], [166.17921, -73.691583], [166.150645, -73.70086], [166.266449, -73.708917], [166.2942, -73.725763], [166.271332, -73.732843], [166.235362, -73.75921], [166.170177, -73.76214], [166.160492, -73.799005], [166.144379, -73.813409], [166.029959, -73.809177], [165.937755, -73.833429], [165.670258, -73.79697], [165.583018, -73.805108], [165.683116, -73.853448], [165.793142, -73.872491], [165.700043, -73.892022], [165.651866, -73.91367], [165.26059, -73.893324], [165.198985, -73.859063], [165.192149, -73.830173], [165.245372, -73.777927], [165.256033, -73.744073], [165.230642, -73.722263], [165.244965, -73.697442], [165.215994, -73.661065], [165.215099, -73.645685], [165.236664, -73.606622], [165.231212, -73.593032], [165.167491, -73.549249], [165.125011, -73.462172], [165.031993, -73.410903], [165.177501, -73.351007], [165.221853, -73.342462], [165.358165, -73.34002], [165.252208, -73.321384], [165.19516, -73.322198], [165.145518, -73.332615], [165.033051, -73.373793], [164.977224, -73.386326], [164.91391, -73.387872], [164.558849, -73.324395], [164.526134, -73.330173], [164.443207, -73.368748], [164.489513, -73.397882], [164.538748, -73.417169], [164.591156, -73.425714], [164.702403, -73.419041], [164.829112, -73.437758], [164.880138, -73.461602], [164.893809, -73.483494], [164.878103, -73.526951], [164.911957, -73.571954], [164.915375, -73.600763], [164.905935, -73.657159], [164.889985, -73.682712], [164.86199, -73.697686], [164.775564, -73.714614], [164.71461, -73.781671], [164.790782, -73.81406], [164.82488, -73.816013], [164.840994, -73.823907], [164.862804, -73.864028], [164.952485, -73.890883], [164.87086, -73.931573], [164.911388, -73.954197], [165.000011, -73.974867], [165.046641, -73.972589], [165.019379, -73.94378], [165.133474, -73.978936], [165.260265, -74.001153], [165.239106, -74.010024], [165.308849, -74.030369], [165.255219, -74.046075], [165.075531, -74.054783], [165.056814, -74.017999], [164.896007, -73.999607], [164.823741, -73.964776], [164.591482, -73.92669], [164.468272, -73.929132], [164.410818, -73.943292], [164.521251, -73.960138], [164.587738, -73.979669], [164.595551, -73.986749], [164.593272, -74.019464], [164.672537, -73.999607], [164.669688, -74.033298], [164.679047, -74.044366], [164.715831, -74.041192], [164.756521, -74.016534], [164.787934, -74.021742], [164.818207, -74.040216], [164.864431, -74.088637], [164.818126, -74.101983], [164.834483, -74.112726], [164.893809, -74.120375], [164.855724, -74.139581], [164.812755, -74.145929], [164.882335, -74.170831], [164.859874, -74.209161], [164.898936, -74.227472], [165.062755, -74.256606], [165.077403, -74.273126], [165.088634, -74.313165], [165.113943, -74.320082], [165.128184, -74.340916], [165.100597, -74.342462], [165.121918, -74.354669], [165.153819, -74.389825], [165.223643, -74.415785], [165.271658, -74.458754], [165.405121, -74.477797], [165.457774, -74.494399], [165.463552, -74.529962], [165.44809, -74.606866], [165.434744, -74.629002], [165.410981, -74.640313], [165.387218, -74.633966], [165.238536, -74.546645], [165.176931, -74.5263], [165.13087, -74.530043], [165.082693, -74.554295], [164.897472, -74.566827], [164.848399, -74.585219], [164.764903, -74.569594], [164.587413, -74.574884], [164.550548, -74.565606], [164.488536, -74.567315], [164.340831, -74.50213], [164.112966, -74.548517], [163.925059, -74.557712], [163.961681, -74.585138], [163.847341, -74.617608], [163.787283, -74.624444], [163.720225, -74.6124], [163.684744, -74.615655], [163.662852, -74.596612], [163.642833, -74.515802], [163.647146, -74.49033], [163.671886, -74.474379], [163.570649, -74.448175], [163.533376, -74.456476], [163.532725, -74.432061], [163.555349, -74.38421], [163.555512, -74.360447], [163.535411, -74.340753], [163.4699, -74.341974], [163.256602, -74.413018], [163.121349, -74.409356], [163.098643, -74.418878], [163.087576, -74.438084], [163.097504, -74.445082], [163.181977, -74.447035], [163.196788, -74.455743], [163.227224, -74.502618], [163.270763, -74.541762], [163.21518, -74.586602], [163.16684, -74.607354], [163.089122, -74.658298], [163.061046, -74.699884], [163.045258, -74.707778], [163.011892, -74.70143], [162.95338, -74.615411], [162.937755, -74.60475], [162.86378, -74.610284], [162.812999, -74.603774], [162.838715, -74.651056], [162.831065, -74.664809], [162.794607, -74.680841], [162.770518, -74.712823], [162.730805, -74.731378], [162.591482, -74.750177], [162.601329, -74.778985], [162.628184, -74.791111], [162.583344, -74.850193], [162.552582, -74.864435], [162.511485, -74.870782], [162.404552, -74.837823], [162.36378, -74.841567], [162.455089, -74.88242], [162.451996, -74.921157], [162.489594, -74.943617], [162.543142, -74.953709], [162.689464, -74.959405], [162.741954, -74.970473], [162.786143, -74.990004], [162.757498, -75.01629], [162.71046, -75.028253], [162.617849, -75.030938], [162.631847, -75.042413], [162.68572, -75.050714], [162.658051, -75.080987], [162.62379, -75.093032], [162.546235, -75.10117], [162.557872, -75.12184], [162.579112, -75.137465], [162.65561, -75.167413], [162.646007, -75.188897], [162.595225, -75.223728], [162.543468, -75.240167], [162.262543, -75.271173], [162.029552, -75.259861], [161.920258, -75.236261], [161.831391, -75.194431], [161.776378, -75.188897], [161.66684, -75.199965], [161.614268, -75.214288], [161.554698, -75.26393], [161.474864, -75.285577], [160.975922, -75.287205], [160.848481, -75.310235], [160.799571, -75.340427], [160.707774, -75.365492], [160.582367, -75.378351], [160.638682, -75.397638], [160.925304, -75.427992], [160.976736, -75.422052], [161.087087, -75.384373], [162.191091, -75.387791], [162.262218, -75.441664], [162.301117, -75.50506], [162.306651, -75.529392], [162.280772, -75.542657], [162.144542, -75.536554], [162.073578, -75.542739], [162.029552, -75.574151], [162.111827, -75.594985], [162.216482, -75.591974], [162.225841, -75.598403], [162.223155, -75.613051], [162.200531, -75.637872], [162.225352, -75.642673], [162.250336, -75.666925], [162.297699, -75.67254], [162.314952, -75.694431], [162.487804, -75.71087], [162.503103, -75.744887], [162.513194, -75.748793], [162.595225, -75.747654], [162.624278, -75.761407], [162.84311, -75.793064], [162.900076, -75.822931], [162.805024, -75.87363], [162.809418, -75.897149], [162.792735, -75.907159], [162.759532, -75.914809], [162.577322, -75.909275], [162.540538, -75.921808], [162.543956, -75.932061], [162.559906, -75.940037], [162.626801, -75.945489], [162.706879, -75.981052], [162.709239, -75.993341], [162.696056, -76.019789], [162.722992, -76.04046], [162.736095, -76.073907], [162.650076, -76.091078], [162.394216, -76.059828], [162.42449, -76.074314], [162.521821, -76.09824], [162.483409, -76.108982], [162.441091, -76.105727], [162.361827, -76.078058], [162.301117, -76.100518], [162.333507, -76.113946], [162.447602, -76.128188], [162.414073, -76.148126], [162.264659, -76.147231], [162.165782, -76.154962], [162.115571, -76.17018], [162.092296, -76.202244], [162.148611, -76.205011], [162.162283, -76.21852], [162.16627, -76.250258], [162.262543, -76.256443], [162.329438, -76.2763], [162.345876, -76.275649], [162.434906, -76.234308], [162.48227, -76.220636], [162.571544, -76.214776], [162.622813, -76.234308], [162.751475, -76.235121], [162.787283, -76.259454], [162.787283, -76.284845], [162.772472, -76.301853], [162.748057, -76.308526], [162.70045, -76.307712], [162.722341, -76.31756], [162.73878, -76.358575], [162.82252, -76.396661], [162.884288, -76.43906], [162.834483, -76.493341], [162.723888, -76.542657], [162.686209, -76.550063], [162.564301, -76.534601], [162.534434, -76.54697], [162.558767, -76.560317], [162.484548, -76.572442], [162.473318, -76.597914], [162.455089, -76.602472], [162.423188, -76.639255], [162.491954, -76.656834], [162.756196, -76.649347], [162.84311, -76.664727], [162.931407, -76.707452], [162.97462, -76.789727], [162.938487, -76.798923], [162.899587, -76.841078], [162.865977, -76.85003], [162.782888, -76.832452], [162.62615, -76.824884], [162.422537, -76.899184], [162.545421, -76.904392], [162.585623, -76.918064], [162.520193, -76.936944], [162.301768, -76.951349], [162.526703, -76.960219], [162.500662, -76.976495], [162.461681, -76.985121], [162.386974, -76.988458], [162.429373, -77.011651], [162.469005, -77.015313], [162.617442, -77.001397], [162.646332, -77.003676], [162.691661, -77.026137], [162.716156, -77.027602], [162.819998, -77.015883], [162.921641, -77.021173], [163.020763, -77.014093], [163.069509, -77.018731], [163.162852, -77.043634], [163.12436, -77.083917], [163.185069, -77.10768], [163.2671, -77.159112], [163.344086, -77.164972], [163.377289, -77.17669], [163.418142, -77.225681], [163.466156, -77.239435], [163.542979, -77.313165], [163.548106, -77.329767], [163.535655, -77.362563], [163.603526, -77.387953], [163.715831, -77.39658], [163.759776, -77.428643], [163.824067, -77.430841], [163.774262, -77.447849], [163.818207, -77.476658], [163.831309, -77.495782], [163.821788, -77.518324], [163.800548, -77.528009], [163.548188, -77.549005], [163.505138, -77.569431], [163.667491, -77.595147], [163.718761, -77.614923], [163.655772, -77.646661], [163.585704, -77.66131], [163.440115, -77.668552], [163.53419, -77.715509], [163.55714, -77.719985], [163.906505, -77.696384], [163.935313, -77.713311], [164.243337, -77.781915], [164.198985, -77.808038], [164.119965, -77.812188], [163.975352, -77.802504], [163.837576, -77.815851], [163.702647, -77.849786], [163.728526, -77.879164], [163.780772, -77.878839], [163.87908, -77.85947], [164.500743, -77.853936], [164.544119, -77.874933], [164.556651, -77.889581], [164.567393, -77.914321], [164.52711, -77.919122], [164.533702, -77.987074], [164.483572, -78.018976], [164.339529, -78.029962], [164.377452, -78.051853], [164.420258, -78.063084], [164.401134, -78.086033], [164.299815, -78.107517], [164.183116, -78.14365], [164.030772, -78.170831], [163.88266, -78.220961], [163.842052, -78.226983], [163.934337, -78.23089], [164.116547, -78.214288], [164.207856, -78.225763], [164.374034, -78.279067], [164.467459, -78.288507], [164.531749, -78.317153], [164.639659, -78.325616], [164.678722, -78.320245], [164.758556, -78.291436], [165.097179, -78.254002], [165.163341, -78.208266], [165.234548, -78.193455], [165.15561, -78.165623], [165.226817, -78.117608], [165.306, -78.087823], [165.416189, -78.025323], [165.494395, -78.01865], [165.56186, -78.03338], [165.60613, -78.05934], [165.618663, -78.075128], [165.61964, -78.102227], [165.60434, -78.122491], [165.580821, -78.136326], [165.337087, -78.198907], [165.362071, -78.211521], [165.507498, -78.244561], [165.566091, -78.254571], [165.656098, -78.255466], [165.708507, -78.271173], [165.737153, -78.289727], [165.75172, -78.309747], [165.732758, -78.324477], [165.761241, -78.33408], [165.745453, -78.346287], [165.688243, -78.364435], [165.730235, -78.399591], [165.786876, -78.420668], [166.12908, -78.469985], [166.345876, -78.472589], [166.565196, -78.507094], [167.001475, -78.501072], [167.058116, -78.509047], [167.106293, -78.52752], [167.215668, -78.600681], [167.235362, -78.62363], [167.243012, -78.648045], [167.227794, -78.669203], [167.146495, -78.695733], [167.068207, -78.70672], [166.546723, -78.712009], [166.41863, -78.685479], [166.372813, -78.658787], [166.198253, -78.587823], [166.08961, -78.566827], [165.443614, -78.563653], [165.462087, -78.579767], [165.48585, -78.585707], [165.309744, -78.605239], [164.409679, -78.603936], [164.071788, -78.687107], [163.986583, -78.685805], [164.072032, -78.70615], [164.043712, -78.712172], [163.960216, -78.708103], [163.89975, -78.736749], [163.641775, -78.716567], [163.577485, -78.720798], [163.596934, -78.736098], [163.542979, -78.743748], [163.558604, -78.769627], [163.484711, -78.781915], [163.470876, -78.77988], [163.434744, -78.733819], [163.403656, -78.74391], [163.355479, -78.744806], [163.258556, -78.733005], [163.211925, -78.732843], [163.13852, -78.745864], [163.064952, -78.736912], [163.044607, -78.743829], [162.969981, -78.801446], [162.901378, -78.814386], [162.894786, -78.846856], [162.882091, -78.857354], [162.911306, -78.881768], [162.881196, -78.888604], [162.805919, -78.926202], [162.749278, -78.940606], [162.621593, -78.945245], [162.591807, -78.934503], [162.543468, -78.895115], [162.479747, -78.892511], [162.45281, -78.878025], [162.46461, -78.865492], [162.458507, -78.829848], [162.524425, -78.796319], [162.481944, -78.778985], [162.336925, -78.795343], [162.125743, -78.759861], [162.062999, -78.718845], [161.971853, -78.677016], [161.90447, -78.670343], [161.852794, -78.655369], [161.760509, -78.610447], [161.781016, -78.599705], [161.82309, -78.55462], [161.864757, -78.535821], [161.875011, -78.522882], [161.863943, -78.500746], [161.823985, -78.481215], [161.698253, -78.521091], [161.552908, -78.505548], [161.507335, -78.51572], [161.474457, -78.545994], [161.335948, -78.581231], [161.372244, -78.590753], [161.405528, -78.641697], [161.502452, -78.734308], [161.556, -78.749607], [161.520763, -78.795343], [161.546397, -78.805841], [161.668142, -78.807794], [161.755382, -78.839451], [161.729991, -78.85947], [161.632579, -78.871026], [161.791759, -78.909926], [161.836111, -78.949965], [161.875987, -78.962823], [161.916515, -78.997654], [162.06544, -79.068617], [161.777599, -79.069513], [161.493419, -79.019627], [161.495372, -78.990899], [161.430919, -78.957778], [161.384044, -78.921808], [161.348888, -78.914972], [161.263438, -78.91839], [161.206798, -78.942966], [161.003673, -78.933689], [161.19809, -78.962172], [161.155528, -78.989435], [161.130382, -79.049412], [161.098481, -79.059991], [161.061046, -79.063409], [160.695079, -79.03753], [160.747244, -79.074884], [160.710134, -79.097263], [160.386974, -79.168145], [160.495128, -79.199477], [160.484874, -79.225356], [160.519786, -79.240492], [160.510509, -79.257501], [160.438975, -79.276951], [160.460134, -79.302992], [160.496349, -79.311456], [160.577403, -79.310235], [160.654063, -79.320001], [160.72877, -79.34059], [160.680024, -79.367446], [160.624034, -79.378595], [160.661957, -79.405369], [160.710704, -79.419203], [160.962657, -79.427667], [161.027599, -79.442153], [161.03419, -79.474786], [161.012462, -79.483168], [160.75587, -79.467706], [160.687511, -79.450128], [160.623546, -79.449965], [160.50587, -79.465265], [160.445079, -79.513279], [160.417247, -79.523207], [160.245616, -79.539809], [160.140798, -79.578546], [160.077647, -79.579685], [160.0, -79.57020583742745], [160.0, -70.0], [160.301203293471, -70.0], [160.636485, -70.048761]]], [[[160.840505, -79.618422], [160.761485, -79.650811], [160.086192, -79.772068], [160.0, -79.77433048678292], [160.0, -79.65641433175752], [160.840505, -79.618422]]], [[[160.328868, -79.861261], [160.370128, -79.861586], [160.45753, -79.89658], [160.627208, -79.912774], [160.793468, -79.955011], [160.850922, -79.957452], [161.32016, -79.877537], [161.470551, -79.901625], [161.383311, -79.947035], [160.0, -80.1129374793778], [160.0, -79.91771988558101], [160.328868, -79.861261]]], [[[160.774913, -80.383233], [160.840587, -80.409356], [160.874278, -80.443536], [160.952647, -80.448012], [161.04005, -80.497979], [160.989919, -80.522638], [160.932384, -80.523207], [160.624034, -80.470473], [160.556651, -80.47381], [160.607758, -80.508722], [160.664887, -80.529718], [160.612071, -80.546808], [160.100271, -80.590916], [160.037364, -80.585626], [160.0, -80.56952702123064], [160.0, -80.41645096759689], [160.774913, -80.383233]]], [[[160.260102, -80.678806], [160.857432, -80.610447], [160.963878, -80.619724], [161.099376, -80.647719], [161.179942, -80.637791], [161.200938, -80.648207], [161.203461, -80.674737], [161.195649, -80.683364], [161.154552, -80.686782], [161.125499, -80.732354], [161.101736, -80.741957], [161.009288, -80.758559], [161.346446, -80.784356], [161.240977, -80.802992], [160.159923, -80.781508], [160.04127, -80.796482], [160.0, -80.79586681328855], [160.0, -80.65932590814852], [160.260102, -80.678806]]], [[[160.601573, -80.869073], [160.59254, -80.890395], [160.87615, -80.914646], [160.716563, -80.946466], [160.66033, -80.932061], [160.640798, -80.934259], [160.665701, -80.953058], [160.701915, -80.958185], [160.876964, -80.95086], [160.93393, -80.972263], [160.907481, -80.992852], [160.547374, -81.006768], [160.605235, -81.025811], [160.622813, -81.038832], [160.596365, -81.047052], [160.649181, -81.067315], [160.824474, -81.09824], [160.77475, -81.125095], [160.541515, -81.119236], [160.759044, -81.15781], [160.814464, -81.189711], [160.76588, -81.199477], [160.608653, -81.193129], [160.87794, -81.224298], [161.082042, -81.219008], [161.142426, -81.244399], [160.919444, -81.270196], [160.132009, -81.203709], [160.156749, -81.222833], [160.260753, -81.249607], [160.363292, -81.293634], [160.626231, -81.316664], [160.591075, -81.324314], [160.402517, -81.325616], [160.364513, -81.336358], [160.361095, -81.360772], [160.307791, -81.379815], [160.349864, -81.392836], [160.401622, -81.392511], [160.499197, -81.376072], [160.886892, -81.357029], [161.072765, -81.384861], [160.990001, -81.416681], [160.842052, -81.428481], [160.882579, -81.439142], [160.851573, -81.459405], [160.889822, -81.47088], [161.015473, -81.448419], [161.454112, -81.423517], [161.519216, -81.452081], [161.471446, -81.489679], [161.011485, -81.548761], [161.59254, -81.571466], [161.50587, -81.584161], [161.563975, -81.604669], [161.997325, -81.618585], [161.913748, -81.633884], [161.980805, -81.647231], [162.47934, -81.689142], [162.474294, -81.710545], [162.530528, -81.719008], [162.445811, -81.727227], [162.506847, -81.746759], [162.620372, -81.754327], [162.390147, -81.798028], [162.469737, -81.80755], [162.35434, -81.822686], [162.237478, -81.824802], [162.327159, -81.849786], [162.636485, -81.836033], [162.767914, -81.848403], [162.755219, -81.83115], [162.791515, -81.812921], [162.84254, -81.804457], [162.893728, -81.807224], [162.946544, -81.82879], [163.057628, -81.852146], [163.102224, -81.873712], [162.977306, -81.893162], [162.726085, -81.887628], [162.610362, -81.912286], [162.660655, -81.922947], [162.844737, -81.914809], [162.898204, -81.919854], [162.949718, -81.934747], [163.034841, -81.940199], [163.004731, -81.95086], [162.902192, -81.950128], [163.073009, -81.999933], [163.248546, -82.023533], [163.207286, -82.038507], [163.597341, -82.090427], [163.565603, -82.099216], [163.466075, -82.102797], [163.541026, -82.122491], [163.776541, -82.128595], [163.74171, -82.142185], [163.622813, -82.147556], [163.916759, -82.190118], [163.883637, -82.216485], [163.838715, -82.231052], [160.639659, -82.422947], [160.744395, -82.474542], [160.802094, -82.491957], [160.857677, -82.500909], [162.442231, -82.494236], [162.528656, -82.476658], [162.768565, -82.486993], [162.934093, -82.530938], [163.081879, -82.544692], [163.145356, -82.514825], [163.439464, -82.54518], [163.403005, -82.512384], [163.318858, -82.483005], [163.164806, -82.449477], [163.28004, -82.426365], [164.673188, -82.3388], [164.730968, -82.355645], [164.882335, -82.380141], [165.230154, -82.392836], [165.351899, -82.434259], [165.438243, -82.476495], [165.559255, -82.493422], [165.537283, -82.507582], [165.478363, -82.515802], [165.44044, -82.557061], [165.395763, -82.573663], [165.304942, -82.579522], [165.373302, -82.606134], [166.108897, -82.652927], [166.226817, -82.64365], [166.529796, -82.702732], [166.430186, -82.750421], [166.538259, -82.781508], [166.905772, -82.757582], [167.306488, -82.817071], [167.343761, -82.829278], [167.350759, -82.843845], [167.333263, -82.858494], [167.199229, -82.897556], [167.166515, -82.900323], [167.408458, -82.924981], [167.344737, -82.952813], [167.062755, -82.95615], [167.106944, -82.969659], [167.458018, -82.981134], [167.451834, -83.010675], [167.424164, -83.026056], [167.656586, -83.0617], [167.738617, -83.055597], [167.890961, -83.024509], [168.044281, -82.971368], [168.118988, -82.961114], [168.592784, -82.998956], [168.623383, -83.006036], [168.589692, -83.029555], [168.600841, -83.055434], [168.645274, -83.072035], [168.771658, -83.093194], [168.868826, -83.145929], [168.826834, -83.171157], [168.763927, -83.191339], [168.076915, -83.183852], [168.180919, -83.222752], [168.53419, -83.233657], [168.503103, -83.248712], [168.415212, -83.26686], [167.887462, -83.233168], [167.74879, -83.255141], [167.23699, -83.191827], [166.99879, -83.199151], [167.024181, -83.21738], [167.058116, -83.225844], [168.034679, -83.307061], [167.955089, -83.328546], [167.987641, -83.350356], [168.031749, -83.359633], [168.161388, -83.368422], [168.284679, -83.353123], [168.359141, -83.365167], [168.474457, -83.35296], [168.567393, -83.367771], [168.617931, -83.390558], [168.660899, -83.397149], [169.383474, -83.336847], [169.396495, -83.339939], [169.427094, -83.370782], [169.364106, -83.422052], [169.466156, -83.447361], [169.560883, -83.446954], [169.599864, -83.418145], [169.630056, -83.414809], [169.584727, -83.398696], [169.629649, -83.369073], [170.10255, -83.404718], [170.059255, -83.413181], [170.080577, -83.427179], [170.105968, -83.429132], [170.086436, -83.4485], [170.127615, -83.463311], [170.223481, -83.483982], [170.403331, -83.491632], [170.447602, -83.462498], [170.734141, -83.451837], [170.744151, -83.448175], [170.75408, -83.426365], [170.812999, -83.423272], [171.193126, -83.445571], [171.260753, -83.463311], [171.384044, -83.470147], [171.576915, -83.500258], [171.42628, -83.528985], [170.924327, -83.534275], [170.971446, -83.545587], [171.020763, -83.546319], [170.978201, -83.561782], [171.003103, -83.56878], [171.331228, -83.555434], [171.702159, -83.58587], [171.789236, -83.610284], [171.959727, -83.620212], [171.939952, -83.633233], [171.866222, -83.644138], [172.046723, -83.658461], [171.982432, -83.678481], [171.914887, -83.687758], [172.00115, -83.716892], [172.097911, -83.718032], [172.3685, -83.677504], [172.820649, -83.667901], [173.230235, -83.712335], [173.319591, -83.732029], [173.307872, -83.752618], [173.410411, -83.761407], [173.618988, -83.749282], [173.721365, -83.763604], [173.680349, -83.791192], [173.29127, -83.856378], [173.409028, -83.878106], [173.834158, -83.87363], [173.882009, -83.861261], [173.962169, -83.881768], [174.973888, -83.830499], [175.122813, -83.869236], [175.443126, -83.903253], [175.377452, -83.927992], [175.161794, -83.957289], [175.301036, -83.98447], [175.677745, -83.961602], [177.535167, -84.057875], [177.616547, -84.073419], [177.558116, -84.080011], [177.613943, -84.09238], [178.129893, -84.116143], [178.217947, -84.144627], [178.405284, -84.117608], [178.527599, -84.121352], [178.406261, -84.15545], [178.480154, -84.179132], [178.567393, -84.18377], [178.78004, -84.171319], [178.868826, -84.183282], [179.354991, -84.197361], [179.750499, -84.26922], [179.787852, -84.283949], [179.695649, -84.303643], [179.601573, -84.311293], [179.698253, -84.331313], [180.0, -84.352796], [180.0, -90.0], [160.0, -90.0], [160.0, -80.84090859840559], [160.601573, -80.869073]]], [[[167.579112, -78.18727], [167.496837, -78.226983], [167.405528, -78.2492], [167.29127, -78.252699], [166.947276, -78.222263], [166.903168, -78.227472], [166.729747, -78.277032], [166.315115, -78.310317], [166.194184, -78.299249], [166.09783, -78.267836], [166.034841, -78.196547], [165.986095, -78.109552], [166.093435, -78.083185], [166.132335, -78.090509], [166.164317, -78.112888], [166.310313, -78.1124], [166.65268, -78.161391], [166.795665, -78.211602], [167.067882, -78.154962], [167.348399, -78.05877], [167.411143, -78.011163], [167.456065, -77.99627], [167.511729, -77.992446], [167.565278, -78.002699], [167.603282, -78.030206], [167.624197, -78.081964], [167.663748, -78.127374], [167.579112, -78.18727]]], [[[163.65089, -74.846612], [163.673676, -74.858575], [163.69516, -74.892267], [163.658702, -74.914972], [163.626475, -74.913751], [163.603526, -74.896905], [163.595063, -74.872735], [163.617686, -74.852716], [163.614268, -74.843438], [163.65089, -74.846612]]], [[[164.016368, -74.603204], [164.273285, -74.550551], [164.302419, -74.552667], [164.262706, -74.571466], [164.244884, -74.589939], [164.233084, -74.612888], [164.244314, -74.63128], [164.087657, -74.625421], [164.038097, -74.636326], [164.059093, -74.648207], [164.059093, -74.669203], [164.046397, -74.688165], [164.030284, -74.693943], [164.098399, -74.719008], [164.107188, -74.736098], [164.077403, -74.757501], [163.926036, -74.772231], [164.037771, -74.806329], [163.980968, -74.840265], [164.003754, -74.846449], [163.96339, -74.866388], [163.944102, -74.862237], [163.94044, -74.833673], [163.92921, -74.826755], [163.86964, -74.819268], [163.860525, -74.824477], [163.868663, -74.833429], [163.836599, -74.833754], [163.759939, -74.809666], [163.779307, -74.79697], [163.726736, -74.782485], [163.714041, -74.750665], [163.687755, -74.725518], [163.813243, -74.700942], [163.803477, -74.689548], [164.016368, -74.603204]]], [[[163.395681, -70.345392], [163.455333, -70.339125], [163.516287, -70.345961], [163.566661, -70.363946], [163.515636, -70.378188], [163.346202, -70.395278], [163.309581, -70.386407], [163.395681, -70.345392]]], [[[169.33961, -77.479669], [169.359386, -77.498224], [169.364431, -77.522068], [169.318207, -77.537205], [169.050304, -77.56992], [168.912283, -77.630304], [168.872569, -77.640395], [168.40089, -77.696222], [168.087413, -77.645603], [167.408051, -77.643976], [167.344981, -77.666925], [167.25766, -77.715916], [167.068858, -77.745375], [166.893565, -77.793715], [166.778656, -77.844822], [166.677257, -77.859959], [166.614513, -77.836358], [166.651703, -77.809015], [166.789317, -77.769952], [166.865408, -77.718683], [166.890636, -77.712498], [166.511078, -77.721775], [166.45338, -77.710056], [166.627778, -77.70672], [166.683116, -77.696466], [166.81422, -77.691583], [166.895681, -77.675714], [166.388682, -77.613377], [166.299815, -77.569513], [166.213715, -77.563653], [166.165538, -77.534845], [166.370616, -77.498224], [166.401622, -77.485447], [166.476817, -77.431248], [166.676117, -77.359959], [166.575857, -77.332127], [166.547862, -77.313409], [166.400076, -77.266534], [166.451915, -77.212335], [166.524425, -77.183038], [166.679454, -77.163344], [166.827159, -77.160903], [166.973318, -77.182224], [167.029063, -77.20379], [167.088145, -77.240655], [167.113129, -77.281915], [167.065766, -77.316339], [167.139008, -77.341892], [167.568126, -77.413263], [168.219574, -77.372328], [169.144054, -77.431736], [169.273448, -77.454522], [169.33961, -77.479669]]], [[[166.956554, -76.938409], [166.977306, -76.950616], [166.977306, -76.96266], [166.872244, -76.972914], [166.866466, -76.947931], [166.853282, -76.936212], [166.854666, -76.929132], [166.874034, -76.926446], [166.956554, -76.938409]]], [[[162.972341, -75.554864], [162.97755, -75.565037], [162.898611, -75.619806], [162.878184, -75.654392], [162.813487, -75.693292], [162.742198, -75.701837], [162.635102, -75.690037], [162.576508, -75.662774], [162.767833, -75.576104], [162.972341, -75.554864]]], [[[162.531505, -75.426528], [162.570811, -75.422947], [162.601248, -75.436782], [162.617849, -75.459161], [162.572276, -75.481134], [162.533702, -75.484063], [162.504649, -75.474054], [162.487966, -75.457208], [162.531505, -75.426528]]], [[[169.943533, -73.531915], [169.858409, -73.563084], [169.866466, -73.565362], [169.869314, -73.589288], [169.854015, -73.606866], [169.666189, -73.631036], [169.649425, -73.629083], [169.646495, -73.596856], [169.622813, -73.582778], [169.458751, -73.554946], [169.542003, -73.497003], [169.677501, -73.421808], [169.637055, -73.39544], [169.636974, -73.385512], [169.670584, -73.364353], [169.672211, -73.341404], [169.705251, -73.325779], [169.751638, -73.320082], [169.793712, -73.327244], [169.813731, -73.348565], [169.819184, -73.400811], [169.850271, -73.416111], [169.861501, -73.441583], [169.961681, -73.514418], [169.943533, -73.531915]]], [[[161.834483, -70.222101], [161.867686, -70.217462], [161.900076, -70.224542], [161.920421, -70.240655], [161.888031, -70.257257], [161.855724, -70.261163], [161.828787, -70.255141], [161.81186, -70.241469], [161.834483, -70.222101]]]]}}]}