{"type": "FeatureCollection", "features": [{"type": "Feature", "properties": {"name": "Antarctica"}, "geometry": {"type": "MultiPolygon", "coordinates": [[[[-120.0, -90.0], [-120.0, -74.67873803627585], [-119.897328, -74.681899], [-119.543772, -74.642267], [-119.421051, -74.657647], [-119.321156, -74.616632], [-119.134999, -74.598077], [-119.054514, -74.605157], [-118.982289, -74.59531], [-118.867055, -74.602472], [-118.679596, -74.563735], [-118.62914, -74.54518], [-118.616526, -74.522231], [-118.647084, -74.509454], [-119.138254, -74.503351], [-119.069651, -74.43963], [-118.975494, -74.404229], [-118.123891, -74.312758], [-117.970815, -74.258071], [-117.92276, -74.272149], [-117.849192, -74.316339], [-117.841135, -74.33766], [-117.883616, -74.362888], [-117.978139, -74.399835], [-117.91393, -74.41961], [-117.809193, -74.414727], [-117.792836, -74.43141], [-117.882721, -74.469822], [-117.843984, -74.510024], [-117.785756, -74.517511], [-117.662343, -74.503351], [-117.48998, -74.534763], [-117.341217, -74.546808], [-117.142445, -74.534845], [-116.693471, -74.557875], [-116.46288, -74.511163], [-116.296051, -74.51922], [-116.211903, -74.494561], [-116.151845, -74.504164], [-116.050201, -74.497328], [-116.097524, -74.466892], [-116.100982, -74.447686], [-116.084137, -74.419122], [-115.980295, -74.391778], [-115.906728, -74.385431], [-115.927154, -74.410252], [-115.928212, -74.422459], [-115.888295, -74.455987], [-115.793568, -74.501153], [-115.726674, -74.521742], [-115.649322, -74.530938], [-115.41686, -74.511163], [-115.237172, -74.515069], [-115.023915, -74.482517], [-114.874338, -74.481622], [-114.83849, -74.471449], [-114.883656, -74.436619], [-114.891103, -74.398207], [-114.880605, -74.387872], [-114.842397, -74.385024], [-114.994496, -74.32464], [-115.067983, -74.256443], [-115.091461, -74.205824], [-115.123769, -74.173028], [-115.126088, -74.151056], [-115.110951, -74.131036], [-115.082672, -74.11297], [-115.124867, -74.094903], [-115.022206, -74.046645], [-114.912913, -74.01686], [-114.944976, -73.994399], [-114.813344, -73.963637], [-114.796864, -73.938897], [-114.733998, -73.926853], [-114.50536, -73.920017], [-114.374379, -73.881524], [-114.210032, -73.863458], [-114.101715, -73.892022], [-113.951772, -73.914646], [-113.977447, -73.948337], [-114.011301, -73.968357], [-114.286, -74.059177], [-114.24234, -74.078302], [-114.18814, -74.077081], [-113.892486, -74.022719], [-113.611195, -74.02516], [-113.562001, -74.035252], [-113.439605, -74.099705], [-113.426137, -74.119887], [-113.445546, -74.126642], [-113.447011, -74.142755], [-113.422027, -74.1749], [-113.883209, -74.237074], [-113.947825, -74.256443], [-113.804555, -74.276625], [-113.749908, -74.273207], [-113.68517, -74.296563], [-113.805328, -74.342706], [-113.802235, -74.392755], [-113.794911, -74.400567], [-113.748362, -74.41131], [-113.801259, -74.451837], [-113.731068, -74.469822], [-113.65746, -74.466404], [-113.512441, -74.431248], [-113.225087, -74.402114], [-113.26301, -74.45086], [-113.310943, -74.480727], [-113.563629, -74.554132], [-113.621938, -74.58115], [-114.059234, -74.628351], [-114.146108, -74.660414], [-114.325795, -74.681899], [-114.357004, -74.695896], [-114.265736, -74.716078], [-114.152984, -74.715265], [-113.970855, -74.68255], [-113.915354, -74.679946], [-113.861806, -74.68906], [-113.826731, -74.712986], [-113.826283, -74.72975], [-113.842397, -74.748712], [-113.919545, -74.782892], [-113.935618, -74.802016], [-113.969635, -74.884861], [-114.019032, -74.912205], [-114.142079, -74.935805], [-114.269683, -75.003839], [-114.278066, -75.019708], [-114.262847, -75.042657], [-114.238637, -75.053399], [-114.105784, -75.068943], [-113.964426, -75.037774], [-113.888295, -75.035903], [-113.789662, -74.977472], [-113.734934, -74.960382], [-113.654897, -74.965509], [-113.50121, -74.948012], [-113.443918, -74.948989], [-112.917795, -74.873142], [-112.725982, -74.899347], [-112.675771, -74.898045], [-112.656646, -74.889825], [-112.624338, -74.852146], [-112.57018, -74.846368], [-112.245758, -74.862563], [-112.213735, -74.837172], [-112.075754, -74.808852], [-111.542633, -74.801528], [-111.560211, -74.781345], [-111.557607, -74.762302], [-111.540598, -74.747654], [-111.514963, -74.739923], [-111.55012, -74.722833], [-111.66686, -74.736261], [-111.710439, -74.721449], [-111.754058, -74.684177], [-111.806304, -74.656427], [-111.916819, -74.618422], [-111.911692, -74.602309], [-111.926137, -74.551202], [-111.900461, -74.521905], [-111.818186, -74.490899], [-111.485219, -74.501072], [-111.325551, -74.475518], [-111.357533, -74.459242], [-111.478505, -74.455336], [-111.697092, -74.422947], [-111.740793, -74.409763], [-111.782297, -74.390802], [-111.887115, -74.315362], [-111.904775, -74.282403], [-111.877065, -74.252537], [-111.906321, -74.241957], [-111.887034, -74.228611], [-111.815175, -74.222752], [-111.64981, -74.1749], [-111.592641, -74.172459], [-111.230784, -74.19671], [-111.152455, -74.221287], [-111.046376, -74.239435], [-111.006256, -74.263442], [-110.888295, -74.281996], [-110.827463, -74.3235], [-110.79662, -74.326755], [-110.741363, -74.320245], [-110.722646, -74.304132], [-110.689768, -74.252862], [-110.668813, -74.240492], [-110.554921, -74.244073], [-110.448598, -74.271254], [-110.248199, -74.372247], [-110.398915, -74.395196], [-110.445546, -74.409356], [-110.409535, -74.427179], [-110.351796, -74.440199], [-110.226633, -74.427179], [-110.19286, -74.432306], [-110.122182, -74.478285], [-110.135325, -74.49684], [-110.110992, -74.522882], [-110.103139, -74.548598], [-110.11441, -74.577244], [-110.136708, -74.600193], [-110.161733, -74.609552], [-110.24356, -74.611423], [-110.317047, -74.65545], [-110.320709, -74.666274], [-110.248402, -74.704685], [-110.241607, -74.722833], [-110.247222, -74.752537], [-110.294423, -74.781915], [-110.47232, -74.821873], [-110.675445, -74.82936], [-110.850209, -74.931085], [-110.934234, -74.955824], [-110.989125, -74.981052], [-111.256663, -75.019952], [-111.382721, -75.0735], [-111.526845, -75.108005], [-111.578359, -75.128839], [-111.600738, -75.155206], [-111.490834, -75.157647], [-111.519928, -75.173435], [-111.618723, -75.197361], [-111.481068, -75.195733], [-111.364125, -75.234308], [-111.304189, -75.240899], [-111.273915, -75.238377], [-111.18932, -75.209893], [-111.129872, -75.202081], [-110.445912, -75.192966], [-110.33788, -75.226658], [-110.172841, -75.23919], [-109.994252, -75.22031], [-109.867177, -75.230645], [-109.815663, -75.213149], [-109.69286, -75.146091], [-108.103668, -75.256524], [-108.027333, -75.283787], [-107.866078, -75.3235], [-107.387685, -75.312921], [-107.290761, -75.340997], [-107.192942, -75.343032], [-107.164052, -75.336684], [-107.114329, -75.308852], [-106.904897, -75.309991], [-106.815175, -75.330499], [-106.714508, -75.333591], [-106.655385, -75.370375], [-106.591298, -75.378595], [-106.525217, -75.372817], [-106.481028, -75.355239], [-106.449127, -75.316827], [-105.716949, -75.251642], [-105.661692, -75.22031], [-105.141754, -75.181329], [-105.104156, -75.167087], [-105.09911, -75.160577], [-105.106313, -75.146417], [-105.096303, -75.124119], [-105.026479, -75.107843], [-104.836252, -75.106622], [-104.760854, -75.14129], [-104.632639, -75.159926], [-104.550649, -75.16074], [-104.334828, -75.12477], [-104.101389, -75.120782], [-103.931142, -75.153904], [-103.812164, -75.153009], [-103.295969, -75.085382], [-102.596547, -75.129002], [-102.438873, -75.109145], [-102.340728, -75.130466], [-102.172231, -75.122817], [-102.077504, -75.129571], [-101.859283, -75.105645], [-101.760732, -75.08294], [-101.654286, -75.100356], [-101.598622, -75.118829], [-101.564198, -75.146742], [-101.553049, -75.174981], [-101.554433, -75.19671], [-101.591054, -75.237074], [-101.631418, -75.262791], [-101.65685, -75.305352], [-101.534413, -75.348321], [-101.14859, -75.371759], [-101.160024, -75.393813], [-101.154775, -75.41367], [-101.137522, -75.427504], [-101.112701, -75.432061], [-100.62857, -75.391697], [-100.546702, -75.366388], [-100.435699, -75.350518], [-100.323883, -75.35003], [-100.222279, -75.360121], [-100.109934, -75.386407], [-100.052073, -75.366957], [-100.015981, -75.36712], [-100.0, -75.36388924920404], [-100.0, -90.0], [-120.0, -90.0]]], [[[-100.105092, -74.943129], [-100.341054, -74.926528], [-100.522288, -74.890883], [-100.543813, -74.873712], [-100.528635, -74.855239], [-100.363108, -74.840427], [-100.203847, -74.860121], [-100.149159, -74.859145], [-100.083363, -74.846124], [-100.012318, -74.795668], [-100.0, -74.79224091116679], [-100.0, -74.93305190674921], [-100.105092, -74.943129]]], [[[-100.01061, -74.731866], [-100.110178, -74.716241], [-100.039418, -74.669203], [-100.017893, -74.64365], [-100.113433, -74.631036], [-100.085072, -74.610772], [-100.052805, -74.601739], [-100.0, -74.59442192238971], [-100.0, -74.73489749550663], [-100.01061, -74.731866]]], [[[-100.031972, -74.508396], [-100.0926, -74.479669], [-100.130727, -74.473403], [-100.246409, -74.489679], [-100.43578, -74.475681], [-100.479726, -74.483331], [-100.599517, -74.484552], [-100.927317, -74.550551], [-101.395904, -74.502699], [-101.462636, -74.476251], [-101.417104, -74.455255], [-101.377187, -74.425551], [-101.424224, -74.412774], [-101.434316, -74.397231], [-101.4287, -74.374282], [-101.411936, -74.35589], [-101.30663, -74.306573], [-101.295033, -74.274835], [-101.426381, -74.279962], [-101.359934, -74.245294], [-101.35497, -74.225763], [-101.365468, -74.198907], [-101.405019, -74.160089], [-101.433705, -74.154474], [-101.427113, -74.129002], [-101.439198, -74.116469], [-101.487131, -74.102797], [-101.535146, -74.073175], [-101.556793, -74.023045], [-101.589223, -74.000177], [-101.658355, -73.995294], [-101.785959, -74.003513], [-101.901438, -73.997247], [-102.06371, -73.957452], [-102.2294, -73.962498], [-102.393666, -73.931817], [-102.733266, -73.937188], [-102.848622, -73.921563], [-102.896392, -73.902114], [-102.923329, -73.857517], [-102.882721, -73.816583], [-102.822174, -73.780043], [-102.788971, -73.748793], [-102.803944, -73.716974], [-102.846099, -73.701104], [-102.978261, -73.682224], [-102.986887, -73.674981], [-102.982655, -73.621026], [-102.998647, -73.609633], [-102.950999, -73.589125], [-102.88976, -73.585545], [-101.911977, -73.636407], [-101.800526, -73.663263], [-101.385365, -73.667169], [-101.273427, -73.695571], [-101.259185, -73.709161], [-101.260854, -73.738539], [-101.2506, -73.748305], [-101.16393, -73.770685], [-100.632069, -73.782159], [-100.587229, -73.747491], [-100.533559, -73.751886], [-100.458608, -73.72617], [-100.0, -73.73153580056056], [-100.0, -74.50819556113674], [-100.031972, -74.508396]]], [[[-101.120351, -73.329522], [-101.212636, -73.315362], [-101.694203, -73.33587], [-101.856597, -73.304457], [-102.60261, -73.330743], [-102.873647, -73.308201], [-102.986887, -73.23797], [-103.044057, -73.224542], [-103.117502, -73.185968], [-103.266428, -73.16725], [-103.306711, -73.147149], [-103.315907, -73.130955], [-103.307485, -73.116306], [-103.239573, -73.077813], [-103.287831, -73.047784], [-103.261342, -73.006606], [-103.333852, -72.961521], [-103.403798, -72.863539], [-103.429921, -72.849379], [-103.33434, -72.774591], [-103.298573, -72.757582], [-103.041412, -72.707615], [-102.328603, -72.738051], [-102.269928, -72.754653], [-102.093984, -72.771742], [-102.168813, -72.809828], [-102.148305, -72.830499], [-102.197662, -72.86061], [-102.161204, -72.880304], [-102.188629, -72.894464], [-102.29186, -72.908949], [-102.351145, -72.938409], [-102.427561, -72.940362], [-102.484853, -72.962091], [-102.55427, -72.963474], [-102.716908, -72.997735], [-102.676747, -73.005304], [-102.07665, -72.978448], [-101.983998, -72.986993], [-101.99706, -73.039727], [-101.960317, -73.055597], [-101.397206, -73.013442], [-101.31017, -72.990818], [-100.76594, -72.976007], [-100.658681, -73.010512], [-100.376861, -73.065851], [-100.318267, -73.06878], [-100.262278, -73.060642], [-100.141957, -73.022638], [-100.023264, -73.024021], [-100.0, -73.02011578829313], [-100.0, -73.3582437866427], [-101.120351, -73.329522]]], [[[-104.553944, -73.145766], [-104.532704, -73.174493], [-104.630483, -73.211358], [-104.746938, -73.21852], [-104.859486, -73.20672], [-104.945668, -73.186212], [-105.037668, -73.140395], [-105.098866, -73.086684], [-105.155385, -73.005304], [-105.061025, -72.954197], [-105.01415, -72.940525], [-104.958608, -72.942641], [-104.687123, -73.096531], [-104.553944, -73.145766]]], [[[-100.140492, -72.279962], [-100.205312, -72.271254], [-100.328033, -72.286554], [-100.377187, -72.284845], [-100.415761, -72.259535], [-101.609242, -72.188735], [-101.725209, -72.163018], [-101.899322, -72.192478], [-101.967275, -72.193292], [-102.182607, -72.164972], [-102.292226, -72.126723], [-102.32372, -72.06406], [-102.304026, -72.03574], [-102.27359, -72.017836], [-102.087026, -71.973891], [-100.437367, -71.879327], [-100.239898, -71.825779], [-100.132558, -71.821873], [-100.028798, -71.842706], [-100.0, -71.86014600409996], [-100.0, -71.93397332590428], [-100.053131, -71.943292], [-100.321645, -71.954685], [-100.391469, -71.967462], [-100.451975, -71.998305], [-100.02359, -71.972752], [-100.0, -71.97451928182899], [-100.0, -72.3161653533398], [-100.140492, -72.279962]]], [[[-117.282135, -74.377374], [-117.338694, -74.377537], [-117.395579, -74.366143], [-117.361236, -74.32879], [-117.311513, -74.309259], [-117.025054, -74.280938], [-116.968129, -74.291925], [-117.06607, -74.330255], [-117.282135, -74.377374]]], [[[-116.19811, -73.938409], [-116.33495, -73.973565], [-116.490305, -74.033787], [-116.649648, -74.065606], [-116.485748, -74.081476], [-116.599355, -74.141778], [-116.785064, -74.174249], [-117.196401, -74.200291], [-117.332183, -74.174412], [-117.373362, -74.157892], [-117.400258, -74.132501], [-117.39273, -74.096287], [-117.371083, -74.079767], [-116.403391, -73.867283], [-116.315175, -73.864841], [-116.140696, -73.90252], [-116.19811, -73.938409]]], [[[-119.922922, -74.101332], [-119.929555, -74.084649], [-119.911488, -74.070977], [-119.837026, -74.059503], [-119.827219, -74.038344], [-119.801503, -74.028741], [-119.696604, -74.02044], [-119.636098, -74.001235], [-119.665679, -73.979262], [-119.776682, -73.939223], [-119.797475, -73.896661], [-119.858144, -73.87656], [-119.76769, -73.85117], [-119.889394, -73.833103], [-119.903554, -73.824965], [-119.698476, -73.818292], [-119.580881, -73.78631], [-119.494944, -73.772556], [-119.123402, -73.780857], [-118.974436, -73.804864], [-118.914133, -73.827407], [-118.899729, -73.839451], [-118.900787, -73.873224], [-118.870839, -73.885675], [-118.96349, -73.930922], [-118.945668, -73.949884], [-119.003774, -73.983575], [-119.223134, -74.044122], [-119.431386, -74.067315], [-119.500071, -74.106622], [-119.695709, -74.125584], [-119.821034, -74.120782], [-119.922922, -74.101332]]]]}}]}