{"type": "FeatureCollection", "features": [{"type": "Feature", "properties": {"name": "Argentina"}, "geometry": {"type": "Polygon", "coordinates": [[[-57.411452, -30.039612], [-57.506175, -30.144309], [-57.568652, -30.176555], [-57.633971, -30.183583], [-57.642466, -30.193092], [-57.623739, -30.2581], [-57.631077, -30.297064], [-57.652729, -30.329104], [-57.849617, -30.48527], [-57.877109, -30.514829], [-57.889769, -30.550796], [-57.88579, -30.589863], [-57.817887, -30.712026], [-57.801868, -30.773314], [-57.796132, -30.868399], [-57.807242, -30.90757], [-57.885325, -30.918835], [-57.90398, -30.929687], [-57.911732, -30.947361], [-57.863311, -31.012266], [-57.855249, -31.058982], [-57.899019, -31.126471], [-57.911732, -31.170603], [-57.905117, -31.240986], [-57.935606, -31.290285], [-57.966354, -31.314573], [-57.990228, -31.399323], [-58.062575, -31.444281], [-58.075236, -31.475184], [-57.986818, -31.554145], [-57.979583, -31.598794], [-57.988626, -31.642822], [-58.048881, -31.797128], [-58.059268, -31.811494], [-58.152854, -31.835988], [-58.196004, -31.872575], [-58.202618, -31.893143], [-58.158797, -31.943889], [-58.145309, -32.01789], [-58.158797, -32.101554], [-58.186547, -32.15292], [-58.106914, -32.251829], [-58.096527, -32.280974], [-58.101591, -32.31136], [-58.164946, -32.389495], [-58.220082, -32.489516], [-58.211578, -32.657322], [-58.192983, -32.725844], [-58.179351, -32.828302], [-58.137766, -32.900323], [-58.159495, -32.97975], [-58.146799, -33.049981], [-58.204457, -33.091892], [-58.241444, -33.095147], [-58.383168, -33.075453], [-58.418935, -33.088311], [-58.430165, -33.102634], [-58.431996, -33.111586], [-58.412831, -33.118748], [-58.433217, -33.232354], [-58.412343, -33.298272], [-58.45995, -33.334731], [-58.487864, -33.369561], [-58.521718, -33.449314], [-58.535634, -33.533949], [-58.528798, -33.579034], [-58.540842, -33.608982], [-58.549224, -33.705336], [-58.524322, -33.777765], [-58.461049, -33.85947], [-58.439361, -33.979669], [-58.447174, -34.010512], [-58.402699, -34.025974], [-58.387807, -34.046482], [-58.385365, -34.11004], [-58.392242, -34.154067], [-58.37857, -34.188246], [-58.412099, -34.218683], [-58.425771, -34.246677], [-58.460194, -34.272882], [-58.480133, -34.277439], [-58.54308, -34.267673], [-58.558339, -34.285414], [-58.570424, -34.288181], [-58.512278, -34.315688], [-58.466615, -34.347987], [-58.454607, -34.366183], [-58.473208, -34.398151], [-58.511465, -34.435945], [-58.503225, -34.463127], [-58.477284, -34.483331], [-58.474192, -34.52158], [-58.378772, -34.572509], [-58.344988, -34.607851], [-58.315031, -34.657195], [-58.154872, -34.7504], [-58.093924, -34.757735], [-58.063542, -34.772928], [-58.00019, -34.787258], [-57.965031, -34.82453], [-57.938221, -34.833671], [-57.871032, -34.829915], [-57.758843, -34.909662], [-57.686818, -34.933868], [-57.603575, -34.987702], [-57.522032, -35.013154], [-57.34958, -35.14988], [-57.248769, -35.248793], [-57.133583, -35.416657], [-57.128144, -35.441321], [-57.144909, -35.4842], [-57.352625, -35.727524], [-57.3933, -35.86297], [-57.366444, -35.987888], [-57.348012, -36.001072], [-57.308827, -36.099867], [-57.268178, -36.127862], [-57.248036, -36.170343], [-57.108266, -36.282322], [-57.005523, -36.333673], [-56.937734, -36.350763], [-56.9287, -36.363702], [-56.946034, -36.378025], [-56.939198, -36.384861], [-56.900217, -36.358982], [-56.856679, -36.343927], [-56.767893, -36.343927], [-56.778676, -36.321466], [-56.776031, -36.30641], [-56.762441, -36.303318], [-56.74059, -36.316583], [-56.722401, -36.369317], [-56.697621, -36.396173], [-56.699574, -36.521417], [-56.672271, -36.600518], [-56.664866, -36.851007], [-56.668853, -36.89422], [-56.686431, -36.927667], [-56.790273, -37.038344], [-56.888661, -37.162042], [-57.019276, -37.347589], [-57.055898, -37.412693], [-57.165761, -37.535577], [-57.309153, -37.64544], [-57.348744, -37.6985], [-57.376943, -37.714614], [-57.487416, -37.832208], [-57.528879, -37.91367], [-57.54186, -37.998956], [-57.528879, -38.023533], [-57.535715, -38.043227], [-57.532786, -38.072524], [-57.55842, -38.120864], [-57.593577, -38.152765], [-57.861887, -38.294122], [-58.018707, -38.367934], [-58.06607, -38.378188], [-58.15567, -38.430108], [-58.330963, -38.492771], [-58.419504, -38.504164], [-58.493642, -38.524347], [-58.567006, -38.558852], [-58.729237, -38.588474], [-58.940297, -38.646091], [-58.997141, -38.676039], [-59.063222, -38.69378], [-59.632395, -38.783787], [-59.796864, -38.838474], [-59.889312, -38.838474], [-60.0, -38.85402824868496], [-60.0, -30.0], [-57.35311722776062, -30.0], [-57.411452, -30.039612]]]}}, {"type": "Feature", "properties": {"name": "Brazil"}, "geometry": {"type": "Polygon", "coordinates": [[[-57.611698, -30.182963], [-57.548601, -30.170044], [-57.506175, -30.144309], [-57.411452, -30.039612], [-57.35311722776062, -30.0], [-50.1204965100954, -30.0], [-50.251373, -30.322849], [-50.315663, -30.461521], [-50.587636, -30.851007], [-50.599517, -30.881443], [-50.721425, -31.044529], [-50.82844, -31.142673], [-50.883656, -31.219903], [-51.034576, -31.378025], [-51.151845, -31.481541], [-51.563344, -31.777439], [-51.863515, -31.931736], [-52.032623, -32.108982], [-52.077382, -32.16725], [-52.084462, -32.146905], [-52.046702, -32.074314], [-52.035756, -32.027927], [-52.05663, -31.988377], [-52.012196, -31.950616], [-52.025868, -31.919692], [-52.087961, -31.858575], [-52.08727, -31.827813], [-52.048451, -31.808282], [-52.00182, -31.821547], [-51.92276, -31.868748], [-51.879994, -31.87127], [-51.836334, -31.854913], [-51.81371, -31.828383], [-51.834096, -31.80047], [-51.786041, -31.792087], [-51.704498, -31.792739], [-51.666168, -31.769708], [-51.560211, -31.667576], [-51.5454, -31.639744], [-51.512563, -31.615981], [-51.498687, -31.574884], [-51.457265, -31.615492], [-51.447621, -31.612726], [-51.46349, -31.557224], [-51.448354, -31.51686], [-51.422515, -31.485121], [-51.413482, -31.517836], [-51.377797, -31.526951], [-51.334543, -31.51922], [-51.244985, -31.464044], [-51.179596, -31.358982], [-51.158559, -31.286391], [-51.154775, -31.212091], [-51.176137, -31.149347], [-51.161855, -31.077732], [-51.153391, -31.067153], [-51.097279, -31.080987], [-51.032786, -31.060642], [-51.013987, -31.062758], [-51.006418, -31.070489], [-51.003163, -31.132908], [-50.975942, -31.130955], [-50.96467, -31.101251], [-50.935902, -31.087823], [-50.939931, -31.07643], [-50.970041, -31.074314], [-50.98766, -31.045587], [-50.960113, -30.966974], [-50.95641, -30.922784], [-50.978424, -30.893324], [-50.913889, -30.893324], [-50.819569, -30.831313], [-50.760121, -30.815118], [-50.731068, -30.792413], [-50.692616, -30.726495], [-50.679433, -30.641697], [-50.689524, -30.464044], [-50.725657, -30.363051], [-50.689931, -30.353204], [-50.645131, -30.392185], [-50.654693, -30.419366], [-50.649892, -30.438572], [-50.607533, -30.485121], [-50.565012, -30.450128], [-50.572825, -30.409438], [-50.555165, -30.378839], [-50.537262, -30.320408], [-50.539866, -30.267511], [-50.545522, -30.251153], [-50.583363, -30.232029], [-50.614817, -30.186212], [-50.648549, -30.190362], [-50.675852, -30.217706], [-50.676178, -30.231622], [-50.653432, -30.25156], [-50.671986, -30.288995], [-50.779124, -30.293227], [-50.793528, -30.302504], [-50.799387, -30.3235], [-50.87442, -30.320082], [-50.897532, -30.310479], [-50.912994, -30.316664], [-50.932851, -30.380629], [-50.915395, -30.436212], [-50.936391, -30.431573], [-50.984364, -30.395196], [-51.034088, -30.375665], [-51.040273, -30.34352], [-51.011627, -30.296157], [-51.023101, -30.263767], [-51.034169, -30.25742], [-51.052602, -30.265395], [-51.057607, -30.241876], [-51.079457, -30.237888], [-51.122548, -30.256036], [-51.176137, -30.224542], [-51.171457, -30.209405], [-51.180491, -30.200372], [-51.233022, -30.189874], [-51.235585, -30.178155], [-51.217112, -30.156345], [-51.220367, -30.136407], [-51.25121, -30.107843], [-51.237538, -30.039646], [-51.259348, -30.046808], [-51.262074, -30.013767], [-51.271718, -30.004815], [-51.283518, -30.00742], [-51.285959, -30.032159], [-51.306467, -30.070245], [-51.292144, -30.083917], [-51.300038, -30.127048], [-51.313954, -30.154555], [-51.306467, -30.186944], [-51.326975, -30.224542], [-51.28246, -30.221368], [-51.264882, -30.244887], [-51.292144, -30.271661], [-51.280629, -30.287367], [-51.247182, -30.29754], [-51.237538, -30.313246], [-51.204091, -30.285333], [-51.187734, -30.360121], [-51.166127, -30.36297], [-51.093414, -30.344985], [-51.090647, -30.351983], [-51.100413, -30.385349], [-51.114817, -30.401056], [-51.135121, -30.409438], [-51.161855, -30.395196], [-51.200429, -30.399835], [-51.229482, -30.425877], [-51.250478, -30.462335], [-51.277943, -30.540134], [-51.290191, -30.624444], [-51.264882, -30.755548], [-51.269683, -30.781834], [-51.281728, -30.796563], [-51.297678, -30.795343], [-51.313954, -30.773207], [-51.289459, -30.767348], [-51.291168, -30.739923], [-51.322499, -30.642185], [-51.357981, -30.635431], [-51.377105, -30.642267], [-51.38329, -30.658868], [-51.381581, -30.7763], [-51.361073, -30.854587], [-51.361887, -30.879164], [-51.370717, -30.886489], [-51.412587, -30.882501], [-51.455434, -30.889418], [-51.477773, -30.922784], [-51.485707, -30.967055], [-51.484202, -31.012953], [-51.470815, -31.053318], [-51.443023, -31.080987], [-51.623606, -31.135349], [-51.642974, -31.167087], [-51.650868, -31.205499], [-51.649037, -31.238702], [-51.637522, -31.256524], [-51.684722, -31.25213], [-51.712554, -31.265883], [-51.818959, -31.272231], [-51.839467, -31.282159], [-51.856923, -31.311212], [-51.92276, -31.306899], [-51.940012, -31.325128], [-51.963531, -31.332289], [-51.957265, -31.35117], [-51.94286, -31.359308], [-51.98766, -31.392511], [-51.998525, -31.409356], [-52.00475, -31.539727], [-51.984853, -31.573907], [-52.007924, -31.646173], [-52.040151, -31.570245], [-52.073232, -31.554295], [-52.083323, -31.558689], [-52.094106, -31.577569], [-52.089955, -31.606134], [-52.046295, -31.608087], [-52.041249, -31.622654], [-52.063344, -31.66546], [-52.095774, -31.691095], [-52.203725, -31.727309], [-52.218617, -31.740655], [-52.224477, -31.762465], [-52.210194, -31.80047], [-52.224477, -31.841404], [-52.245595, -31.840997], [-52.248443, -31.861993], [-52.235707, -31.879653], [-52.210194, -31.868748], [-52.183502, -31.900079], [-52.149322, -31.909763], [-52.13386, -31.930841], [-52.139068, -31.940525], [-52.169789, -31.936456], [-52.23766, -31.966404], [-52.258616, -32.053643], [-52.211171, -32.056736], [-52.211659, -32.067966], [-52.238108, -32.080987], [-52.213979, -32.086114], [-52.154408, -32.065118], [-52.124094, -32.029474], [-52.08141, -32.031996], [-52.168935, -32.100681], [-52.156158, -32.122654], [-52.139719, -32.119073], [-52.08727, -32.067315], [-52.101552, -32.122654], [-52.091176, -32.166111], [-52.127431, -32.177504], [-52.228627, -32.251072], [-52.253407, -32.282485], [-52.375315, -32.498712], [-52.443186, -32.685968], [-52.470855, -32.800958], [-52.644887, -33.136977], [-52.819488, -33.322524], [-53.091664, -33.527276], [-53.266347, -33.67669], [-53.379095, -33.740676], [-53.411283, -33.74228], [-53.440428, -33.697115], [-53.456707, -33.687503], [-53.511535, -33.690294], [-53.539647, -33.649263], [-53.536805, -33.559863], [-53.514016, -33.394911], [-53.536133, -33.244636], [-53.536857, -33.170842], [-53.511535, -33.099219], [-53.48332, -33.067283], [-53.327309, -32.973645], [-53.309584, -32.944396], [-53.298835, -32.889102], [-53.203854, -32.82244], [-53.163081, -32.778722], [-53.126856, -32.754847], [-53.11404, -32.740584], [-53.110836, -32.722394], [-53.201477, -32.637232], [-53.266899, -32.607363], [-53.316043, -32.602712], [-53.35909, -32.580284], [-53.415624, -32.564161], [-53.474638, -32.508247], [-53.5613, -32.449543], [-53.643879, -32.355595], [-53.658555, -32.254309], [-53.670595, -32.226404], [-53.721445, -32.162428], [-53.750022, -32.104034], [-53.757308, -32.055045], [-53.83043, -32.036441], [-53.858077, -32.021197], [-53.881435, -32.00125], [-53.905826, -31.959288], [-53.948769, -31.936964], [-54.008714, -31.926526], [-54.049745, -31.887148], [-54.088451, -31.878156], [-54.146277, -31.909886], [-54.274228, -31.823379], [-54.463725, -31.671864], [-54.477368, -31.642098], [-54.483155, -31.583911], [-54.495041, -31.565617], [-54.562375, -31.515905], [-54.604543, -31.459784], [-54.819776, -31.435289], [-54.849903, -31.425057], [-54.900288, -31.382063], [-54.940802, -31.36563], [-54.969637, -31.340825], [-55.029375, -31.268788], [-55.042346, -31.272612], [-55.061105, -31.304858], [-55.087253, -31.326769], [-55.122238, -31.31354], [-55.18828, -31.266514], [-55.244349, -31.244603], [-55.259981, -31.228687], [-55.2937, -31.153653], [-55.338039, -31.125644], [-55.353852, -31.056294], [-55.368579, -31.037381], [-55.51131, -30.906123], [-55.563865, -30.87646], [-55.591873, -30.848348], [-55.634041, -30.847625], [-55.649673, -30.860958], [-55.652748, -30.938989], [-55.665822, -30.949324], [-55.731891, -30.945397], [-55.744887, -30.958626], [-55.763594, -31.008442], [-55.832479, -31.051747], [-55.854596, -31.074588], [-56.011357, -31.082133], [-56.022183, -31.067147], [-56.015517, -30.934338], [-55.988955, -30.85579], [-56.011357, -30.798222], [-56.076857, -30.752334], [-56.131685, -30.671925], [-56.170804, -30.645777], [-56.183517, -30.614564], [-56.215091, -30.581905], [-56.385985, -30.475761], [-56.424639, -30.423568], [-56.523754, -30.357319], [-56.575017, -30.302439], [-56.631345, -30.284662], [-56.632585, -30.247455], [-56.641783, -30.233916], [-56.766995, -30.161362], [-56.795159, -30.123845], [-56.831281, -30.102037], [-56.906367, -30.108549], [-56.97458, -30.09749], [-57.037883, -30.114647], [-57.077106, -30.106068], [-57.129557, -30.149993], [-57.150848, -30.182343], [-57.163819, -30.23929], [-57.183714, -30.267505], [-57.212601, -30.287349], [-57.245054, -30.293344], [-57.270376, -30.275154], [-57.296472, -30.293344], [-57.334299, -30.272673], [-57.353833, -30.27195], [-57.399257, -30.299131], [-57.414811, -30.295721], [-57.44313, -30.269469], [-57.535992, -30.27443], [-57.567463, -30.256343], [-57.586842, -30.204047], [-57.611698, -30.182963]]]}}, {"type": "Feature", "properties": {"name": "Uruguay"}, "geometry": {"type": "Polygon", "coordinates": [[[-57.586842, -30.204047], [-57.567463, -30.256343], [-57.535992, -30.27443], [-57.44313, -30.269469], [-57.414811, -30.295721], [-57.399257, -30.299131], [-57.353833, -30.27195], [-57.334299, -30.272673], [-57.296472, -30.293344], [-57.270376, -30.275154], [-57.245054, -30.293344], [-57.212601, -30.287349], [-57.183714, -30.267505], [-57.163819, -30.23929], [-57.150848, -30.182343], [-57.129557, -30.149993], [-57.077106, -30.106068], [-57.037883, -30.114647], [-56.97458, -30.09749], [-56.906367, -30.108549], [-56.831281, -30.102037], [-56.795159, -30.123845], [-56.766995, -30.161362], [-56.641783, -30.233916], [-56.632585, -30.247455], [-56.631345, -30.284662], [-56.575017, -30.302439], [-56.523754, -30.357319], [-56.424639, -30.423568], [-56.385985, -30.475761], [-56.215091, -30.581905], [-56.183517, -30.614564], [-56.170804, -30.645777], [-56.131685, -30.671925], [-56.076857, -30.752334], [-56.011357, -30.798222], [-55.988955, -30.85579], [-56.015517, -30.934338], [-56.022183, -31.067147], [-56.011357, -31.082133], [-55.854596, -31.074588], [-55.832479, -31.051747], [-55.763594, -31.008442], [-55.744887, -30.958626], [-55.731891, -30.945397], [-55.665822, -30.949324], [-55.652748, -30.938989], [-55.649673, -30.860958], [-55.634041, -30.847625], [-55.591873, -30.848348], [-55.563865, -30.87646], [-55.51131, -30.906123], [-55.368579, -31.037381], [-55.353852, -31.056294], [-55.338039, -31.125644], [-55.2937, -31.153653], [-55.259981, -31.228687], [-55.244349, -31.244603], [-55.18828, -31.266514], [-55.122238, -31.31354], [-55.087253, -31.326769], [-55.061105, -31.304858], [-55.042346, -31.272612], [-55.029375, -31.268788], [-54.969637, -31.340825], [-54.940802, -31.36563], [-54.900288, -31.382063], [-54.849903, -31.425057], [-54.819776, -31.435289], [-54.604543, -31.459784], [-54.562375, -31.515905], [-54.495041, -31.565617], [-54.483155, -31.583911], [-54.477368, -31.642098], [-54.463725, -31.671864], [-54.274228, -31.823379], [-54.146277, -31.909886], [-54.088451, -31.878156], [-54.049745, -31.887148], [-54.008714, -31.926526], [-53.948769, -31.936964], [-53.905826, -31.959288], [-53.881435, -32.00125], [-53.858077, -32.021197], [-53.83043, -32.036441], [-53.757308, -32.055045], [-53.750022, -32.104034], [-53.721445, -32.162428], [-53.670595, -32.226404], [-53.658555, -32.254309], [-53.643879, -32.355595], [-53.5613, -32.449543], [-53.474638, -32.508247], [-53.415624, -32.564161], [-53.35909, -32.580284], [-53.316043, -32.602712], [-53.266899, -32.607363], [-53.201477, -32.637232], [-53.119776, -32.707408], [-53.110836, -32.722394], [-53.11404, -32.740584], [-53.126856, -32.754847], [-53.163081, -32.778722], [-53.203854, -32.82244], [-53.298835, -32.889102], [-53.316302, -32.96269], [-53.44911, -33.042065], [-53.511639, -33.099426], [-53.536857, -33.170842], [-53.536133, -33.244636], [-53.514016, -33.394911], [-53.536805, -33.559863], [-53.539647, -33.649263], [-53.511535, -33.690294], [-53.456707, -33.687503], [-53.440428, -33.697115], [-53.411283, -33.74228], [-53.379095, -33.740676], [-53.414784, -33.764418], [-53.473053, -33.834568], [-53.524648, -34.002374], [-53.529937, -34.04811], [-53.539459, -34.062433], [-53.591217, -34.095473], [-53.639963, -34.147638], [-53.693593, -34.181736], [-53.755971, -34.267673], [-53.779897, -34.336033], [-53.763661, -34.372491], [-53.764882, -34.390395], [-53.805776, -34.400974], [-53.898305, -34.443943], [-53.972239, -34.487237], [-54.124623, -34.610447], [-54.13679, -34.623956], [-54.145904, -34.667576], [-54.259674, -34.685968], [-54.23233, -34.658136], [-54.252838, -34.630792], [-54.238596, -34.589776], [-54.280344, -34.567966], [-54.328603, -34.561782], [-54.280141, -34.582289], [-54.304433, -34.608575], [-54.344635, -34.630629], [-54.337392, -34.654718], [-54.321156, -34.65252], [-54.322581, -34.644708], [-54.289215, -34.660252], [-54.280141, -34.682306], [-54.306467, -34.707696], [-54.542063, -34.811782], [-54.604156, -34.82643], [-54.636464, -34.84881], [-54.913726, -34.945245], [-54.93932, -34.969903], [-54.958608, -34.973403], [-54.951772, -34.952895], [-54.975738, -34.928481], [-55.03307, -34.916762], [-55.041127, -34.897638], [-55.060374, -34.887791], [-55.129791, -34.885919], [-55.22175, -34.903741], [-55.260243, -34.897638], [-55.338287, -34.81878], [-55.376943, -34.801446], [-55.509636, -34.799065], [-55.601794, -34.772415], [-55.646731, -34.7811], [-55.693448, -34.764741], [-55.756503, -34.782666], [-55.792051, -34.774134], [-55.889101, -34.803475], [-56.069634, -34.901003], [-56.105198, -34.898416], [-56.135633, -34.912829], [-56.149892, -34.920343], [-56.156088, -34.941188], [-56.17729, -34.916325], [-56.213002, -34.907693], [-56.203455, -34.887503], [-56.214589, -34.879588], [-56.230551, -34.87775], [-56.236508, -34.892884], [-56.256337, -34.906183], [-56.311269, -34.906183], [-56.402943, -34.85475], [-56.418446, -34.843032], [-56.420766, -34.82822], [-56.386848, -34.80187], [-56.361282, -34.796636], [-56.37612, -34.782729], [-56.485088, -34.75355], [-56.558013, -34.765069], [-56.646362, -34.722642], [-56.795289, -34.698492], [-56.873891, -34.67018], [-56.919749, -34.623224], [-57.057425, -34.527127], [-57.062408, -34.506524], [-57.120025, -34.462986], [-57.151964, -34.450932], [-57.203198, -34.442073], [-57.346942, -34.443459], [-57.3652, -34.43044], [-57.411428, -34.431506], [-57.436974, -34.444576], [-57.44913, -34.431538], [-57.474663, -34.429541], [-57.537914, -34.453614], [-57.569475, -34.426504], [-57.594997, -34.425473], [-57.7203, -34.463373], [-57.738535, -34.461318], [-57.764115, -34.474295], [-57.855354, -34.470967], [-57.845585, -34.462979], [-57.854048, -34.447882], [-57.882019, -34.440724], [-57.90019, -34.416525], [-57.8976, -34.376339], [-58.016916, -34.253106], [-58.049794, -34.240004], [-58.076975, -34.19199], [-58.119374, -34.169203], [-58.196197, -34.159438], [-58.20873, -34.147638], [-58.231842, -34.0888], [-58.316518, -33.986505], [-58.372426, -33.95436], [-58.402699, -33.922784], [-58.434641, -33.784926], [-58.439361, -33.6985], [-58.425771, -33.612888], [-58.438344, -33.551446], [-58.433217, -33.527765], [-58.385365, -33.47031], [-58.37857, -33.448663], [-58.384877, -33.429132], [-58.412587, -33.409601], [-58.418935, -33.389907], [-58.412587, -33.371677], [-58.361195, -33.325779], [-58.350738, -33.305759], [-58.366933, -33.153741], [-58.351389, -33.121677], [-58.310292, -33.108819], [-58.174428, -33.110447], [-58.137766, -33.095147], [-58.08373, -33.04754], [-58.048492, -32.911716], [-58.057118, -32.881768], [-58.130767, -32.802667], [-58.137685, -32.695571], [-58.145172, -32.678155], [-58.137766, -32.670668], [-58.157216, -32.575128], [-58.177113, -32.545017], [-58.197418, -32.469822], [-58.199724, -32.444789], [-58.101591, -32.31136], [-58.096527, -32.280974], [-58.106914, -32.251829], [-58.186547, -32.15292], [-58.158797, -32.101554], [-58.145309, -32.01789], [-58.158797, -31.943889], [-58.202618, -31.893143], [-58.196004, -31.872575], [-58.152854, -31.835988], [-58.059268, -31.811494], [-58.048881, -31.797128], [-57.988626, -31.642822], [-57.979583, -31.598794], [-57.986818, -31.554145], [-58.075236, -31.475184], [-58.062575, -31.444281], [-57.990228, -31.399323], [-57.966354, -31.314573], [-57.935606, -31.290285], [-57.905117, -31.240986], [-57.911732, -31.170603], [-57.899019, -31.126471], [-57.855249, -31.058982], [-57.863311, -31.012266], [-57.911732, -30.947361], [-57.90398, -30.929687], [-57.885325, -30.918835], [-57.807242, -30.90757], [-57.796132, -30.868399], [-57.801868, -30.773314], [-57.817887, -30.712026], [-57.88579, -30.589863], [-57.889769, -30.550796], [-57.877109, -30.514829], [-57.849617, -30.48527], [-57.652729, -30.329104], [-57.631077, -30.297064], [-57.623739, -30.2581], [-57.642466, -30.193092], [-57.602793, -30.190517], [-57.586842, -30.204047]]]}}, {"type": "Feature", "properties": {"name": "Brazilian I."}, "geometry": {"type": "Polygon", "coordinates": [[[-57.633971, -30.183583], [-57.611698, -30.182963], [-57.602793, -30.190517], [-57.642466, -30.193092], [-57.633971, -30.183583]]]}}]}