{"type": "FeatureCollection", "features": [{"type": "Feature", "properties": {"name": "Sierra Leone"}, "geometry": {"type": "MultiPolygon", "coordinates": [[[[-10.282908, 8.432949], [-10.313655, 8.310347], [-10.331277, 8.272287], [-10.320942, 8.183119], [-10.34554, 8.159348], [-10.384555, 8.142114], [-10.485738, 8.138858], [-10.529249, 8.124286], [-10.56718, 8.063204], [-10.612138, 8.031862], [-10.617668, 8.010778], [-10.615187, 7.769036], [-10.645418, 7.763041], [-10.692598, 7.737565], [-10.730581, 7.705474], [-10.874603, 7.530859], [-10.977904, 7.484919], [-11.126319, 7.368027], [-11.217889, 7.25408], [-11.317211, 7.213566], [-11.373229, 7.138842], [-11.356434, 7.105356], [-11.355142, 7.084065], [-11.389714, 7.073523], [-11.397723, 7.012803], [-11.407283, 6.99637], [-11.434672, 6.980815], [-11.436739, 6.938544], [-11.476186, 6.91942], [-11.492787, 6.932766], [-11.553944, 6.952541], [-11.588002, 6.978949], [-11.567494, 6.992621], [-11.622141, 6.985785], [-11.631215, 7.008246], [-11.69815, 7.067043], [-11.839589, 7.148993], [-12.314849, 7.329006], [-12.506581, 7.389838], [-12.476186, 7.415107], [-12.439605, 7.41649], [-12.369456, 7.389838], [-12.375885, 7.405015], [-12.401031, 7.412543], [-12.417226, 7.430813], [-12.446523, 7.439114], [-12.464263, 7.429633], [-12.489247, 7.445054], [-12.492421, 7.453599], [-12.470774, 7.491156], [-12.428334, 7.533596], [-12.41039, 7.527655], [-12.338735, 7.540676], [-12.314809, 7.527655], [-12.295074, 7.533108], [-12.25886, 7.552395], [-12.232249, 7.553697], [-12.238433, 7.56802], [-12.1881, 7.583075], [-12.183827, 7.602729], [-12.218007, 7.595893], [-12.225453, 7.608954], [-12.256256, 7.60517], [-12.269276, 7.586371], [-12.403554, 7.547512], [-12.463735, 7.561998], [-12.476308, 7.6022], [-12.492991, 7.6164], [-12.485504, 7.650539], [-12.500356, 7.639106], [-12.519643, 7.644273], [-12.519643, 7.630072], [-12.543935, 7.653551], [-12.531402, 7.687079], [-12.492991, 7.739936], [-12.471262, 7.726264], [-12.464996, 7.7331], [-12.471791, 7.759955], [-12.465932, 7.770575], [-12.451975, 7.774075], [-12.472157, 7.787665], [-12.519643, 7.726264], [-12.601877, 7.683783], [-12.616444, 7.695217], [-12.711415, 7.711982], [-12.778066, 7.755805], [-12.78718, 7.774075], [-12.787506, 7.804592], [-12.759836, 7.821845], [-12.828725, 7.798285], [-12.875885, 7.828681], [-12.89859, 7.865709], [-12.937856, 7.886379], [-12.959096, 7.9112], [-12.905507, 7.934149], [-12.871002, 7.93651], [-12.821278, 7.917426], [-12.888417, 7.975287], [-12.911773, 8.030666], [-12.895172, 8.079576], [-12.875885, 8.103013], [-12.90807, 8.107408], [-12.944814, 8.164496], [-12.981068, 8.186225], [-12.985097, 8.216702], [-12.972076, 8.253852], [-12.99942, 8.24018], [-13.090443, 8.224595], [-13.16393, 8.171291], [-13.16393, 8.274359], [-13.210276, 8.339057], [-13.223866, 8.345649], [-13.274159, 8.420885], [-13.286773, 8.424506], [-13.266957, 8.462714], [-13.286773, 8.50023], [-13.252675, 8.497545], [-13.245839, 8.486558], [-13.228912, 8.49372], [-13.192983, 8.487779], [-13.164866, 8.464993], [-13.144399, 8.43122], [-13.060374, 8.372707], [-13.033559, 8.376695], [-13.033559, 8.383531], [-13.063832, 8.399156], [-13.067698, 8.410875], [-13.054067, 8.410875], [-13.054067, 8.41767], [-13.110951, 8.433824], [-13.1256, 8.449042], [-13.116119, 8.472968], [-13.061513, 8.50023], [-13.039947, 8.52676], [-13.026723, 8.520697], [-13.013051, 8.561713], [-12.907216, 8.548041], [-12.8697, 8.569159], [-12.92809, 8.57217], [-12.931142, 8.582831], [-12.911936, 8.606838], [-12.875885, 8.685207], [-12.936431, 8.607001], [-12.972076, 8.596422], [-13.018056, 8.600165], [-13.043935, 8.584703], [-13.061838, 8.583197], [-13.078481, 8.589016], [-13.088775, 8.602688], [-13.066274, 8.606838], [-13.026723, 8.651068], [-13.054067, 8.66474], [-13.063547, 8.633938], [-13.081939, 8.616929], [-13.098012, 8.621894], [-13.13036, 8.657904], [-13.148427, 8.653388], [-13.157704, 8.670966], [-13.162587, 8.653998], [-13.154286, 8.643052], [-13.122914, 8.630561], [-13.136586, 8.623765], [-13.109039, 8.603339], [-13.107493, 8.581], [-13.143422, 8.541815], [-13.144114, 8.517401], [-13.162424, 8.517646], [-13.195058, 8.569159], [-13.216908, 8.632554], [-13.2412, 8.672187], [-13.235219, 8.719916], [-13.240224, 8.825832], [-13.21227, 8.857123], [-13.200917, 8.859809], [-13.184967, 8.843492], [-13.108144, 8.844062], [-13.04308, 8.858344], [-12.985707, 8.857123], [-13.026967, 8.869696], [-13.041086, 8.861233], [-13.088775, 8.870185], [-13.13036, 8.864081], [-13.13976, 8.881415], [-13.157704, 8.884467], [-13.142649, 8.916734], [-13.075103, 8.931627], [-13.075103, 8.939114], [-13.092519, 8.944648], [-13.180979, 8.923041], [-13.206125, 8.928371], [-13.225738, 8.942532], [-13.232818, 8.966376], [-13.240224, 8.952094], [-13.254872, 8.966376], [-13.266957, 8.952094], [-13.288442, 8.969468], [-13.285024, 9.017035], [-13.301096, 9.04149], [-13.277376, 9.058595], [-13.207535, 9.076708], [-13.153844, 9.04932], [-13.115913, 9.043945], [-13.028864, 9.095983], [-12.984164, 9.172309], [-12.959153, 9.177839], [-12.97835, 9.21285], [-12.957912, 9.272433], [-12.937009, 9.287083], [-12.917527, 9.267007], [-12.895642, 9.278505], [-12.835827, 9.281967], [-12.795261, 9.33509], [-12.764152, 9.347673], [-12.767795, 9.372323], [-12.759759, 9.382839], [-12.737228, 9.397231], [-12.72294, 9.392089], [-12.701597, 9.420227], [-12.668628, 9.542364], [-12.649921, 9.552105], [-12.633849, 9.597865], [-12.606823, 9.600707], [-12.601552, 9.651712], [-12.582251, 9.683364], [-12.538765, 9.711915], [-12.53569, 9.732792], [-12.522461, 9.734472], [-12.527267, 9.753618], [-12.514322, 9.851312], [-12.472335, 9.881258], [-12.426989, 9.897614], [-12.276739, 9.929266], [-12.253588, 9.928413], [-12.193644, 9.886064], [-12.141347, 9.874876], [-11.921774, 9.922212], [-11.914953, 9.931488], [-11.910095, 9.992518], [-11.247293, 9.993396], [-11.199596, 9.982157], [-11.188537, 9.972597], [-11.16027, 9.872758], [-11.085959, 9.826171], [-11.044928, 9.78713], [-11.010098, 9.74274], [-10.968499, 9.654244], [-10.940129, 9.639697], [-10.92168, 9.595901], [-10.886333, 9.568409], [-10.877703, 9.532675], [-10.852589, 9.512082], [-10.854862, 9.455264], [-10.811454, 9.408264], [-10.831763, 9.392141], [-10.765462, 9.385216], [-10.741536, 9.357053], [-10.675132, 9.306461], [-10.688051, 9.259281], [-10.685209, 9.224503], [-10.724741, 9.194504], [-10.74257, 9.163292], [-10.753473, 9.120116], [-10.746342, 9.083814], [-10.710427, 9.072987], [-10.629346, 9.070352], [-10.594103, 9.0541], [-10.61188, 8.94514], [-10.610123, 8.872302], [-10.599684, 8.81538], [-10.530231, 8.739158], [-10.481862, 8.672469], [-10.503308, 8.631567], [-10.522118, 8.618571], [-10.565423, 8.612783], [-10.631879, 8.532013], [-10.643868, 8.486873], [-10.654668, 8.485504], [-10.669086, 8.399075], [-10.725, 8.319855], [-10.735283, 8.287299], [-10.715181, 8.2696], [-10.707895, 8.303138], [-10.688154, 8.324067], [-10.659784, 8.333265], [-10.626711, 8.331508], [-10.572657, 8.304585], [-10.554364, 8.311845], [-10.519276, 8.33479], [-10.46021, 8.39215], [-10.414062, 8.470182], [-10.389775, 8.489095], [-10.344299, 8.499069], [-10.282236, 8.484625], [-10.282908, 8.432949]]], [[[-12.504384, 7.561021], [-12.50182, 7.502387], [-12.526438, 7.465562], [-12.519643, 7.40412], [-12.549672, 7.389635], [-12.565785, 7.395657], [-12.574859, 7.410346], [-12.554433, 7.410346], [-12.60554, 7.478664], [-12.731801, 7.511298], [-12.764394, 7.527981], [-12.849233, 7.540676], [-12.95165, 7.56802], [-12.95165, 7.575426], [-12.914296, 7.584418], [-12.898061, 7.610745], [-12.88329, 7.6164], [-12.735666, 7.622545], [-12.621409, 7.639716], [-12.581125, 7.630072], [-12.595855, 7.612738], [-12.586049, 7.607611], [-12.529652, 7.603827], [-12.492991, 7.56802], [-12.504384, 7.561021]]]]}}, {"type": "Feature", "properties": {"name": "Guinea"}, "geometry": {"type": "Polygon", "coordinates": [[[-13.321604, 9.056627], [-13.322174, 9.083075], [-13.300649, 9.084621], [-13.301096, 9.096137], [-13.243072, 9.169745], [-13.225942, 9.179267], [-13.176137, 9.173651], [-13.157704, 9.179267], [-13.157704, 9.185492], [-13.247304, 9.186021], [-13.259511, 9.196357], [-13.245839, 9.213446], [-13.232818, 9.267401], [-13.254872, 9.244818], [-13.280629, 9.165025], [-13.315297, 9.182074], [-13.322174, 9.192939], [-13.313588, 9.197943], [-13.307932, 9.250312], [-13.322174, 9.261217], [-13.325347, 9.311021], [-13.318674, 9.329495], [-13.301096, 9.315863], [-13.301096, 9.356838], [-13.352854, 9.338772], [-13.374501, 9.272773], [-13.407786, 9.287014], [-13.411977, 9.293402], [-13.404124, 9.308417], [-13.423818, 9.332913], [-13.431996, 9.37108], [-13.396637, 9.439358], [-13.428375, 9.420722], [-13.465403, 9.418158], [-13.499176, 9.428778], [-13.513987, 9.449612], [-13.520741, 9.495103], [-13.493235, 9.534857], [-13.486684, 9.569078], [-13.49352, 9.569078], [-13.529042, 9.505683], [-13.547475, 9.50019], [-13.575266, 9.527248], [-13.58845, 9.569078], [-13.677968, 9.522691], [-13.714345, 9.507636], [-13.726226, 9.511054], [-13.652659, 9.597154], [-13.625803, 9.647284], [-13.623199, 9.727362], [-13.566518, 9.771064], [-13.561106, 9.788235], [-13.594309, 9.774237], [-13.604115, 9.780178], [-13.651194, 9.842841], [-13.664784, 9.836615], [-13.650543, 9.777004], [-13.661285, 9.754543], [-13.692128, 9.740383], [-13.728912, 9.744086], [-13.747182, 9.767768], [-13.749827, 9.799872], [-13.739898, 9.829169], [-13.698313, 9.880764], [-13.681996, 9.913479], [-13.685292, 9.946479], [-13.693959, 9.953803], [-13.702016, 9.911689], [-13.749745, 9.863471], [-13.788686, 9.850043], [-13.842844, 9.860785], [-13.886098, 9.912177], [-13.927642, 9.93594], [-13.945383, 9.966946], [-13.979482, 9.974351], [-14.005677745626194, 10.0], [-8.149547009522168, 10.0], [-8.15849, 9.984921], [-8.136269, 9.969444], [-8.140093, 9.959703], [-8.173837, 9.941875], [-8.167895, 9.914693], [-8.14955, 9.90534], [-8.150996, 9.866143], [-8.128104, 9.866246], [-8.123505, 9.844852], [-8.16159, 9.575644], [-8.157611, 9.530866], [-8.145364, 9.497148], [-8.087176, 9.415395], [-8.054051, 9.389092], [-7.991575, 9.38532], [-7.91189, 9.418651], [-7.8706, 9.418599], [-7.865381, 9.409918], [-7.89494, 9.307133], [-7.930648, 9.220291], [-7.929563, 9.183885], [-7.878713, 9.163912], [-7.847914, 9.168563], [-7.823368, 9.131976], [-7.746783, 9.07645], [-7.764198, 9.063608], [-7.827037, 9.05782], [-7.916747, 9.012345], [-7.931837, 8.996558], [-7.96894, 8.812848], [-7.958915, 8.781997], [-7.831016, 8.747658], [-7.816056, 8.753524], [-7.803679, 8.749054], [-7.765129, 8.706085], [-7.741202, 8.662909], [-7.696812, 8.624849], [-7.691696, 8.546663], [-7.679242, 8.505089], [-7.689578, 8.438659], [-7.662447, 8.374865], [-7.720738, 8.368534], [-7.748334, 8.372307], [-7.77102, 8.386518], [-7.823833, 8.477856], [-7.845744, 8.474316], [-7.848586, 8.428634], [-7.865588, 8.420882], [-7.912871, 8.434189], [-7.943877, 8.484625], [-7.970542, 8.49695], [-8.015708, 8.487209], [-8.050667, 8.487674], [-8.076634, 8.503255], [-8.150531, 8.486486], [-8.200296, 8.491834], [-8.248872, 8.453568], [-8.254298, 8.434499], [-8.236883, 8.400083], [-8.235281, 8.379515], [-8.247631, 8.322568], [-8.245306, 8.285077], [-8.265977, 8.245984], [-8.182932, 8.191672], [-8.085522, 8.162035], [-8.003305, 8.184049], [-8.021289, 8.102659], [-8.015708, 8.088474], [-7.980413, 8.058992], [-7.962636, 8.015171], [-7.980361, 8.016566], [-8.011987, 8.035557], [-8.069089, 8.029278], [-8.079115, 7.957655], [-8.128879, 7.882569], [-8.131204, 7.842416], [-8.101439, 7.812806], [-8.098261, 7.791877], [-8.115133, 7.776891], [-8.12738, 7.713019], [-8.159523, 7.676328], [-8.158024, 7.658242], [-8.197867, 7.618554], [-8.200244, 7.576335], [-8.228976, 7.544295], [-8.265356, 7.560056], [-8.303235, 7.589305], [-8.336773, 7.597832], [-8.390878, 7.585791], [-8.414805, 7.612921], [-8.440023, 7.599899], [-8.485446, 7.557989], [-8.54782, 7.600777], [-8.566527, 7.623412], [-8.57278, 7.650749], [-8.567405, 7.688214], [-8.686571, 7.694364], [-8.727576, 7.622017], [-8.739178, 7.565689], [-8.726827, 7.55184], [-8.729617, 7.50869], [-8.756489, 7.472413], [-8.790389, 7.450812], [-8.799226, 7.41221], [-8.83341, 7.393865], [-8.865371, 7.346891], [-8.851367, 7.292889], [-8.857827, 7.273046], [-8.925419, 7.248603], [-8.9572, 7.286481], [-8.962575, 7.262969], [-8.977716, 7.266224], [-8.981023, 7.250566], [-9.032855, 7.240283], [-9.073111, 7.211344], [-9.113935, 7.200388], [-9.125407, 7.190208], [-9.116054, 7.224676], [-9.11962, 7.237957], [-9.146905, 7.25408], [-9.15308, 7.275474], [-9.181476, 7.275681], [-9.206281, 7.298367], [-9.219872, 7.360999], [-9.234341, 7.381308], [-9.299505, 7.376605], [-9.319401, 7.411952], [-9.349218, 7.421564], [-9.375159, 7.41929], [-9.407354, 7.378052], [-9.438101, 7.421564], [-9.478357, 7.376915], [-9.490708, 7.376037], [-9.4735, 7.39557], [-9.466213, 7.433449], [-9.436086, 7.458564], [-9.4134, 7.492257], [-9.404925, 7.513599], [-9.408697, 7.527449], [-9.38366, 7.55954], [-9.372989, 7.601346], [-9.353507, 7.62243], [-9.374694, 7.646925], [-9.376245, 7.680566], [-9.355471, 7.741906], [-9.43867, 7.866239], [-9.448437, 7.907839], [-9.446008, 7.950058], [-9.424562, 8.005817], [-9.424149, 8.026178], [-9.440944, 8.050569], [-9.451537, 8.051758], [-9.474223, 8.028813], [-9.459805, 8.068785], [-9.481406, 8.164697], [-9.530137, 8.185496], [-9.525435, 8.24079], [-9.509156, 8.265595], [-9.539387, 8.314584], [-9.499131, 8.343471], [-9.529052, 8.366312], [-9.579178, 8.387293], [-9.600159, 8.410883], [-9.619537, 8.392719], [-9.67726, 8.39153], [-9.675916, 8.409643], [-9.645117, 8.443413], [-9.650543, 8.464807], [-9.683513, 8.487054], [-9.703253, 8.487261], [-9.7155, 8.473334], [-9.722115, 8.435636], [-9.7463, 8.468063], [-9.757307, 8.53271], [-9.773585, 8.563018], [-9.790586, 8.565396], [-9.790018, 8.553071], [-9.808854, 8.528473], [-9.806813, 8.506252], [-9.858644, 8.487054], [-9.872804, 8.500361], [-9.944169, 8.488346], [-10.04039, 8.425663], [-10.061681, 8.422174], [-10.075013, 8.426644], [-10.079354, 8.439951], [-10.069277, 8.486873], [-10.076099, 8.501498], [-10.147981, 8.524287], [-10.181829, 8.519584], [-10.23242, 8.477055], [-10.240275, 8.493746], [-10.293708, 8.483075], [-10.337581, 8.498552], [-10.374737, 8.49478], [-10.414062, 8.470182], [-10.46021, 8.39215], [-10.519276, 8.33479], [-10.554364, 8.311845], [-10.572657, 8.304585], [-10.626711, 8.331508], [-10.659784, 8.333265], [-10.688154, 8.324067], [-10.707895, 8.303138], [-10.715181, 8.2696], [-10.735283, 8.287299], [-10.725, 8.319855], [-10.669086, 8.399075], [-10.654668, 8.485504], [-10.643868, 8.486873], [-10.631879, 8.532013], [-10.565423, 8.612783], [-10.522118, 8.618571], [-10.503308, 8.631567], [-10.481862, 8.672469], [-10.530231, 8.739158], [-10.599684, 8.81538], [-10.610123, 8.872302], [-10.61188, 8.94514], [-10.594103, 9.0541], [-10.629346, 9.070352], [-10.710427, 9.072987], [-10.746342, 9.083814], [-10.753473, 9.120116], [-10.74257, 9.163292], [-10.724741, 9.194504], [-10.685209, 9.224503], [-10.688051, 9.259281], [-10.675132, 9.306461], [-10.741536, 9.357053], [-10.765462, 9.385216], [-10.831763, 9.392141], [-10.811454, 9.408264], [-10.854862, 9.455264], [-10.852589, 9.512082], [-10.877703, 9.532675], [-10.886333, 9.568409], [-10.92168, 9.595901], [-10.940129, 9.639697], [-10.968499, 9.654244], [-11.010098, 9.74274], [-11.044928, 9.78713], [-11.085959, 9.826171], [-11.16027, 9.872758], [-11.188537, 9.972597], [-11.199596, 9.982157], [-11.272666, 9.996006], [-11.910095, 9.992518], [-11.914953, 9.931488], [-11.921774, 9.922212], [-12.141347, 9.874876], [-12.193644, 9.886064], [-12.253588, 9.928413], [-12.276739, 9.929266], [-12.426989, 9.897614], [-12.472335, 9.881258], [-12.514322, 9.851312], [-12.527267, 9.753618], [-12.522461, 9.734472], [-12.53569, 9.732792], [-12.538765, 9.711915], [-12.582251, 9.683364], [-12.601552, 9.651712], [-12.606823, 9.600707], [-12.633849, 9.597865], [-12.649921, 9.552105], [-12.668628, 9.542364], [-12.701597, 9.420227], [-12.72294, 9.392089], [-12.737228, 9.397231], [-12.759759, 9.382839], [-12.767795, 9.372323], [-12.764152, 9.347673], [-12.795261, 9.33509], [-12.835827, 9.281967], [-12.895642, 9.278505], [-12.917527, 9.267007], [-12.937009, 9.287083], [-12.957912, 9.272433], [-12.97835, 9.21285], [-12.959153, 9.177839], [-12.984164, 9.172309], [-13.028864, 9.095983], [-13.115913, 9.043945], [-13.153844, 9.04932], [-13.207535, 9.076708], [-13.277376, 9.058595], [-13.301096, 9.04149], [-13.321604, 9.056627]]]}}, {"type": "Feature", "properties": {"name": "Liberia"}, "geometry": {"type": "Polygon", "coordinates": [[[-11.436739, 6.938544], [-11.434672, 6.980815], [-11.407283, 6.99637], [-11.397723, 7.012803], [-11.389714, 7.073523], [-11.355142, 7.084065], [-11.356434, 7.105356], [-11.373229, 7.138842], [-11.317211, 7.213566], [-11.217889, 7.25408], [-11.126319, 7.368027], [-10.977904, 7.484919], [-10.874603, 7.530859], [-10.730581, 7.705474], [-10.692598, 7.737565], [-10.645418, 7.763041], [-10.615187, 7.769036], [-10.617668, 8.010778], [-10.612138, 8.031862], [-10.56718, 8.063204], [-10.529249, 8.124286], [-10.485738, 8.138858], [-10.384555, 8.142114], [-10.34554, 8.159348], [-10.320942, 8.183119], [-10.331277, 8.272287], [-10.313655, 8.310347], [-10.282908, 8.432949], [-10.282236, 8.484625], [-10.240275, 8.493746], [-10.23242, 8.477055], [-10.181829, 8.519584], [-10.164879, 8.524649], [-10.091085, 8.510102], [-10.076099, 8.501498], [-10.069277, 8.486873], [-10.079354, 8.439951], [-10.075013, 8.426644], [-10.061681, 8.422174], [-10.04039, 8.425663], [-9.944169, 8.488346], [-9.872804, 8.500361], [-9.858644, 8.487054], [-9.806813, 8.506252], [-9.808854, 8.528473], [-9.790018, 8.553071], [-9.790586, 8.565396], [-9.773585, 8.563018], [-9.757307, 8.53271], [-9.7463, 8.468063], [-9.722115, 8.435636], [-9.7155, 8.473334], [-9.703253, 8.487261], [-9.683513, 8.487054], [-9.650543, 8.464807], [-9.645117, 8.443413], [-9.675916, 8.409643], [-9.67726, 8.39153], [-9.619537, 8.392719], [-9.600159, 8.410883], [-9.579178, 8.387293], [-9.529052, 8.366312], [-9.499131, 8.343471], [-9.539387, 8.314584], [-9.509156, 8.265595], [-9.525435, 8.24079], [-9.530137, 8.185496], [-9.481406, 8.164697], [-9.459805, 8.068785], [-9.474223, 8.028813], [-9.451537, 8.051758], [-9.440944, 8.050569], [-9.424149, 8.026178], [-9.424562, 8.005817], [-9.446008, 7.950058], [-9.448437, 7.907839], [-9.43867, 7.866239], [-9.355471, 7.741906], [-9.376245, 7.680566], [-9.374694, 7.646925], [-9.353507, 7.62243], [-9.372989, 7.601346], [-9.38366, 7.55954], [-9.408697, 7.527449], [-9.404925, 7.513599], [-9.4134, 7.492257], [-9.436086, 7.458564], [-9.466213, 7.433449], [-9.4735, 7.39557], [-9.490708, 7.376037], [-9.478357, 7.376915], [-9.438101, 7.421564], [-9.407354, 7.378052], [-9.375159, 7.41929], [-9.349218, 7.421564], [-9.319401, 7.411952], [-9.299505, 7.376605], [-9.234341, 7.381308], [-9.219872, 7.360999], [-9.206281, 7.298367], [-9.181476, 7.275681], [-9.15308, 7.275474], [-9.146905, 7.25408], [-9.11962, 7.237957], [-9.116054, 7.224676], [-9.125407, 7.190208], [-9.113935, 7.200388], [-9.073111, 7.211344], [-9.032855, 7.240283], [-8.981023, 7.250566], [-8.977716, 7.266224], [-8.962575, 7.262969], [-8.9572, 7.286481], [-8.925419, 7.248603], [-8.91219, 7.250153], [-8.857827, 7.273046], [-8.851367, 7.292889], [-8.863304, 7.32989], [-8.860617, 7.35764], [-8.83341, 7.393865], [-8.799226, 7.41221], [-8.790389, 7.450812], [-8.756489, 7.472413], [-8.729617, 7.50869], [-8.726827, 7.55184], [-8.739178, 7.565689], [-8.727576, 7.622017], [-8.686571, 7.694364], [-8.567405, 7.688214], [-8.57278, 7.650749], [-8.566527, 7.623412], [-8.515625, 7.577161], [-8.44364, 7.537112], [-8.425605, 7.50192], [-8.405141, 7.431279], [-8.387675, 7.314955], [-8.32897, 7.204006], [-8.329745, 7.178323], [-8.305354, 7.146903], [-8.284115, 7.017867], [-8.286647, 6.993786], [-8.319978, 6.95999], [-8.320909, 6.910174], [-8.333673, 6.882578], [-8.315715, 6.86382], [-8.314966, 6.850281], [-8.337497, 6.777262], [-8.461313, 6.633421], [-8.567198, 6.550609], [-8.572728, 6.530843], [-8.594122, 6.523892], [-8.61872, 6.492835], [-8.556501, 6.487021], [-8.515625, 6.437593], [-8.497229, 6.431366], [-8.484775, 6.441572], [-8.467515, 6.487073], [-8.418267, 6.451209], [-8.405089, 6.436327], [-8.419042, 6.407646], [-8.405968, 6.372248], [-8.423693, 6.351991], [-8.411807, 6.340028], [-8.388811, 6.355091], [-8.36597, 6.350079], [-8.352948, 6.36106], [-8.322356, 6.336462], [-8.310005, 6.344627], [-8.302718, 6.340648], [-8.29507, 6.313363], [-8.208486, 6.292537], [-8.170582, 6.274011], [-8.140609, 6.277577], [-8.106606, 6.294681], [-8.033019, 6.301761], [-7.999378, 6.286697], [-7.91437, 6.271737], [-7.906567, 6.251997], [-7.846622, 6.197478], [-7.844142, 6.183965], [-7.862022, 6.124382], [-7.861815, 6.08149], [-7.850911, 6.067564], [-7.82838, 6.080715], [-7.809674, 6.071207], [-7.802439, 6.039245], [-7.786471, 6.025111], [-7.799958, 6.010151], [-7.800682, 5.981729], [-7.786626, 5.958165], [-7.747145, 5.937597], [-7.717173, 5.900752], [-7.70322, 5.907883], [-7.680483, 5.94093], [-7.64834, 5.911294], [-7.584158, 5.883699], [-7.579093, 5.877188], [-7.587207, 5.866775], [-7.559146, 5.839851], [-7.527779, 5.858842], [-7.531086, 5.842022], [-7.515583, 5.839231], [-7.494396, 5.806184], [-7.481683, 5.830214], [-7.478583, 5.859876], [-7.446543, 5.845949], [-7.442047, 5.811274], [-7.449489, 5.732364], [-7.43104, 5.653971], [-7.384118, 5.568964], [-7.405099, 5.5724], [-7.41192, 5.560359], [-7.393627, 5.523979], [-7.419982, 5.523127], [-7.408148, 5.511784], [-7.432384, 5.479563], [-7.436208, 5.431323], [-7.450212, 5.438713], [-7.449954, 5.422771], [-7.429697, 5.374298], [-7.396934, 5.366444], [-7.389751, 5.317144], [-7.418793, 5.260455], [-7.428508, 5.25614], [-7.435175, 5.279291], [-7.428508, 5.288154], [-7.439929, 5.290169], [-7.475689, 5.264228], [-7.490468, 5.222189], [-7.482252, 5.17506], [-7.488918, 5.140669], [-7.515841, 5.091809], [-7.546847, 5.0977], [-7.563229, 5.090156], [-7.575786, 5.072069], [-7.5716, 4.975382], [-7.555322, 4.948433], [-7.549534, 4.913887], [-7.574959, 4.921561], [-7.6055, 4.897428], [-7.598834, 4.857095], [-7.606017, 4.816193], [-7.579558, 4.784283], [-7.572479, 4.723356], [-7.576871, 4.509338], [-7.564314, 4.425829], [-7.579197, 4.387149], [-7.573771, 4.375393], [-7.540666, 4.352845], [-7.593251, 4.347235], [-7.644439, 4.361518], [-7.712717, 4.361518], [-7.733225, 4.382025], [-7.801015, 4.406317], [-7.832875, 4.452216], [-7.942006, 4.504869], [-8.037506, 4.528754], [-8.100331, 4.55329], [-8.222035, 4.568061], [-8.257314, 4.579983], [-8.300201, 4.627265], [-8.438547, 4.676174], [-8.607533, 4.786933], [-8.778147, 4.854315], [-8.874338, 4.930121], [-8.936106, 4.95539], [-8.991322, 4.967515], [-9.031972, 4.991441], [-9.025787, 4.998928], [-9.069651, 5.010972], [-9.10497, 5.031562], [-9.162262, 5.080878], [-9.278717, 5.145738], [-9.291982, 5.163479], [-9.278961, 5.163479], [-9.292144, 5.181627], [-9.354075, 5.211168], [-9.470815, 5.320461], [-9.488515, 5.371649], [-9.508046, 5.399604], [-9.541819, 5.419827], [-9.593658, 5.430325], [-9.580719, 5.464504], [-9.596995, 5.488349], [-9.696767, 5.546373], [-9.842112, 5.685452], [-9.979644, 5.798082], [-10.046213, 5.861721], [-10.046213, 5.89643], [-10.055531, 5.91177], [-10.11498, 5.943305], [-10.185699, 5.999091], [-10.226552, 6.043606], [-10.279897, 6.076972], [-10.353668, 6.102362], [-10.364125, 6.115668], [-10.36148, 6.129218], [-10.344472, 6.122707], [-10.333567, 6.136054], [-10.353627, 6.140611], [-10.395619, 6.176988], [-10.444692, 6.203843], [-10.463938, 6.204983], [-10.463938, 6.197496], [-10.389394, 6.152167], [-10.381947, 6.129218], [-10.397125, 6.147854], [-10.456695, 6.177476], [-10.659413, 6.227484], [-10.788319, 6.292955], [-10.807851, 6.310858], [-10.800364, 6.327826], [-10.790354, 6.31391], [-10.772369, 6.307359], [-10.789052, 6.334947], [-10.792348, 6.359036], [-10.782338, 6.381415], [-10.759389, 6.404202], [-10.784088, 6.401272], [-10.800364, 6.389879], [-10.82433, 6.43773], [-10.85733, 6.472846], [-10.895904, 6.49901], [-11.053619, 6.584174], [-11.233062, 6.648098], [-11.353179, 6.701158], [-11.374867, 6.726874], [-11.368276, 6.811347], [-11.381947, 6.836819], [-11.44107, 6.873277], [-11.476186, 6.91942], [-11.436739, 6.938544]]]}}, {"type": "Feature", "properties": {"name": "C\u00f4te d'Ivoire"}, "geometry": {"type": "MultiPolygon", "coordinates": [[[[-4.952949, 9.953373], [-4.966075, 9.901025], [-4.928015, 9.870949], [-4.917085, 9.886478], [-4.898017, 9.888907], [-4.890059, 9.879501], [-4.83846, 9.86945], [-4.824274, 9.856971], [-4.817557, 9.836455], [-4.798462, 9.842527], [-4.775905, 9.788008], [-4.810115, 9.781781], [-4.796447, 9.754496], [-4.783192, 9.758372], [-4.769963, 9.737365], [-4.75477, 9.740208], [-4.758594, 9.753308], [-4.738337, 9.753153], [-4.712808, 9.726849], [-4.70547, 9.702096], [-4.681079, 9.682072], [-4.655809, 9.706075], [-4.628731, 9.707703], [-4.604029, 9.727159], [-4.57832, 9.696515], [-4.552198, 9.696464], [-4.539098, 9.744703], [-4.509953, 9.745065], [-4.501607, 9.737107], [-4.515921, 9.67569], [-4.50171, 9.655019], [-4.409106, 9.647733], [-4.391588, 9.600294], [-4.371175, 9.582956], [-4.365026, 9.624168], [-4.322548, 9.608898], [-4.315933, 9.616623], [-4.300482, 9.654296], [-4.303299, 9.686723], [-4.267513, 9.727263], [-4.283636, 9.732017], [-4.270329, 9.743928], [-4.196974, 9.764961], [-4.150259, 9.818291], [-4.13305, 9.820409], [-4.053675, 9.79762], [-4.050317, 9.810307], [-4.034969, 9.817619], [-3.994609, 9.820771], [-3.984042, 9.851157], [-3.910093, 9.888493], [-3.804259, 9.901386], [-3.779739, 9.924692], [-3.755037, 9.93588], [-3.706462, 9.941823], [-3.679641, 9.932211], [-3.661658, 9.948929], [-3.62334, 9.921747], [-3.606261, 9.918181], [-3.546471, 9.926139], [-3.389168, 9.913246], [-3.348344, 9.886995], [-3.317183, 9.901335], [-3.311809, 9.854128], [-3.301732, 9.841132], [-3.277857, 9.843457], [-3.21476, 9.915623], [-3.202565, 9.908234], [-3.200007, 9.845369], [-3.182566, 9.835163], [-3.136936, 9.82953], [-3.116911, 9.805294], [-3.094561, 9.733851], [-3.077094, 9.719408], [-3.024643, 9.728606], [-3.005677, 9.724162], [-2.989994, 9.708427], [-2.910154, 9.542726], [-2.810418, 9.411106], [-2.787603, 9.393717], [-2.763677, 9.391883], [-2.744918, 9.408109], [-2.720475, 9.459217], [-2.689211, 9.488724], [-2.675672, 9.471723], [-2.672416, 9.374028], [-2.677532, 9.357001], [-2.713344, 9.329923], [-2.714998, 9.311061], [-2.692983, 9.285326], [-2.659807, 9.272898], [-2.661151, 9.253907], [-2.673088, 9.23489], [-2.704817, 9.218405], [-2.733911, 9.164842], [-2.755202, 9.143138], [-2.7613, 9.084795], [-2.774839, 9.054978], [-2.750809, 9.037408], [-2.686059, 9.028261], [-2.660789, 9.014903], [-2.63769, 8.931471], [-2.619448, 8.923617], [-2.595573, 8.828067], [-2.596658, 8.814398], [-2.614642, 8.801919], [-2.617226, 8.78918], [-2.612161, 8.780964], [-2.603118, 8.78515], [-2.598364, 8.769466], [-2.506328, 8.209267], [-2.513201, 8.194023], [-2.558108, 8.167694], [-2.57175, 8.16312], [-2.604255, 8.170794], [-2.610663, 8.164852], [-2.621877, 8.135732], [-2.599759, 8.070387], [-2.610559, 8.040001], [-2.690865, 8.009745], [-2.771221, 7.930732], [-2.790626, 7.943289], [-2.801194, 7.85022], [-2.840003, 7.820247], [-2.838168, 7.796838], [-2.855945, 7.771568], [-2.941521, 7.577161], [-2.990459, 7.270668], [-2.972811, 7.214961], [-3.032601, 7.128352], [-3.040869, 7.078329], [-3.109599, 7.046393], [-3.224941, 6.849402], [-3.241684, 6.810903], [-3.243079, 6.774756], [-3.210419, 6.715999], [-3.230057, 6.661119], [-3.253905, 6.644428], [-3.262509, 6.617142], [-3.183599, 6.263908], [-3.139364, 6.219286], [-3.118074, 6.163475], [-3.087765, 5.996689], [-3.022524, 5.854502], [-3.029759, 5.704252], [-2.964801, 5.709782], [-2.974904, 5.647279], [-2.969504, 5.621441], [-2.945862, 5.608289], [-2.926302, 5.610718], [-2.877494, 5.636815], [-2.806258, 5.618495], [-2.785588, 5.595034], [-2.779438, 5.526485], [-2.761713, 5.454914], [-2.730139, 5.373162], [-2.742593, 5.343138], [-2.789567, 5.346858], [-2.79613, 5.284976], [-2.774891, 5.239578], [-2.778818, 5.201001], [-2.75701, 5.179866], [-2.766622, 5.16103], [-2.780885, 5.150875], [-2.843699, 5.149115], [-2.846181, 5.176988], [-2.946685, 5.177069], [-2.938466, 5.156928], [-2.943512, 5.136786], [-2.957997, 5.121161], [-2.977773, 5.114976], [-3.062815, 5.156643], [-3.13915, 5.14232], [-3.162465, 5.184149], [-3.205068, 5.218655], [-3.172719, 5.252183], [-3.159088, 5.30744], [-3.127919, 5.324897], [-3.127756, 5.359605], [-3.146067, 5.368842], [-3.16275, 5.368842], [-3.189768, 5.354641], [-3.22053, 5.362047], [-3.262074, 5.340888], [-3.246938, 5.297593], [-3.254303, 5.283596], [-3.282623, 5.280178], [-3.278188, 5.265448], [-3.289418, 5.252183], [-3.273061, 5.241156], [-3.240956, 5.238511], [-3.240956, 5.231676], [-3.275787, 5.225491], [-3.303049, 5.190131], [-3.313588, 5.197252], [-3.320709, 5.193508], [-3.319, 5.184801], [-3.303049, 5.177069], [-3.30899, 5.163764], [-3.30309, 5.155707], [-3.275787, 5.149115], [-3.312164, 5.11994], [-3.378041, 5.123196], [-3.631988, 5.177069], [-3.710113, 5.186103], [-3.721425, 5.193834], [-3.717275, 5.210191], [-3.728871, 5.225491], [-3.721425, 5.238511], [-3.739654, 5.217108], [-3.748036, 5.190131], [-3.786855, 5.198961], [-3.827504, 5.197577], [-3.885854, 5.225491], [-3.98705, 5.243964], [-4.001943, 5.266506], [-3.96231, 5.262437], [-3.932973, 5.286933], [-3.902903, 5.258979], [-3.893666, 5.267483], [-3.899526, 5.286933], [-3.851186, 5.269761], [-3.834137, 5.272854], [-3.77538, 5.244778], [-3.782216, 5.266506], [-3.728871, 5.266506], [-3.715688, 5.282294], [-3.741851, 5.310533], [-3.758901, 5.366197], [-3.804921, 5.375963], [-3.813303, 5.374416], [-3.814036, 5.359809], [-3.792714, 5.344631], [-3.752349, 5.294582], [-3.735015, 5.286933], [-3.743967, 5.273993], [-3.776275, 5.279039], [-3.796498, 5.272691], [-3.80899, 5.287787], [-3.866689, 5.303616], [-3.878407, 5.326646], [-3.891998, 5.313625], [-3.899526, 5.348375], [-3.906321, 5.348375], [-3.912587, 5.322211], [-3.920969, 5.31623], [-3.932973, 5.320461], [-3.95165, 5.312934], [-3.974599, 5.320461], [-4.009348, 5.313625], [-3.983998, 5.30093], [-3.954742, 5.30744], [-3.940541, 5.293158], [-3.989084, 5.26911], [-4.060902, 5.299547], [-4.078521, 5.287787], [-4.125478, 5.30744], [-4.160146, 5.293402], [-4.173899, 5.299994], [-4.186187, 5.294094], [-4.200551, 5.30744], [-4.241038, 5.283922], [-4.255767, 5.286933], [-4.248931, 5.30744], [-4.274566, 5.312405], [-4.297353, 5.299994], [-4.321441, 5.310981], [-4.351308, 5.272691], [-4.392405, 5.299994], [-4.423818, 5.281562], [-4.433909, 5.293158], [-4.426503, 5.299994], [-4.463531, 5.298245], [-4.477691, 5.291327], [-4.481679, 5.272691], [-4.463775, 5.276109], [-4.453725, 5.258979], [-4.543772, 5.266506], [-4.563629, 5.299994], [-4.569692, 5.282538], [-4.557485, 5.266506], [-4.589182, 5.256578], [-4.612131, 5.238511], [-4.630605, 5.250556], [-4.651967, 5.249172], [-4.687164, 5.231676], [-4.714467, 5.252183], [-4.702789, 5.257392], [-4.667307, 5.252183], [-4.672597, 5.268052], [-4.687164, 5.272691], [-4.6704, 5.291897], [-4.667307, 5.313625], [-4.673451, 5.313625], [-4.68578, 5.290595], [-4.702504, 5.278306], [-4.749257, 5.272691], [-4.722157, 5.252265], [-4.742177, 5.234565], [-4.803822, 5.204413], [-4.808583, 5.180487], [-4.783355, 5.170315], [-4.74767, 5.172349], [-4.737457, 5.179348], [-4.742421, 5.197577], [-4.704742, 5.21133], [-4.687164, 5.197577], [-4.65453, 5.209418], [-4.608306, 5.211168], [-4.584788, 5.197577], [-4.55956, 5.196967], [-4.536366, 5.204413], [-4.558827, 5.204169], [-4.571034, 5.218004], [-4.530141, 5.231676], [-4.530141, 5.218004], [-4.522694, 5.218004], [-4.5006, 5.228705], [-4.44164, 5.225043], [-4.412831, 5.238511], [-4.40807, 5.223619], [-4.385569, 5.252183], [-4.337758, 5.240871], [-4.324696, 5.252183], [-4.305816, 5.244574], [-4.225209, 5.262356], [-4.183827, 5.280178], [-4.060455, 5.283352], [-4.029205, 5.272691], [-4.070221, 5.266506], [-3.995758, 5.231676], [-4.620513, 5.180732], [-4.784657, 5.143948], [-4.875356, 5.136217], [-4.892649, 5.128648], [-4.915191, 5.136379], [-4.982004, 5.136135], [-4.968984, 5.149115], [-4.99706, 5.148749], [-5.009918, 5.197577], [-4.99706, 5.212795], [-5.009755, 5.216051], [-5.082143, 5.203599], [-5.112294, 5.183295], [-5.157867, 5.212226], [-5.191396, 5.219224], [-5.221588, 5.211168], [-5.235829, 5.225491], [-5.253041, 5.214097], [-5.321523, 5.230211], [-5.328196, 5.216457], [-5.323964, 5.204413], [-5.338287, 5.211168], [-5.338287, 5.197577], [-5.330068, 5.199897], [-5.323964, 5.190131], [-5.297353, 5.197577], [-5.297353, 5.190131], [-5.338287, 5.163479], [-5.338287, 5.183295], [-5.359364, 5.128648], [-5.392893, 5.177069], [-5.40038, 5.177069], [-5.40038, 5.163479], [-5.41393, 5.170315], [-5.398997, 5.141995], [-5.3579, 5.123521], [-5.308827, 5.11815], [-5.269399, 5.128648], [-5.285471, 5.140774], [-5.320139, 5.137641], [-5.338287, 5.14232], [-5.338287, 5.149115], [-5.312571, 5.152574], [-5.28307, 5.177069], [-5.235463, 5.161322], [-5.221588, 5.170315], [-5.197133, 5.160142], [-5.18692, 5.164252], [-5.180653, 5.177069], [-5.198964, 5.174384], [-5.228424, 5.204413], [-5.214752, 5.197577], [-5.181386, 5.202338], [-5.120758, 5.166978], [-5.080922, 5.18476], [-5.033193, 5.183295], [-5.014882, 5.140082], [-5.002431, 5.128648], [-5.25536, 5.121039], [-5.294301, 5.106024], [-5.495676, 5.095282], [-5.52481, 5.099799], [-5.550526, 5.114976], [-5.57844, 5.09455], [-5.550526, 5.087714], [-5.630238, 5.063218], [-5.851308, 5.029975], [-5.971425, 4.992621], [-5.995595, 4.974758], [-6.059722, 4.955797], [-6.13858, 4.915229], [-6.412221, 4.823879], [-6.426625, 4.801988], [-6.441518, 4.793931], [-6.583852, 4.760403], [-6.62682, 4.724595], [-6.753326, 4.687323], [-6.853668, 4.680609], [-6.903147, 4.662014], [-6.996002, 4.576483], [-7.058217, 4.539008], [-7.099192, 4.526516], [-7.173451, 4.518785], [-7.232818, 4.493313], [-7.255238, 4.465522], [-7.288157, 4.460517], [-7.456776, 4.344062], [-7.540666, 4.352845], [-7.573771, 4.375393], [-7.577853, 4.397278], [-7.564314, 4.425829], [-7.576871, 4.509338], [-7.572479, 4.723356], [-7.579558, 4.784283], [-7.606017, 4.816193], [-7.598834, 4.857095], [-7.6055, 4.897428], [-7.574959, 4.921561], [-7.549534, 4.913887], [-7.555322, 4.948433], [-7.5716, 4.975382], [-7.575786, 5.072069], [-7.563229, 5.090156], [-7.546847, 5.0977], [-7.515841, 5.091809], [-7.488918, 5.140669], [-7.482252, 5.17506], [-7.490468, 5.222189], [-7.475689, 5.264228], [-7.439929, 5.290169], [-7.428508, 5.288154], [-7.435175, 5.279291], [-7.428508, 5.25614], [-7.418793, 5.260455], [-7.389751, 5.317144], [-7.396934, 5.366444], [-7.429697, 5.374298], [-7.449954, 5.422771], [-7.450212, 5.438713], [-7.436208, 5.431323], [-7.432384, 5.479563], [-7.408148, 5.511784], [-7.419982, 5.523127], [-7.393627, 5.523979], [-7.41192, 5.560359], [-7.405099, 5.5724], [-7.384118, 5.568964], [-7.43104, 5.653971], [-7.449489, 5.732364], [-7.442047, 5.811274], [-7.446543, 5.845949], [-7.478583, 5.859876], [-7.481683, 5.830214], [-7.494396, 5.806184], [-7.515583, 5.839231], [-7.531086, 5.842022], [-7.527779, 5.858842], [-7.559146, 5.839851], [-7.587207, 5.866775], [-7.579093, 5.877188], [-7.584158, 5.883699], [-7.64834, 5.911294], [-7.680483, 5.94093], [-7.70322, 5.907883], [-7.717173, 5.900752], [-7.747145, 5.937597], [-7.786626, 5.958165], [-7.800682, 5.981729], [-7.799958, 6.010151], [-7.786471, 6.025111], [-7.802439, 6.039245], [-7.809674, 6.071207], [-7.82838, 6.080715], [-7.850911, 6.067564], [-7.861815, 6.08149], [-7.862022, 6.124382], [-7.844142, 6.183965], [-7.846622, 6.197478], [-7.906567, 6.251997], [-7.91437, 6.271737], [-7.999378, 6.286697], [-8.033019, 6.301761], [-8.106606, 6.294681], [-8.140609, 6.277577], [-8.170582, 6.274011], [-8.208486, 6.292537], [-8.29507, 6.313363], [-8.302718, 6.340648], [-8.310005, 6.344627], [-8.322356, 6.336462], [-8.352948, 6.36106], [-8.36597, 6.350079], [-8.388811, 6.355091], [-8.411807, 6.340028], [-8.423693, 6.351991], [-8.405968, 6.372248], [-8.419042, 6.407646], [-8.405089, 6.436327], [-8.418267, 6.451209], [-8.467515, 6.487073], [-8.484775, 6.441572], [-8.497229, 6.431366], [-8.515625, 6.437593], [-8.556501, 6.487021], [-8.61872, 6.492835], [-8.594122, 6.523892], [-8.572728, 6.530843], [-8.567198, 6.550609], [-8.461313, 6.633421], [-8.351759, 6.755351], [-8.316619, 6.836276], [-8.315715, 6.86382], [-8.333673, 6.882578], [-8.320909, 6.910174], [-8.319978, 6.95999], [-8.286647, 6.993786], [-8.284115, 7.017867], [-8.302615, 7.137602], [-8.329745, 7.178323], [-8.32897, 7.204006], [-8.387675, 7.314955], [-8.405141, 7.431279], [-8.425605, 7.50192], [-8.44364, 7.537112], [-8.485446, 7.557989], [-8.440023, 7.599899], [-8.414805, 7.612921], [-8.390878, 7.585791], [-8.336773, 7.597832], [-8.303235, 7.589305], [-8.265356, 7.560056], [-8.228976, 7.544295], [-8.200244, 7.576335], [-8.197867, 7.618554], [-8.158024, 7.658242], [-8.159523, 7.676328], [-8.12738, 7.713019], [-8.115133, 7.776891], [-8.098261, 7.791877], [-8.101439, 7.812806], [-8.131204, 7.842416], [-8.128879, 7.882569], [-8.079115, 7.957655], [-8.069089, 8.029278], [-8.011987, 8.035557], [-7.980361, 8.016566], [-7.962636, 8.015171], [-7.980413, 8.058992], [-8.015708, 8.088474], [-8.021289, 8.102659], [-8.003305, 8.184049], [-8.085522, 8.162035], [-8.182932, 8.191672], [-8.265977, 8.245984], [-8.245306, 8.285077], [-8.247631, 8.322568], [-8.235281, 8.379515], [-8.254401, 8.446514], [-8.200296, 8.491834], [-8.150531, 8.486486], [-8.076634, 8.503255], [-8.050667, 8.487674], [-8.015708, 8.487209], [-7.970542, 8.49695], [-7.943877, 8.484625], [-7.923827, 8.443775], [-7.898583, 8.426283], [-7.865588, 8.420882], [-7.848586, 8.428634], [-7.845744, 8.474316], [-7.823833, 8.477856], [-7.77102, 8.386518], [-7.748334, 8.372307], [-7.720738, 8.368534], [-7.662447, 8.374865], [-7.689578, 8.438659], [-7.679242, 8.505089], [-7.691696, 8.546663], [-7.696812, 8.624849], [-7.741202, 8.662909], [-7.765129, 8.706085], [-7.803679, 8.749054], [-7.816056, 8.753524], [-7.831016, 8.747658], [-7.958915, 8.781997], [-7.96894, 8.812848], [-7.931837, 8.996558], [-7.916747, 9.012345], [-7.827037, 9.05782], [-7.764198, 9.063608], [-7.746783, 9.07645], [-7.823368, 9.131976], [-7.847914, 9.168563], [-7.878713, 9.163912], [-7.929563, 9.183885], [-7.930648, 9.220291], [-7.89494, 9.307133], [-7.865381, 9.409918], [-7.8706, 9.418599], [-7.91189, 9.418651], [-7.991575, 9.38532], [-8.054051, 9.389092], [-8.087176, 9.415395], [-8.145364, 9.497148], [-8.157611, 9.530866], [-8.16159, 9.575644], [-8.123505, 9.844852], [-8.128104, 9.866246], [-8.150996, 9.866143], [-8.14955, 9.90534], [-8.167895, 9.914693], [-8.173837, 9.941875], [-8.140093, 9.959703], [-8.136269, 9.969444], [-8.15849, 9.984921], [-8.149547009522168, 10.0], [-4.977348324847325, 10.0], [-4.952949, 9.953373]]], [[[-3.119618, 5.091335], [-3.276357, 5.118109], [-3.272328, 5.132392], [-3.23412, 5.163479], [-3.207387, 5.156643], [-3.184967, 5.13227], [-3.155141, 5.127875], [-3.131703, 5.10814], [-3.115305, 5.107815], [-3.119618, 5.091335]]]]}}, {"type": "Feature", "properties": {"name": "Burkina Faso"}, "geometry": {"type": "Polygon", "coordinates": [[[-2.754375, 9.966783], [-2.764865, 9.895754], [-2.760524, 9.870536], [-2.733911, 9.822787], [-2.774839, 9.77434], [-2.795303, 9.720002], [-2.788481, 9.699254], [-2.760524, 9.685586], [-2.751016, 9.659179], [-2.740164, 9.650833], [-2.761506, 9.625253], [-2.766261, 9.576523], [-2.689211, 9.488724], [-2.720475, 9.459217], [-2.744918, 9.408109], [-2.763677, 9.391883], [-2.787603, 9.393717], [-2.810418, 9.411106], [-2.910154, 9.542726], [-2.989994, 9.708427], [-3.005677, 9.724162], [-3.024643, 9.728606], [-3.077094, 9.719408], [-3.094561, 9.733851], [-3.116911, 9.805294], [-3.136936, 9.82953], [-3.182566, 9.835163], [-3.200007, 9.845369], [-3.202565, 9.908234], [-3.21476, 9.915623], [-3.277857, 9.843457], [-3.301732, 9.841132], [-3.311809, 9.854128], [-3.317183, 9.901335], [-3.348344, 9.886995], [-3.389168, 9.913246], [-3.546471, 9.926139], [-3.606261, 9.918181], [-3.62334, 9.921747], [-3.661658, 9.948929], [-3.679641, 9.932211], [-3.706462, 9.941823], [-3.755037, 9.93588], [-3.779739, 9.924692], [-3.804259, 9.901386], [-3.910093, 9.888493], [-3.984042, 9.851157], [-3.994609, 9.820771], [-4.034969, 9.817619], [-4.050317, 9.810307], [-4.053675, 9.79762], [-4.13305, 9.820409], [-4.150259, 9.818291], [-4.196974, 9.764961], [-4.270329, 9.743928], [-4.283636, 9.732017], [-4.267513, 9.727263], [-4.303299, 9.686723], [-4.300482, 9.654296], [-4.315933, 9.616623], [-4.322548, 9.608898], [-4.365026, 9.624168], [-4.371175, 9.582956], [-4.391588, 9.600294], [-4.409106, 9.647733], [-4.50171, 9.655019], [-4.515921, 9.67569], [-4.501607, 9.737107], [-4.509953, 9.745065], [-4.539098, 9.744703], [-4.552198, 9.696464], [-4.57832, 9.696515], [-4.604029, 9.727159], [-4.628731, 9.707703], [-4.655809, 9.706075], [-4.681079, 9.682072], [-4.70547, 9.702096], [-4.712808, 9.726849], [-4.738337, 9.753153], [-4.758594, 9.753308], [-4.75477, 9.740208], [-4.769963, 9.737365], [-4.783192, 9.758372], [-4.796447, 9.754496], [-4.810115, 9.781781], [-4.775905, 9.788008], [-4.798462, 9.842527], [-4.817557, 9.836455], [-4.824274, 9.856971], [-4.83846, 9.86945], [-4.890059, 9.879501], [-4.898017, 9.888907], [-4.917085, 9.886478], [-4.928015, 9.870949], [-4.966075, 9.901025], [-4.952949, 9.953373], [-4.977348324847325, 10.0], [-2.770112987108426, 10.0], [-2.754375, 9.966783]]]}}, {"type": "Feature", "properties": {"name": "Ghana"}, "geometry": {"type": "Polygon", "coordinates": [[[-0.045033, 5.60163], [-0.068593, 5.581204], [-0.371571, 5.492743], [-0.445058, 5.431383], [-0.471588, 5.390815], [-0.507436, 5.368842], [-0.589345, 5.351508], [-0.629465, 5.326728], [-0.637766, 5.340888], [-0.702301, 5.299994], [-0.79955, 5.21483], [-0.873891, 5.204006], [-0.89684, 5.205024], [-0.911488, 5.218004], [-0.927724, 5.206122], [-0.976552, 5.19831], [-0.988393, 5.198798], [-0.99706, 5.216783], [-1.154124, 5.153876], [-1.173655, 5.130561], [-1.233632, 5.100735], [-1.319244, 5.09455], [-1.364003, 5.073432], [-1.404937, 5.073432], [-1.459706, 5.04975], [-1.529286, 5.039862], [-1.569488, 5.018785], [-1.583852, 5.025377], [-1.618479, 5.022447], [-1.630849, 5.012641], [-1.625478, 4.989488], [-1.634023, 4.974433], [-1.718821, 4.92768], [-1.74767, 4.895901], [-1.748606, 4.877183], [-1.835439, 4.855129], [-1.912099, 4.820868], [-1.95226, 4.772447], [-1.981435, 4.752427], [-2.096588, 4.738471], [-2.103871, 4.745063], [-2.107981, 4.77558], [-2.155385, 4.786078], [-2.206288, 4.834459], [-2.23705, 4.849189], [-2.252756, 4.879136], [-2.356597, 4.919623], [-2.525787, 4.954413], [-2.690419, 5.010199], [-2.820872, 5.020087], [-2.964996, 5.045315], [-3.119618, 5.091335], [-3.115305, 5.107815], [-3.098988, 5.113227], [-3.016103, 5.114447], [-2.994496, 5.10814], [-2.970937, 5.080878], [-2.957753, 5.082668], [-2.92634, 5.09455], [-2.929026, 5.122016], [-2.901235, 5.133612], [-2.843699, 5.149115], [-2.780885, 5.150875], [-2.766622, 5.16103], [-2.75701, 5.179866], [-2.778818, 5.201001], [-2.774891, 5.239578], [-2.79613, 5.284976], [-2.789567, 5.346858], [-2.742593, 5.343138], [-2.730139, 5.373162], [-2.761713, 5.454914], [-2.779438, 5.526485], [-2.781815, 5.578885], [-2.793442, 5.608134], [-2.806258, 5.618495], [-2.877494, 5.636815], [-2.926302, 5.610718], [-2.945862, 5.608289], [-2.969504, 5.621441], [-2.974904, 5.647279], [-2.964801, 5.709782], [-3.029759, 5.704252], [-3.022524, 5.854502], [-3.087765, 5.996689], [-3.118074, 6.163475], [-3.139364, 6.219286], [-3.183599, 6.263908], [-3.262509, 6.617142], [-3.253905, 6.644428], [-3.230057, 6.661119], [-3.210419, 6.715999], [-3.243079, 6.774756], [-3.241684, 6.810903], [-3.109599, 7.046393], [-3.045933, 7.071249], [-3.027537, 7.138428], [-2.972811, 7.214961], [-2.990459, 7.270668], [-2.941521, 7.577161], [-2.855945, 7.771568], [-2.838168, 7.796838], [-2.840003, 7.820247], [-2.801194, 7.85022], [-2.790626, 7.943289], [-2.771221, 7.930732], [-2.690865, 8.009745], [-2.610559, 8.040001], [-2.599759, 8.070387], [-2.621877, 8.135732], [-2.610663, 8.164852], [-2.604255, 8.170794], [-2.57175, 8.16312], [-2.558108, 8.167694], [-2.513201, 8.194023], [-2.506328, 8.209267], [-2.598364, 8.769466], [-2.603118, 8.78515], [-2.612161, 8.780964], [-2.617226, 8.78918], [-2.614642, 8.801919], [-2.596658, 8.814398], [-2.595573, 8.828067], [-2.619448, 8.923617], [-2.63769, 8.931471], [-2.660789, 9.014903], [-2.686059, 9.028261], [-2.750809, 9.037408], [-2.774839, 9.054978], [-2.7613, 9.084795], [-2.755202, 9.143138], [-2.733911, 9.164842], [-2.704817, 9.218405], [-2.673088, 9.23489], [-2.659807, 9.272898], [-2.692983, 9.285326], [-2.714998, 9.311061], [-2.713344, 9.329923], [-2.677532, 9.357001], [-2.672416, 9.374028], [-2.675672, 9.471723], [-2.766261, 9.576523], [-2.761506, 9.625253], [-2.740164, 9.650833], [-2.751016, 9.659179], [-2.760524, 9.685586], [-2.788481, 9.699254], [-2.795303, 9.720002], [-2.774839, 9.77434], [-2.733911, 9.822787], [-2.760524, 9.870536], [-2.764865, 9.895754], [-2.754375, 9.966783], [-2.770112987108426, 10.0], [0.0, 10.0], [0.0, 5.61676365584734], [-0.045033, 5.60163]]]}}, {"type": "Feature", "properties": {"name": "Saint Helena"}, "geometry": {"type": "Polygon", "coordinates": [[[-14.294789, -7.945489], [-14.350331, -7.974705], [-14.391021, -7.979669], [-14.406402, -7.973891], [-14.417714, -7.939223], [-14.390614, -7.889337], [-14.376698, -7.877862], [-14.369985, -7.889337], [-14.356272, -7.884698], [-14.294789, -7.945489]]]}}]}