{"type": "FeatureCollection", "features": [{"type": "Feature", "properties": {"name": "Israel"}, "geometry": {"type": "Polygon", "coordinates": [[[35.054118, 29.923394], [35.048951, 29.842314], [35.002545, 29.733096], [34.989833, 29.651964], [34.966992, 29.608116], [34.951345, 29.54564], [34.910818, 29.489936], [34.886729, 29.490058], [34.855267, 29.545717], [34.848239, 29.569643], [34.8501, 29.63876], [34.824365, 29.7417], [34.741373, 29.940241], [34.73462866733935, 30.0], [35.07637348317064, 30.0], [35.054118, 29.923394]]]}}, {"type": "Feature", "properties": {"name": "Ethiopia"}, "geometry": {"type": "Polygon", "coordinates": [[[34.221921, 10.02603], [34.280832, 10.080109], [34.303466, 10.113544], [34.301813, 10.160285], [34.317419, 10.181266], [34.325894, 10.223563], [34.32486, 10.268651], [34.276181, 10.488715], [34.271737, 10.530082], [34.279489, 10.565506], [34.365582, 10.685783], [34.420048, 10.780816], [34.574768, 10.884143], [34.750674, 10.743945], [34.756979, 10.728804], [34.754395, 10.684129], [34.764834, 10.680254], [34.772895, 10.688263], [34.798527, 10.729656], [34.838524, 10.72914], [34.85134, 10.745753], [34.861572, 10.787586], [34.933816, 10.845308], [34.950662, 10.869183], [34.95831, 10.903418], [34.952832, 10.91843], [34.913558, 10.952976], [34.980324, 11.155263], [34.984148, 11.186398], [34.953969, 11.226112], [34.944254, 11.253242], [34.947148, 11.274868], [35.073135, 11.54896], [35.074375, 11.587356], [35.046263, 11.648644], [35.040579, 11.727399], [35.048227, 11.771376], [35.072722, 11.818866], [35.088018, 11.838193], [35.126672, 11.862946], [35.215555, 11.896588], [35.245734, 11.929867], [35.251419, 11.971725], [35.297824, 12.001594], [35.317358, 12.023712], [35.353738, 12.14603], [35.412546, 12.198636], [35.428772, 12.266953], [35.616875, 12.575151], [35.672375, 12.604296], [35.687671, 12.659228], [35.728392, 12.67437], [36.029976, 12.717158], [36.099429, 12.69566], [36.115035, 12.70181], [36.143251, 12.832551], [36.143044, 12.856942], [36.115346, 12.911719], [36.114415, 12.933889], [36.149865, 12.980242], [36.136946, 13.032436], [36.233581, 13.36164], [36.382099, 13.571033], [36.391298, 13.599352], [36.398429, 13.67604], [36.458167, 13.820139], [36.455376, 13.870007], [36.438013, 13.919952], [36.432122, 13.969924], [36.52638, 14.263523], [36.545707, 14.263162], [36.565654, 14.292927], [36.61764, 14.300446], [36.648543, 14.31458], [36.713655, 14.317784], [36.748072, 14.332072], [36.848531, 14.327783], [36.946923, 14.304735], [36.970901, 14.27683], [36.995395, 14.264092], [37.011518, 14.265074], [37.026091, 14.27683], [37.060197, 14.27683], [37.090997, 14.314218], [37.097818, 14.379511], [37.121072, 14.420826], [37.149701, 14.441936], [37.184221, 14.449558], [37.258221, 14.448111], [37.293775, 14.457439], [37.33708, 14.426356], [37.390203, 14.358169], [37.397748, 14.301738], [37.452628, 14.260578], [37.475366, 14.199574], [37.5165, 14.180557], [37.525285, 14.128829], [37.553707, 14.105497], [37.564973, 14.116685], [37.891464, 14.879532], [37.908828, 14.864727], [37.94004, 14.81088], [37.95761, 14.802844], [37.964432, 14.771193], [37.989856, 14.757317], [38.006703, 14.7244], [38.115223, 14.681017], [38.190258, 14.687322], [38.229325, 14.679725], [38.247825, 14.647712], [38.257644, 14.610427], [38.28927, 14.587741], [38.313351, 14.519347], [38.340636, 14.492682], [38.394276, 14.464312], [38.41443, 14.426304], [38.426832, 14.417183], [38.569356, 14.426821], [38.606563, 14.436484], [38.668471, 14.467723], [38.742885, 14.461056], [38.821537, 14.489478], [38.866082, 14.493664], [38.917552, 14.535703], [38.979667, 14.567122], [38.993826, 14.585157], [38.996823, 14.638901], [39.009742, 14.651226], [39.0855, 14.633475], [39.127461, 14.602211], [39.158467, 14.560146], [39.20818, 14.440179], [39.233191, 14.440438], [39.268538, 14.48643], [39.36662, 14.482916], [39.448579, 14.505111], [39.489403, 14.524489], [39.515035, 14.56782], [39.552138, 14.556684], [39.59379, 14.514567], [39.650944, 14.496584], [39.766906, 14.504775], [39.796878, 14.495111], [39.892273, 14.426562], [39.93072, 14.428784], [39.961519, 14.454209], [39.979812, 14.458731], [40.0, 14.456207456243174], [40.0, 10.0], [34.212622252086284, 10.0], [34.221921, 10.02603]]]}}, {"type": "Feature", "properties": {"name": "S. Sudan"}, "geometry": {"type": "MultiPolygon", "coordinates": [[[[25.028994, 10.092047], [25.013646, 10.149072], [25.017057, 10.168011], [25.07695, 10.286867], [25.120564, 10.30609], [25.156893, 10.306245], [25.232754, 10.322317], [25.278694, 10.312007], [25.327425, 10.316581], [25.427212, 10.344124], [25.490826, 10.345597], [25.623324, 10.385853], [25.753962, 10.395336], [25.82848, 10.419546], [25.843053, 10.417815], [25.893644, 10.351333], [25.905426, 10.181266], [25.955707, 10.146901], [26.010794, 10.122691], [26.094343068142383, 10.0], [24.99008499433823, 10.0], [25.028994, 10.092047]]], [[[29.615432, 10.058147], [29.700957, 10.115017], [30.012979, 10.270485], [30.440378777907704, 10.0], [29.614804744387065, 10.0], [29.615432, 10.058147]]], [[[31.664816, 10.214236], [31.801965, 10.376241], [31.864184, 10.472127], [31.942887, 10.655552], [32.414073, 11.050851], [32.430713, 11.082193], [32.435363, 11.107023], [32.364153, 11.240013], [32.348754, 11.30758], [32.345705, 11.41163], [32.359812, 11.573481], [32.34834, 11.703163], [32.082207, 11.999811], [32.746662, 12.002731], [32.747592, 12.039525], [32.725733, 12.132336], [32.731779, 12.216155], [33.209218, 12.210367], [33.203017, 12.128098], [33.144984, 11.934673], [33.146018, 11.81866], [33.132427, 11.686213], [33.115994, 11.646939], [33.083231, 11.599164], [33.182088, 10.843241], [33.140023, 10.739036], [33.3813, 10.645785], [33.468995, 10.543905], [33.916978, 10.174522], [33.966794, 10.047269], [33.96233020399029, 10.0], [31.446474148092143, 10.0], [31.664816, 10.214236]]]]}}, {"type": "Feature", "properties": {"name": "Libya"}, "geometry": {"type": "Polygon", "coordinates": [[[24.811643, 29.89089], [24.81495, 29.848567], [24.798207, 29.796425], [24.804925, 29.7548], [24.856188, 29.679482], [24.870657, 29.638347], [24.863836, 29.502903], [24.956647, 29.292683], [24.97432, 29.23894], [24.981245, 29.181372], [24.976801, 19.995964], [23.981306, 19.995421], [23.981306, 19.496124], [20.0, 21.46212774132179], [20.0, 30.0], [24.75852389597498, 30.0], [24.811643, 29.89089]]]}}, {"type": "Feature", "properties": {"name": "Central African Rep."}, "geometry": {"type": "Polygon", "coordinates": [[[22.863234, 10.891817], [23.005551, 10.686817], [23.109421, 10.614495], [23.291219, 10.439726], [23.56631412761534, 10.0], [21.396086397288254, 10.0], [21.433348, 10.046055], [21.485437, 10.164316], [21.513239, 10.200515], [21.544969, 10.219997], [21.579282, 10.212272], [21.65628, 10.233666], [21.688939, 10.288908], [21.718808, 10.296634], [21.720462, 10.360816], [21.751054, 10.41182], [21.743613, 10.418978], [21.744233, 10.439106], [21.716845, 10.47732], [21.705476, 10.53202], [21.705476, 10.571811], [21.722632, 10.636716], [21.768418, 10.651987], [21.784851, 10.669324], [21.822575, 10.678755], [21.863606, 10.667929], [21.925617, 10.720122], [22.003855, 10.743273], [22.014604, 10.754564], [22.004889, 10.775519], [22.018325, 10.809884], [22.029487, 10.828746], [22.048607, 10.836988], [22.148239, 10.830761], [22.176351, 10.816214], [22.200639, 10.868666], [22.253039, 10.915304], [22.2765, 10.908534], [22.318772, 10.939359], [22.407035, 10.963053], [22.447136, 10.99827], [22.502843, 10.992173], [22.511938, 11.000828], [22.534676, 10.98052], [22.600822, 10.987806], [22.638339, 10.974137], [22.682677, 10.974137], [22.719884, 10.964655], [22.745102, 10.943803], [22.805977, 10.924502], [22.861064, 10.919154], [22.863234, 10.891817]]]}}, {"type": "Feature", "properties": {"name": "Sudan"}, "geometry": {"type": "MultiPolygon", "coordinates": [[[[22.900235, 11.059895], [22.922352, 11.087076], [22.928967, 11.137926], [22.952015, 11.191049], [22.953668, 11.250942], [22.928347, 11.32515], [22.914808, 11.396101], [22.900442, 11.408245], [22.771871, 11.403181], [22.76877, 11.442326], [22.743035, 11.466097], [22.628107, 11.509841], [22.592347, 11.543663], [22.561754, 11.586012], [22.541704, 11.632986], [22.537053, 11.68089], [22.612397, 12.072804], [22.607333, 12.077714], [22.598858, 12.063244], [22.585525, 12.071357], [22.546458, 12.064433], [22.458091, 12.03043], [22.484033, 12.164737], [22.407965, 12.399761], [22.372825, 12.463116], [22.395873, 12.496086], [22.445689, 12.611066], [22.43246, 12.62383], [22.33014, 12.661451], [22.204877, 12.743358], [22.176248, 12.7015], [22.144105, 12.671269], [22.105865, 12.650392], [22.019668, 12.631426], [21.935953, 12.63954], [21.900813, 12.656438], [21.880142, 12.676282], [21.809449, 12.793665], [21.85296, 12.905725], [21.935126, 13.059152], [21.964065, 13.098349], [22.016051, 13.140233], [22.139971, 13.193511], [22.267612, 13.334562], [22.275984, 13.376316], [22.215625, 13.464993], [22.210561, 13.541733], [22.195885, 13.580464], [22.132116, 13.638652], [22.11434, 13.677383], [22.112893, 13.729835], [22.073722, 13.771357], [22.074962, 13.780323], [22.099353, 13.819416], [22.214695, 13.956617], [22.402281, 14.049299], [22.458711, 14.096117], [22.531472, 14.122627], [22.546355, 14.139707], [22.547698, 14.169033], [22.531885, 14.220632], [22.514109, 14.231458], [22.457678, 14.241147], [22.429049, 14.264608], [22.418094, 14.30595], [22.45096, 14.345792], [22.439074, 14.362923], [22.424915, 14.470436], [22.386364, 14.506532], [22.363523, 14.543532], [22.382334, 14.579111], [22.465429, 14.629289], [22.676579, 14.688975], [22.67968, 14.711816], [22.659009, 14.761271], [22.650844, 14.816151], [22.658906, 14.857415], [22.715337, 14.899428], [22.727222, 14.959036], [22.738901, 14.97981], [22.848765, 15.087504], [22.905506, 15.112567], [22.958009, 15.201631], [22.97837, 15.340202], [22.976406, 15.373636], [22.966484, 15.404823], [22.906849, 15.481408], [22.899511, 15.510191], [22.906746, 15.541404], [22.92566, 15.563935], [23.004518, 15.611425], [23.068493, 15.686692], [23.094642, 15.704262], [23.166782, 15.712944], [23.320571, 15.681318], [23.395812, 15.688346], [23.52707, 15.735165], [23.592699, 15.749014], [23.707524, 15.748859], [23.829067, 15.731031], [23.945546, 15.692222], [23.972624, 15.691085], [23.984406, 15.72116], [23.981306, 19.995421], [24.968016, 19.994956], [24.980521, 20.002062], [24.981245, 21.995351], [31.248407, 21.994369], [31.261637, 22.001759], [31.359512, 22.188104], [31.38535, 22.214459], [31.42328, 22.226965], [31.460901, 22.215493], [31.482915, 22.195442], [31.491803, 22.173221], [31.490563, 22.14821], [31.435476, 21.995351], [33.181136, 21.995409], [33.560882, 21.709118], [33.999118, 21.767353], [34.084179, 21.995454], [36.883637, 21.995714], [36.87794, 21.97602], [36.840099, 21.966132], [36.873546, 21.936103], [36.874197, 21.815253], [36.896821, 21.677883], [36.887869, 21.650133], [36.902029, 21.641059], [36.905935, 21.617092], [36.930431, 21.585924], [36.98406, 21.465806], [37.113617, 21.278062], [37.198985, 21.202135], [37.312999, 21.057685], [37.303966, 21.020901], [37.291352, 21.012641], [37.272146, 21.020168], [37.251964, 21.006049], [37.233897, 21.02025], [37.189301, 21.097235], [37.209321, 21.098619], [37.227061, 21.071682], [37.250011, 21.054999], [37.272146, 21.054267], [37.245372, 21.089057], [37.229747, 21.127834], [37.218923, 21.14175], [37.203136, 21.136868], [37.175141, 21.156724], [37.167003, 21.146186], [37.15919, 21.148017], [37.148611, 21.170966], [37.159516, 21.206448], [37.148611, 21.218736], [37.12143, 21.22427], [37.104991, 21.207506], [37.100759, 21.156724], [37.120616, 21.143704], [37.11378, 21.123236], [37.117849, 21.086127], [37.10377, 21.065334], [37.086681, 21.057115], [37.086436, 21.040595], [37.120616, 20.999701], [37.147309, 20.940863], [37.160004, 20.878241], [37.169119, 20.746405], [37.183604, 20.684394], [37.228038, 20.565009], [37.230479, 20.499986], [37.222423, 20.468248], [37.212738, 20.458686], [37.182302, 20.462836], [37.178884, 20.449937], [37.175141, 20.349189], [37.182628, 20.293931], [37.214248, 20.200116], [37.224892, 20.119532], [37.206309, 20.06387], [37.189464, 20.040107], [37.188813, 20.01317], [37.259451, 19.820705], [37.26531, 19.786851], [37.263357, 19.703762], [37.238292, 19.65526], [37.243826, 19.576158], [37.285818, 19.475287], [37.32545, 19.262844], [37.333507, 19.159654], [37.337169, 19.147691], [37.36085, 19.128323], [37.355235, 19.10163], [37.379562, 19.069301], [37.425955, 18.913479], [37.434337, 18.861721], [37.492286, 18.76751], [37.539806, 18.715888], [37.551036, 18.709947], [37.574392, 18.719916], [37.641512, 18.726744], [37.674725, 18.740953], [37.679371, 18.722502], [37.701671, 18.711168], [37.740733, 18.709174], [37.749469, 18.681389], [37.765573, 18.667295], [37.758067, 18.628648], [37.785159, 18.64016], [37.812755, 18.615627], [37.925505, 18.585044], [37.966936, 18.546964], [37.994884, 18.502021], [38.038198, 18.461086], [38.109251, 18.427425], [38.121858, 18.413301], [38.109275, 18.395924], [38.082957, 18.382879], [38.076119, 18.348119], [38.103624, 18.291663], [38.151674, 18.249331], [38.205417, 18.237394], [38.245434, 18.243906], [38.251161, 18.280825], [38.306163, 18.306545], [38.312348, 18.295966], [38.27947, 18.273017], [38.276215, 18.242011], [38.264496, 18.23078], [38.224864, 18.226549], [38.217296, 18.217719], [38.265147, 18.223944], [38.306163, 18.204088], [38.376231, 18.190619], [38.388031, 18.203192], [38.375662, 18.210354], [38.391449, 18.224189], [38.443207, 18.155707], [38.433849, 18.142279], [38.45045, 18.132392], [38.475597, 18.130561], [38.49171, 18.141425], [38.502289, 18.126044], [38.512218, 18.073717], [38.531993, 18.070705], [38.541677, 18.085883], [38.54005, 18.10871], [38.52589, 18.128363], [38.542817, 18.118394], [38.584483, 18.077135], [38.603852, 18.013861], [38.601573, 18.004828], [38.459285, 17.890744], [38.431587, 17.851986], [38.371332, 17.698817], [38.343737, 17.655926], [38.25661, 17.602544], [38.250202, 17.541824], [38.233356, 17.525701], [38.209688, 17.522291], [38.160595, 17.557327], [38.119461, 17.545597], [38.118427, 17.512937], [38.107989, 17.493817], [38.091452, 17.480019], [38.076466, 17.479864], [38.071195, 17.538104], [38.06179, 17.548077], [38.038846, 17.548181], [37.946862, 17.495729], [37.895909, 17.442554], [37.872034, 17.437283], [37.849193, 17.444001], [37.819221, 17.4717], [37.79886, 17.477126], [37.763927, 17.45909], [37.720415, 17.38385], [37.679591, 17.363437], [37.63918, 17.358011], [37.496036, 17.312174], [37.505648, 17.236778], [37.494693, 17.174612], [37.472782, 17.136991], [37.45976, 17.09472], [37.403432, 17.029918], [37.309795, 17.055343], [37.280959, 17.052965], [37.233417, 17.024647], [37.133991, 17.01643], [37.000459, 17.072602], [36.973484, 17.062526], [36.973588, 17.045214], [36.993431, 17.018652], [36.997049, 16.999532], [36.992398, 16.980205], [36.96811, 16.946615], [36.990641, 16.913646], [36.991261, 16.860781], [36.999736, 16.842126], [36.988781, 16.825537], [36.984957, 16.765696], [36.960359, 16.705648], [36.901447, 16.655729], [36.892352, 16.636867], [36.892559, 16.586534], [36.876539, 16.513567], [36.883361, 16.490416], [36.926252, 16.438274], [36.933693, 16.418069], [36.928216, 16.361121], [36.954261, 16.278284], [36.944029, 16.252859], [36.885944, 16.184853], [36.759544, 15.837484], [36.670971, 15.723124], [36.61671, 15.531534], [36.614126, 15.489262], [36.627872, 15.445622], [36.595109, 15.424331], [36.575576, 15.393428], [36.524933, 15.247908], [36.506743, 15.220338], [36.433156, 15.150859], [36.425094, 15.133444], [36.52638, 14.263523], [36.432122, 13.969924], [36.438013, 13.919952], [36.455376, 13.870007], [36.458167, 13.820139], [36.398429, 13.67604], [36.391298, 13.599352], [36.382099, 13.571033], [36.233581, 13.36164], [36.136946, 13.032436], [36.149865, 12.980242], [36.114415, 12.933889], [36.115346, 12.911719], [36.143044, 12.856942], [36.123614, 12.721447], [36.115035, 12.70181], [36.099429, 12.69566], [36.029976, 12.717158], [35.728392, 12.67437], [35.687671, 12.659228], [35.672375, 12.604296], [35.616875, 12.575151], [35.428772, 12.266953], [35.412546, 12.198636], [35.353738, 12.14603], [35.317358, 12.023712], [35.297824, 12.001594], [35.251419, 11.971725], [35.245734, 11.929867], [35.215555, 11.896588], [35.126672, 11.862946], [35.088018, 11.838193], [35.072722, 11.818866], [35.048227, 11.771376], [35.040579, 11.727399], [35.046263, 11.648644], [35.074375, 11.587356], [35.073135, 11.54896], [34.947148, 11.274868], [34.944254, 11.253242], [34.953969, 11.226112], [34.984148, 11.186398], [34.980324, 11.155263], [34.913558, 10.952976], [34.952832, 10.91843], [34.95831, 10.903418], [34.950662, 10.869183], [34.933816, 10.845308], [34.861572, 10.787586], [34.85134, 10.745753], [34.838524, 10.72914], [34.798527, 10.729656], [34.772895, 10.688263], [34.764834, 10.680254], [34.754395, 10.684129], [34.756979, 10.728804], [34.750674, 10.743945], [34.574768, 10.884143], [34.420048, 10.780816], [34.365582, 10.685783], [34.279489, 10.565506], [34.271737, 10.530082], [34.276181, 10.488715], [34.32486, 10.268651], [34.325894, 10.223563], [34.317419, 10.181266], [34.301813, 10.160285], [34.303466, 10.113544], [34.280832, 10.080109], [34.221921, 10.02603], [34.212622252086284, 10.0], [33.96233020399029, 10.0], [33.966794, 10.047269], [33.916978, 10.174522], [33.468995, 10.543905], [33.3813, 10.645785], [33.140023, 10.739036], [33.182088, 10.843241], [33.083231, 11.599164], [33.115994, 11.646939], [33.132427, 11.686213], [33.146018, 11.81866], [33.144984, 11.934673], [33.203017, 12.128098], [33.209218, 12.210367], [32.731779, 12.216155], [32.725733, 12.132336], [32.747592, 12.039525], [32.746662, 12.002731], [32.082207, 11.999811], [32.34834, 11.703163], [32.359812, 11.573481], [32.345705, 11.41163], [32.348754, 11.30758], [32.364153, 11.240013], [32.435363, 11.107023], [32.430713, 11.082193], [32.414073, 11.050851], [31.942887, 10.655552], [31.864184, 10.472127], [31.801965, 10.376241], [31.664816, 10.214236], [31.446474148092143, 10.0], [30.440378777907704, 10.0], [30.012979, 10.270485], [29.700957, 10.115017], [29.615432, 10.058147], [29.614804744387065, 10.0], [26.094343068142383, 10.0], [26.010794, 10.122691], [25.955707, 10.146901], [25.905426, 10.181266], [25.893644, 10.351333], [25.843053, 10.417815], [25.82848, 10.419546], [25.753962, 10.395336], [25.623324, 10.385853], [25.490826, 10.345597], [25.427212, 10.344124], [25.327425, 10.316581], [25.278694, 10.312007], [25.232754, 10.322317], [25.156893, 10.306245], [25.120564, 10.30609], [25.07695, 10.286867], [25.017057, 10.168011], [25.013646, 10.149072], [25.028994, 10.092047], [24.99008499433823, 10.0], [23.56631412761534, 10.0], [23.291219, 10.439726], [23.109421, 10.614495], [23.005551, 10.686817], [22.863234, 10.891817], [22.861064, 10.919154], [22.900235, 11.059895]]], [[[37.283539, 20.83275], [37.271821, 20.766099], [37.264496, 20.749986], [37.254405, 20.749823], [37.244151, 20.77265], [37.243419, 20.804023], [37.250824, 20.834662], [37.26531, 20.855048], [37.283539, 20.83275]]]]}}, {"type": "Feature", "properties": {"name": "Eritrea"}, "geometry": {"type": "MultiPolygon", "coordinates": [[[[39.979812, 14.458731], [39.961519, 14.454209], [39.93072, 14.428784], [39.892273, 14.426562], [39.796878, 14.495111], [39.766906, 14.504775], [39.650944, 14.496584], [39.59379, 14.514567], [39.552138, 14.556684], [39.515035, 14.56782], [39.489403, 14.524489], [39.448579, 14.505111], [39.36662, 14.482916], [39.268538, 14.48643], [39.233191, 14.440438], [39.20818, 14.440179], [39.158467, 14.560146], [39.127461, 14.602211], [39.0855, 14.633475], [39.009742, 14.651226], [38.996823, 14.638901], [38.993826, 14.585157], [38.979667, 14.567122], [38.917552, 14.535703], [38.866082, 14.493664], [38.821537, 14.489478], [38.742885, 14.461056], [38.668471, 14.467723], [38.606563, 14.436484], [38.569356, 14.426821], [38.426832, 14.417183], [38.41443, 14.426304], [38.394276, 14.464312], [38.340636, 14.492682], [38.313351, 14.519347], [38.28927, 14.587741], [38.257644, 14.610427], [38.247825, 14.647712], [38.229325, 14.679725], [38.190258, 14.687322], [38.115223, 14.681017], [38.006703, 14.7244], [37.989856, 14.757317], [37.964432, 14.771193], [37.95761, 14.802844], [37.94004, 14.81088], [37.908828, 14.864727], [37.891464, 14.879532], [37.564973, 14.116685], [37.553707, 14.105497], [37.525285, 14.128829], [37.5165, 14.180557], [37.475366, 14.199574], [37.452628, 14.260578], [37.397748, 14.301738], [37.390203, 14.358169], [37.33708, 14.426356], [37.293775, 14.457439], [37.258221, 14.448111], [37.184221, 14.449558], [37.149701, 14.441936], [37.121072, 14.420826], [37.097818, 14.379511], [37.090997, 14.314218], [37.060197, 14.27683], [37.026091, 14.27683], [37.011518, 14.265074], [36.995395, 14.264092], [36.970901, 14.27683], [36.946923, 14.304735], [36.848531, 14.327783], [36.748072, 14.332072], [36.713655, 14.317784], [36.648543, 14.31458], [36.61764, 14.300446], [36.565654, 14.292927], [36.545707, 14.263162], [36.52638, 14.263523], [36.425094, 15.133444], [36.433156, 15.150859], [36.506743, 15.220338], [36.524933, 15.247908], [36.575576, 15.393428], [36.595109, 15.424331], [36.627872, 15.445622], [36.614126, 15.489262], [36.61671, 15.531534], [36.670971, 15.723124], [36.759544, 15.837484], [36.885944, 16.184853], [36.944029, 16.252859], [36.954261, 16.278284], [36.928216, 16.361121], [36.933693, 16.418069], [36.926252, 16.438274], [36.883361, 16.490416], [36.876539, 16.513567], [36.892559, 16.586534], [36.892352, 16.636867], [36.901447, 16.655729], [36.960359, 16.705648], [36.984957, 16.765696], [36.988781, 16.825537], [36.999736, 16.842126], [36.991261, 16.860781], [36.990641, 16.913646], [36.96811, 16.946615], [36.992398, 16.980205], [36.997049, 16.999532], [36.993431, 17.018652], [36.973588, 17.045214], [36.973484, 17.062526], [37.000459, 17.072602], [37.133991, 17.01643], [37.233417, 17.024647], [37.280959, 17.052965], [37.309795, 17.055343], [37.403432, 17.029918], [37.45976, 17.09472], [37.472782, 17.136991], [37.494693, 17.174612], [37.505648, 17.236778], [37.496036, 17.312174], [37.63918, 17.358011], [37.679591, 17.363437], [37.720415, 17.38385], [37.763927, 17.45909], [37.79886, 17.477126], [37.819221, 17.4717], [37.849193, 17.444001], [37.872034, 17.437283], [37.895909, 17.442554], [37.946862, 17.495729], [38.038846, 17.548181], [38.06179, 17.548077], [38.071195, 17.538104], [38.076466, 17.479864], [38.091452, 17.480019], [38.107989, 17.493817], [38.118427, 17.512937], [38.119461, 17.545597], [38.160595, 17.557327], [38.209688, 17.522291], [38.233356, 17.525701], [38.250202, 17.541824], [38.25661, 17.602544], [38.343737, 17.655926], [38.371332, 17.698817], [38.431587, 17.851986], [38.459285, 17.890744], [38.601573, 18.004828], [38.620372, 17.952582], [38.662934, 17.894965], [38.66977, 17.85399], [38.789724, 17.668891], [38.85963, 17.513251], [38.929047, 17.397121], [38.964692, 17.292304], [38.952647, 17.253485], [38.998546, 17.19595], [39.012462, 17.165351], [39.026134, 17.093085], [39.055919, 17.034125], [39.06365, 16.97427], [39.084483, 16.924872], [39.094981, 16.867743], [39.12794, 16.794867], [39.149669, 16.716946], [39.135997, 16.723782], [39.161388, 16.657172], [39.163341, 16.62816], [39.144867, 16.609361], [39.160981, 16.563788], [39.156505, 16.538153], [39.149669, 16.544989], [39.15089, 16.529446], [39.177013, 16.52143], [39.177013, 16.477362], [39.190603, 16.439439], [39.190603, 16.387356], [39.204845, 16.349799], [39.197439, 16.29857], [39.235606, 16.10871], [39.258962, 16.058987], [39.294119, 15.928778], [39.313487, 15.893948], [39.37322, 15.858466], [39.390391, 15.83633], [39.437022, 15.811957], [39.42335, 15.767564], [39.426524, 15.755805], [39.443858, 15.73314], [39.450857, 15.690497], [39.477875, 15.661119], [39.460623, 15.659613], [39.444591, 15.63524], [39.450694, 15.619574], [39.464041, 15.638332], [39.474946, 15.642646], [39.484874, 15.633857], [39.482758, 15.614936], [39.430186, 15.603095], [39.450694, 15.565579], [39.45753, 15.524604], [39.516856, 15.520087], [39.533946, 15.539781], [39.551768, 15.542304], [39.587169, 15.531399], [39.611339, 15.499986], [39.663585, 15.336168], [39.690766, 15.322211], [39.698985, 15.288031], [39.718272, 15.263902], [39.70338, 15.209377], [39.698253, 15.123603], [39.715587, 15.094062], [39.738129, 15.085639], [39.752289, 15.092597], [39.762218, 15.07392], [39.773692, 15.071031], [39.81129, 15.078925], [39.826182, 15.108222], [39.819672, 15.1258], [39.854666, 15.173489], [39.856781, 15.192939], [39.817719, 15.281236], [39.804454, 15.28144], [39.789724, 15.257473], [39.780935, 15.278144], [39.773448, 15.39053], [39.775727, 15.402737], [39.793793, 15.41474], [39.80714, 15.458889], [39.828136, 15.448879], [39.835623, 15.476142], [39.841645, 15.476142], [39.841645, 15.463121], [39.875255, 15.504096], [39.910004, 15.457424], [40.0, 15.385135077679905], [40.0, 14.456207456243174], [39.979812, 14.458731]]], [[[39.978852, 15.606513], [39.963878, 15.626288], [39.937348, 15.702094], [39.95574, 15.699693], [39.950938, 15.688422], [39.965099, 15.677924], [39.971446, 15.661119], [39.988292, 15.6647], [40.0, 15.659430025463084], [40.0, 15.610963586924811], [39.978852, 15.606513]]], [[[39.975108, 15.743069], [39.930431, 15.739569], [39.923595, 15.75731], [39.933767, 15.788235], [39.946788, 15.789862], [39.990001, 15.769924], [39.993907, 15.777899], [39.975271, 15.815334], [39.994965, 15.824693], [40.0, 15.82489522144286], [40.0, 15.738258605484981], [39.975108, 15.743069]]], [[[39.974376, 15.871772], [39.950938, 15.893948], [40.0, 15.886575371654024], [40.0, 15.873414601741521], [39.974376, 15.871772]]], [[[39.990001, 16.017727], [39.99822, 16.049628], [40.0, 16.05013066987814], [40.0, 16.007768954945053], [39.990001, 16.017727]]]]}}, {"type": "Feature", "properties": {"name": "Saudi Arabia"}, "geometry": {"type": "MultiPolygon", "coordinates": [[[[39.991954, 20.266669], [39.903087, 20.308254], [39.910167, 20.288479], [39.947113, 20.262152], [39.940684, 20.259182], [39.81129, 20.331488], [39.760102, 20.350816], [39.74464, 20.381171], [39.646495, 20.461575], [39.587087, 20.552151], [39.567393, 20.567694], [39.567393, 20.575141], [39.585297, 20.575873], [39.594737, 20.588772], [39.566661, 20.598293], [39.543468, 20.619208], [39.526378, 20.670722], [39.492931, 20.706244], [39.489919, 20.722886], [39.506033, 20.746405], [39.45753, 20.759467], [39.477875, 20.738959], [39.458263, 20.744859], [39.423188, 20.771715], [39.430186, 20.787421], [39.416759, 20.797756], [39.42335, 20.814114], [39.435395, 20.800767], [39.45753, 20.794257], [39.448741, 20.827297], [39.430186, 20.828355], [39.411306, 20.846869], [39.409679, 20.828355], [39.359711, 20.862616], [39.339122, 20.887437], [39.340831, 20.910305], [39.35963, 20.896715], [39.352794, 20.919867], [39.32781, 20.93183], [39.29713, 20.923977], [39.26238, 20.983059], [39.258962, 21.023871], [39.242035, 21.041693], [39.237804, 21.062893], [39.174327, 21.108873], [39.156505, 21.167548], [39.170177, 21.191474], [39.08074, 21.315009], [39.159923, 21.379828], [39.171072, 21.40412], [39.164724, 21.464911], [39.149669, 21.480129], [39.160411, 21.494452], [39.158946, 21.507799], [39.142751, 21.54092], [39.130056, 21.519599], [39.119802, 21.516913], [39.101248, 21.548407], [39.108653, 21.554592], [39.092296, 21.576565], [39.088145, 21.664455], [39.077403, 21.691555], [39.079356, 21.706366], [39.103526, 21.718573], [39.10906, 21.747789], [39.101248, 21.759996], [39.08839, 21.730455], [39.066742, 21.725246], [39.060313, 21.746405], [39.040375, 21.766832], [39.03297, 21.800971], [39.019298, 21.807807], [38.978554, 21.862074], [38.949598, 21.921916], [38.931254, 22.006073], [38.932655, 22.025186], [38.959144, 22.034443], [38.986214, 22.002239], [39.005693, 22.002005], [39.012462, 22.054267], [39.03297, 22.072211], [39.044444, 22.130805], [39.046641, 22.151068], [39.040375, 22.151068], [39.026134, 22.116889], [39.019298, 22.131578], [39.03297, 22.167792], [39.040375, 22.235785], [39.073253, 22.271145], [39.083507, 22.313544], [39.142751, 22.390611], [39.142751, 22.403225], [39.127615, 22.42121], [39.114919, 22.418606], [39.0948, 22.370183], [39.070256, 22.365828], [39.069227, 22.39449], [39.082071, 22.436285], [39.07422, 22.490973], [39.081517, 22.546792], [39.073988, 22.574175], [39.038585, 22.622707], [38.985688, 22.72427], [38.988292, 22.736396], [39.014659, 22.758979], [39.013031, 22.766791], [38.945486, 22.831204], [38.936778, 22.826361], [38.964692, 22.794664], [38.978282, 22.75373], [38.970876, 22.746894], [38.929852, 22.815018], [38.902599, 22.843166], [38.851001, 22.929721], [38.851175, 22.943275], [38.880407, 22.928494], [38.912852, 22.861965], [38.95102, 22.851955], [38.964692, 22.870429], [38.937348, 22.912095], [38.911469, 22.928453], [38.893891, 22.965155], [38.834321, 22.986518], [38.81422, 22.982733], [38.799571, 22.998684], [38.779063, 23.041164], [38.804373, 23.07925], [38.79835, 23.149604], [38.78666, 23.154558], [38.777619, 23.139292], [38.691713, 23.27296], [38.672869, 23.348151], [38.646537, 23.400726], [38.628917, 23.50788], [38.604747, 23.535386], [38.600175, 23.568249], [38.577891, 23.556627], [38.559906, 23.562486], [38.560883, 23.545722], [38.59547, 23.528388], [38.59547, 23.52147], [38.562022, 23.524359], [38.540064, 23.543245], [38.539223, 23.591869], [38.494849, 23.644635], [38.452647, 23.784003], [38.437022, 23.802069], [38.399571, 23.814086], [38.365348, 23.870448], [38.319133, 23.886385], [38.258906, 23.944819], [38.22209, 23.952574], [38.185356, 23.975929], [38.079135, 24.070388], [38.062881, 24.076006], [38.045729, 24.06739], [37.935321, 24.139007], [37.958421, 24.162076], [37.983072, 24.165664], [37.97326, 24.174709], [37.93953, 24.161441], [37.9322, 24.174211], [37.94795, 24.207047], [37.937292, 24.21085], [37.912577, 24.191538], [37.921542, 24.177268], [37.923905, 24.155547], [37.918133, 24.149593], [37.89601, 24.157208], [37.865634, 24.149888], [37.767589, 24.221393], [37.758661, 24.241612], [37.676091, 24.291236], [37.640961, 24.291693], [37.625987, 24.28144], [37.628394, 24.24804], [37.585775, 24.246662], [37.575174, 24.261637], [37.545706, 24.274411], [37.52272, 24.267732], [37.464661, 24.339588], [37.429403, 24.367307], [37.417958, 24.400966], [37.427854, 24.421132], [37.454954, 24.406871], [37.463208, 24.422546], [37.456669, 24.441249], [37.228526, 24.737698], [37.227061, 24.799547], [37.219737, 24.802802], [37.1963, 24.789618], [37.178722, 24.799384], [37.148611, 24.85102], [37.218923, 24.846625], [37.244151, 24.854438], [37.256602, 24.871243], [37.258067, 24.92178], [37.279959, 24.964097], [37.251475, 25.052558], [37.257823, 25.111477], [37.242198, 25.175279], [37.105317, 25.32217], [37.093272, 25.344468], [37.086436, 25.385443], [37.059825, 25.419623], [37.077403, 25.431057], [37.01824, 25.494696], [36.994477, 25.549954], [36.970388, 25.570461], [36.969981, 25.588568], [36.93629, 25.646145], [36.881602, 25.672838], [36.817393, 25.757961], [36.795665, 25.759467], [36.803966, 25.726793], [36.792247, 25.720608], [36.724946, 25.753892], [36.702322, 25.779975], [36.693858, 25.822903], [36.675629, 25.830512], [36.663422, 25.855658], [36.66212, 25.879096], [36.705821, 25.943752], [36.709483, 25.971137], [36.696056, 26.022284], [36.672374, 26.045233], [36.640636, 26.060207], [36.536632, 26.082424], [36.512706, 26.110989], [36.449229, 26.246894], [36.382823, 26.33454], [36.30893, 26.498236], [36.229828, 26.625556], [36.18214, 26.680243], [36.097667, 26.753974], [36.081879, 26.797268], [36.051768, 26.844672], [36.031993, 26.906806], [36.013927, 26.90233], [35.976736, 26.94774], [35.911876, 26.999579], [35.831716, 27.092719], [35.803071, 27.142076], [35.798595, 27.15998], [35.812836, 27.191067], [35.784028, 27.2355], [35.699962, 27.324774], [35.640391, 27.363471], [35.589854, 27.4289], [35.559581, 27.455634], [35.510509, 27.544176], [35.500255, 27.61933], [35.440766, 27.690253], [35.41505, 27.75137], [35.394379, 27.777004], [35.351329, 27.801418], [35.322765, 27.876288], [35.245616, 27.962348], [35.181488, 28.002916], [35.174653, 27.996039], [35.163585, 28.009345], [35.216319, 28.037665], [35.226899, 28.033149], [35.216319, 28.054389], [35.174653, 28.065009], [35.161794, 28.058173], [35.144786, 28.076402], [35.110362, 28.078925], [35.051931, 28.119574], [35.019705, 28.113471], [35.030772, 28.099107], [34.997895, 28.114203], [34.937266, 28.091254], [34.927745, 28.078599], [34.920909, 28.085435], [34.860199, 28.085395], [34.846446, 28.071194], [34.838878, 28.078599], [34.838878, 28.085435], [34.846446, 28.085435], [34.842621, 28.09984], [34.866222, 28.112779], [34.836762, 28.116278], [34.825369, 28.112779], [34.832774, 28.099107], [34.814301, 28.088935], [34.804861, 28.071194], [34.791759, 28.078599], [34.819102, 28.099107], [34.819102, 28.112779], [34.793712, 28.11107], [34.784434, 28.092922], [34.770763, 28.092922], [34.770763, 28.105902], [34.757009, 28.099107], [34.747325, 28.112006], [34.736583, 28.105902], [34.727387, 28.112128], [34.709239, 28.140082], [34.694998, 28.126451], [34.681977, 28.135159], [34.674571, 28.112779], [34.647146, 28.099107], [34.668305, 28.071194], [34.655284, 28.065009], [34.647146, 28.071194], [34.63502, 28.033271], [34.613048, 28.030219], [34.620453, 28.037665], [34.608653, 28.058824], [34.606212, 28.096015], [34.598888, 28.103258], [34.574392, 28.094062], [34.578868, 28.105902], [34.572765, 28.112779], [34.62672, 28.160549], [34.620453, 28.167385], [34.627126, 28.176663], [34.64031, 28.181057], [34.633474, 28.174872], [34.657725, 28.170559], [34.660899, 28.181057], [34.649587, 28.200873], [34.668305, 28.20897], [34.674571, 28.270453], [34.688731, 28.263617], [34.688731, 28.277289], [34.680431, 28.271674], [34.674571, 28.277248], [34.715017, 28.32746], [34.741059, 28.41059], [34.803775, 28.527133], [34.793432, 28.619434], [34.77847, 28.6645], [34.796886, 28.725816], [34.825369, 28.784369], [34.819102, 28.790595], [34.838552, 28.828559], [34.832774, 28.845852], [34.84197, 28.889635], [34.825369, 28.894232], [34.825369, 28.900377], [34.856293, 28.963813], [34.86378, 29.006252], [34.85255, 29.045071], [34.873546, 29.085273], [34.909353, 29.230658], [34.942068, 29.250474], [34.932628, 29.289252], [34.936371, 29.30386], [34.94809, 29.298285], [34.955577, 29.305121], [34.945323, 29.3369], [34.949385, 29.351686], [36.016437, 29.189951], [36.069457, 29.200028], [36.477081, 29.494609], [36.70487, 29.831152], [36.728745, 29.853528], [36.756237, 29.865517], [37.470198, 29.994553], [37.4772352359375, 30.0], [40.0, 30.0], [40.0, 20.27479371295634], [39.991954, 20.266669]]], [[[37.042328, 25.407375], [37.028087, 25.409329], [37.031261, 25.398749], [37.003591, 25.411526], [37.000255, 25.429185], [36.978282, 25.426947], [36.966563, 25.448961], [36.946544, 25.441881], [36.951834, 25.467515], [36.961436, 25.477769], [36.999278, 25.469428], [37.008962, 25.449856], [37.017589, 25.457709], [37.021739, 25.452786], [37.026866, 25.419623], [37.042328, 25.407375]]], [[[36.961436, 25.414496], [36.935395, 25.39997], [36.89975, 25.361029], [36.798676, 25.447414], [36.797211, 25.464504], [36.776541, 25.496405], [36.823741, 25.459866], [36.915701, 25.426703], [36.920258, 25.419582], [36.899425, 25.41885], [36.896332, 25.405951], [36.904307, 25.39411], [36.942149, 25.418362], [36.961436, 25.414496]]], [[[36.826996, 25.547187], [36.828949, 25.561347], [36.841319, 25.570014], [36.866547, 25.557522], [36.866059, 25.545885], [36.849376, 25.533026], [36.826996, 25.547187]]], [[[36.771332, 25.507066], [36.765391, 25.524237], [36.742524, 25.529202], [36.734386, 25.546617], [36.719249, 25.55565], [36.681163, 25.544135], [36.681407, 25.553453], [36.691254, 25.567206], [36.725597, 25.565172], [36.775076, 25.535386], [36.785818, 25.516018], [36.874522, 25.463324], [36.883311, 25.454332], [36.879161, 25.443345], [36.834809, 25.466742], [36.82545, 25.484117], [36.771332, 25.507066]]], [[[36.898204, 25.595445], [36.914399, 25.606635], [36.927745, 25.593085], [36.925792, 25.576565], [36.91391, 25.578803], [36.927582, 25.52851], [36.923188, 25.519436], [36.900727, 25.549302], [36.898204, 25.595445]]], [[[36.667654, 25.54975], [36.567719, 25.598456], [36.546072, 25.603217], [36.539399, 25.589179], [36.497732, 25.623969], [36.491466, 25.645087], [36.499685, 25.662543], [36.54363, 25.702867], [36.522634, 25.662177], [36.531016, 25.644599], [36.570323, 25.624457], [36.609386, 25.591539], [36.631114, 25.592434], [36.63795, 25.574612], [36.655935, 25.571845], [36.659434, 25.582099], [36.683116, 25.572333], [36.667654, 25.54975]]], [[[36.542491, 25.801947], [36.558442, 25.836371], [36.590831, 25.860541], [36.56658, 25.832994], [36.555431, 25.796332], [36.564138, 25.778795], [36.59783, 25.758368], [36.58546, 25.725491], [36.58839, 25.71426], [36.611095, 25.709459], [36.595551, 25.696601], [36.583018, 25.698676], [36.544281, 25.73135], [36.542491, 25.801947]]]]}}, {"type": "Feature", "properties": {"name": "Chad"}, "geometry": {"type": "Polygon", "coordinates": [[[23.981306, 19.496124], [23.984406, 15.72116], [23.972624, 15.691085], [23.945546, 15.692222], [23.829067, 15.731031], [23.707524, 15.748859], [23.592699, 15.749014], [23.52707, 15.735165], [23.395812, 15.688346], [23.320571, 15.681318], [23.166782, 15.712944], [23.094642, 15.704262], [23.068493, 15.686692], [23.004518, 15.611425], [22.92566, 15.563935], [22.906746, 15.541404], [22.899511, 15.510191], [22.906849, 15.481408], [22.966484, 15.404823], [22.976406, 15.373636], [22.97837, 15.340202], [22.958009, 15.201631], [22.905506, 15.112567], [22.848765, 15.087504], [22.738901, 14.97981], [22.727222, 14.959036], [22.715337, 14.899428], [22.658906, 14.857415], [22.650844, 14.816151], [22.659009, 14.761271], [22.67968, 14.711816], [22.676579, 14.688975], [22.465429, 14.629289], [22.382334, 14.579111], [22.363523, 14.543532], [22.386364, 14.506532], [22.424915, 14.470436], [22.439074, 14.362923], [22.45096, 14.345792], [22.418094, 14.30595], [22.429049, 14.264608], [22.457678, 14.241147], [22.514109, 14.231458], [22.531885, 14.220632], [22.547698, 14.169033], [22.546355, 14.139707], [22.531472, 14.122627], [22.458711, 14.096117], [22.402281, 14.049299], [22.214695, 13.956617], [22.099353, 13.819416], [22.074962, 13.780323], [22.073722, 13.771357], [22.112893, 13.729835], [22.11434, 13.677383], [22.132116, 13.638652], [22.195885, 13.580464], [22.210561, 13.541733], [22.215625, 13.464993], [22.275984, 13.376316], [22.267612, 13.334562], [22.139971, 13.193511], [22.016051, 13.140233], [21.964065, 13.098349], [21.935126, 13.059152], [21.85296, 12.905725], [21.809449, 12.793665], [21.880142, 12.676282], [21.900813, 12.656438], [21.935953, 12.63954], [22.019668, 12.631426], [22.105865, 12.650392], [22.144105, 12.671269], [22.176248, 12.7015], [22.204877, 12.743358], [22.33014, 12.661451], [22.43246, 12.62383], [22.445689, 12.611066], [22.395873, 12.496086], [22.372825, 12.463116], [22.407965, 12.399761], [22.484033, 12.164737], [22.458091, 12.03043], [22.546458, 12.064433], [22.585525, 12.071357], [22.598858, 12.063244], [22.607333, 12.077714], [22.612397, 12.072804], [22.537053, 11.68089], [22.541704, 11.632986], [22.561754, 11.586012], [22.592347, 11.543663], [22.628107, 11.509841], [22.743035, 11.466097], [22.76877, 11.442326], [22.771871, 11.403181], [22.900442, 11.408245], [22.914808, 11.396101], [22.928347, 11.32515], [22.953668, 11.250942], [22.956459, 11.2088], [22.928967, 11.137926], [22.922352, 11.087076], [22.900235, 11.059895], [22.861064, 10.919154], [22.805977, 10.924502], [22.745102, 10.943803], [22.719884, 10.964655], [22.682677, 10.974137], [22.638339, 10.974137], [22.600822, 10.987806], [22.534676, 10.98052], [22.511938, 11.000828], [22.502843, 10.992173], [22.447136, 10.99827], [22.407035, 10.963053], [22.318772, 10.939359], [22.2765, 10.908534], [22.253039, 10.915304], [22.200639, 10.868666], [22.176351, 10.816214], [22.148239, 10.830761], [22.048607, 10.836988], [22.029487, 10.828746], [22.018325, 10.809884], [22.004889, 10.775519], [22.014604, 10.754564], [22.003855, 10.743273], [21.925617, 10.720122], [21.863606, 10.667929], [21.822575, 10.678755], [21.784851, 10.669324], [21.768418, 10.651987], [21.722632, 10.636716], [21.705476, 10.571811], [21.705476, 10.53202], [21.716845, 10.47732], [21.744233, 10.439106], [21.743613, 10.418978], [21.751054, 10.41182], [21.720462, 10.360816], [21.718808, 10.296634], [21.688939, 10.288908], [21.65628, 10.233666], [21.579282, 10.212272], [21.544969, 10.219997], [21.513239, 10.200515], [21.485437, 10.164316], [21.433348, 10.046055], [21.396086397288254, 10.0], [20.0, 10.0], [20.0, 21.46212774132179], [23.981306, 19.496124]]]}}, {"type": "Feature", "properties": {"name": "Jordan"}, "geometry": {"type": "Polygon", "coordinates": [[[37.470198, 29.994553], [36.756237, 29.865517], [36.728745, 29.853528], [36.70487, 29.831152], [36.477081, 29.494609], [36.069457, 29.200028], [36.016437, 29.189951], [34.949385, 29.351686], [34.962413, 29.359768], [34.969005, 29.450832], [34.997813, 29.517971], [34.996837, 29.533881], [34.955577, 29.558987], [34.95986, 29.586206], [34.989833, 29.651964], [35.002545, 29.733096], [35.048951, 29.842314], [35.054118, 29.923394], [35.07637348317064, 30.0], [37.4772352359375, 30.0], [37.470198, 29.994553]]]}}, {"type": "Feature", "properties": {"name": "Egypt"}, "geometry": {"type": "MultiPolygon", "coordinates": [[[[34.741373, 29.940241], [34.824365, 29.7417], [34.8501, 29.63876], [34.848239, 29.569643], [34.855267, 29.545717], [34.886729, 29.490058], [34.859711, 29.472154], [34.838145, 29.432929], [34.825369, 29.428616], [34.832774, 29.421129], [34.817638, 29.412177], [34.819102, 29.400702], [34.805186, 29.39643], [34.812266, 29.387641], [34.736583, 29.311265], [34.745291, 29.291327], [34.729015, 29.250474], [34.729015, 29.19892], [34.694998, 29.164496], [34.690115, 29.134467], [34.674571, 29.106513], [34.674571, 29.03441], [34.686534, 29.012437], [34.68572, 28.988674], [34.646739, 28.967434], [34.64031, 28.948798], [34.647146, 28.86286], [34.620453, 28.845852], [34.626313, 28.816962], [34.620453, 28.790595], [34.633474, 28.770697], [34.622813, 28.759833], [34.624522, 28.735989], [34.584239, 28.672349], [34.570323, 28.626166], [34.51059, 28.537991], [34.523611, 28.50731], [34.511567, 28.487779], [34.469005, 28.45539], [34.475271, 28.447943], [34.454275, 28.4289], [34.441173, 28.373481], [34.410167, 28.320014], [34.407888, 28.291164], [34.420584, 28.256171], [34.412934, 28.23314], [34.455333, 28.174872], [34.426753, 28.081544], [34.444027, 28.053541], [34.427419, 27.983059], [34.434906, 27.975572], [34.400727, 27.968736], [34.37086, 27.923651], [34.331309, 27.91413], [34.338715, 27.906684], [34.320974, 27.861274], [34.31129, 27.852037], [34.286388, 27.864407], [34.27947, 27.858344], [34.26352, 27.824774], [34.271739, 27.812445], [34.259125, 27.801703], [34.214122, 27.79149], [34.221202, 27.769843], [34.257335, 27.769517], [34.249848, 27.763332], [34.26352, 27.736029], [34.249848, 27.742825], [34.257335, 27.728583], [34.189789, 27.78677], [34.078461, 27.800686], [34.054454, 27.814521], [33.987559, 27.886664], [33.973806, 27.889228], [33.903982, 27.941799], [33.879405, 27.934638], [33.865571, 27.96133], [33.858897, 27.955146], [33.80421, 27.996039], [33.793712, 28.013129], [33.763357, 28.023993], [33.763927, 28.049018], [33.715994, 28.075263], [33.715505, 28.092922], [33.672537, 28.145982], [33.674571, 28.160549], [33.66033, 28.174872], [33.646658, 28.167385], [33.634776, 28.181301], [33.618175, 28.233303], [33.612804, 28.240627], [33.605642, 28.236274], [33.564708, 28.297105], [33.43393, 28.3664], [33.369151, 28.447943], [33.305186, 28.489732], [33.278819, 28.527533], [33.256196, 28.544135], [33.262462, 28.551581], [33.262462, 28.544135], [33.269786, 28.544135], [33.26295, 28.577053], [33.246104, 28.579495], [33.237641, 28.566107], [33.256196, 28.551581], [33.228689, 28.569403], [33.219005, 28.627997], [33.194835, 28.675116], [33.228282, 28.763861], [33.210134, 28.785061], [33.204763, 28.805162], [33.181, 28.818508], [33.174571, 28.836982], [33.167328, 28.900377], [33.177582, 28.918362], [33.165863, 28.97606], [33.177908, 28.989569], [33.14503, 29.031724], [33.126475, 29.031399], [33.078624, 29.064887], [33.061209, 29.101386], [32.957856, 29.202094], [32.91977, 29.217515], [32.88559, 29.243069], [32.868337, 29.297431], [32.839366, 29.31623], [32.817393, 29.359768], [32.817231, 29.414049], [32.741547, 29.455959], [32.749197, 29.455959], [32.745372, 29.463121], [32.728526, 29.469631], [32.734711, 29.483832], [32.721446, 29.467475], [32.728526, 29.455959], [32.715017, 29.455959], [32.724132, 29.539537], [32.712413, 29.580471], [32.680837, 29.599921], [32.68686, 29.61815], [32.680837, 29.661363], [32.693858, 29.706041], [32.690684, 29.733629], [32.648448, 29.794623], [32.604503, 29.824164], [32.625499, 29.84634], [32.625336, 29.874254], [32.571544, 29.9289], [32.584321, 29.938707], [32.57781, 29.948798], [32.58546, 29.95246], [32.561615, 29.976386], [32.57781, 29.983547], [32.57781, 30.0], [34.73462866733935, 30.0], [34.741373, 29.940241]]], [[[32.557465, 29.976467], [32.571544, 29.942572], [32.564138, 29.942572], [32.553966, 29.962104], [32.53004, 29.956204], [32.513438, 29.961575], [32.476899, 29.932196], [32.467947, 29.915229], [32.472911, 29.881985], [32.509532, 29.866848], [32.491547, 29.854071], [32.392833, 29.734361], [32.363943, 29.688218], [32.357432, 29.630561], [32.337657, 29.592475], [32.387706, 29.525621], [32.451345, 29.487291], [32.581228, 29.369127], [32.605479, 29.291938], [32.632335, 29.243069], [32.628673, 29.21894], [32.658946, 29.110785], [32.659679, 29.089097], [32.624685, 29.048163], [32.632335, 29.037584], [32.625499, 28.972724], [32.67335, 28.921536], [32.680837, 28.880561], [32.749197, 28.804836], [32.784516, 28.799384], [32.806895, 28.778144], [32.868907, 28.578925], [32.927257, 28.551581], [32.972911, 28.499823], [33.00294, 28.489488], [33.050792, 28.406928], [33.043224, 28.400784], [33.1067, 28.347113], [33.105317, 28.325629], [33.126475, 28.287502], [33.200531, 28.211371], [33.212169, 28.189927], [33.241954, 28.174872], [33.24936, 28.14289], [33.283214, 28.132392], [33.316417, 28.096381], [33.338145, 28.085435], [33.336111, 28.056789], [33.343598, 28.050605], [33.366059, 28.050686], [33.374685, 28.035875], [33.441742, 28.016547], [33.512543, 27.959052], [33.554373, 27.89647], [33.576182, 27.850491], [33.592052, 27.791246], [33.571544, 27.791246], [33.560069, 27.813422], [33.488943, 27.845893], [33.482188, 27.845893], [33.473481, 27.823188], [33.522716, 27.751899], [33.557872, 27.759914], [33.552501, 27.731879], [33.536794, 27.708075], [33.574962, 27.681383], [33.592052, 27.646633], [33.557872, 27.681383], [33.550466, 27.681383], [33.550466, 27.673977], [33.557872, 27.659654], [33.550466, 27.659654], [33.5442, 27.679185], [33.526541, 27.677558], [33.496349, 27.646633], [33.519705, 27.63581], [33.564708, 27.571519], [33.557872, 27.53677], [33.632986, 27.495836], [33.640391, 27.45482], [33.671153, 27.420396], [33.691661, 27.341864], [33.724783, 27.313707], [33.825369, 27.259711], [33.83839, 27.24258], [33.83839, 27.194159], [33.824718, 27.180487], [33.836762, 27.120754], [33.901378, 27.058743], [33.908702, 27.042141], [33.893728, 27.043931], [33.90089, 27.014228], [33.951671, 26.930976], [33.990977, 26.907416], [33.996104, 26.896552], [34.003591, 26.848944], [33.996104, 26.837877], [33.979666, 26.837104], [33.959646, 26.849799], [33.948253, 26.831], [33.951915, 26.743354], [33.93214, 26.682603], [33.941417, 26.65351], [34.003591, 26.625637], [34.014008, 26.61164], [34.023936, 26.580715], [34.070649, 26.514879], [34.104828, 26.426663], [34.177501, 26.314846], [34.261974, 26.139472], [34.301036, 26.087795], [34.338715, 26.001776], [34.417491, 25.903144], [34.434744, 25.861884], [34.501801, 25.771633], [34.54656, 25.725043], [34.633474, 25.569403], [34.647146, 25.52204], [34.671397, 25.479722], [34.681895, 25.428697], [34.743337, 25.351304], [34.764985, 25.296088], [34.794932, 25.254381], [34.806895, 25.211615], [34.939138, 25.003363], [34.953725, 24.944142], [34.989757, 24.905015], [35.002208, 24.815619], [35.063487, 24.764106], [35.08074, 24.735419], [35.109548, 24.643785], [35.16027, 24.574618], [35.160655, 24.558498], [35.144445, 24.527675], [35.144556, 24.500206], [35.18572, 24.485663], [35.235455, 24.400126], [35.370616, 24.306098], [35.391856, 24.282782], [35.428645, 24.185953], [35.493828, 24.1089], [35.510509, 24.111233], [35.493767, 24.138989], [35.5039, 24.140538], [35.524189, 24.121275], [35.552059, 24.1105], [35.588372, 24.075837], [35.602725, 24.048101], [35.605261, 24.018817], [35.635631, 24.001865], [35.66685, 24.007253], [35.738571, 23.983317], [35.792535, 23.902291], [35.785779, 23.893046], [35.750356, 23.932423], [35.736012, 23.933209], [35.68452, 23.910916], [35.64575, 23.925562], [35.598533, 23.929413], [35.579981, 23.936349], [35.550548, 23.965481], [35.513927, 23.977118], [35.491222, 23.947577], [35.483871, 23.917787], [35.490658, 23.869996], [35.474768, 23.797915], [35.483224, 23.772487], [35.501721, 23.768695], [35.510148, 23.756379], [35.510221, 23.683922], [35.503673, 23.55565], [35.489431, 23.497016], [35.547537, 23.393988], [35.550304, 23.330227], [35.57468, 23.212565], [35.621087, 23.139293], [35.654642, 23.07375], [35.667817, 22.982611], [35.695305, 22.932126], [35.737071, 22.883979], [35.763682, 22.870429], [35.723399, 22.931871], [35.755707, 22.922309], [35.784923, 22.833197], [35.80128, 22.822577], [35.847547, 22.762989], [35.885964, 22.735695], [35.969493, 22.697984], [36.120616, 22.675686], [36.197765, 22.651679], [36.226085, 22.635443], [36.274669, 22.592353], [36.290538, 22.568183], [36.296368, 22.521999], [36.313416, 22.491613], [36.374522, 22.445258], [36.404755, 22.432884], [36.401556, 22.448571], [36.406859, 22.448577], [36.4281, 22.426045], [36.422823, 22.397605], [36.439823, 22.356443], [36.562839, 22.296677], [36.713715, 22.169135], [36.747569, 22.160956], [36.756847, 22.176907], [36.782237, 22.164455], [36.818207, 22.108832], [36.895383, 22.066133], [36.898448, 22.017483], [36.883637, 21.995714], [31.435476, 21.995351], [31.490563, 22.14821], [31.491803, 22.173221], [31.482915, 22.195442], [31.460901, 22.215493], [31.42328, 22.226965], [31.38535, 22.214459], [31.359512, 22.188104], [31.261637, 22.001759], [31.248407, 21.994369], [24.981245, 21.995351], [24.981245, 29.181372], [24.97432, 29.23894], [24.956647, 29.292683], [24.863836, 29.502903], [24.870657, 29.638347], [24.856188, 29.679482], [24.804925, 29.7548], [24.798207, 29.796425], [24.81495, 29.848567], [24.811643, 29.89089], [24.76153895145134, 30.0], [32.566944046347956, 30.0], [32.557465, 29.976467]], [[35.429207, 22.97833], [35.212088, 22.786263], [35.621087, 23.139293], [35.429207, 22.97833]], [[34.777558, 22.499765], [34.828226, 22.60689], [34.861952, 22.680182], [34.777558, 22.499765]], [[34.42276, 22.249207], [34.147476, 22.191856], [34.321075, 22.226294], [34.682088, 22.297912], [34.42276, 22.249207]]], [[[33.975597, 26.790025], [34.00294, 26.731635], [34.003591, 26.708197], [33.989594, 26.720282], [33.955089, 26.790025], [33.975597, 26.790025]]], [[[34.028494, 27.502021], [34.05128, 27.448635], [34.031098, 27.451483], [34.007091, 27.47606], [33.976085, 27.487372], [33.956391, 27.504381], [33.933767, 27.494696], [33.913585, 27.523749], [33.933116, 27.536363], [33.964122, 27.534125], [34.028494, 27.502021]]], [[[34.620453, 27.927802], [34.620453, 27.920356], [34.547211, 27.919664], [34.518077, 27.930406], [34.496349, 27.955146], [34.489513, 27.996039], [34.517345, 28.016547], [34.5442, 27.996039], [34.506847, 27.986233], [34.503184, 27.975572], [34.511892, 27.967475], [34.570567, 27.974107], [34.620453, 27.927802]]], [[[34.732162, 27.918943], [34.704695, 27.908368], [34.661786, 27.930218], [34.681773, 27.958703], [34.731882, 27.957141], [34.732162, 27.918943]]]]}}, {"type": "Feature", "properties": {"name": "Bir Tawil"}, "geometry": {"type": "Polygon", "coordinates": [[[33.392359, 21.995454], [34.084179, 21.995454], [33.999118, 21.767353], [33.558442, 21.710957], [33.181136, 21.995409], [33.392359, 21.995454]]]}}]}