{"type": "FeatureCollection", "features": [{"type": "Feature", "properties": {"name": "Saint Helena"}, "geometry": {"type": "MultiPolygon", "coordinates": [[[[-9.906361, -40.36419], [-9.895375, -40.386407], [-9.92516, -40.397882], [-9.965077, -40.382745], [-10.039377, -40.338637], [-10.039377, -40.331801], [-10.022206, -40.307224], [-9.962758, -40.301853], [-9.943105, -40.31227], [-9.926381, -40.34881], [-9.906361, -40.36419]]], [[[-12.2919, -37.055759], [-12.244985, -37.059177], [-12.191274, -37.090509], [-12.244781, -37.137872], [-12.276601, -37.149184], [-12.335317, -37.104262], [-12.2919, -37.055759]]]]}}]}