{"type": "FeatureCollection", "features": [{"type": "Feature", "properties": {"name": "Indonesia"}, "geometry": {"type": "MultiPolygon", "coordinates": [[[[124.560313, -10.015232], [124.540782, -10.036554], [124.524669, -10.083429], [124.49936, -10.111993], [124.418468, -10.163832], [124.38087, -10.170505], [124.271983, -10.166192], [124.164806, -10.180597], [124.122406, -10.17254], [124.107677, -10.18434], [124.087413, -10.225681], [124.057384, -10.238946], [124.033865, -10.276137], [123.932791, -10.294854], [123.799327, -10.374688], [123.778168, -10.358331], [123.719086, -10.371759], [123.658865, -10.349298], [123.617442, -10.366306], [123.574474, -10.33766], [123.536469, -10.331964], [123.515391, -10.335545], [123.492931, -10.360772], [123.472016, -10.364923], [123.468598, -10.356215], [123.493419, -10.301935], [123.492524, -10.245212], [123.515391, -10.213067], [123.54713, -10.186782], [123.620372, -10.153009], [123.665701, -10.143162], [123.748546, -10.097752], [123.764659, -10.074965], [123.745779, -10.050388], [123.684337, -10.024998], [123.638357, -10.029962], [123.605642, -10.054295], [123.588145, -10.050388], [123.577403, -10.034356], [123.57981733697915, -10.0], [124.58145714322634, -10.0], [124.560313, -10.015232]]], [[[120.831554, -10.014418], [120.839854, -10.051365], [120.826671, -10.091241], [120.785167, -10.12477], [120.72462, -10.196873], [120.630544, -10.235935], [120.566091, -10.227797], [120.547374, -10.233331], [120.491466, -10.265883], [120.483165, -10.300958], [120.47047, -10.310317], [120.449962, -10.310317], [120.432302, -10.300063], [120.409353, -10.269627], [120.391612, -10.263116], [120.230235, -10.245212], [120.15561, -10.220961], [120.134613, -10.186782], [120.086925, -10.162856], [120.059418, -10.118585], [120.03419, -10.112074], [120.027192, -10.067641], [120.014903, -10.043227], [120.0, -10.024553406704891], [120.0, -10.0], [120.8210361406215, -10.0], [120.831554, -10.014418]]], [[[123.413097, -10.604587], [123.420421, -10.619073], [123.417328, -10.663507], [123.40919, -10.679132], [123.348643, -10.674086], [123.276866, -10.72503], [123.243419, -10.737726], [123.231944, -10.789483], [123.209158, -10.813084], [123.139822, -10.822686], [122.988048, -10.865004], [122.957693, -10.888116], [122.97169, -10.906183], [122.880219, -10.922621], [122.841807, -10.921075], [122.820974, -10.893243], [122.812511, -10.778416], [122.833344, -10.773207], [122.854991, -10.755304], [122.917654, -10.737481], [122.973643, -10.735121], [123.049164, -10.711358], [123.098399, -10.663507], [123.177257, -10.618829], [123.190929, -10.577813], [123.215587, -10.574965], [123.225108, -10.543634], [123.241954, -10.528904], [123.33546, -10.49033], [123.386485, -10.433038], [123.397146, -10.463474], [123.375824, -10.495864], [123.393891, -10.50921], [123.375255, -10.548435], [123.378184, -10.561619], [123.355968, -10.581231], [123.359386, -10.590753], [123.390147, -10.591485], [123.413097, -10.604587]]], [[[121.959809, -10.440118], [121.995942, -10.441339], [122.005382, -10.46795], [121.997895, -10.508966], [121.95281, -10.553399], [121.91505, -10.577081], [121.891856, -10.580743], [121.881847, -10.598321], [121.859711, -10.604099], [121.732107, -10.597345], [121.690115, -10.564223], [121.826427, -10.493829], [121.861339, -10.440606], [121.879649, -10.428888], [121.923106, -10.420343], [121.959809, -10.440118]]], [[[123.473806, -10.162856], [123.504649, -10.171319], [123.506114, -10.186782], [123.459239, -10.214614], [123.446625, -10.239679], [123.42156, -10.235935], [123.410655, -10.220961], [123.396251, -10.227797], [123.42449, -10.299005], [123.410655, -10.310317], [123.413422, -10.332615], [123.390147, -10.330824], [123.367035, -10.301202], [123.33839, -10.337498], [123.321788, -10.338962], [123.314301, -10.313409], [123.319998, -10.267755], [123.369802, -10.216892], [123.389415, -10.175226], [123.403819, -10.157647], [123.438243, -10.14129], [123.45753, -10.139337], [123.473806, -10.162856]]], [[[121.633311, -10.604181], [121.631114, -10.61533], [121.595225, -10.634535], [121.552745, -10.640395], [121.531423, -10.638442], [121.527192, -10.629571], [121.564952, -10.603692], [121.633311, -10.604181]]]]}}, {"type": "Feature", "properties": {"name": "Australia"}, "geometry": {"type": "MultiPolygon", "coordinates": [[[[120.070567, -19.921645], [120.238292, -19.906834], [120.3685, -19.86712], [120.650564, -19.763279], [120.954356, -19.633722], [121.128266, -19.520685], [121.166026, -19.484552], [121.193533, -19.472426], [121.311534, -19.354099], [121.416189, -19.221612], [121.519379, -19.069594], [121.539806, -19.013604], [121.564138, -18.975681], [121.569184, -18.944594], [121.597423, -18.911228], [121.642589, -18.810235], [121.646251, -18.763442], [121.621755, -18.739353], [121.613292, -18.712498], [121.643891, -18.717055], [121.715587, -18.703709], [121.769054, -18.657403], [121.78004, -18.619236], [121.77475, -18.606134], [121.731619, -18.580987], [121.773936, -18.545668], [121.811046, -18.462579], [121.823741, -18.451837], [121.866547, -18.470798], [121.91033, -18.464451], [122.022146, -18.384698], [122.0442, -18.360528], [122.062266, -18.320001], [122.122081, -18.293634], [122.158051, -18.263442], [122.183442, -18.225356], [122.197113, -18.238946], [122.220388, -18.197198], [122.323985, -18.150567], [122.347016, -18.121189], [122.369151, -18.063897], [122.360688, -18.000177], [122.344086, -17.983005], [122.248546, -17.96087], [122.217052, -17.969659], [122.190929, -17.998793], [122.16977, -17.978285], [122.196137, -17.945408], [122.207856, -17.91131], [122.19337, -17.805841], [122.205414, -17.71087], [122.177257, -17.663018], [122.14324, -17.563653], [122.141124, -17.458754], [122.149425, -17.341485], [122.172048, -17.261163], [122.19044, -17.230564], [122.207693, -17.224786], [122.279633, -17.139255], [122.256602, -17.12127], [122.276052, -17.089288], [122.412771, -16.972752], [122.45102, -16.950453], [122.444509, -16.968927], [122.450857, -16.981622], [122.464122, -16.983819], [122.478282, -16.970961], [122.481619, -16.949965], [122.472911, -16.92018], [122.506114, -16.91961], [122.529552, -16.953871], [122.594981, -16.970961], [122.526134, -16.861749], [122.540294, -16.834405], [122.551036, -16.837498], [122.553477, -16.813897], [122.582367, -16.779555], [122.601248, -16.772231], [122.614431, -16.796075], [122.642833, -16.800226], [122.664561, -16.788507], [122.704275, -16.786716], [122.740489, -16.761326], [122.7588, -16.758722], [122.820974, -16.779718], [122.763194, -16.730076], [122.746104, -16.702895], [122.745128, -16.669854], [122.7588, -16.638849], [122.7588, -16.604425], [122.783946, -16.565851], [122.837413, -16.561619], [122.870453, -16.516778], [122.886404, -16.512302], [122.916189, -16.415948], [122.938243, -16.416111], [123.006602, -16.374444], [123.020274, -16.382582], [122.998383, -16.422947], [123.05836, -16.453546], [123.053722, -16.470636], [123.040782, -16.478123], [122.990001, -16.473403], [122.977875, -16.505466], [122.990408, -16.529229], [122.959809, -16.580336], [122.980724, -16.625421], [122.98878, -16.629002], [123.021007, -16.614353], [123.030772, -16.676202], [123.042817, -16.692478], [123.067393, -16.683526], [123.081879, -16.70322], [123.102061, -16.712091], [123.112559, -16.709731], [123.132172, -16.686293], [123.125743, -16.721124], [123.100841, -16.732354], [123.094574, -16.745701], [123.094493, -16.769301], [123.106456, -16.786391], [123.15089, -16.807712], [123.157725, -16.843438], [123.143321, -16.913751], [123.183767, -16.928969], [123.21811, -16.977716], [123.260427, -17.014744], [123.271739, -17.085626], [123.333751, -17.162367], [123.368175, -17.228448], [123.379405, -17.254815], [123.36964, -17.279474], [123.38795, -17.315606], [123.399669, -17.329278], [123.434418, -17.344415], [123.457774, -17.384373], [123.501475, -17.429783], [123.511729, -17.471856], [123.553966, -17.518976], [123.570811, -17.595147], [123.588145, -17.570571], [123.587657, -17.515069], [123.560802, -17.447361], [123.567638, -17.361993], [123.594981, -17.313572], [123.594412, -17.278741], [123.612804, -17.215753], [123.629649, -17.202569], [123.643321, -17.203709], [123.644298, -17.184747], [123.5796, -17.094008], [123.574474, -17.042901], [123.594981, -16.985121], [123.60613, -16.996352], [123.656016, -16.995782], [123.667247, -17.008477], [123.680186, -17.060317], [123.698009, -17.046645], [123.733409, -17.066095], [123.751475, -17.082615], [123.771251, -17.126072], [123.821544, -17.155938], [123.86085, -17.210382], [123.879731, -17.21795], [123.913341, -17.21559], [123.914073, -17.198989], [123.882986, -17.190688], [123.85377, -17.163263], [123.837087, -17.13242], [123.794607, -17.000095], [123.804454, -16.991388], [123.817638, -16.996189], [123.863048, -17.025567], [123.86964, -17.004653], [123.84311, -16.979262], [123.835216, -16.960707], [123.841645, -16.946547], [123.870128, -16.923598], [123.8838, -16.896905], [123.937511, -16.867852], [123.953298, -16.828546], [123.948578, -16.809259], [123.931407, -16.800226], [123.923595, -16.8388], [123.902599, -16.858982], [123.792491, -16.89072], [123.768077, -16.878513], [123.732677, -16.813897], [123.708263, -16.741876], [123.643321, -16.704034], [123.595551, -16.665297], [123.509939, -16.653904], [123.51295, -16.642022], [123.566173, -16.615981], [123.553966, -16.594171], [123.609141, -16.563897], [123.609223, -16.546319], [123.596446, -16.535903], [123.555186, -16.539727], [123.533458, -16.532159], [123.543468, -16.56699], [123.512543, -16.566664], [123.498546, -16.561944], [123.488048, -16.543878], [123.424164, -16.491143], [123.482677, -16.505466], [123.492524, -16.500258], [123.465831, -16.4638], [123.489513, -16.468927], [123.543468, -16.505466], [123.618419, -16.529962], [123.643321, -16.525974], [123.635102, -16.515395], [123.588145, -16.505466], [123.607432, -16.494073], [123.654063, -16.48447], [123.506114, -16.416111], [123.506114, -16.407973], [123.549327, -16.411879], [123.553966, -16.395603], [123.648448, -16.42783], [123.711681, -16.429783], [123.675548, -16.399102], [123.651866, -16.392511], [123.631602, -16.364679], [123.651622, -16.360284], [123.681326, -16.376235], [123.711681, -16.38128], [123.711681, -16.333591], [123.65797, -16.327732], [123.619151, -16.293145], [123.603363, -16.299737], [123.615896, -16.308526], [123.601817, -16.31992], [123.539724, -16.265232], [123.567149, -16.260919], [123.576427, -16.242446], [123.570649, -16.221856], [123.553966, -16.210626], [123.57016, -16.176935], [123.581309, -16.16961], [123.603363, -16.175551], [123.594981, -16.155938], [123.690929, -16.148696], [123.719086, -16.155938], [123.724132, -16.136326], [123.749522, -16.162774], [123.773692, -16.162774], [123.785818, -16.180434], [123.806895, -16.191095], [123.804454, -16.207452], [123.766856, -16.20436], [123.769298, -16.216567], [123.787852, -16.225356], [123.82838, -16.231134], [123.813487, -16.246026], [123.732677, -16.258966], [123.803477, -16.308201], [123.862641, -16.327325], [123.869314, -16.340427], [123.866059, -16.368097], [123.858084, -16.370782], [123.848806, -16.360772], [123.835216, -16.368259], [123.863048, -16.429783], [123.869314, -16.416111], [123.889659, -16.429783], [123.897227, -16.353936], [123.891856, -16.3388], [123.945079, -16.353936], [123.98463, -16.384698], [123.992849, -16.377862], [123.957774, -16.320896], [123.951427, -16.293634], [123.986013, -16.28631], [123.986013, -16.278904], [123.942393, -16.252862], [123.910899, -16.217462], [123.972179, -16.240411], [124.029307, -16.249282], [124.037852, -16.263442], [124.068533, -16.258966], [124.126231, -16.272231], [124.167166, -16.29697], [124.199392, -16.375095], [124.222667, -16.395603], [124.342133, -16.407973], [124.366466, -16.364516], [124.386078, -16.35117], [124.473643, -16.393324], [124.592459, -16.4013], [124.623302, -16.399998], [124.650157, -16.388116], [124.657481, -16.395603], [124.725759, -16.382501], [124.768728, -16.385349], [124.803722, -16.418227], [124.839692, -16.425714], [124.878917, -16.420668], [124.903982, -16.402439], [124.840831, -16.405206], [124.809418, -16.387628], [124.753184, -16.374444], [124.697276, -16.344415], [124.596202, -16.326593], [124.499278, -16.335707], [124.476329, -16.347833], [124.456798, -16.333266], [124.428722, -16.340509], [124.401541, -16.329278], [124.383311, -16.282647], [124.396821, -16.238539], [124.378429, -16.214939], [124.394542, -16.166599], [124.425548, -16.153578], [124.434337, -16.057794], [124.454275, -16.052667], [124.465831, -16.060479], [124.472667, -16.115004], [124.520356, -16.176446], [124.546723, -16.128106], [124.569672, -16.109959], [124.596202, -16.115004], [124.583751, -15.988865], [124.591156, -15.977309], [124.615977, -15.977227], [124.607677, -15.957615], [124.609711, -15.898696], [124.642589, -15.865655], [124.665863, -15.861505], [124.684255, -15.881036], [124.708751, -15.820733], [124.732677, -15.806573], [124.678884, -15.791681], [124.631684, -15.794203], [124.609711, -15.806573], [124.586681, -15.847833], [124.558442, -15.874933], [124.515147, -15.970147], [124.486339, -15.998305], [124.493175, -15.950453], [124.475597, -15.927341], [124.45045, -15.843194], [124.438487, -15.826349], [124.438731, -15.849705], [124.404307, -15.87477], [124.399181, -15.804783], [124.381521, -15.748468], [124.389985, -15.717055], [124.376475, -15.676202], [124.380626, -15.664483], [124.396821, -15.676202], [124.404307, -15.635186], [124.417979, -15.669366], [124.427501, -15.621515], [124.418468, -15.604099], [124.396821, -15.608005], [124.403331, -15.559259], [124.396983, -15.539158], [124.376475, -15.525323], [124.389903, -15.522556], [124.424815, -15.535577], [124.447765, -15.525079], [124.451996, -15.491143], [124.472911, -15.468683], [124.504242, -15.467462], [124.578136, -15.506931], [124.629649, -15.504978], [124.629649, -15.43255], [124.640147, -15.415948], [124.649425, -15.426853], [124.643321, -15.457127], [124.654063, -15.472345], [124.66863, -15.478448], [124.682628, -15.473891], [124.691742, -15.457127], [124.672862, -15.442641], [124.672618, -15.418227], [124.683442, -15.392348], [124.698009, -15.373956], [124.732677, -15.357517], [124.728038, -15.347589], [124.708507, -15.345636], [124.705333, -15.33294], [124.669688, -15.352309], [124.667003, -15.324395], [124.68922, -15.320489], [124.698009, -15.313084], [124.697927, -15.298435], [124.663748, -15.291925], [124.663748, -15.250421], [124.698009, -15.264744], [124.708751, -15.250421], [124.715587, -15.274591], [124.756602, -15.285252], [124.761485, -15.292169], [124.739513, -15.33294], [124.74586, -15.335382], [124.797862, -15.291925], [124.83546, -15.318048], [124.822032, -15.354099], [124.883474, -15.347263], [124.920421, -15.361017], [124.95753, -15.406834], [124.993337, -15.422296], [124.993175, -15.438084], [124.976248, -15.469171], [124.979747, -15.477634], [125.017589, -15.463311], [125.027599, -15.466729], [125.027599, -15.491143], [125.049815, -15.498224], [125.061697, -15.44964], [125.086599, -15.454767], [125.185232, -15.517836], [125.07252, -15.418878], [125.08961, -15.347263], [125.113048, -15.329278], [125.144298, -15.319268], [125.144298, -15.313084], [125.114431, -15.308689], [125.096446, -15.285252], [125.090505, -15.305108], [125.072927, -15.304457], [125.038097, -15.281427], [124.917735, -15.339776], [124.906586, -15.333185], [124.897146, -15.299412], [124.885265, -15.296808], [124.887462, -15.275486], [124.924653, -15.247166], [124.917735, -15.2374], [124.924653, -15.229262], [124.970551, -15.207778], [125.006521, -15.221287], [125.055431, -15.162286], [125.013845, -15.148614], [125.003591, -15.182061], [124.986339, -15.178481], [124.979747, -15.162286], [124.962657, -15.190199], [124.931895, -15.20322], [124.869884, -15.250421], [124.87672, -15.223728], [124.869884, -15.216241], [124.856212, -15.229913], [124.856212, -15.195082], [124.869884, -15.165948], [124.834239, -15.164727], [124.84197, -15.141209], [124.856212, -15.134942], [124.863048, -15.114435], [124.896658, -15.101495], [124.952485, -15.115899], [124.972911, -15.134942], [125.013031, -15.084649], [125.021251, -15.100274], [125.031505, -15.061619], [125.027843, -15.040948], [125.010427, -15.031915], [125.011974, -15.005141], [125.000173, -14.970392], [125.041759, -14.990981], [125.072276, -14.96852], [125.082042, -14.976658], [125.083181, -14.993259], [125.063243, -15.013604], [125.061697, -15.031915], [125.069102, -15.025079], [125.075938, -15.059828], [125.098399, -15.029067], [125.110037, -15.025079], [125.123709, -15.038751], [125.116873, -15.069513], [125.134044, -15.114435], [125.165294, -15.162286], [125.176117, -15.116306], [125.145763, -15.028009], [125.165294, -15.011407], [125.172618, -15.044529], [125.215587, -15.05755], [125.229747, -15.072686], [125.246593, -15.066095], [125.249848, -15.07822], [125.280772, -15.107599], [125.273936, -15.128106], [125.288259, -15.140558], [125.328787, -15.152765], [125.329112, -15.141209], [125.357107, -15.136489], [125.419932, -15.149347], [125.43214, -15.137953], [125.425141, -15.116143], [125.394054, -15.120701], [125.37379, -15.107599], [125.369477, -15.086521], [125.390636, -15.076593], [125.366466, -15.051446], [125.430837, -15.019708], [125.429535, -15.009047], [125.417491, -15.002211], [125.384044, -15.01393], [125.366954, -15.008396], [125.354503, -14.99391], [125.329926, -14.99627], [125.321625, -14.984063], [125.280935, -14.993422], [125.273692, -14.97617], [125.287608, -14.956231], [125.253429, -14.970392], [125.242849, -14.966078], [125.238129, -14.952813], [125.214122, -14.958103], [125.186778, -14.945489], [125.182953, -14.939142], [125.204275, -14.932061], [125.215831, -14.90838], [125.253429, -14.901544], [125.263194, -14.919122], [125.289724, -14.920099], [125.29477, -14.914727], [125.287608, -14.894708], [125.308849, -14.885024], [125.297618, -14.868341], [125.267589, -14.856215], [125.232921, -14.860528], [125.227712, -14.850193], [125.202159, -14.844822], [125.191417, -14.832696], [125.188731, -14.779392], [125.181407, -14.771905], [125.160899, -14.778416], [125.154959, -14.762872], [125.137462, -14.757501], [125.135997, -14.735935], [125.144298, -14.728448], [125.177501, -14.727472], [125.174571, -14.705987], [125.181651, -14.698826], [125.211436, -14.70086], [125.201345, -14.684991], [125.204926, -14.668145], [125.217784, -14.663832], [125.260265, -14.671563], [125.263194, -14.653741], [125.284353, -14.649021], [125.30128, -14.634698], [125.239024, -14.631524], [125.232921, -14.61419], [125.26588, -14.575616], [125.290538, -14.566176], [125.314789, -14.573175], [125.347667, -14.498712], [125.356456, -14.504327], [125.355235, -14.570489], [125.342784, -14.607354], [125.388194, -14.559991], [125.390636, -14.539158], [125.404307, -14.553155], [125.439464, -14.638849], [125.442638, -14.589288], [125.459483, -14.593032], [125.459972, -14.570489], [125.473155, -14.55283], [125.462901, -14.541762], [125.466319, -14.524835], [125.493663, -14.545343], [125.486583, -14.503025], [125.493663, -14.490655], [125.509288, -14.485772], [125.532481, -14.497735], [125.555024, -14.497491], [125.555431, -14.513849], [125.527843, -14.545343], [125.539561, -14.553318], [125.589203, -14.545343], [125.583832, -14.526544], [125.589203, -14.511163], [125.603526, -14.504327], [125.59669, -14.487237], [125.617198, -14.4013], [125.58839, -14.351007], [125.593028, -14.336521], [125.584972, -14.287693], [125.59669, -14.264825], [125.58546, -14.255629], [125.585623, -14.245701], [125.610362, -14.243585], [125.605805, -14.229262], [125.618175, -14.223728], [125.635265, -14.231541], [125.644379, -14.257257], [125.658051, -14.250421], [125.665294, -14.264255], [125.706554, -14.291436], [125.718761, -14.270685], [125.727061, -14.264825], [125.733165, -14.270929], [125.712738, -14.305108], [125.719412, -14.313897], [125.710948, -14.333673], [125.699067, -14.339939], [125.672618, -14.325453], [125.658051, -14.333103], [125.684337, -14.506768], [125.636974, -14.598077], [125.637706, -14.634698], [125.652354, -14.622247], [125.696056, -14.504327], [125.70574, -14.494317], [125.719574, -14.400974], [125.732921, -14.398533], [125.741059, -14.410414], [125.733165, -14.429295], [125.743419, -14.434991], [125.744151, -14.444757], [125.733165, -14.470147], [125.782237, -14.457452], [125.798106, -14.434828], [125.80836, -14.445977], [125.805186, -14.459568], [125.822113, -14.461196], [125.833507, -14.448175], [125.849946, -14.457615], [125.842133, -14.474054], [125.817231, -14.484308], [125.833018, -14.519464], [125.822032, -14.539158], [125.83725, -14.545099], [125.828868, -14.573175], [125.833018, -14.584568], [125.847992, -14.601007], [125.8567, -14.600518], [125.909434, -14.639418], [125.918142, -14.637791], [125.925059, -14.596856], [125.903819, -14.569513], [125.925059, -14.51865], [125.965994, -14.521661], [125.983409, -14.545343], [125.997813, -14.541111], [126.000743, -14.511163], [126.026703, -14.519952], [126.04127, -14.508722], [126.031749, -14.462579], [126.017589, -14.447686], [126.012869, -14.424412], [125.982107, -14.400811], [125.980235, -14.380792], [126.060883, -14.35003], [126.062266, -14.319431], [126.075857, -14.295099], [126.064301, -14.27044], [126.062999, -14.23561], [126.071788, -14.226658], [126.108165, -14.220798], [126.144786, -14.195245], [126.140391, -14.142999], [126.151622, -14.133722], [126.134451, -14.094903], [126.107107, -14.079522], [126.006602, -14.07822], [125.992442, -14.071466], [125.97283, -14.021417], [125.980235, -13.990411], [126.01002, -14.026056], [126.033865, -14.028497], [126.034923, -13.990411], [126.047374, -13.984063], [126.074067, -14.026056], [126.096365, -14.025079], [126.085948, -13.969415], [126.035899, -13.942315], [126.017345, -13.922052], [126.060069, -13.931817], [126.074474, -13.899102], [126.086436, -13.889418], [126.098399, -13.887384], [126.10377, -13.897638], [126.091563, -13.925388], [126.129242, -13.932061], [126.151622, -13.922133], [126.130382, -13.956231], [126.151622, -13.963067], [126.151622, -13.969903], [126.124766, -13.987074], [126.110606, -14.017755], [126.14324, -14.002537], [126.181651, -13.970798], [126.22047, -13.956231], [126.209646, -13.976821], [126.165863, -14.010919], [126.192393, -14.014418], [126.210704, -14.026625], [126.214203, -14.039646], [126.169119, -14.049005], [126.165863, -14.085382], [126.21225, -14.081476], [126.213634, -14.099705], [126.180349, -14.133233], [126.199962, -14.126886], [126.191091, -14.159601], [126.241466, -14.185154], [126.243988, -14.198907], [126.228038, -14.204848], [126.226573, -14.212986], [126.247732, -14.22324], [126.282074, -14.208591], [126.288829, -14.230076], [126.295584, -14.230076], [126.310802, -14.192315], [126.345063, -14.184666], [126.34547, -14.174249], [126.319347, -14.145115], [126.293712, -14.136489], [126.315929, -14.086847], [126.343272, -14.072931], [126.329112, -14.059259], [126.343598, -14.045505], [126.377208, -14.042657], [126.39031, -14.00506], [126.43214, -13.969903], [126.449962, -13.991795], [126.469981, -13.991957], [126.527517, -13.928969], [126.569184, -13.94199], [126.526866, -13.963474], [126.519054, -13.983657], [126.500987, -13.997247], [126.493663, -14.031915], [126.453298, -14.077569], [126.462738, -14.085382], [126.515961, -14.069106], [126.52768, -14.072931], [126.493663, -14.113377], [126.521495, -14.147393], [126.558849, -14.134942], [126.569184, -14.140558], [126.569184, -14.195245], [126.575938, -14.209893], [126.603526, -14.230076], [126.61085, -14.175388], [126.646739, -14.158136], [126.651866, -14.143976], [126.647309, -14.11419], [126.656993, -14.09531], [126.647227, -14.077813], [126.651866, -14.066095], [126.679047, -14.085382], [126.692719, -14.120782], [126.704845, -14.118097], [126.733735, -14.072931], [126.726817, -14.058364], [126.747406, -14.010919], [126.720225, -14.031915], [126.701182, -14.007094], [126.707205, -13.983575], [126.747406, -13.990411], [126.761729, -13.969903], [126.829763, -13.982599], [126.843028, -13.969903], [126.810069, -13.949395], [126.818207, -13.942641], [126.85727, -13.949395], [126.844737, -13.932712], [126.807872, -13.923517], [126.795746, -13.883966], [126.767833, -13.846368], [126.747406, -13.791762], [126.785411, -13.787367], [126.814464, -13.768324], [126.827891, -13.791111], [126.823253, -13.81227], [126.843028, -13.818536], [126.853282, -13.800958], [126.877208, -13.798028], [126.846446, -13.768976], [126.845388, -13.754327], [126.863536, -13.743341], [126.913748, -13.76393], [126.932384, -13.757582], [126.90504, -13.743341], [126.952891, -13.723565], [126.993175, -13.76629], [127.02003, -13.777765], [127.021169, -13.825942], [127.050629, -13.813409], [127.055919, -13.820082], [127.049083, -13.839532], [127.07016, -13.828058], [127.072113, -13.842543], [127.055349, -13.887384], [127.085134, -13.883884], [127.107432, -13.952813], [127.129731, -13.967706], [127.172618, -13.915216], [127.159353, -13.902765], [127.165212, -13.880548], [127.187266, -13.901788], [127.189301, -13.946954], [127.196951, -13.949314], [127.213634, -13.935805], [127.236827, -13.892022], [127.251313, -13.897638], [127.302989, -13.949395], [127.332693, -13.961196], [127.322439, -13.917413], [127.330251, -13.901056], [127.344249, -13.904474], [127.367686, -13.935805], [127.389496, -13.943536], [127.398611, -13.963067], [127.418468, -13.94199], [127.448497, -13.986912], [127.450206, -14.057306], [127.480479, -14.079197], [127.489268, -14.058364], [127.504242, -14.065606], [127.574962, -14.123305], [127.590343, -14.133722], [127.61085, -14.133722], [127.666026, -14.178399], [127.682628, -14.216974], [127.75587, -14.284845], [127.789561, -14.36712], [127.823578, -14.380792], [127.826915, -14.436619], [127.841075, -14.443536], [127.851085, -14.41725], [127.87143, -14.422459], [127.879405, -14.439548], [127.855235, -14.465102], [127.857921, -14.483819], [127.874278, -14.469903], [127.887218, -14.474054], [127.90561, -14.497491], [127.954763, -14.532892], [127.939464, -14.543878], [127.947276, -14.573175], [127.96697, -14.578546], [128.005382, -14.560724], [128.054047, -14.600518], [128.066417, -14.633477], [128.117849, -14.649998], [128.175304, -14.698419], [128.219493, -14.700453], [128.231293, -14.718194], [128.227794, -14.74391], [128.197765, -14.731622], [128.184825, -14.736993], [128.179454, -14.754083], [128.193614, -14.805922], [128.190603, -14.829848], [128.148936, -14.834242], [128.117931, -14.853774], [128.137462, -14.862563], [128.132823, -14.895196], [128.090587, -15.011407], [128.090343, -15.060805], [128.068533, -15.106622], [128.069591, -15.141209], [128.084646, -15.174574], [128.075694, -15.277765], [128.060232, -15.292169], [128.042735, -15.291925], [128.0713, -15.367934], [128.072276, -15.404474], [128.055919, -15.443455], [128.014903, -15.487481], [128.024262, -15.496515], [128.083751, -15.457127], [128.101329, -15.424574], [128.118419, -15.335138], [128.117931, -15.291925], [128.100597, -15.229913], [128.110606, -15.224867], [128.111095, -15.190199], [128.125173, -15.182061], [128.17449, -15.213311], [128.224457, -15.260186], [128.255626, -15.310235], [128.283051, -15.401788], [128.289317, -15.401788], [128.296641, -15.316176], [128.291759, -15.290704], [128.220225, -15.205662], [128.216319, -15.185235], [128.225841, -15.160252], [128.218272, -15.118097], [128.19988, -15.100274], [128.195811, -15.056817], [128.215831, -15.021905], [128.283051, -14.963637], [128.283051, -14.94256], [128.313487, -14.904962], [128.323009, -14.91074], [128.330251, -14.936293], [128.350108, -15.037286], [128.364919, -15.046157], [128.358409, -14.999119], [128.364919, -14.984063], [128.417979, -15.039727], [128.450206, -15.042657], [128.459809, -15.001642], [128.422862, -14.940118], [128.406016, -14.884454], [128.407481, -14.868829], [128.438975, -14.849867], [128.388438, -14.803399], [128.395763, -14.795994], [128.479828, -14.779474], [128.5324, -14.752862], [128.590831, -14.778009], [128.71339, -14.79754], [128.748546, -14.82643], [128.7671, -14.82171], [128.834158, -14.840102], [128.91977, -14.840102], [128.973481, -14.863702], [129.051036, -14.880141], [129.102306, -14.905369], [129.120291, -14.946384], [129.15504, -14.95379], [129.18393, -14.981866], [129.187348, -15.004571], [129.175548, -15.058526], [129.198009, -15.098403], [129.199229, -15.117364], [129.152599, -15.223728], [129.172048, -15.221856], [129.199962, -15.167413], [129.221446, -15.169692], [129.208181, -15.204278], [129.214122, -15.2374], [129.243663, -15.113377], [129.263031, -15.107599], [129.255626, -15.031183], [129.243337, -15.008233], [129.222992, -14.867771], [129.221446, -14.84352], [129.22877, -14.836602], [129.258962, -14.862563], [129.263031, -14.887872], [129.289236, -14.861912], [129.324392, -14.862074], [129.357921, -14.879571], [129.372895, -14.904962], [129.476573, -14.93377], [129.498302, -14.957778], [129.51295, -15.007989], [129.553559, -15.030369], [129.572439, -15.053643], [129.598155, -15.11712], [129.585216, -15.169692], [129.645518, -15.134942], [129.661957, -15.13836], [129.677257, -15.199151], [129.727061, -15.193617], [129.728526, -15.169692], [129.652029, -15.076918], [129.611827, -14.94256], [129.639903, -14.894708], [129.649181, -14.832696], [129.704112, -14.853774], [129.785655, -14.861505], [129.866466, -14.839044], [129.875987, -14.823012], [129.935395, -14.78338], [129.982432, -14.805922], [129.980154, -14.780369], [129.993337, -14.72503], [129.982432, -14.709731], [129.974864, -14.740167], [129.955251, -14.755629], [129.893077, -14.771905], [129.798595, -14.816827], [129.762706, -14.819594], [129.795665, -14.776056], [129.796886, -14.764418], [129.73699, -14.790297], [129.711599, -14.784845], [129.669932, -14.753106], [129.66505, -14.739923], [129.67335, -14.722833], [129.606781, -14.671563], [129.588064, -14.613458], [129.594737, -14.607354], [129.717621, -14.59588], [129.728526, -14.576349], [129.789399, -14.531671], [129.743175, -14.539972], [129.686534, -14.573989], [129.667328, -14.575372], [129.585216, -14.566339], [129.53533, -14.545343], [129.475352, -14.497491], [129.454845, -14.497491], [129.447439, -14.476983], [129.427013, -14.470147], [129.416759, -14.445977], [129.358084, -14.408787], [129.372895, -14.329278], [129.409353, -14.284601], [129.420909, -14.232517], [129.473806, -14.176935], [129.493175, -14.144464], [129.49586, -14.089125], [129.482188, -14.051853], [129.488617, -14.04811], [129.514822, -14.061456], [129.53004, -14.051853], [129.538829, -14.081313], [129.54713, -14.085382], [129.579926, -14.076267], [129.585216, -14.092869], [129.604666, -14.066176], [129.594249, -14.010186], [129.605724, -13.997247], [129.609141, -14.028497], [129.632579, -14.035252], [129.71754, -14.015558], [129.735606, -13.991795], [129.749197, -13.931817], [129.744884, -13.913507], [129.714854, -13.880548], [129.715994, -13.867446], [129.74171, -13.825942], [129.815929, -13.761977], [129.803722, -13.743341], [129.789399, -13.763849], [129.783214, -13.757582], [129.789236, -13.741957], [129.785492, -13.675714], [129.827403, -13.582615], [129.837738, -13.510512], [129.868663, -13.493585], [129.891287, -13.437677], [129.899262, -13.434828], [129.906586, -13.446954], [129.906749, -13.500665], [129.914724, -13.511407], [129.968923, -13.53045], [130.043224, -13.50449], [130.112804, -13.449151], [130.133962, -13.461033], [130.163748, -13.432875], [130.21461, -13.360447], [130.254161, -13.323826], [130.273204, -13.31878], [130.332286, -13.346368], [130.313975, -13.308526], [130.242524, -13.278416], [130.160492, -13.171482], [130.122732, -13.164646], [130.118907, -13.047052], [130.134613, -12.99863], [130.129893, -12.940525], [130.146983, -12.921563], [130.16863, -12.918552], [130.181, -12.901056], [130.204112, -12.937433], [130.225108, -12.942071], [130.318614, -12.90602], [130.335134, -12.885431], [130.351817, -12.842462], [130.350922, -12.780857], [130.360688, -12.750746], [130.344981, -12.695001], [130.35434, -12.672052], [130.400157, -12.681329], [130.403575, -12.652114], [130.448009, -12.626723], [130.516124, -12.654067], [130.494965, -12.619073], [130.496349, -12.605076], [130.506847, -12.596449], [130.558442, -12.681329], [130.586436, -12.694106], [130.586436, -12.709242], [130.597992, -12.703709], [130.625987, -12.714939], [130.641124, -12.701837], [130.664317, -12.709242], [130.692882, -12.700616], [130.695567, -12.691339], [130.613048, -12.667657], [130.598806, -12.674493], [130.560395, -12.628351], [130.571544, -12.619317], [130.605642, -12.619317], [130.617524, -12.603936], [130.607677, -12.584649], [130.57838, -12.58172], [130.604177, -12.504571], [130.59254, -12.452407], [130.620372, -12.436944], [130.57838, -12.400811], [130.605805, -12.386], [130.641124, -12.383233], [130.674327, -12.392348], [130.695567, -12.413832], [130.739268, -12.415623], [130.783865, -12.434991], [130.773285, -12.469171], [130.783865, -12.503188], [130.79005, -12.585138], [130.800304, -12.546157], [130.811046, -12.537367], [130.843028, -12.55934], [130.877452, -12.61712], [130.899913, -12.639825], [130.893728, -12.613051], [130.90919, -12.597833], [130.968598, -12.626723], [130.957774, -12.59881], [130.886241, -12.544203], [130.87379, -12.513604], [130.919932, -12.514093], [130.968598, -12.537367], [130.952485, -12.506768], [130.930919, -12.486098], [130.903819, -12.482517], [130.882823, -12.451349], [130.866954, -12.444594], [130.843598, -12.459649], [130.824718, -12.447931], [130.830414, -12.418715], [130.824718, -12.400811], [130.858735, -12.393324], [130.847667, -12.37949], [130.855479, -12.368259], [130.907237, -12.331964], [130.93393, -12.346124], [131.025157, -12.360528], [131.05128, -12.373468], [131.051768, -12.353774], [131.026378, -12.304132], [131.02475, -12.234145], [130.996104, -12.191339], [131.000173, -12.171319], [131.026134, -12.147149], [131.043793, -12.146254], [131.077891, -12.167413], [131.105968, -12.146254], [131.137869, -12.18255], [131.162771, -12.173923], [131.188162, -12.200779], [131.216482, -12.214939], [131.23227, -12.238539], [131.257335, -12.236261], [131.236176, -12.201593], [131.257335, -12.170831], [131.27296, -12.067071], [131.296235, -12.043878], [131.316173, -12.084161], [131.327891, -12.185317], [131.346853, -12.219659], [131.406912, -12.27044], [131.447765, -12.289809], [131.492931, -12.297784], [131.578868, -12.284112], [131.612804, -12.296645], [131.784353, -12.27044], [131.839692, -12.246759], [131.87436, -12.220636], [131.896983, -12.215916], [131.904633, -12.219822], [131.914073, -12.250095], [131.933849, -12.26393], [132.057872, -12.306736], [132.115571, -12.275567], [132.171235, -12.222101], [132.216319, -12.208429], [132.236176, -12.160577], [132.251313, -12.156345], [132.268809, -12.180841], [132.278331, -12.228204], [132.296723, -12.226658], [132.346039, -12.201593], [132.361339, -12.202244], [132.379893, -12.215997], [132.421641, -12.303643], [132.387543, -12.346124], [132.387543, -12.380304], [132.431977, -12.33115], [132.449392, -12.300388], [132.422862, -12.231622], [132.424164, -12.189711], [132.439626, -12.15488], [132.488943, -12.135675], [132.563975, -12.091567], [132.679047, -12.136814], [132.718598, -12.140232], [132.757579, -12.133396], [132.706228, -12.122003], [132.634532, -12.067153], [132.626964, -12.004327], [132.652192, -11.848565], [132.64088, -11.818617], [132.593028, -11.784438], [132.600597, -11.76686], [132.65447, -11.708754], [132.666759, -11.674249], [132.695567, -11.660333], [132.695567, -11.653497], [132.612559, -11.629978], [132.578868, -11.611017], [132.552094, -11.583429], [132.55893, -11.553888], [132.525157, -11.528578], [132.531016, -11.509535], [132.511567, -11.506606], [132.495372, -11.47617], [132.434906, -11.44671], [132.369884, -11.434991], [132.346934, -11.438246], [132.31129, -11.461521], [132.232758, -11.457696], [132.195811, -11.489028], [132.178233, -11.482192], [132.142426, -11.509373], [132.106456, -11.523126], [132.084727, -11.517999], [132.042817, -11.484145], [132.030772, -11.45086], [132.055512, -11.442804], [132.057953, -11.43434], [132.040701, -11.418634], [131.990489, -11.425063], [131.982188, -11.399672], [131.966075, -11.40602], [131.947765, -11.394464], [131.94809, -11.379164], [131.979503, -11.366469], [131.976085, -11.351251], [131.965587, -11.344985], [131.927745, -11.351251], [131.925548, -11.320896], [131.870942, -11.305597], [131.856212, -11.303399], [131.815684, -11.317071], [131.767589, -11.310805], [131.774262, -11.299574], [131.804861, -11.29046], [131.789724, -11.26336], [131.838878, -11.277439], [131.846934, -11.26336], [131.819102, -11.201593], [131.848481, -11.207289], [131.8685, -11.220798], [131.876801, -11.20672], [131.869884, -11.194757], [131.882498, -11.17197], [131.940278, -11.251397], [131.983246, -11.226251], [131.968598, -11.167576], [131.986664, -11.176528], [131.985606, -11.129164], [132.014334, -11.139581], [132.044607, -11.179946], [132.07781, -11.192478], [132.073904, -11.218032], [132.085948, -11.228936], [132.114513, -11.208754], [132.120128, -11.222101], [132.106456, -11.252862], [132.113292, -11.287042], [132.10727, -11.331964], [132.127778, -11.343683], [132.134776, -11.331313], [132.131358, -11.313735], [132.140636, -11.303399], [132.153005, -11.326349], [132.152517, -11.384698], [132.174653, -11.406427], [132.203868, -11.410333], [132.188324, -11.351251], [132.203624, -11.349542], [132.226899, -11.363865], [132.235606, -11.339451], [132.209483, -11.310805], [132.188324, -11.303399], [132.1963, -11.268243], [132.181488, -11.228936], [132.190766, -11.216892], [132.169281, -11.176365], [132.147472, -11.157322], [132.148123, -11.137302], [132.161306, -11.123712], [132.188324, -11.132745], [132.216482, -11.180759], [132.240977, -11.196466], [132.264171, -11.25628], [132.285167, -11.268487], [132.272309, -11.177504], [132.277517, -11.162205], [132.298188, -11.153253], [132.319591, -11.161798], [132.332367, -11.153253], [132.343028, -11.122003], [132.383474, -11.214451], [132.386892, -11.245782], [132.37794, -11.283136], [132.390961, -11.29046], [132.403982, -11.283136], [132.421153, -11.228936], [132.445079, -11.212498], [132.474946, -11.234145], [132.517345, -11.310805], [132.517345, -11.338149], [132.537852, -11.330743], [132.569184, -11.375421], [132.613536, -11.406427], [132.674164, -11.508396], [132.715994, -11.51629], [132.73699, -11.508233], [132.777517, -11.472263], [132.788097, -11.443617], [132.833995, -11.417901], [132.833263, -11.399672], [132.855968, -11.400323], [132.894867, -11.418878], [132.898936, -11.37184], [132.867442, -11.338149], [132.879161, -11.326349], [132.910981, -11.331801], [132.940929, -11.353936], [132.959809, -11.392185], [132.985525, -11.404229], [133.011078, -11.432794], [133.044932, -11.495212], [133.07602, -11.509942], [133.074229, -11.560968], [133.141124, -11.674574], [133.166759, -11.70436], [133.185069, -11.717055], [133.261241, -11.729587], [133.282888, -11.72088], [133.292003, -11.688246], [133.34669, -11.688246], [133.364431, -11.697361], [133.329438, -11.718683], [133.31837, -11.734633], [133.315766, -11.749119], [133.323741, -11.759454], [133.372406, -11.761], [133.388194, -11.736017], [133.407237, -11.72381], [133.422211, -11.742852], [133.405284, -11.766778], [133.439301, -11.770196], [133.478526, -11.790785], [133.484386, -11.780694], [133.523204, -11.762791], [133.532074, -11.749119], [133.543224, -11.767348], [133.542003, -11.7999], [133.524669, -11.858331], [133.532074, -11.865818], [133.55836, -11.811212], [133.589854, -11.79811], [133.600271, -11.800958], [133.622081, -11.833266], [133.655284, -11.821384], [133.670095, -11.808852], [133.682384, -11.770196], [133.716563, -11.77752], [133.751231, -11.770196], [133.802501, -11.714939], [133.837576, -11.717218], [133.850597, -11.729181], [133.885265, -11.739435], [133.901622, -11.738865], [133.915782, -11.722345], [133.938975, -11.757908], [133.908946, -11.773858], [133.895274, -11.79811], [133.870128, -11.79225], [133.846365, -11.806817], [133.834158, -11.831476], [133.843761, -11.855239], [133.943126, -11.91367], [134.007498, -11.88128], [134.025645, -11.84588], [134.056, -11.844822], [134.084809, -11.882013], [134.087087, -11.927911], [134.13795, -11.87949], [134.161632, -11.930922], [134.195079, -11.947686], [134.1963, -11.962009], [134.174653, -11.964288], [134.167817, -11.976658], [134.189708, -12.018243], [134.185802, -12.07643], [134.199962, -12.075616], [134.210785, -12.052179], [134.257823, -12.016697], [134.266287, -11.975763], [134.285004, -11.968194], [134.382172, -12.042657], [134.428966, -12.05755], [134.522227, -12.064386], [134.582693, -12.050958], [134.594249, -12.064386], [134.704763, -11.960626], [134.768565, -11.947686], [134.774587, -11.99505], [134.800955, -12.03867], [134.806407, -12.043878], [134.836192, -12.037856], [134.861095, -12.12656], [134.967052, -12.146091], [135.005056, -12.208429], [135.040538, -12.226821], [135.07016, -12.259942], [135.080333, -12.263604], [135.147221, -12.243767], [135.21759, -12.300823], [135.237804, -12.291599], [135.229991, -12.274591], [135.18889, -12.251444], [135.170075, -12.228222], [135.258311, -12.222101], [135.283095, -12.250293], [135.301929, -12.258958], [135.338145, -12.245701], [135.349376, -12.226332], [135.328666, -12.234724], [135.304896, -12.231861], [135.264288, -12.208696], [135.241498, -12.206796], [135.222684, -12.19133], [135.23756, -12.17969], [135.265302, -12.178681], [135.313487, -12.153741], [135.323904, -12.139825], [135.302948, -12.12831], [135.324728, -12.11087], [135.35144, -12.105034], [135.366267, -12.087613], [135.389012, -12.091452], [135.41505, -12.084242], [135.408794, -12.10593], [135.428592, -12.115545], [135.460219, -12.113572], [135.505138, -12.098077], [135.515497, -12.065191], [135.536242, -12.062265], [135.53528, -12.080621], [135.587901, -12.098565], [135.62672, -12.064874], [135.711997, -12.018483], [135.702092, -12.007872], [135.635753, -12.023533], [135.581065, -12.05755], [135.565826, -12.025501], [135.570717, -11.994575], [135.59254, -11.965102], [135.600597, -11.95672], [135.622081, -11.954522], [135.63502, -11.966241], [135.65504, -11.966404], [135.68393, -11.939142], [135.719737, -11.931817], [135.739268, -11.941502], [135.775157, -11.919366], [135.836762, -11.873956], [135.845063, -11.855076], [135.875255, -11.84588], [135.886974, -11.82464], [135.868419, -11.766778], [135.878184, -11.75628], [135.900401, -11.75921], [135.936778, -11.777032], [135.903417, -11.849899], [135.811209, -11.951918], [135.79363, -11.963962], [135.758474, -11.969903], [135.716907, -12.003019], [135.723843, -12.010738], [135.786469, -11.989353], [135.851085, -11.982517], [135.897227, -11.962579], [135.91627, -11.962009], [135.91627, -11.968194], [135.82838, -12.005548], [135.765391, -12.071873], [135.668823, -12.147143], [135.650073, -12.164576], [135.652138, -12.203286], [135.669031, -12.237138], [135.713669, -12.276787], [135.731944, -12.311456], [135.751801, -12.270766], [135.76531, -12.257094], [135.786469, -12.263604], [135.806895, -12.216974], [135.847423, -12.187921], [135.880138, -12.151625], [135.895763, -12.150486], [135.912608, -12.182306], [135.934581, -12.146742], [135.967784, -12.143243], [136.053477, -12.064386], [136.035899, -12.103285], [136.004649, -12.129978], [135.985037, -12.166274], [135.943614, -12.192478], [135.935395, -12.213637], [135.957367, -12.257501], [135.974457, -12.264581], [136.0442, -12.231134], [136.060232, -12.232192], [136.067149, -12.253106], [136.062836, -12.264581], [136.039806, -12.273858], [136.026134, -12.311456], [135.985118, -12.36297], [135.993337, -12.393243], [136.013845, -12.383396], [136.016612, -12.435724], [136.033946, -12.465916], [136.050059, -12.458185], [136.058116, -12.430597], [136.070811, -12.427504], [136.090831, -12.447849], [136.149099, -12.434991], [136.173595, -12.461602], [136.252696, -12.441095], [136.284516, -12.415785], [136.304535, -12.383559], [136.333995, -12.30462], [136.363943, -12.256443], [136.363048, -12.222914], [136.349783, -12.21087], [136.313487, -12.201593], [136.234943, -12.21116], [136.225108, -12.191827], [136.180024, -12.187758], [136.177013, -12.170831], [136.182384, -12.16253], [136.22462, -12.153741], [136.230968, -12.132094], [136.283539, -12.065688], [136.300466, -12.050714], [136.336274, -12.050063], [136.418224, -11.973565], [136.44044, -11.962009], [136.450713, -11.942333], [136.480858, -11.950691], [136.51231, -11.940792], [136.525815, -11.921821], [136.565832, -11.90908], [136.564322, -11.89156], [136.572215, -11.896443], [136.581565, -11.906925], [136.578032, -11.91675], [136.528093, -11.949151], [136.480169, -11.958393], [136.469447, -11.966811], [136.470251, -11.986425], [136.477489, -12.002518], [136.489683, -12.006687], [136.519662, -11.987685], [136.533289, -11.993246], [136.560134, -12.079251], [136.586626, -12.083353], [136.581889, -12.14843], [136.590575, -12.174278], [136.649913, -12.236261], [136.663585, -12.263604], [136.690603, -12.28281], [136.719086, -12.281345], [136.745372, -12.265802], [136.76588, -12.242608], [136.752778, -12.225763], [136.728169, -12.219878], [136.700846, -12.19062], [136.67944, -12.204699], [136.685793, -12.184385], [136.713704, -12.185669], [136.729389, -12.173012], [136.760916, -12.164483], [136.779959, -12.172052], [136.824776, -12.213857], [136.87638, -12.223414], [136.926911, -12.288968], [136.934127, -12.322355], [136.927816, -12.348983], [136.94934, -12.355869], [136.983653, -12.345473], [136.963634, -12.372491], [136.927958, -12.376974], [136.908677, -12.388972], [136.771177, -12.541406], [136.76824, -12.524629], [136.800629, -12.48268], [136.805512, -12.456476], [136.789806, -12.445489], [136.740245, -12.475763], [136.744679, -12.547828], [136.761285, -12.574338], [136.731781, -12.578302], [136.701182, -12.616143], [136.679222, -12.671292], [136.69726, -12.698528], [136.690138, -12.713272], [136.627696, -12.702407], [136.608409, -12.714939], [136.601899, -12.733657], [136.621763, -12.764006], [136.62322, -12.807061], [136.610688, -12.830336], [136.586274, -12.823012], [136.559255, -12.745212], [136.543468, -12.743422], [136.527301, -12.754734], [136.532428, -12.804426], [136.511902, -12.805297], [136.479259, -12.766697], [136.47169, -12.773858], [136.489757, -12.850763], [136.526378, -12.880548], [136.545665, -12.87184], [136.545421, -12.912856], [136.567882, -12.911879], [136.636944, -12.954941], [136.640629, -12.975951], [136.657494, -12.995739], [136.652029, -13.013442], [136.616873, -12.979913], [136.602061, -12.982354], [136.581716, -13.014068], [136.565281, -13.011729], [136.564335, -12.979729], [136.55524, -12.963762], [136.54005, -12.961847], [136.532563, -12.976251], [136.518077, -12.968357], [136.496755, -12.975193], [136.492198, -12.992934], [136.498302, -13.007989], [136.522146, -13.01865], [136.534223, -13.050251], [136.567231, -13.058201], [136.539352, -13.102242], [136.531334, -13.155083], [136.513212, -13.143144], [136.492688, -13.148819], [136.481245, -13.166464], [136.472341, -13.242364], [136.457367, -13.250584], [136.450531, -13.216404], [136.443858, -13.216404], [136.434744, -13.227716], [136.399247, -13.242004], [136.367524, -13.297621], [136.342625, -13.321538], [136.331087, -13.319979], [136.332716, -13.310354], [136.322001, -13.307989], [136.321154, -13.295969], [136.344737, -13.281345], [136.337524, -13.248636], [136.365532, -13.254945], [136.381967, -13.245276], [136.388194, -13.225763], [136.367036, -13.19487], [136.371593, -13.065362], [136.365489, -13.055108], [136.332856, -13.046882], [136.304194, -13.090993], [136.305886, -13.1062], [136.320974, -13.12127], [136.30836, -13.162774], [136.273448, -13.160414], [136.260997, -13.129327], [136.249278, -13.129653], [136.232188, -13.150567], [136.245372, -13.197035], [136.232188, -13.208917], [136.217784, -13.204685], [136.207042, -13.23211], [136.177419, -13.23561], [136.158618, -13.262878], [136.138734, -13.206813], [136.156993, -13.172459], [136.147634, -13.122247], [136.10399, -13.158805], [136.085855, -13.199746], [136.085867, -13.230227], [136.063975, -13.222752], [136.053477, -13.230076], [136.059093, -13.292657], [136.053477, -13.311944], [136.046641, -13.311944], [136.030447, -13.236586], [136.008285, -13.215505], [135.977545, -13.231961], [135.967707, -13.275442], [135.956811, -13.288021], [135.951915, -13.263442], [135.942839, -13.256149], [135.923995, -13.266797], [135.907169, -13.302557], [135.883365, -13.325764], [135.883429, -13.367306], [135.920897, -13.377495], [135.92627, -13.398496], [135.916362, -13.403733], [135.922647, -13.415117], [135.96461, -13.415134], [135.969435, -13.425652], [135.96461, -13.449151], [135.945811, -13.446466], [135.919877, -13.464104], [135.899433, -13.437799], [135.880528, -13.430094], [135.860657, -13.437843], [135.854747, -13.455987], [135.869395, -13.539809], [135.868419, -13.551528], [135.850841, -13.567478], [135.844837, -13.600186], [135.87074, -13.653306], [135.884686, -13.666812], [135.91627, -13.653985], [135.923106, -13.675063], [135.893728, -13.687921], [135.886729, -13.713637], [135.901378, -13.738865], [135.936778, -13.750177], [135.9699, -13.742283], [135.996593, -13.722589], [136.03297, -13.675063], [136.037364, -13.654392], [136.063487, -13.647556], [136.077891, -13.662693], [136.053477, -13.688165], [136.03297, -13.750177], [136.004893, -13.798028], [136.012706, -13.821954], [135.993012, -13.86061], [135.991384, -13.901056], [135.96461, -13.935805], [135.923106, -13.959649], [135.903331, -14.135837], [135.909434, -14.195245], [135.86964, -14.192071], [135.84197, -14.219171], [135.808604, -14.226658], [135.759125, -14.265395], [135.734141, -14.29811], [135.667741, -14.427264], [135.650238, -14.436482], [135.624685, -14.431573], [135.609386, -14.452569], [135.532258, -14.581084], [135.517866, -14.616486], [135.522634, -14.651544], [135.453787, -14.685642], [135.434093, -14.720636], [135.378266, -14.712335], [135.368175, -14.722833], [135.384044, -14.725681], [135.391287, -14.739923], [135.403982, -14.813897], [135.447765, -14.916274], [135.469574, -14.948012], [135.551117, -15.019138], [135.615245, -15.046157], [135.65268, -15.042413], [135.717621, -15.114435], [135.736339, -15.109552], [135.759044, -15.115411], [135.796153, -15.146661], [135.861013, -15.175958], [135.951671, -15.264418], [136.043468, -15.30169], [136.101248, -15.347263], [136.136404, -15.357843], [136.22462, -15.408624], [136.240082, -15.424086], [136.257335, -15.47088], [136.273204, -15.559503], [136.348399, -15.613865], [136.416515, -15.621515], [136.468028, -15.674249], [136.528575, -15.719008], [136.553722, -15.724054], [136.583181, -15.70908], [136.594737, -15.71087], [136.612071, -15.754653], [136.670421, -15.799086], [136.722911, -15.862237], [136.7046, -15.915216], [136.715587, -15.935968], [136.734141, -15.938572], [136.751964, -15.928481], [136.767914, -15.900811], [136.786957, -15.900486], [136.86964, -15.908949], [136.906505, -15.936212], [136.925548, -15.934666], [136.922211, -15.916111], [136.929861, -15.895278], [136.991873, -15.86419], [137.008067, -15.89186], [137.045909, -15.922296], [137.160411, -15.977227], [137.198009, -15.984633], [137.250255, -16.020603], [137.291759, -16.071873], [137.361176, -16.122166], [137.413097, -16.130792], [137.421723, -16.149184], [137.451182, -16.149102], [137.485362, -16.176446], [137.550466, -16.17197], [137.660899, -16.211358], [137.689789, -16.231215], [137.746104, -16.25213], [137.866873, -16.437107], [137.949962, -16.510512], [138.000824, -16.542087], [138.061534, -16.612726], [138.102061, -16.633966], [138.184255, -16.697198], [138.270844, -16.724542], [138.294119, -16.745701], [138.37322, -16.745701], [138.492686, -16.794366], [138.544688, -16.778985], [138.657237, -16.779718], [138.684418, -16.808852], [138.753429, -16.841241], [138.804454, -16.851007], [138.840343, -16.870864], [138.971365, -16.884698], [139.008311, -16.89544], [139.037283, -16.915623], [139.062185, -16.977634], [139.093435, -17.002211], [139.158051, -17.032973], [139.140636, -17.066176], [139.141612, -17.116876], [139.164317, -17.203709], [139.209483, -17.286065], [139.239919, -17.323419], [139.274181, -17.348321], [139.43865, -17.375665], [139.575857, -17.471287], [139.640961, -17.532403], [139.804698, -17.568536], [139.831716, -17.589532], [139.925304, -17.621352], [139.954438, -17.668634], [139.999522, -17.70615], [140.0, -17.706188265943013], [140.0, -30.0], [120.0, -30.0], [120.0, -19.933245645656143], [120.070567, -19.921645]]], [[[128.186778, -15.107599], [128.194509, -15.126886], [128.196788, -15.175551], [128.186778, -15.190199], [128.125987, -15.134698], [128.12379, -15.048598], [128.131358, -15.03753], [128.152029, -15.052423], [128.158865, -15.090265], [128.186778, -15.107599]]], [[[128.429535, -14.965916], [128.437836, -14.988946], [128.440684, -15.038751], [128.412771, -15.018243], [128.358246, -14.956313], [128.348399, -14.882989], [128.35377, -14.869236], [128.371755, -14.874282], [128.384939, -14.891697], [128.416189, -14.956231], [128.429535, -14.965916]]], [[[129.633637, -14.870701], [129.626638, -14.875258], [129.611827, -14.867364], [129.585216, -14.82643], [129.583018, -14.803806], [129.616466, -14.824884], [129.632498, -14.846938], [129.633637, -14.870701]]], [[[129.587087, -14.883477], [129.591482, -14.963637], [129.501964, -14.798517], [129.508149, -14.78574], [129.533458, -14.798517], [129.587087, -14.883477]]], [[[126.553966, -13.875258], [126.61085, -13.89422], [126.61085, -13.901056], [126.598643, -13.905206], [126.555675, -13.89422], [126.515147, -13.90488], [126.500987, -13.873712], [126.553966, -13.875258]]], [[[134.92628, -12.068129], [134.932872, -12.087335], [134.924815, -12.106703], [134.90797, -12.117852], [134.888357, -12.112237], [134.878103, -12.100274], [134.854259, -12.037774], [134.885265, -12.05755], [134.92628, -12.068129]]], [[[134.985986, -12.04145], [134.948729, -12.054669], [134.90937, -12.03585], [134.908472, -12.022625], [134.956246, -12.016469], [134.985986, -12.04145]]], [[[135.107484, -11.942098], [135.057697, -11.953185], [135.046072, -11.941502], [135.053888, -11.919437], [135.121962, -11.929696], [135.107484, -11.942098]]], [[[133.454275, -11.583673], [133.475434, -11.587172], [133.484386, -11.601983], [133.474376, -11.611098], [133.396169, -11.623224], [133.408702, -11.653497], [133.385753, -11.666192], [133.360199, -11.660333], [133.367035, -11.653497], [133.359548, -11.617364], [133.408702, -11.592055], [133.454275, -11.583673]]], [[[133.488943, -11.484063], [133.510997, -11.503188], [133.493337, -11.508966], [133.442882, -11.503188], [133.415294, -11.519952], [133.39503, -11.544203], [133.403005, -11.512384], [133.39503, -11.489028], [133.424001, -11.48504], [133.476899, -11.454848], [133.488943, -11.484063]]], [[[139.554047, -17.054457], [139.575857, -17.080824], [139.569347, -17.100356], [139.520681, -17.108087], [139.505382, -17.12184], [139.485362, -17.117283], [139.480235, -17.101251], [139.462657, -17.100763], [139.445567, -17.107517], [139.43393, -17.121515], [139.432384, -17.142836], [139.425059, -17.142836], [139.403982, -17.100681], [139.409679, -17.088556], [139.449229, -17.063409], [139.489513, -17.010431], [139.493907, -16.985121], [139.562185, -17.039239], [139.554047, -17.054457]]], [[[139.133311, -16.812921], [139.15504, -16.812921], [139.158051, -16.827569], [139.121918, -16.836358], [139.107677, -16.862481], [139.089203, -16.827569], [139.133311, -16.812921]]], [[[139.740001, -16.473321], [139.734141, -16.505466], [139.719086, -16.484308], [139.708669, -16.495375], [139.707693, -16.526462], [139.656505, -16.519952], [139.619965, -16.537856], [139.610525, -16.553155], [139.580333, -16.505304], [139.552501, -16.483331], [139.528087, -16.512302], [139.487071, -16.517836], [139.48585, -16.528416], [139.494395, -16.535089], [139.526866, -16.545343], [139.524669, -16.556899], [139.515391, -16.565851], [139.493175, -16.555597], [139.473643, -16.557387], [139.466563, -16.56699], [139.47283, -16.607843], [139.444672, -16.664646], [139.425059, -16.66546], [139.397716, -16.642022], [139.385509, -16.650974], [139.371837, -16.688653], [139.302094, -16.724542], [139.226329, -16.721124], [139.177989, -16.662367], [139.185883, -16.711602], [139.181977, -16.73268], [139.171153, -16.731378], [139.153005, -16.755955], [139.144867, -16.756036], [139.136974, -16.697198], [139.15504, -16.672296], [139.164317, -16.616306], [139.208751, -16.569106], [139.221853, -16.525567], [139.258311, -16.506931], [139.287852, -16.470636], [139.308279, -16.461196], [139.373057, -16.457696], [139.487559, -16.433526], [139.546072, -16.402276], [139.582693, -16.395603], [139.60377, -16.39837], [139.644054, -16.437758], [139.699392, -16.443292], [139.691905, -16.4638], [139.710134, -16.468845], [139.723155, -16.444513], [139.734141, -16.443292], [139.740001, -16.473321]]], [[[136.675955, -15.678969], [136.711925, -15.703546], [136.695486, -15.739923], [136.663585, -15.778578], [136.629731, -15.749119], [136.615733, -15.714044], [136.621837, -15.69256], [136.670421, -15.663181], [136.675955, -15.678969]]], [[[136.830251, -15.668227], [136.834972, -15.682387], [136.8213, -15.689874], [136.803071, -15.672133], [136.78004, -15.672947], [136.7942, -15.710056], [136.790782, -15.722263], [136.752452, -15.745782], [136.731781, -15.744399], [136.742931, -15.675877], [136.731781, -15.648858], [136.800629, -15.642022], [136.830251, -15.668227]]], [[[137.106379, -15.774224], [137.100182, -15.803421], [137.072894, -15.846961], [137.043909, -15.834202], [137.033376, -15.796563], [137.000336, -15.787042], [136.98585, -15.750258], [136.981619, -15.712009], [136.951508, -15.71087], [136.948179, -15.729424], [136.934725, -15.721324], [136.943044, -15.667657], [136.963969, -15.640429], [136.983165, -15.664321], [136.988766, -15.660717], [136.981575, -15.634258], [136.992138, -15.630827], [136.999813, -15.615178], [136.994756, -15.592776], [137.015961, -15.593357], [137.027381, -15.627982], [137.047176, -15.638769], [137.065447, -15.628509], [137.066954, -15.646834], [137.083193, -15.652196], [137.077891, -15.751235], [137.106379, -15.774224]]], [[[136.602306, -15.563653], [136.600352, -15.611586], [136.587901, -15.635186], [136.546886, -15.627699], [136.519542, -15.642022], [136.498546, -15.627699], [136.510265, -15.621189], [136.512218, -15.609063], [136.498546, -15.587498], [136.526378, -15.559503], [136.524913, -15.534275], [136.602794, -15.516371], [136.615733, -15.538995], [136.602306, -15.563653]]], [[[136.873871, -15.597426], [136.875255, -15.621515], [136.848481, -15.635186], [136.841645, -15.621515], [136.848155, -15.61712], [136.83725, -15.599298], [136.855968, -15.570001], [136.841645, -15.553318], [136.857432, -15.520196], [136.883311, -15.498142], [136.874685, -15.522149], [136.877696, -15.544122], [136.895681, -15.587498], [136.873871, -15.597426]]], [[[124.422862, -15.246189], [124.433849, -15.246515], [124.451996, -15.264744], [124.431814, -15.292169], [124.444591, -15.299412], [124.431651, -15.308689], [124.396821, -15.299412], [124.376475, -15.319268], [124.336192, -15.300063], [124.334727, -15.291925], [124.40797, -15.272068], [124.422862, -15.246189]]], [[[124.601736, -15.343845], [124.62794, -15.387384], [124.650157, -15.395115], [124.531261, -15.440362], [124.520356, -15.435968], [124.517751, -15.413263], [124.534679, -15.41546], [124.554373, -15.389337], [124.58253, -15.373956], [124.537771, -15.367771], [124.506684, -15.381443], [124.514171, -15.360935], [124.497732, -15.377618], [124.458832, -15.360935], [124.470551, -15.351007], [124.479747, -15.317966], [124.495616, -15.315851], [124.506684, -15.326104], [124.50172, -15.308689], [124.514171, -15.291925], [124.493175, -15.291925], [124.504405, -15.279392], [124.568696, -15.244236], [124.549571, -15.297459], [124.551443, -15.306248], [124.582205, -15.317966], [124.575694, -15.33294], [124.601736, -15.343845]]], [[[124.921641, -14.983982], [124.938162, -14.997735], [124.939789, -15.01393], [124.93629, -15.026056], [124.927013, -15.029229], [124.911469, -15.018243], [124.897146, -14.990981], [124.869884, -14.990981], [124.86378, -14.972589], [124.87143, -14.95672], [124.886974, -14.952813], [124.903982, -14.970392], [124.924571, -14.936293], [124.931895, -14.954685], [124.921641, -14.983982]]], [[[135.762679, -14.900902], [135.727008, -14.895597], [135.705201, -14.913113], [135.687246, -14.902892], [135.715194, -14.880022], [135.719479, -14.860127], [135.708061, -14.853041], [135.727829, -14.834527], [135.749223, -14.838466], [135.766754, -14.86821], [135.762679, -14.900902]]], [[[125.208751, -14.481622], [125.200531, -14.510431], [125.177745, -14.542169], [125.204926, -14.593032], [125.169607, -14.611098], [125.153575, -14.610935], [125.146983, -14.61712], [125.149913, -14.638442], [125.137462, -14.647638], [125.120616, -14.618341], [125.091563, -14.618585], [125.096446, -14.549005], [125.102224, -14.538995], [125.115245, -14.542169], [125.137462, -14.559015], [125.138927, -14.509698], [125.130544, -14.511163], [125.115571, -14.49684], [125.122813, -14.481215], [125.157888, -14.456476], [125.152843, -14.44378], [125.171886, -14.440606], [125.181407, -14.466404], [125.208751, -14.481622]]], [[[136.810313, -13.808282], [136.818126, -13.801365], [136.811697, -13.808852], [136.807465, -13.818536], [136.810313, -13.808282]]], [[[136.288585, -13.728611], [136.249522, -13.742283], [136.245128, -13.757582], [136.260427, -13.758071], [136.28004, -13.791762], [136.261404, -13.793552], [136.236095, -13.847263], [136.197439, -13.853204], [136.211111, -13.825942], [136.177013, -13.763849], [136.153494, -13.770685], [136.156505, -13.839532], [136.11671, -13.816664], [136.114757, -13.723565], [136.164887, -13.742364], [136.17335, -13.707127], [136.195323, -13.66961], [136.211111, -13.661391], [136.234223, -13.666436], [136.286876, -13.705824], [136.288585, -13.728611]]], [[[136.937266, -14.18906], [136.958832, -14.23268], [136.941254, -14.241957], [136.937999, -14.254002], [136.951508, -14.277765], [136.932953, -14.276544], [136.937266, -14.291436], [136.913585, -14.279962], [136.903087, -14.298923], [136.851573, -14.275567], [136.83546, -14.285252], [136.804942, -14.267836], [136.733084, -14.256117], [136.680512, -14.285252], [136.639415, -14.280206], [136.460785, -14.216404], [136.426768, -14.195245], [136.380707, -14.206801], [136.357188, -14.225518], [136.324067, -14.229587], [136.335216, -14.208754], [136.411306, -14.165785], [136.437348, -14.120375], [136.422374, -14.088556], [136.409679, -13.997247], [136.430186, -13.87713], [136.407237, -13.832696], [136.409679, -13.818536], [136.424571, -13.810317], [136.464203, -13.839532], [136.472179, -13.833429], [136.512169, -13.834082], [136.525669, -13.818324], [136.519542, -13.804457], [136.530145, -13.785956], [136.561046, -13.819757], [136.574067, -13.798028], [136.594737, -13.81227], [136.594737, -13.784356], [136.608084, -13.79225], [136.622732, -13.787774], [136.628591, -13.7763], [136.615733, -13.763849], [136.608409, -13.771254], [136.593516, -13.724705], [136.574067, -13.723565], [136.58253, -13.70436], [136.567231, -13.695489], [136.572276, -13.686212], [136.615571, -13.684747], [136.614919, -13.711847], [136.620942, -13.717706], [136.644216, -13.696466], [136.656749, -13.702407], [136.681814, -13.657403], [136.718272, -13.647719], [136.724132, -13.687188], [136.714122, -13.707289], [136.684337, -13.720473], [136.676524, -13.743748], [136.691742, -13.761651], [136.725597, -13.763849], [136.7046, -13.791762], [136.718516, -13.829034], [136.731781, -13.839532], [136.797211, -13.853204], [136.81422, -13.849705], [136.838064, -13.82586], [136.839366, -13.801039], [136.819184, -13.800226], [136.841645, -13.750177], [136.856212, -13.75742], [136.903087, -13.757582], [136.924327, -13.805352], [136.875255, -13.86004], [136.855968, -13.915216], [136.822765, -13.905206], [136.791352, -13.917739], [136.768321, -13.944594], [136.759776, -13.977309], [136.763031, -13.99684], [136.810802, -14.029392], [136.787852, -14.036798], [136.780284, -14.051853], [136.764903, -14.045505], [136.754405, -14.050958], [136.752289, -14.079197], [136.729503, -14.0617], [136.7046, -14.072931], [136.709809, -14.085056], [136.7046, -14.126886], [136.718272, -14.178399], [136.736339, -14.189142], [136.78419, -14.186212], [136.780284, -14.164809], [136.789236, -14.149509], [136.880707, -14.208591], [136.908376, -14.176935], [136.916759, -14.147393], [136.934906, -14.155206], [136.978852, -14.147393], [136.937266, -14.18906]]], [[[136.135427, -13.407973], [136.122337, -13.393388], [136.118988, -13.3742], [136.094981, -13.360447], [136.117849, -13.362237], [136.134025, -13.386395], [136.148407, -13.389896], [136.184337, -13.445733], [136.203136, -13.461196], [136.197439, -13.476495], [136.170177, -13.455987], [136.170177, -13.476495], [136.154552, -13.472914], [136.163341, -13.512791], [136.142956, -13.56045], [136.130367, -13.547319], [136.146571, -13.51321], [136.124107, -13.472084], [136.135916, -13.434828], [136.135427, -13.407973]]], [[[136.821461, -12.120832], [136.829356, -12.132257], [136.820974, -12.137953], [136.812999, -12.136163], [136.797069, -12.108355], [136.799105, -12.084558], [136.816956, -12.076077], [136.821461, -12.120832]]], [[[132.411876, -12.083673], [132.415782, -12.110284], [132.405772, -12.132989], [132.387543, -12.133396], [132.339854, -12.098565], [132.357758, -12.077813], [132.387543, -12.071873], [132.411876, -12.083673]]], [[[136.316254, -11.9874], [136.302745, -12.013279], [136.269298, -12.038995], [136.218272, -12.054132], [136.184337, -12.078058], [136.151052, -12.074477], [136.129161, -12.05755], [136.134939, -12.037774], [136.129161, -12.016697], [136.161876, -12.034763], [136.200043, -11.999933], [136.211111, -12.002374], [136.208018, -12.030369], [136.242035, -12.023533], [136.259776, -12.016046], [136.290212, -11.975681], [136.316254, -11.9874]]], [[[136.477794, -11.814223], [136.498546, -11.79811], [136.478038, -11.865818], [136.483246, -11.889418], [136.469086, -11.906508], [136.464203, -11.893731], [136.477794, -11.814223]]], [[[136.623709, -11.736586], [136.581554, -11.79811], [136.528005, -11.798517], [136.519542, -11.790704], [136.528982, -11.776544], [136.57016, -11.773207], [136.623709, -11.736586]]], [[[135.951528, -11.683485], [135.980865, -11.661368], [136.024051, -11.640872], [136.055205, -11.650048], [136.006045, -11.708678], [135.986177, -11.716369], [135.955906, -11.707165], [135.951528, -11.683485]]], [[[132.645518, -11.65016], [132.640636, -11.691176], [132.627208, -11.708754], [132.583832, -11.720147], [132.558849, -11.719171], [132.544688, -11.708754], [132.511974, -11.670587], [132.5088, -11.649591], [132.531016, -11.632989], [132.545177, -11.631606], [132.579356, -11.646661], [132.645518, -11.65016]]], [[[136.478038, -11.461114], [136.483409, -11.48447], [136.474864, -11.505955], [136.457367, -11.523858], [136.392345, -11.557306], [136.375662, -11.592055], [136.310313, -11.626153], [136.297618, -11.616388], [136.258556, -11.652114], [136.232188, -11.660333], [136.230479, -11.652114], [136.177013, -11.688246], [136.190196, -11.646417], [136.232188, -11.626153], [136.266856, -11.572931], [136.283458, -11.564711], [136.319509, -11.60296], [136.368175, -11.544203], [136.375662, -11.55047], [136.379649, -11.536065], [136.42335, -11.509535], [136.478038, -11.461114]]], [[[130.548595, -11.70143], [130.619884, -11.749119], [130.63502, -11.768162], [130.628184, -11.80462], [130.573253, -11.830987], [130.521007, -11.829522], [130.496349, -11.839044], [130.438731, -11.811619], [130.360118, -11.793715], [130.321056, -11.770196], [130.235118, -11.789727], [130.146983, -11.824802], [130.084239, -11.827813], [130.053477, -11.822849], [130.03712, -11.811212], [130.016612, -11.777032], [130.02296, -11.762384], [130.054047, -11.76336], [130.069591, -11.755629], [130.064301, -11.691339], [130.071544, -11.671157], [130.145681, -11.699395], [130.185395, -11.676528], [130.201508, -11.653497], [130.184093, -11.547296], [130.198497, -11.506606], [130.18572, -11.486423], [130.146983, -11.489028], [130.170584, -11.447035], [130.228282, -11.399672], [130.269786, -11.338149], [130.326996, -11.330173], [130.344981, -11.317071], [130.360118, -11.366388], [130.399181, -11.433038], [130.383474, -11.484308], [130.386485, -11.519708], [130.396821, -11.534601], [130.445567, -11.567153], [130.461681, -11.592055], [130.462901, -11.650079], [130.448009, -11.701349], [130.485525, -11.688246], [130.536794, -11.705011], [130.548595, -11.70143]]], [[[131.53891, -11.446059], [131.530447, -11.474786], [131.482677, -11.474786], [131.471039, -11.493341], [131.458263, -11.562188], [131.473969, -11.600193], [131.432384, -11.607029], [131.386567, -11.577813], [131.293142, -11.724054], [131.257335, -11.729181], [131.22877, -11.744887], [131.201508, -11.77516], [131.098969, -11.828383], [130.979991, -11.926446], [130.961192, -11.933852], [130.941417, -11.927911], [130.894867, -11.877862], [130.690603, -11.788344], [130.674571, -11.777032], [130.680675, -11.76336], [130.66033, -11.756524], [130.582286, -11.697931], [130.558442, -11.667169], [130.496593, -11.649509], [130.482107, -11.544203], [130.461681, -11.529962], [130.430349, -11.484308], [130.406261, -11.354913], [130.392751, -11.334405], [130.406261, -11.296563], [130.370128, -11.252048], [130.367442, -11.204278], [130.372813, -11.18377], [130.400157, -11.153253], [130.516124, -11.296563], [130.558442, -11.269952], [130.587169, -11.286798], [130.598806, -11.317071], [130.562022, -11.361098], [130.558442, -11.379164], [130.566173, -11.394627], [130.590017, -11.392185], [130.658458, -11.331313], [130.668305, -11.344985], [130.653819, -11.377537], [130.695567, -11.43434], [130.723643, -11.384698], [130.84547, -11.360284], [130.888031, -11.313165], [130.920909, -11.30934], [130.953868, -11.316339], [130.975108, -11.336114], [131.003266, -11.347426], [131.023285, -11.413263], [131.048839, -11.315037], [131.099132, -11.29046], [131.153087, -11.249282], [131.168224, -11.310154], [131.219249, -11.399672], [131.230805, -11.390802], [131.215831, -11.338149], [131.215831, -11.296563], [131.19516, -11.29046], [131.205333, -11.246515], [131.229991, -11.208103], [131.274425, -11.18963], [131.292003, -11.197524], [131.302419, -11.215997], [131.305024, -11.242608], [131.290212, -11.271417], [131.301443, -11.277439], [131.315196, -11.272638], [131.331309, -11.242608], [131.343435, -11.240981], [131.369395, -11.25628], [131.402192, -11.243829], [131.427745, -11.249688], [131.439789, -11.284275], [131.434906, -11.303399], [131.455821, -11.309747], [131.460704, -11.357517], [131.47462, -11.390558], [131.480154, -11.395685], [131.503184, -11.379164], [131.517914, -11.380629], [131.527843, -11.386651], [131.53891, -11.446059]]], [[[136.720088, -11.174425], [136.716482, -11.206231], [136.680024, -11.223024], [136.668737, -11.25605], [136.63911, -11.286167], [136.627126, -11.330255], [136.611867, -11.334231], [136.589948, -11.377765], [136.53529, -11.443169], [136.524615, -11.446964], [136.516149, -11.434276], [136.494098, -11.455346], [136.478019, -11.447934], [136.500051, -11.422372], [136.482436, -11.412721], [136.560557, -11.354913], [136.580333, -11.327407], [136.585653, -11.284946], [136.653872, -11.186455], [136.688029, -11.177596], [136.709869, -11.120558], [136.711269, -11.096581], [136.731035, -11.079236], [136.734776, -11.064228], [136.718667, -11.050836], [136.738617, -11.029718], [136.752289, -11.037205], [136.762462, -11.019301], [136.763685, -11.04007], [136.720088, -11.174425]]], [[[132.493826, -11.150649], [132.517345, -11.139581], [132.511485, -11.086847], [132.487071, -11.063572], [132.46811, -11.029962], [132.510509, -11.047052], [132.55128, -11.032403], [132.566661, -10.98211], [132.578868, -10.970147], [132.599294, -10.968357], [132.579356, -11.012628], [132.613536, -11.108819], [132.610606, -11.122735], [132.585704, -11.132745], [132.582042, -11.153416], [132.618419, -11.161554], [132.634044, -11.173761], [132.612559, -11.185724], [132.627208, -11.246026], [132.600759, -11.315688], [132.599294, -11.344985], [132.565196, -11.310805], [132.549978, -11.24627], [132.489431, -11.160089], [132.493826, -11.150649]]]]}}, {"type": "Feature", "properties": {"name": "Ashmore and Cartier Is."}, "geometry": {"type": "Polygon", "coordinates": [[[123.597748, -12.438572], [123.575613, -12.436782], [123.575043, -12.426609], [123.597016, -12.428318], [123.597748, -12.438572]]]}}]}