{"type": "FeatureCollection", "features": [{"type": "Feature", "properties": {"name": "Canada"}, "geometry": {"type": "MultiPolygon", "coordinates": [[[[-113.056304, 70.311347], [-112.976877, 70.301663], [-112.946401, 70.290432], [-112.97643, 70.28384], [-113.163401, 70.283433], [-113.207102, 70.297838], [-113.165517, 70.312161], [-113.056304, 70.311347]]], [[[-100.77599, 70.284247], [-100.762522, 70.262641], [-100.769154, 70.256903], [-100.794342, 70.256049], [-100.872182, 70.297838], [-100.850942, 70.306342], [-100.851064, 70.325141], [-100.826894, 70.329006], [-100.760243, 70.322984], [-100.7412, 70.312161], [-100.77599, 70.284247]]], [[[-111.671498, 70.312161], [-112.108469, 70.30093], [-112.311513, 70.34691], [-112.322621, 70.356187], [-112.311757, 70.366278], [-112.286773, 70.368964], [-112.094553, 70.354193], [-111.952707, 70.325141], [-111.671498, 70.312161]]], [[[-116.610911, 70.493354], [-116.586293, 70.485175], [-116.571197, 70.469794], [-116.606679, 70.478705], [-116.752919, 70.478013], [-116.815175, 70.49372], [-116.831939, 70.510728], [-116.610911, 70.493354]]], [[[-116.156646, 70.548529], [-116.1256, 70.538072], [-116.228627, 70.538072], [-116.300649, 70.517646], [-116.453114, 70.511949], [-116.496165, 70.52383], [-116.443471, 70.543158], [-116.352651, 70.533393], [-116.297475, 70.554633], [-116.156646, 70.548529]]], [[[-116.610463, 70.571031], [-116.543609, 70.565863], [-116.509755, 70.551703], [-116.540639, 70.543687], [-116.744456, 70.542426], [-116.777333, 70.551703], [-116.610463, 70.571031]]], [[[-115.834788, 70.58161], [-115.815785, 70.573676], [-115.82429, 70.561957], [-115.879221, 70.54621], [-115.942128, 70.542304], [-116.064117, 70.551703], [-115.885976, 70.58218], [-115.834788, 70.58161]]], [[[-116.917551, 70.566474], [-116.87975, 70.551703], [-116.908315, 70.543158], [-117.002594, 70.551703], [-117.221995, 70.543118], [-117.275787, 70.550279], [-117.30427, 70.571601], [-117.239735, 70.592719], [-117.05724, 70.571601], [-116.917551, 70.566474]]], [[[-100.461985, 70.496487], [-100.655629, 70.551581], [-100.680328, 70.575344], [-100.666127, 70.62995], [-100.671783, 70.645738], [-100.714508, 70.681464], [-100.685902, 70.68476], [-100.580434, 70.660956], [-100.486399, 70.681545], [-100.461252, 70.660956], [-100.412831, 70.64053], [-100.343902, 70.626207], [-100.365061, 70.620022], [-100.34435, 70.609768], [-100.275054, 70.60635], [-100.193756, 70.579047], [-100.212229, 70.567206], [-100.239125, 70.567125], [-100.340647, 70.593248], [-100.392405, 70.585273], [-100.288686, 70.538072], [-100.289622, 70.518541], [-100.229237, 70.464545], [-100.262034, 70.456122], [-100.351389, 70.489651], [-100.461985, 70.496487]]], [[[-110.485422, 72.589016], [-110.47232, 72.57331], [-110.542551, 72.572089], [-110.575266, 72.579657], [-110.595855, 72.600653], [-110.527577, 72.600491], [-110.485422, 72.589016]]], [[[-110.36856, 72.621039], [-110.348866, 72.607489], [-110.493479, 72.62051], [-110.36856, 72.621039]]], [[[-110.279897, 72.648424], [-110.303049, 72.633205], [-110.410878, 72.642239], [-110.314687, 72.655219], [-110.279897, 72.648424]]], [[[-117.414418, 70.015937], [-117.358062, 70.046454], [-117.299672, 70.056586], [-117.195058, 70.092434], [-116.965077, 70.129055], [-116.511464, 70.163398], [-116.032704, 70.220282], [-115.637074, 70.247992], [-114.762685, 70.29149], [-114.509429, 70.315253], [-114.184722, 70.315741], [-114.038442, 70.281236], [-113.64269, 70.262397], [-113.476877, 70.283596], [-112.993398, 70.231391], [-112.966908, 70.236477], [-112.987416, 70.250067], [-112.96467, 70.253363], [-112.586252, 70.200019], [-112.52123, 70.208482], [-112.583323, 70.222113], [-112.558665, 70.239203], [-112.526967, 70.245185], [-112.46349, 70.243842], [-112.401763, 70.22956], [-112.343129, 70.236477], [-112.343129, 70.243842], [-112.39151, 70.250067], [-112.374135, 70.261664], [-112.169789, 70.267401], [-112.137603, 70.27733], [-112.270904, 70.284369], [-112.308949, 70.297838], [-112.260894, 70.309312], [-111.937408, 70.263658], [-111.837148, 70.273505], [-111.716379, 70.261868], [-111.637522, 70.280585], [-111.525014, 70.27147], [-111.445627, 70.290432], [-111.478383, 70.300116], [-111.560943, 70.295111], [-111.589589, 70.312161], [-111.486562, 70.331977], [-111.515614, 70.352362], [-111.566803, 70.359931], [-111.808827, 70.352118], [-111.876576, 70.367377], [-111.964263, 70.374579], [-112.056711, 70.406684], [-112.122385, 70.479804], [-112.172434, 70.503323], [-112.281484, 70.505561], [-112.329457, 70.52383], [-112.352162, 70.524604], [-112.411977, 70.510728], [-112.437164, 70.534613], [-112.45641, 70.538072], [-112.499989, 70.520738], [-112.537994, 70.518622], [-112.725331, 70.569159], [-112.846099, 70.569892], [-112.866567, 70.543199], [-112.925893, 70.565375], [-113.053578, 70.590237], [-113.105946, 70.618476], [-113.179189, 70.60635], [-113.193023, 70.610175], [-113.210683, 70.630764], [-113.207102, 70.647935], [-113.36266, 70.647366], [-113.412587, 70.65412], [-113.503041, 70.683783], [-113.520334, 70.6765], [-113.525502, 70.657538], [-113.56135, 70.643134], [-113.719594, 70.691881], [-113.988393, 70.716213], [-114.183095, 70.667792], [-114.34675, 70.68651], [-114.397328, 70.679633], [-114.506256, 70.644517], [-114.873402, 70.627834], [-115.043568, 70.604153], [-115.241444, 70.61107], [-115.495595, 70.599514], [-115.560699, 70.579047], [-115.728912, 70.606391], [-116.038564, 70.579169], [-116.187489, 70.598049], [-116.207672, 70.607245], [-116.204213, 70.616116], [-116.167144, 70.620022], [-116.189768, 70.633857], [-116.233388, 70.639716], [-116.583323, 70.633287], [-116.682851, 70.608303], [-116.988637, 70.602484], [-117.235992, 70.620022], [-117.330556, 70.602688], [-117.352651, 70.613186], [-117.345204, 70.620022], [-117.374094, 70.62873], [-117.513417, 70.620022], [-117.517161, 70.60635], [-117.534495, 70.602525], [-117.585439, 70.60635], [-117.697825, 70.635647], [-117.735829, 70.662421], [-117.708974, 70.695136], [-117.770619, 70.728949], [-117.873769, 70.748277], [-118.186838, 70.839423], [-118.27477, 70.878404], [-118.411041, 70.974555], [-118.421498, 70.990546], [-118.386464, 71.022203], [-117.798004, 71.170396], [-117.474924, 71.185492], [-117.095367, 71.243801], [-116.900054, 71.24018], [-116.852854, 71.248277], [-116.818267, 71.264309], [-116.838735, 71.270453], [-116.806304, 71.29092], [-116.313222, 71.350653], [-116.268788, 71.363918], [-116.103424, 71.376654], [-116.077789, 71.367336], [-116.17398, 71.353664], [-116.126861, 71.346259], [-116.050608, 71.363959], [-115.764638, 71.367662], [-115.728912, 71.387152], [-115.90392, 71.3935], [-116.066314, 71.419827], [-116.2058, 71.426215], [-116.214955, 71.435614], [-116.190256, 71.444525], [-116.047719, 71.444648], [-115.742014, 71.510688], [-115.762522, 71.497016], [-115.74942, 71.484809], [-115.61266, 71.497952], [-115.58434, 71.49018], [-115.598012, 71.484036], [-115.56786, 71.472113], [-115.489125, 71.467475], [-115.419016, 71.45185], [-115.32429, 71.476549], [-115.206614, 71.483222], [-115.056752, 71.52497], [-115.10912, 71.53559], [-115.296986, 71.497016], [-115.430328, 71.489447], [-115.49767, 71.494127], [-115.556996, 71.510688], [-115.556996, 71.517524], [-115.454661, 71.531195], [-115.454661, 71.538642], [-115.608022, 71.555365], [-115.823598, 71.548163], [-115.886952, 71.530463], [-115.981068, 71.527533], [-116.184885, 71.500312], [-116.552805, 71.479193], [-116.634633, 71.454779], [-116.73233, 71.455146], [-116.820953, 71.432563], [-116.922109, 71.427436], [-117.048248, 71.437405], [-117.205393, 71.403632], [-117.290191, 71.404975], [-117.390248, 71.387152], [-117.417226, 71.394477], [-117.403188, 71.429145], [-117.380605, 71.452338], [-117.393544, 71.45954], [-117.476186, 71.456041], [-117.448883, 71.469713], [-117.4676, 71.485053], [-117.500559, 71.495754], [-117.564931, 71.503852], [-117.550649, 71.49018], [-117.629628, 71.472235], [-117.631581, 71.462592], [-117.606557, 71.448635], [-117.534332, 71.448676], [-117.49828, 71.440985], [-117.483022, 71.421332], [-117.511383, 71.392076], [-117.55134, 71.374172], [-117.708974, 71.387152], [-117.701527, 71.393988], [-117.727895, 71.404446], [-117.768056, 71.380194], [-117.79955, 71.374091], [-117.901031, 71.387152], [-118.161977, 71.378974], [-118.243153, 71.393378], [-118.308827, 71.432196], [-118.308258, 71.469916], [-118.252756, 71.502427], [-118.127309, 71.538642], [-117.931508, 71.545478], [-117.783559, 71.528876], [-117.757395, 71.538642], [-117.839345, 71.558498], [-117.672109, 71.558743], [-117.653717, 71.57217], [-117.691518, 71.582424], [-117.772857, 71.585883], [-117.81135, 71.593248], [-117.831858, 71.606879], [-117.89684, 71.615912], [-117.921213, 71.613105], [-117.941721, 71.600043], [-117.966298, 71.610989], [-117.969309, 71.621731], [-117.962229, 71.634833], [-117.94343, 71.643134], [-117.866567, 71.641059], [-117.695302, 71.668362], [-117.721506, 71.67772], [-118.076324, 71.664984], [-118.181956, 71.627387], [-118.173899, 71.607815], [-118.204945, 71.598456], [-118.356028, 71.593248], [-118.428944, 71.579535], [-118.394195, 71.613105], [-118.398264, 71.624823], [-118.455678, 71.641059], [-118.461293, 71.653062], [-118.590688, 71.669867], [-118.644032, 71.647895], [-118.689036, 71.661526], [-118.832997, 71.662909], [-118.863189, 71.658922], [-118.853505, 71.647895], [-118.908111, 71.620551], [-118.891469, 71.60342], [-118.867177, 71.593248], [-118.88858, 71.582953], [-119.050893, 71.626776], [-119.093088, 71.668362], [-119.137603, 71.774359], [-119.10733, 71.839667], [-119.100209, 71.881537], [-119.076039, 71.91885], [-118.947865, 71.991889], [-118.825022, 72.038642], [-118.747548, 72.053209], [-118.709828, 72.08161], [-118.710032, 72.100531], [-118.723134, 72.107815], [-118.678212, 72.142279], [-118.576731, 72.179429], [-118.442006, 72.182847], [-118.127838, 72.22724], [-118.10558, 72.247748], [-118.124867, 72.309516], [-118.174469, 72.338365], [-118.242055, 72.346747], [-118.428944, 72.346747], [-118.540598, 72.373196], [-118.585601, 72.407904], [-118.593414, 72.428697], [-118.568674, 72.477769], [-118.512847, 72.510443], [-118.28307, 72.589545], [-118.238433, 72.597113], [-118.189809, 72.635443], [-118.040883, 72.672187], [-117.867299, 72.701483], [-117.808339, 72.737738], [-117.595611, 72.798163], [-117.545074, 72.830634], [-117.482004, 72.852607], [-117.400461, 72.905951], [-117.369252, 72.917792], [-117.20816, 72.922919], [-117.110585, 72.94481], [-116.894846, 72.967434], [-116.644032, 73.03498], [-116.593658, 73.060207], [-116.495473, 73.061591], [-116.200917, 73.118883], [-116.008168, 73.140774], [-115.763824, 73.186713], [-115.570424, 73.201809], [-115.399078, 73.233466], [-115.332265, 73.263129], [-115.230092, 73.264228], [-115.126088, 73.295071], [-114.907297, 73.31981], [-114.738922, 73.3664], [-114.584299, 73.384589], [-114.40746, 73.34748], [-114.265126, 73.335679], [-114.196645, 73.308051], [-114.022694, 73.211859], [-113.981068, 73.175971], [-113.958363, 73.140123], [-113.961985, 73.12287], [-114.008412, 73.063056], [-114.008412, 73.025784], [-114.042551, 72.998481], [-114.049387, 72.970526], [-114.024526, 72.934475], [-114.02892, 72.915961], [-114.052805, 72.899848], [-114.056793, 72.888617], [-114.05134, 72.871324], [-113.969553, 72.82453], [-113.981068, 72.809149], [-114.023101, 72.797797], [-114.2412, 72.792426], [-114.282786, 72.765082], [-114.336659, 72.755601], [-114.356068, 72.746283], [-114.333974, 72.693101], [-114.314565, 72.685777], [-114.26773, 72.696234], [-114.248036, 72.689399], [-114.404775, 72.657416], [-114.472971, 72.624335], [-114.604237, 72.607489], [-114.549672, 72.586982], [-114.557973, 72.57099], [-114.546132, 72.567816], [-114.510569, 72.57331], [-114.360707, 72.558905], [-114.339467, 72.563788], [-114.321767, 72.591783], [-114.255483, 72.600653], [-114.126088, 72.636705], [-113.884877, 72.662055], [-113.898549, 72.648424], [-113.856679, 72.636908], [-113.801015, 72.640326], [-113.559071, 72.69892], [-113.508778, 72.70303], [-113.557973, 72.671942], [-113.679433, 72.638373], [-113.734039, 72.614244], [-113.711659, 72.607611], [-113.659576, 72.613105], [-113.637847, 72.62051], [-113.619618, 72.639472], [-113.47936, 72.666653], [-113.439809, 72.685248], [-113.439849, 72.709906], [-113.412587, 72.730373], [-113.443267, 72.751899], [-113.604075, 72.761705], [-113.603993, 72.777533], [-113.483795, 72.840481], [-113.39094, 72.911566], [-113.192454, 72.993313], [-113.015004, 73.016018], [-112.942209, 73.004462], [-112.858876, 73.004706], [-112.79186, 72.984809], [-112.53425, 72.960883], [-112.373158, 72.9147], [-112.280426, 72.902533], [-112.077301, 72.898017], [-111.714223, 72.830878], [-111.647817, 72.810614], [-111.552235, 72.806342], [-111.483795, 72.783515], [-111.466054, 72.771308], [-111.466054, 72.752021], [-111.456166, 72.749254], [-111.219635, 72.724107], [-111.233306, 72.696845], [-111.213002, 72.684638], [-111.208852, 72.673407], [-111.245717, 72.627834], [-111.266835, 72.579535], [-111.289296, 72.565985], [-111.493398, 72.510647], [-111.444, 72.5008], [-111.43814, 72.4914], [-111.564361, 72.441148], [-111.854644, 72.381415], [-111.887522, 72.367743], [-111.904286, 72.346747], [-111.821156, 72.32392], [-111.747222, 72.333075], [-111.688832, 72.355902], [-111.658803, 72.359524], [-111.644846, 72.340522], [-111.659983, 72.324042], [-111.721059, 72.302558], [-111.721913, 72.271552], [-111.788197, 72.223212], [-111.753326, 72.207099], [-111.712473, 72.230658], [-111.703196, 72.252916], [-111.664703, 72.292141], [-111.602651, 72.292141], [-111.563344, 72.309027], [-111.48054, 72.324652], [-111.418284, 72.346747], [-111.439036, 72.353827], [-111.507069, 72.340522], [-111.576812, 72.343492], [-111.609242, 72.367174], [-111.589589, 72.381537], [-111.531565, 72.400092], [-111.441314, 72.412421], [-111.347279, 72.462307], [-111.295237, 72.470689], [-111.241851, 72.471422], [-111.205393, 72.463446], [-111.238433, 72.441962], [-111.343129, 72.423326], [-111.369862, 72.408189], [-111.302317, 72.408759], [-111.281117, 72.402004], [-111.357493, 72.371487], [-111.376698, 72.354193], [-111.352447, 72.347561], [-111.294749, 72.374091], [-111.239573, 72.371649], [-111.225901, 72.367174], [-111.20226, 72.340522], [-111.116689, 72.332709], [-111.027903, 72.285305], [-111.031484, 72.313137], [-111.089345, 72.374091], [-111.086293, 72.408271], [-111.011383, 72.431057], [-110.979482, 72.450385], [-111.002512, 72.463772], [-110.995188, 72.473375], [-110.97053, 72.479804], [-110.787668, 72.477118], [-110.836049, 72.524888], [-110.704091, 72.578803], [-110.678334, 72.579169], [-110.591664, 72.554145], [-110.485504, 72.558295], [-110.479156, 72.555609], [-110.490224, 72.538479], [-110.603342, 72.504381], [-110.544586, 72.474026], [-110.453765, 72.460517], [-110.334299, 72.427314], [-110.307851, 72.436184], [-110.485707, 72.480536], [-110.534413, 72.504381], [-110.486155, 72.525458], [-110.42927, 72.527899], [-110.394399, 72.556627], [-110.349517, 72.559027], [-110.239898, 72.527818], [-110.162709, 72.479682], [-110.085032, 72.45661], [-110.057729, 72.439521], [-109.980824, 72.461819], [-109.86262, 72.445502], [-109.808258, 72.430243], [-109.780263, 72.436184], [-109.80309, 72.450873], [-110.259429, 72.559027], [-110.23648, 72.570136], [-110.197133, 72.572333], [-110.097768, 72.560492], [-109.999257, 72.52204], [-109.885732, 72.491685], [-109.816396, 72.493069], [-109.787709, 72.504381], [-109.827219, 72.53384], [-109.910634, 72.559027], [-109.956939, 72.607815], [-110.061594, 72.651435], [-110.101674, 72.662909], [-110.222076, 72.646389], [-110.265736, 72.655341], [-110.29426, 72.675727], [-110.196767, 72.681138], [-110.170725, 72.689399], [-110.207509, 72.718166], [-110.197499, 72.727118], [-110.119293, 72.729804], [-110.043202, 72.721137], [-109.838735, 72.671088], [-109.819936, 72.672187], [-109.81786, 72.679429], [-109.856028, 72.70303], [-109.817372, 72.718085], [-109.773427, 72.716702], [-109.799957, 72.731024], [-109.910512, 72.734605], [-110.049916, 72.762356], [-110.107004, 72.763658], [-110.189036, 72.74315], [-110.254506, 72.738959], [-110.266754, 72.742662], [-110.262847, 72.74901], [-110.181793, 72.768948], [-110.170725, 72.778754], [-110.172719, 72.791327], [-110.198883, 72.799221], [-110.230336, 72.824286], [-110.48351, 72.839179], [-110.529042, 72.84927], [-110.567942, 72.867499], [-110.631744, 72.915839], [-110.682525, 72.928778], [-110.745432, 72.965562], [-110.75414, 72.984809], [-110.735707, 73.00137], [-110.703725, 73.009101], [-110.076405, 72.995754], [-109.905344, 72.970608], [-109.883412, 72.954901], [-109.88329, 72.936428], [-109.854888, 72.921942], [-109.759185, 72.936428], [-109.622629, 72.915961], [-109.64273, 72.900133], [-109.727447, 72.89643], [-109.752349, 72.881171], [-109.37621, 72.771308], [-109.404164, 72.752021], [-109.183258, 72.767035], [-109.116119, 72.744574], [-109.155385, 72.733547], [-109.16393, 72.724107], [-109.058095, 72.68887], [-108.946034, 72.673774], [-108.940785, 72.665473], [-108.957387, 72.65884], [-109.033599, 72.648424], [-109.02123, 72.635077], [-109.025217, 72.62401], [-109.054067, 72.607489], [-109.026763, 72.593817], [-109.047231, 72.57331], [-109.022817, 72.568061], [-108.937082, 72.579535], [-108.841786, 72.57331], [-108.888987, 72.593817], [-108.867828, 72.605943], [-108.633412, 72.565579], [-108.58967, 72.503811], [-108.594146, 72.483954], [-108.630198, 72.465277], [-108.663075, 72.361029], [-108.64387, 72.325751], [-108.591054, 72.288723], [-108.534291, 72.20246], [-108.540151, 72.148749], [-108.484486, 72.138088], [-108.460032, 72.143988], [-108.45759, 72.162421], [-108.442779, 72.163072], [-108.402415, 72.148749], [-108.418202, 72.136908], [-108.437734, 72.134467], [-108.437734, 72.127631], [-108.413482, 72.127143], [-108.396148, 72.086086], [-108.400258, 72.026435], [-108.416615, 71.990465], [-108.352528, 71.992621], [-108.293121, 71.976264], [-108.340932, 71.935858], [-108.317494, 71.935533], [-108.224233, 71.970038], [-108.191518, 71.962958], [-108.188303, 71.94953], [-108.221099, 71.911689], [-108.294301, 71.881496], [-108.279449, 71.860785], [-108.247629, 71.845526], [-108.245961, 71.832831], [-108.286936, 71.798733], [-108.239247, 71.772854], [-108.183909, 71.764594], [-108.170318, 71.754096], [-108.177073, 71.73725], [-108.245961, 71.722968], [-108.198842, 71.706], [-108.097646, 71.723375], [-108.046702, 71.716742], [-107.991933, 71.683417], [-107.977773, 71.66059], [-107.985219, 71.634833], [-107.917063, 71.630927], [-107.832509, 71.608222], [-107.740956, 71.61815], [-107.724517, 71.634833], [-107.833079, 71.679185], [-107.838735, 71.692328], [-107.834381, 71.709906], [-107.801137, 71.734361], [-107.708811, 71.711005], [-107.668446, 71.708157], [-107.563629, 71.775214], [-107.251576, 71.806138], [-107.310902, 71.826728], [-107.398997, 71.838284], [-107.472483, 71.870266], [-107.429026, 71.88703], [-107.345855, 71.871975], [-107.3072, 71.874335], [-107.271596, 71.884467], [-107.251576, 71.901679], [-107.416656, 71.929023], [-107.414133, 71.961737], [-107.422719, 71.9772], [-107.604807, 72.010932], [-107.636383, 72.037665], [-107.656321, 72.072984], [-107.620229, 72.086127], [-107.614654, 72.09691], [-107.663157, 72.120795], [-107.635162, 72.127631], [-107.779164, 72.141303], [-107.772817, 72.15526], [-107.786, 72.179145], [-107.786, 72.226996], [-107.794789, 72.251044], [-107.864858, 72.295844], [-107.860748, 72.304633], [-107.837799, 72.307359], [-107.749135, 72.284003], [-107.727203, 72.287909], [-107.717763, 72.30268], [-107.734527, 72.326565], [-107.848053, 72.360419], [-107.803863, 72.374091], [-107.806508, 72.387763], [-107.864858, 72.411933], [-107.871897, 72.434801], [-107.808665, 72.442776], [-107.786, 72.463446], [-107.8933, 72.473538], [-107.942698, 72.49018], [-107.985219, 72.518052], [-107.875356, 72.524888], [-107.890207, 72.547593], [-107.875356, 72.57331], [-107.900502, 72.594428], [-107.935414, 72.606879], [-108.013173, 72.62051], [-108.003896, 72.631293], [-107.957916, 72.642239], [-108.012522, 72.663764], [-108.026194, 72.679877], [-108.005727, 72.70303], [-108.083648, 72.760077], [-108.056467, 72.776068], [-108.101308, 72.840237], [-108.13915, 72.871243], [-108.142486, 72.888373], [-108.10554, 72.901313], [-108.104726, 72.912177], [-108.163401, 72.943834], [-108.167836, 72.958157], [-108.162831, 72.970608], [-108.136098, 72.984809], [-108.23469, 73.042914], [-108.156565, 73.052476], [-108.265452, 73.101874], [-108.298329, 73.133775], [-108.258941, 73.175971], [-108.164947, 73.206122], [-108.067535, 73.207709], [-107.867909, 73.189643], [-107.90453, 73.212551], [-108.053538, 73.238023], [-108.118723, 73.268785], [-108.122426, 73.29267], [-108.156565, 73.306342], [-108.123769, 73.315985], [-108.013173, 73.313178], [-108.087636, 73.354153], [-108.013336, 73.354885], [-107.793446, 73.326239], [-107.662017, 73.328437], [-107.51887, 73.295722], [-107.453969, 73.288642], [-107.292592, 73.241116], [-107.172434, 73.195014], [-107.073232, 73.178046], [-107.039703, 73.178697], [-107.011383, 73.197089], [-107.128733, 73.244289], [-107.083404, 73.271064], [-107.087717, 73.285834], [-107.005198, 73.306342], [-106.957102, 73.298896], [-106.915761, 73.313178], [-106.873443, 73.315579], [-106.776723, 73.296942], [-106.675933, 73.22956], [-106.562978, 73.213121], [-106.54247, 73.220404], [-106.537831, 73.236721], [-106.504709, 73.234361], [-106.484446, 73.223822], [-106.470774, 73.189643], [-106.422963, 73.175238], [-106.405588, 73.154283], [-106.339833, 73.141832], [-106.268422, 73.114569], [-106.233998, 73.087226], [-106.008412, 73.049018], [-105.963002, 73.052476], [-105.928049, 73.065253], [-105.850087, 73.059963], [-105.829335, 73.051337], [-105.830719, 73.013332], [-105.819325, 73.004706], [-105.754058, 72.975898], [-105.606801, 72.9501], [-105.64094, 72.936428], [-105.565785, 72.908433], [-105.52481, 72.881171], [-105.558949, 72.867499], [-105.558949, 72.860663], [-105.463246, 72.846259], [-105.388987, 72.797919], [-105.367177, 72.792426], [-105.401275, 72.771308], [-105.332509, 72.751125], [-105.318756, 72.737779], [-105.381459, 72.730373], [-105.482249, 72.786322], [-105.510569, 72.778754], [-105.428619, 72.730373], [-105.456532, 72.70303], [-105.312489, 72.66706], [-105.289662, 72.654446], [-105.285268, 72.64525], [-105.293568, 72.638007], [-105.346669, 72.62051], [-105.315745, 72.597073], [-105.311106, 72.580634], [-105.318756, 72.559027], [-105.230621, 72.545356], [-105.243642, 72.532375], [-105.223215, 72.518052], [-105.248362, 72.500678], [-105.239613, 72.491929], [-105.195872, 72.483954], [-105.210561, 72.453315], [-105.283315, 72.463039], [-105.305084, 72.45661], [-105.209543, 72.381537], [-105.137807, 72.343655], [-105.121693, 72.305732], [-105.045033, 72.251166], [-105.013783, 72.214789], [-104.966298, 72.193549], [-104.962514, 72.162421], [-104.979888, 72.148139], [-105.025014, 72.133287], [-105.038889, 72.113959], [-105.012563, 72.096666], [-105.011301, 72.084377], [-105.024566, 72.072984], [-104.948842, 72.058783], [-104.925608, 72.024604], [-104.88565, 72.000881], [-104.831899, 71.931708], [-104.814605, 71.861884], [-104.78718, 71.844794], [-104.669504, 71.824042], [-104.654042, 71.812323], [-104.640492, 71.782457], [-104.583079, 71.759752], [-104.544789, 71.729804], [-104.524892, 71.696275], [-104.480377, 71.674506], [-104.380279, 71.600043], [-104.365346, 71.577216], [-104.370758, 71.557685], [-104.407582, 71.510688], [-104.371571, 71.481635], [-104.318837, 71.469713], [-104.345082, 71.421861], [-104.336252, 71.404527], [-104.282379, 71.363959], [-104.281321, 71.350246], [-104.304596, 71.345771], [-104.407582, 71.367336], [-104.463124, 71.3605], [-104.486969, 71.347602], [-104.496978, 71.325751], [-104.440541, 71.249091], [-104.459096, 71.212795], [-104.477406, 71.197659], [-104.544789, 71.16059], [-104.627431, 71.138617], [-104.647817, 71.119696], [-104.591176, 71.073188], [-104.304026, 70.972886], [-104.202504, 70.955268], [-104.105214, 70.898098], [-104.024037, 70.784491], [-103.998118, 70.761908], [-103.970123, 70.751044], [-103.878041, 70.750718], [-103.843373, 70.743109], [-103.647288, 70.660956], [-103.571848, 70.605536], [-103.537709, 70.599514], [-103.308461, 70.597968], [-103.272043, 70.59101], [-103.139312, 70.510565], [-102.966135, 70.493598], [-102.927846, 70.499091], [-102.9204, 70.517646], [-102.945953, 70.531643], [-103.030263, 70.537258], [-103.125234, 70.576077], [-103.141428, 70.631537], [-103.161244, 70.660956], [-103.131581, 70.682318], [-103.086903, 70.677476], [-102.989166, 70.651109], [-102.945912, 70.620551], [-102.859731, 70.596584], [-102.841949, 70.580634], [-102.838857, 70.559638], [-102.855865, 70.534654], [-102.851064, 70.516343], [-102.656565, 70.483629], [-102.620229, 70.464545], [-102.557973, 70.456122], [-102.489084, 70.435004], [-102.409291, 70.425523], [-102.24942, 70.372992], [-102.192209, 70.333441], [-102.170318, 70.331977], [-102.12621, 70.345038], [-102.094228, 70.324652], [-102.044057, 70.312161], [-101.952789, 70.269721], [-101.920155, 70.263739], [-101.852447, 70.261705], [-101.823354, 70.271959], [-101.811269, 70.301256], [-101.790273, 70.305569], [-101.692779, 70.308743], [-101.59496, 70.27733], [-101.584055, 70.272284], [-101.64391, 70.22484], [-101.64745, 70.204413], [-101.622222, 70.164374], [-101.582265, 70.132514], [-101.529449, 70.11286], [-101.502187, 70.126614], [-101.420481, 70.127509], [-101.400746, 70.134345], [-101.374257, 70.176907], [-101.332753, 70.171576], [-101.23941, 70.138007], [-101.143178, 70.160386], [-101.118398, 70.184272], [-101.126047, 70.195461], [-101.099233, 70.200507], [-101.022288, 70.186225], [-100.995717, 70.174954], [-100.976308, 70.147406], [-100.995717, 70.087836], [-100.926747, 70.01675], [-100.947255, 70.010484], [-100.94106760260726, 70.0], [-117.43101518707124, 70.0], [-117.414418, 70.015937]]], [[[-115.320546, 73.480658], [-115.401275, 73.467963], [-115.457753, 73.429877], [-115.537262, 73.424791], [-115.753774, 73.357489], [-116.218495, 73.284654], [-116.459055, 73.261176], [-116.503, 73.238023], [-116.712717, 73.201321], [-116.788808, 73.173651], [-116.851796, 73.166571], [-116.983225, 73.119696], [-117.147206, 73.093451], [-117.199941, 73.069525], [-117.390207, 73.055487], [-117.685292, 72.981147], [-117.761098, 72.971747], [-117.872874, 72.929633], [-117.988596, 72.904934], [-118.042144, 72.885891], [-118.238026, 72.857571], [-118.43106, 72.808498], [-118.521962, 72.757717], [-118.717641, 72.748765], [-118.767893, 72.739488], [-118.905385, 72.688707], [-119.163889, 72.629828], [-119.189809, 72.579047], [-119.181874, 72.53856], [-119.250722, 72.504381], [-119.246246, 72.485663], [-119.305328, 72.450385], [-119.326527, 72.408189], [-119.329579, 72.384467], [-119.304799, 72.370063], [-119.340159, 72.346747], [-119.436594, 72.318183], [-119.65099, 72.273871], [-119.805653, 72.223212], [-119.901845, 72.230658], [-119.975982, 72.224677], [-120.0, 72.22599555716242], [-120.0, 74.27127489894707], [-119.980865, 74.270331], [-119.859527, 74.236518], [-119.565582, 74.238959], [-119.5183, 74.231147], [-119.553782, 74.224189], [-119.628896, 74.231513], [-119.662221, 74.225002], [-119.64745, 74.195217], [-119.685048, 74.165717], [-119.817983, 74.104315], [-119.833608, 74.070746], [-119.822011, 74.055406], [-119.765248, 74.035346], [-119.736724, 74.033149], [-119.730133, 74.046454], [-119.757232, 74.077216], [-119.746938, 74.097317], [-119.722483, 74.110012], [-119.621205, 74.134345], [-119.579213, 74.155341], [-119.507436, 74.214097], [-119.479888, 74.226142], [-119.374257, 74.217475], [-119.237213, 74.227281], [-119.144358, 74.209052], [-119.124623, 74.20185], [-119.097971, 74.164293], [-119.100657, 74.152045], [-119.134674, 74.12873], [-119.076772, 74.11994], [-119.066396, 74.108303], [-119.069244, 74.090522], [-119.139638, 74.067694], [-119.18932, 73.992174], [-119.147817, 73.995266], [-119.068959, 74.018622], [-119.02481, 74.018866], [-118.982574, 74.00727], [-118.951894, 74.017564], [-118.877675, 74.077216], [-118.822092, 74.089911], [-118.805084, 74.101386], [-118.795522, 74.12759], [-118.873931, 74.162909], [-118.883168, 74.178697], [-118.859731, 74.190172], [-118.725413, 74.220771], [-118.40274, 74.256822], [-118.065989, 74.280707], [-117.416493, 74.232489], [-116.867014, 74.087551], [-116.386383, 73.901313], [-116.328969, 73.868842], [-116.245676, 73.86107], [-116.1822, 73.826483], [-115.97643, 73.765692], [-115.923004, 73.730048], [-115.735178, 73.683092], [-115.619049, 73.66885], [-115.58434, 73.641506], [-115.399403, 73.567043], [-115.356313, 73.541815], [-115.323638, 73.508694], [-115.320546, 73.480658]]], [[[-108.014027, 73.622382], [-107.848866, 73.633368], [-107.676178, 73.625434], [-107.579945, 73.600531], [-107.591868, 73.587226], [-107.628082, 73.573798], [-107.993967, 73.546576], [-108.026235, 73.553412], [-108.087636, 73.590644], [-108.014027, 73.622382]]], [[[-104.559804, 73.59516], [-104.500844, 73.567206], [-104.489573, 73.532294], [-104.517445, 73.512397], [-104.518381, 73.492906], [-104.579498, 73.449693], [-104.551625, 73.426459], [-104.586334, 73.385199], [-104.572662, 73.33218], [-104.59317, 73.313178], [-104.673695, 73.273017], [-104.749827, 73.217475], [-104.760081, 73.200426], [-104.736562, 73.189643], [-104.76183, 73.173], [-104.837758, 73.154934], [-104.924916, 73.10578], [-104.990387, 73.079779], [-104.981313, 73.035712], [-105.015777, 73.013861], [-105.120473, 72.987982], [-105.230621, 72.936428], [-105.329457, 72.959906], [-105.359731, 72.9501], [-105.304514, 72.932359], [-105.30012, 72.922187], [-105.333079, 72.915961], [-105.277821, 72.888617], [-105.203359, 72.867499], [-105.284983, 72.851386], [-105.298329, 72.853217], [-105.318756, 72.874986], [-105.387685, 72.867499], [-105.381459, 72.888617], [-105.446929, 72.904446], [-105.460317, 72.934068], [-105.485748, 72.955756], [-105.728831, 73.045844], [-105.826527, 73.111274], [-105.863393, 73.117336], [-105.915883, 73.141832], [-105.894154, 73.16234], [-105.949371, 73.16234], [-106.107655, 73.197089], [-106.045644, 73.210761], [-106.059234, 73.216986], [-106.045644, 73.223822], [-106.093984, 73.245307], [-106.158599, 73.26142], [-106.19579, 73.285834], [-106.120717, 73.29267], [-106.346588, 73.347317], [-106.349721, 73.360663], [-106.368153, 73.369045], [-106.42516, 73.378241], [-106.456451, 73.402533], [-106.508778, 73.41413], [-106.619049, 73.419867], [-106.790435, 73.468004], [-106.988759, 73.470364], [-107.039296, 73.484442], [-107.022613, 73.505561], [-106.961822, 73.546088], [-106.863393, 73.570258], [-106.827219, 73.587592], [-106.736969, 73.656236], [-106.671539, 73.690497], [-106.599599, 73.710639], [-105.720123, 73.735541], [-105.57665, 73.761786], [-105.381418, 73.770657], [-105.167144, 73.756659], [-105.103098, 73.745185], [-104.983632, 73.696723], [-104.864858, 73.670722], [-104.824574, 73.63817], [-104.680898, 73.629828], [-104.559804, 73.59516]]], [[[-100.035462, 71.867621], [-100.118633, 71.894232], [-100.143861, 71.924872], [-100.275697, 71.96662], [-100.353496, 72.024359], [-100.384909, 72.038886], [-100.378724, 72.038886], [-100.447002, 72.058783], [-100.430889, 72.064602], [-100.420269, 72.093492], [-100.444072, 72.100084], [-100.498394, 72.096666], [-100.515239, 72.120795], [-100.487936, 72.127631], [-100.56362, 72.141303], [-100.605205, 72.168158], [-100.625103, 72.168647], [-100.636537, 72.186469], [-100.799134, 72.21133], [-100.861309, 72.19595], [-100.896302, 72.209296], [-100.926738, 72.203355], [-100.913148, 72.189765], [-100.92979, 72.190863], [-100.967754, 72.175442], [-101.029196, 72.203355], [-101.034567, 72.219916], [-101.05711, 72.236884], [-101.023011, 72.251166], [-101.023011, 72.257392], [-101.069683, 72.257392], [-101.083843, 72.264228], [-101.035991, 72.277899], [-101.166973, 72.305732], [-101.216167, 72.334703], [-101.293275, 72.325426], [-101.356182, 72.305732], [-101.40322, 72.279283], [-101.399761, 72.251166], [-101.44863, 72.242133], [-101.495342, 72.251166], [-101.470684, 72.258734], [-101.47398, 72.272895], [-101.529115, 72.296129], [-101.602276, 72.311021], [-101.632468, 72.312649], [-101.695781, 72.291938], [-101.715069, 72.299547], [-101.707622, 72.305732], [-101.717632, 72.311428], [-101.782044, 72.308783], [-101.84015, 72.326483], [-101.879497, 72.357611], [-101.893169, 72.360419], [-101.872783, 72.38109], [-101.893169, 72.395168], [-101.77647, 72.395168], [-101.794251, 72.412055], [-101.919821, 72.408189], [-101.906231, 72.422512], [-101.961488, 72.470282], [-101.906231, 72.470282], [-101.933981, 72.486518], [-102.065329, 72.512356], [-102.139304, 72.541083], [-102.167542, 72.53856], [-102.155742, 72.530992], [-102.164206, 72.529039], [-102.194805, 72.532375], [-102.206198, 72.543443], [-102.256695, 72.547675], [-102.263083, 72.555609], [-102.34194, 72.579535], [-102.392803, 72.579535], [-102.413311, 72.600653], [-102.614238, 72.661322], [-102.74229, 72.730373], [-102.714987, 72.752021], [-102.750347, 72.763902], [-102.755962, 72.812323], [-102.732036, 72.832017], [-102.669292, 72.860663], [-102.602031, 72.912177], [-102.595521, 72.953518], [-102.567852, 72.994778], [-102.484763, 73.041246], [-102.39264, 73.047512], [-102.351909, 73.059963], [-102.392803, 73.066107], [-102.297588, 73.065334], [-102.269349, 73.072943], [-102.28294, 73.087226], [-102.206035, 73.078681], [-102.079977, 73.088202], [-102.046205, 73.080308], [-101.947816, 73.093451], [-101.981304, 73.066107], [-101.962871, 73.053656], [-101.906231, 73.059963], [-101.899273, 73.040839], [-101.866761, 73.022773], [-101.823141, 73.017727], [-101.773744, 73.024726], [-101.762839, 73.018988], [-101.789531, 72.984809], [-101.759339, 72.984849], [-101.734925, 72.970526], [-101.80125, 72.976874], [-101.817486, 72.970526], [-101.739238, 72.92768], [-101.628724, 72.89232], [-101.612041, 72.901679], [-101.617819, 72.912055], [-101.597881, 72.922268], [-101.567852, 72.927314], [-101.543763, 72.922105], [-101.598369, 72.908433], [-101.522279, 72.880805], [-101.463482, 72.830797], [-101.455466, 72.817694], [-101.468609, 72.806098], [-101.397279, 72.783433], [-101.355083, 72.77851], [-101.324037, 72.78559], [-101.364971, 72.806098], [-101.340557, 72.806138], [-101.276836, 72.778754], [-101.311097, 72.747707], [-101.330873, 72.744574], [-101.368714, 72.758246], [-101.413392, 72.752021], [-101.333558, 72.724799], [-101.134421, 72.711615], [-101.056011, 72.690863], [-101.00348, 72.703681], [-100.947246, 72.689399], [-100.874614, 72.696194], [-100.810121, 72.724107], [-100.872173, 72.737779], [-100.872173, 72.744574], [-100.856263, 72.746894], [-100.857891, 72.758246], [-100.836081, 72.764146], [-100.755759, 72.750393], [-100.590964, 72.758734], [-100.496441, 72.752143], [-100.487936, 72.744574], [-100.481751, 72.752021], [-100.448345, 72.738105], [-100.348003, 72.776557], [-100.329245, 72.786933], [-100.316631, 72.806098], [-100.333395, 72.850165], [-100.420269, 72.874986], [-100.393047, 72.891791], [-100.396628, 72.902818], [-100.447002, 72.922105], [-100.392396, 72.9501], [-100.48521, 72.953803], [-100.502259, 72.96369], [-100.447002, 73.004706], [-100.467429, 73.018988], [-100.436911, 73.033677], [-100.405986, 73.03266], [-100.420269, 73.039496], [-100.383444, 73.027655], [-100.35138, 73.052476], [-100.310405, 73.03266], [-100.359356, 73.011786], [-100.405986, 73.018988], [-100.38141, 73.00967], [-100.414694, 72.987494], [-100.416566, 72.978339], [-100.373028, 72.951361], [-100.312236, 72.937974], [-100.282533, 72.936428], [-100.306296, 72.950629], [-100.293804, 72.962307], [-100.268779, 72.960028], [-100.255189, 72.933051], [-100.264995, 72.922838], [-100.312643, 72.918769], [-100.329693, 72.908433], [-100.326966, 72.884345], [-100.30479, 72.874986], [-100.200542, 72.881171], [-100.135316, 72.896186], [-100.071758, 72.888577], [-100.064352, 72.901028], [-100.088441, 72.919013], [-100.069072, 72.93244], [-100.035462, 72.936428], [-100.035462, 72.943834], [-100.05597, 72.9501], [-100.049704, 72.96369], [-100.180075, 72.991034], [-100.169292, 73.003811], [-100.111187, 72.998481], [-100.128032, 73.015367], [-100.111187, 73.03266], [-100.152162, 73.03266], [-100.131695, 73.046291], [-100.227886, 73.052476], [-100.173239, 73.079779], [-100.207826, 73.09809], [-100.289206, 73.092231], [-100.323467, 73.100898], [-100.262025, 73.114569], [-100.296123, 73.121405], [-100.279766, 73.127387], [-100.227886, 73.134426], [-100.314922, 73.14175], [-100.363628, 73.133938], [-100.44041, 73.102362], [-100.458355, 73.086168], [-100.529522, 73.093451], [-100.519349, 73.116034], [-100.545757, 73.130805], [-100.611472, 73.148098], [-100.577292, 73.179389], [-100.522075, 73.182807], [-100.522686, 73.191474], [-100.467429, 73.203315], [-100.509828, 73.219794], [-100.556255, 73.223822], [-100.556255, 73.231269], [-100.447002, 73.244289], [-100.453757, 73.25788], [-100.381328, 73.290351], [-100.35138, 73.29267], [-100.365052, 73.285834], [-100.356548, 73.273993], [-100.292298, 73.28498], [-100.199525, 73.24018], [-100.104351, 73.244289], [-100.13853, 73.223822], [-100.038677, 73.193671], [-100.0, 73.19392002018994], [-100.0, 71.86592583925868], [-100.035462, 71.867621]]], [[[-100.05357, 73.245185], [-100.159567, 73.29267], [-100.206768, 73.333686], [-100.362896, 73.399604], [-100.393128, 73.394517], [-100.378724, 73.381496], [-100.405986, 73.367825], [-100.388653, 73.340522], [-100.337139, 73.326239], [-100.477642, 73.32331], [-100.658062, 73.281073], [-100.857891, 73.262844], [-100.97402, 73.281968], [-101.031597, 73.302436], [-101.04238, 73.311265], [-101.029196, 73.326239], [-101.066794, 73.325019], [-101.288962, 73.360053], [-101.31777, 73.374661], [-101.314841, 73.400458], [-101.349834, 73.412421], [-101.430482, 73.415595], [-101.485088, 73.443549], [-101.563213, 73.44953], [-101.584697, 73.45718], [-101.550599, 73.45718], [-101.561585, 73.468573], [-101.625632, 73.49136], [-101.531597, 73.495551], [-101.470358, 73.540839], [-101.437155, 73.553412], [-101.378643, 73.559556], [-101.303529, 73.552232], [-101.26939, 73.560045], [-101.255108, 73.590644], [-101.229839, 73.606147], [-100.978008, 73.594387], [-100.91856, 73.602973], [-100.885235, 73.59394], [-100.844829, 73.567043], [-100.769146, 73.545885], [-100.721335, 73.512397], [-100.693991, 73.477688], [-100.654278, 73.461493], [-100.557679, 73.453559], [-100.522075, 73.436103], [-100.517681, 73.423163], [-100.481426, 73.411566], [-100.440044, 73.408108], [-100.420269, 73.419257], [-100.439312, 73.439521], [-100.482647, 73.458319], [-100.589214, 73.483791], [-100.60431, 73.498765], [-100.60313, 73.517808], [-100.543194, 73.567043], [-100.553773, 73.588813], [-100.549419, 73.600531], [-100.647808, 73.600735], [-100.691468, 73.624416], [-100.7311, 73.619208], [-100.760723, 73.605048], [-100.874736, 73.618638], [-100.913148, 73.635321], [-100.877259, 73.642727], [-100.857891, 73.66885], [-101.047914, 73.682563], [-101.057232, 73.69599], [-101.046001, 73.707994], [-101.016175, 73.710395], [-101.016175, 73.717231], [-101.06362, 73.731513], [-101.118552, 73.724066], [-101.095033, 73.742499], [-101.011862, 73.754136], [-100.981426, 73.772528], [-101.029196, 73.778713], [-101.004945, 73.802395], [-100.968161, 73.812486], [-100.885845, 73.814032], [-100.885845, 73.832099], [-100.758281, 73.814399], [-100.7228, 73.817369], [-100.672181, 73.847357], [-100.641419, 73.854315], [-100.414938, 73.843655], [-100.302715, 73.809516], [-100.17271, 73.799994], [-100.069927, 73.773017], [-100.055726, 73.754055], [-100.023296, 73.737779], [-100.014019, 73.743313], [-100.015728, 73.754869], [-100.029278, 73.765611], [-100.0, 73.78185482156121], [-100.0, 73.23199323421969], [-100.05357, 73.245185]]], [[[-100.029278, 73.841376], [-100.08604, 73.831773], [-100.262025, 73.841376], [-100.247702, 73.855048], [-100.302959, 73.861233], [-100.278667, 73.889553], [-100.249248, 73.908759], [-100.115541, 73.94009], [-100.001323, 73.950019], [-100.0, 73.94993198927536], [-100.0, 73.8562050056386], [-100.029278, 73.841376]]], [[[-103.585805, 75.177151], [-103.604115, 75.155463], [-103.642242, 75.135728], [-103.762685, 75.090644], [-103.867258, 75.064439], [-104.163645, 75.037258], [-104.229482, 75.018866], [-104.595855, 75.049465], [-104.705556, 75.069037], [-104.788564, 75.09809], [-104.906484, 75.124091], [-104.929555, 75.141099], [-104.909291, 75.158393], [-104.814361, 75.182318], [-104.778147, 75.225531], [-104.750234, 75.2355], [-104.744008, 75.252183], [-104.688791, 75.266506], [-104.77066, 75.279527], [-104.77066, 75.287014], [-104.714915, 75.304592], [-104.72289, 75.314276], [-104.70226, 75.333157], [-104.481801, 75.414944], [-104.403228, 75.432603], [-104.13093, 75.435614], [-104.072418, 75.416693], [-103.968821, 75.409857], [-103.893666, 75.375678], [-103.820546, 75.366685], [-103.804921, 75.355211], [-103.811431, 75.336982], [-103.745229, 75.287909], [-103.746938, 75.239244], [-103.667104, 75.218004], [-103.667104, 75.205024], [-103.585805, 75.177151]]], [[[-102.865834, 75.759955], [-102.894643, 75.750881], [-103.327463, 75.750881], [-103.386586, 75.766099], [-103.271108, 75.792385], [-103.249379, 75.807074], [-103.310862, 75.807074], [-103.254058, 75.829657], [-103.18517, 75.837063], [-103.051381, 75.834418], [-103.137278, 75.85106], [-103.133372, 75.869818], [-103.109934, 75.886298], [-103.044911, 75.906155], [-102.490102, 75.969306], [-102.406117, 75.96898], [-102.21467, 75.992662], [-102.070709, 75.972235], [-102.086252, 75.958808], [-101.981313, 75.951728], [-101.988759, 75.937445], [-102.093373, 75.915351], [-102.388661, 75.890367], [-102.441274, 75.869818], [-102.475413, 75.821357], [-102.504506, 75.799058], [-102.604807, 75.77261], [-102.667144, 75.766099], [-102.731516, 75.778062], [-102.728627, 75.759955], [-102.768056, 75.758287], [-102.804351, 75.766099], [-102.796946, 75.773586], [-102.87328, 75.766099], [-102.865834, 75.759955]]], [[[-103.69164, 75.888983], [-103.801503, 75.903266], [-103.914174, 75.903266], [-103.931508, 75.927191], [-103.976226, 75.944281], [-103.821034, 75.947984], [-103.725453, 75.978339], [-103.497914, 75.982367], [-103.318918, 76.022854], [-103.206776, 76.023668], [-103.113026, 76.05036], [-103.029652, 76.047309], [-102.443837, 76.089911], [-102.351918, 76.075263], [-102.327992, 76.065416], [-102.318512, 76.044135], [-102.326812, 76.022773], [-102.355946, 76.013129], [-103.69164, 75.888983]]], [[[-117.839345, 75.855536], [-117.818227, 75.841864], [-117.894602, 75.821357], [-117.887074, 75.814521], [-117.89977, 75.804511], [-117.941721, 75.787258], [-117.951487, 75.774482], [-117.935455, 75.734687], [-117.973297, 75.73017], [-118.27066, 75.615912], [-118.202382, 75.60163], [-118.252512, 75.595649], [-118.613922, 75.50373], [-118.707875, 75.508246], [-118.795033, 75.530829], [-118.94164, 75.533393], [-118.930491, 75.545478], [-118.873931, 75.5539], [-118.936513, 75.56269], [-119.010732, 75.555569], [-119.093251, 75.572943], [-119.198354, 75.564399], [-119.409047, 75.60163], [-119.401601, 75.615912], [-119.409047, 75.615912], [-119.332102, 75.660793], [-119.052561, 75.751654], [-118.992055, 75.761542], [-118.921783, 75.804023], [-118.84203, 75.835395], [-118.757314, 75.84809], [-118.741282, 75.873969], [-118.621205, 75.922065], [-118.319081, 75.972235], [-118.174469, 75.972235], [-118.140777, 75.988227], [-118.116444, 76.016913], [-118.087066, 76.035468], [-118.019928, 76.038886], [-117.887074, 76.067776], [-117.894602, 76.081488], [-117.798695, 76.11164], [-117.659739, 76.125881], [-117.626373, 76.115627], [-117.542348, 76.10932], [-117.462514, 76.088284], [-117.482086, 76.081855], [-117.519276, 76.03148], [-117.578603, 76.006334], [-117.574045, 75.990302], [-117.584096, 75.978339], [-117.68102, 75.923774], [-117.784739, 75.89647], [-117.839345, 75.855536]]], [[[-103.944325, 76.040758], [-103.873158, 76.054145], [-104.065419, 76.067328], [-104.08609, 76.061591], [-104.078603, 76.054145], [-104.367747, 76.076361], [-104.410878, 76.089667], [-104.478139, 76.14704], [-104.444325, 76.17182], [-104.342275, 76.183051], [-104.327463, 76.206977], [-104.312001, 76.212388], [-104.202545, 76.225409], [-104.129547, 76.21955], [-103.911773, 76.244127], [-103.857086, 76.256903], [-103.589589, 76.259019], [-103.446929, 76.278144], [-102.726633, 76.315619], [-102.653554, 76.294338], [-102.625803, 76.258002], [-102.541575, 76.23135], [-102.540354, 76.219713], [-102.585276, 76.184475], [-102.530629, 76.157172], [-102.62621, 76.157172], [-102.612538, 76.1435], [-102.683013, 76.117011], [-102.837636, 76.080634], [-103.243235, 76.047309], [-103.236399, 76.047309], [-103.811431, 76.033637], [-103.944325, 76.040758]]], [[[-104.463938, 76.498603], [-104.525461, 76.483222], [-104.572092, 76.492336], [-104.565907, 76.499742], [-104.59317, 76.520209], [-104.565907, 76.527086], [-104.588368, 76.539537], [-104.668284, 76.554999], [-104.640981, 76.581732], [-104.681304, 76.6022], [-104.652008, 76.602037], [-104.352406, 76.663316], [-104.024648, 76.670478], [-103.966868, 76.661689], [-103.924713, 76.640082], [-103.935618, 76.622016], [-104.058176, 76.568061], [-104.024485, 76.562079], [-103.945465, 76.577338], [-103.882965, 76.577867], [-103.853424, 76.610297], [-103.825347, 76.622707], [-103.796132, 76.623114], [-103.677968, 76.577135], [-103.557932, 76.568061], [-103.59081, 76.546698], [-103.59203, 76.533352], [-103.579742, 76.526842], [-103.387359, 76.496649], [-103.249379, 76.506578], [-103.244252, 76.478583], [-103.234242, 76.473619], [-103.070058, 76.464586], [-103.020741, 76.4501], [-103.010406, 76.423489], [-103.336252, 76.331732], [-103.88036, 76.316962], [-103.949859, 76.326361], [-104.377675, 76.324856], [-104.407582, 76.335273], [-104.345693, 76.357489], [-104.333119, 76.369452], [-104.366607, 76.389879], [-104.462229, 76.396715], [-104.403676, 76.420722], [-104.386383, 76.442328], [-104.39802, 76.468736], [-104.463938, 76.498603]]], [[[-100.33019, 75.014065], [-100.368764, 75.023098], [-100.392405, 75.039944], [-100.397939, 75.058824], [-100.384918, 75.104804], [-100.387563, 75.120592], [-100.433339, 75.149807], [-100.398549, 75.156643], [-100.398549, 75.163398], [-100.454091, 75.181464], [-100.515045, 75.187079], [-100.549428, 75.205024], [-100.488149, 75.227118], [-100.416493, 75.234565], [-100.017486, 75.229315], [-100.0, 75.23464536890523], [-100.0, 74.99572014673454], [-100.33019, 75.014065]]], [[[-100.009145, 75.246975], [-100.252268, 75.263007], [-100.353749, 75.256822], [-100.405995, 75.273342], [-100.279449, 75.289008], [-100.247711, 75.314276], [-100.502919, 75.292629], [-100.782135, 75.355211], [-100.649241, 75.38345], [-100.604644, 75.375678], [-100.700266, 75.362047], [-100.624176, 75.349351], [-100.585561, 75.352688], [-100.576731, 75.368883], [-100.499013, 75.366767], [-100.426503, 75.382514], [-100.516591, 75.394599], [-100.535756, 75.409857], [-100.522084, 75.409857], [-100.568471, 75.427069], [-100.721344, 75.430365], [-100.721344, 75.43773], [-100.041168, 75.457221], [-100.008778, 75.47134], [-100.310414, 75.478746], [-100.22289, 75.489732], [-100.039174, 75.480211], [-100.0, 75.488901697909], [-100.0, 75.2435057359131], [-100.009145, 75.246975]]], [[[-100.282541, 75.519721], [-100.282541, 75.527167], [-100.0, 75.53997063895659], [-100.0, 75.50211006197799], [-100.282541, 75.519721]]], [[[-100.042307, 75.5539], [-100.042307, 75.560696], [-100.0, 75.56500699787964], [-100.0, 75.55141255171144], [-100.042307, 75.5539]]], [[[-100.223256, 75.666693], [-100.274241, 75.651597], [-100.354482, 75.656236], [-100.479237, 75.641913], [-100.553456, 75.650092], [-101.062164, 75.615302], [-101.117299, 75.601142], [-101.229482, 75.588039], [-101.28954, 75.59162], [-101.361155, 75.578315], [-101.392323, 75.588609], [-101.371816, 75.594794], [-101.406158, 75.606838], [-101.449371, 75.607652], [-102.063791, 75.547675], [-102.207875, 75.5539], [-102.400299, 75.540229], [-102.633412, 75.498114], [-102.667877, 75.504136], [-102.667144, 75.527167], [-102.685862, 75.536689], [-102.776112, 75.544989], [-102.728627, 75.574368], [-102.7565, 75.585761], [-102.846832, 75.59984], [-102.881663, 75.617825], [-102.821401, 75.637397], [-102.735951, 75.617011], [-102.633046, 75.615912], [-102.64509, 75.627021], [-102.701975, 75.63581], [-102.667144, 75.650092], [-102.687652, 75.677965], [-102.530629, 75.698472], [-102.556304, 75.710028], [-102.585276, 75.711493], [-102.561879, 75.725531], [-102.246734, 75.724433], [-102.106068, 75.697984], [-102.009267, 75.704657], [-102.009267, 75.711493], [-102.092397, 75.703518], [-102.11913, 75.711493], [-102.091176, 75.71894], [-102.117299, 75.737494], [-102.205434, 75.737128], [-102.235829, 75.745673], [-102.222727, 75.758205], [-102.091176, 75.787258], [-102.118967, 75.799506], [-102.325836, 75.783759], [-102.345693, 75.787258], [-102.374135, 75.810492], [-102.344146, 75.837592], [-102.262278, 75.869818], [-101.832997, 75.905829], [-101.804799, 75.895494], [-101.781606, 75.874213], [-101.707631, 75.855536], [-101.492787, 75.814439], [-101.454416, 75.814521], [-101.468617, 75.80093], [-101.463206, 75.786607], [-101.474843, 75.773586], [-101.445912, 75.764106], [-101.275787, 75.745673], [-101.227854, 75.766099], [-101.151112, 75.783596], [-100.988149, 75.790676], [-100.913157, 75.814521], [-101.049672, 75.807074], [-101.029205, 75.80093], [-101.064443, 75.790351], [-101.148834, 75.789862], [-101.228993, 75.778388], [-101.358754, 75.779731], [-101.327463, 75.817939], [-101.371816, 75.851793], [-101.414947, 75.862372], [-101.507436, 75.857082], [-101.550608, 75.869818], [-101.544545, 75.885077], [-101.553212, 75.897366], [-101.584706, 75.913886], [-101.589467, 75.924506], [-101.487131, 75.959174], [-101.399159, 75.975287], [-101.367096, 75.996243], [-101.327016, 76.004788], [-101.303538, 76.020657], [-101.343861, 76.021226], [-101.413564, 76.003607], [-101.70995, 75.989691], [-101.779937, 76.002672], [-101.843821, 76.027004], [-101.896311, 76.064683], [-101.908844, 76.087226], [-101.902903, 76.105902], [-101.865224, 76.132636], [-101.78954, 76.157172], [-101.74234, 76.184475], [-101.543568, 76.210435], [-101.385487, 76.253363], [-101.786733, 76.218573], [-101.849924, 76.229641], [-102.102773, 76.220771], [-102.167551, 76.239081], [-102.067006, 76.258612], [-102.057688, 76.280015], [-102.07787, 76.293769], [-102.194814, 76.294338], [-102.052113, 76.323065], [-102.049957, 76.329779], [-102.098622, 76.349026], [-101.985504, 76.35578], [-101.954661, 76.369452], [-102.034576, 76.384263], [-102.057688, 76.396715], [-102.035146, 76.412787], [-101.942372, 76.42536], [-101.811269, 76.458808], [-101.413401, 76.43769], [-101.371816, 76.419745], [-101.321645, 76.414537], [-101.215728, 76.370551], [-101.086171, 76.341986], [-101.057118, 76.328437], [-101.091176, 76.311225], [-101.098053, 76.300523], [-101.090647, 76.300523], [-101.127675, 76.260321], [-101.132069, 76.245185], [-100.960764, 76.231838], [-100.846262, 76.210598], [-100.717152, 76.174018], [-100.686594, 76.149726], [-100.634145, 76.136664], [-100.625111, 76.122992], [-100.7412, 76.095689], [-100.420277, 76.122992], [-100.455637, 76.101549], [-100.625111, 76.088284], [-100.625111, 76.081488], [-100.353912, 76.065579], [-100.205922, 75.99433], [-100.167795, 75.963446], [-100.070221, 75.951728], [-100.08259, 75.935533], [-100.15217, 75.916938], [-100.099273, 75.90941], [-100.0, 75.92659065892609], [-100.0, 75.67733008773718], [-100.223256, 75.666693]]], [[[-100.035471, 76.013129], [-100.010325, 76.022366], [-100.0, 76.03417690245752], [-100.0, 76.01106604353743], [-100.035471, 76.013129]]], [[[-100.06017, 76.042548], [-100.08373, 76.052639], [-100.10436, 76.075263], [-100.116607, 76.103705], [-100.221059, 76.136054], [-100.118642, 76.136054], [-100.124867, 76.149726], [-100.083852, 76.160549], [-100.0, 76.14958006131312], [-100.0, 76.04064690139172], [-100.06017, 76.042548]]], [[[-100.168691, 76.190416], [-100.478749, 76.233832], [-100.510976, 76.249945], [-100.495107, 76.270168], [-100.444569, 76.283759], [-100.077056, 76.273261], [-100.077056, 76.280015], [-100.131703, 76.286851], [-100.124867, 76.294338], [-100.214223, 76.30801], [-100.17809, 76.317572], [-100.0631, 76.286851], [-100.0, 76.28308029853495], [-100.0, 76.20449968751146], [-100.168691, 76.190416]]], [[[-100.02184, 76.30801], [-100.0, 76.31128516062797], [-100.0, 76.30006189599904], [-100.02184, 76.30801]]], [[[-100.063385, 76.328437], [-100.180084, 76.363227], [-100.138539, 76.383124], [-100.247711, 76.369452], [-100.32136, 76.388983], [-100.675282, 76.381049], [-100.963043, 76.480292], [-100.988189, 76.506578], [-100.731597, 76.531968], [-100.700266, 76.540717], [-100.71817, 76.547187], [-100.728139, 76.561225], [-100.33259, 76.644721], [-100.269643, 76.649563], [-100.0, 76.62401770406254], [-100.0, 76.32939149192507], [-100.063385, 76.328437]]], [[[-101.338124, 76.561225], [-101.687123, 76.588568], [-101.598378, 76.6022], [-101.530344, 76.62816], [-101.433461, 76.641669], [-101.242747, 76.646552], [-101.192128, 76.655829], [-101.137563, 76.684027], [-101.050526, 76.691107], [-101.032541, 76.714545], [-100.972483, 76.735541], [-100.628529, 76.759833], [-100.247711, 76.739407], [-100.333485, 76.714545], [-101.159739, 76.581732], [-101.338124, 76.561225]]], [[[-105.389963, 75.653388], [-105.395131, 75.643256], [-105.410064, 75.631171], [-105.463368, 75.615912], [-105.493642, 75.565497], [-105.518056, 75.5539], [-105.589711, 75.550116], [-105.68932, 75.527167], [-105.68932, 75.519721], [-105.661366, 75.506741], [-105.750803, 75.492377], [-105.715077, 75.484117], [-105.619862, 75.481269], [-105.593129, 75.465074], [-105.66161, 75.432318], [-105.709055, 75.419745], [-105.70873, 75.410386], [-105.655344, 75.37759], [-105.652455, 75.368476], [-105.661366, 75.355211], [-105.721832, 75.337836], [-105.716664, 75.327867], [-105.735585, 75.314032], [-105.812245, 75.299994], [-105.884511, 75.266506], [-105.939443, 75.214667], [-105.839508, 75.183295], [-105.888499, 75.166897], [-105.884511, 75.153225], [-105.891591, 75.145697], [-106.010406, 75.134182], [-106.047109, 75.124091], [-106.073801, 75.10456], [-106.079172, 75.092963], [-106.003326, 75.073676], [-105.997792, 75.06037], [-106.008901, 75.056627], [-106.760243, 75.002997], [-106.786041, 74.985297], [-107.005198, 74.923814], [-107.231028, 74.920111], [-107.314198, 74.933783], [-107.512603, 74.943427], [-107.686269, 74.982245], [-107.689809, 74.998969], [-107.724517, 75.022528], [-107.71817, 75.031968], [-107.690012, 75.0397], [-107.683583, 75.050482], [-107.692535, 75.075873], [-107.714833, 75.091986], [-107.771718, 75.101386], [-107.786, 75.09516], [-107.765533, 75.087714], [-107.773183, 75.075385], [-107.74356, 75.05272], [-107.773915, 75.03441], [-107.853912, 75.013739], [-107.936838, 75.005805], [-107.916371, 75.012641], [-107.954579, 75.021064], [-107.991444, 75.012641], [-107.997222, 75.000678], [-107.964752, 74.98843], [-107.947133, 74.972113], [-108.018788, 74.950588], [-107.944244, 74.936916], [-107.971588, 74.929429], [-108.056956, 74.936916], [-108.416615, 74.91706], [-108.539906, 74.94123], [-108.568471, 74.960517], [-108.807037, 74.985297], [-108.807037, 74.991523], [-108.512196, 74.978461], [-108.546864, 75.012681], [-108.596547, 75.038479], [-108.652089, 75.054755], [-108.824208, 75.071519], [-108.944203, 75.04678], [-108.971547, 75.018866], [-108.937367, 75.005805], [-109.033599, 75.005805], [-108.992584, 74.991523], [-109.075307, 74.988674], [-109.357167, 74.946723], [-109.400746, 74.923489], [-109.410308, 74.909613], [-109.389882, 74.903388], [-109.427602, 74.899644], [-109.532338, 74.867011], [-109.581939, 74.85814], [-109.88386, 74.870551], [-109.997955, 74.854193], [-110.069814, 74.823635], [-110.088206, 74.827623], [-110.081899, 74.834418], [-110.088206, 74.840725], [-110.154937, 74.827867], [-110.307851, 74.8522], [-110.37678, 74.840725], [-110.356313, 74.834418], [-110.410878, 74.827623], [-110.410878, 74.820787], [-110.314687, 74.807196], [-110.343984, 74.796576], [-110.603342, 74.786078], [-110.666127, 74.791327], [-110.670969, 74.773017], [-110.658559, 74.759182], [-110.589019, 74.725287], [-110.61677, 74.705308], [-110.774037, 74.683661], [-110.836049, 74.656317], [-110.950022, 74.646389], [-110.979482, 74.622219], [-111.000966, 74.61636], [-111.075022, 74.615424], [-111.156972, 74.594224], [-111.228424, 74.594062], [-111.322499, 74.560736], [-111.411041, 74.569892], [-111.574208, 74.531968], [-111.657541, 74.501207], [-112.239003, 74.448391], [-112.308949, 74.430365], [-112.437408, 74.41352], [-112.634877, 74.413153], [-113.023793, 74.395941], [-113.452707, 74.418891], [-113.693023, 74.444485], [-113.765614, 74.471137], [-114.173492, 74.566962], [-114.166086, 74.574408], [-114.192942, 74.575832], [-114.392323, 74.639309], [-114.430776, 74.657904], [-114.440663, 74.668769], [-114.439809, 74.683661], [-114.422353, 74.703111], [-114.395009, 74.714667], [-114.309926, 74.732123], [-114.234364, 74.758734], [-113.971913, 74.807603], [-113.829498, 74.814032], [-113.751861, 74.834296], [-113.62682, 74.84276], [-113.495595, 74.839179], [-113.421376, 74.856757], [-113.336171, 74.862372], [-113.2176, 74.845893], [-113.19286, 74.862372], [-113.329986, 74.88288], [-113.186025, 74.895941], [-113.166127, 74.91706], [-113.110951, 74.941718], [-112.797841, 74.985053], [-112.697825, 74.979315], [-112.549143, 74.999335], [-112.063059, 75.007961], [-111.777089, 74.985053], [-111.671254, 75.003974], [-111.585805, 75.006415], [-111.479726, 75.04678], [-111.504872, 75.058743], [-111.55484, 75.047675], [-111.575917, 75.06037], [-111.542958, 75.072903], [-111.441884, 75.06037], [-111.287953, 75.087714], [-111.322987, 75.105129], [-111.363637, 75.108222], [-111.339508, 75.115668], [-111.266835, 75.108222], [-111.259999, 75.122504], [-111.151601, 75.138251], [-111.027903, 75.177151], [-111.068837, 75.190741], [-111.021596, 75.202338], [-111.006744, 75.211249], [-111.01358, 75.218004], [-110.936757, 75.222846], [-110.91804, 75.232367], [-110.924306, 75.242865], [-110.950754, 75.251614], [-111.102691, 75.273342], [-111.24352, 75.266506], [-111.287953, 75.221829], [-111.372182, 75.187242], [-111.488759, 75.165025], [-111.599233, 75.170966], [-111.624338, 75.163398], [-111.561635, 75.149807], [-111.678334, 75.149807], [-111.753489, 75.190741], [-111.923451, 75.13642], [-112.059153, 75.149807], [-112.214589, 75.127997], [-112.346059, 75.121527], [-112.418202, 75.128241], [-112.473459, 75.149807], [-112.42927, 75.164984], [-112.361643, 75.173896], [-112.295277, 75.205024], [-112.39151, 75.211249], [-112.39151, 75.218004], [-112.336903, 75.225531], [-112.404897, 75.246039], [-112.461415, 75.222805], [-112.466624, 75.211249], [-112.438873, 75.205146], [-112.432485, 75.197577], [-112.43635, 75.187323], [-112.589508, 75.183295], [-112.619496, 75.191881], [-112.637929, 75.208157], [-112.632436, 75.219468], [-112.593251, 75.2355], [-112.595204, 75.249905], [-112.621327, 75.264594], [-112.678863, 75.279527], [-112.665191, 75.266506], [-112.699778, 75.261949], [-112.715199, 75.249416], [-112.740956, 75.205024], [-112.695953, 75.180243], [-112.699371, 75.14232], [-112.730092, 75.141547], [-112.857086, 75.109849], [-113.054596, 75.097398], [-113.083608, 75.108222], [-113.138173, 75.149807], [-113.17984, 75.094631], [-113.206451, 75.087714], [-113.349721, 75.080634], [-113.446929, 75.08515], [-113.621653, 75.067288], [-113.645985, 75.07099], [-113.665842, 75.06037], [-113.886627, 75.058173], [-113.957631, 75.074449], [-113.953765, 75.122504], [-113.929026, 75.144273], [-113.645334, 75.190741], [-113.679799, 75.198798], [-113.717193, 75.197008], [-113.866119, 75.168606], [-113.90685, 75.168647], [-113.939524, 75.183295], [-113.812978, 75.32392], [-113.784291, 75.339667], [-113.601389, 75.365383], [-113.53067, 75.387274], [-113.37564, 75.416449], [-113.32315, 75.416693], [-113.32315, 75.42414], [-113.345448, 75.416693], [-113.419586, 75.42414], [-113.461537, 75.418687], [-113.476308, 75.421861], [-113.473988, 75.43773], [-113.518219, 75.419257], [-113.873931, 75.373765], [-113.898549, 75.375678], [-113.966705, 75.4289], [-114.035512, 75.465766], [-114.070668, 75.474921], [-114.090932, 75.458319], [-114.07608, 75.454332], [-114.090932, 75.42414], [-114.088531, 75.40884], [-114.05309, 75.385932], [-114.046457, 75.366441], [-114.12678, 75.264716], [-114.155832, 75.242255], [-114.19579, 75.225165], [-114.252675, 75.226752], [-114.309885, 75.240424], [-114.350982, 75.25967], [-114.350982, 75.279527], [-114.361928, 75.284857], [-114.494374, 75.303697], [-114.51122, 75.316962], [-114.549306, 75.311998], [-114.615142, 75.283271], [-114.6162, 75.273098], [-114.601674, 75.268297], [-114.546986, 75.273424], [-114.425893, 75.258368], [-114.409413, 75.249091], [-114.385162, 75.218004], [-114.303293, 75.181789], [-114.310048, 75.156643], [-114.329986, 75.137926], [-114.440826, 75.067939], [-114.958485, 74.970526], [-115.057688, 74.966742], [-115.154775, 74.983547], [-115.195953, 75.002427], [-115.225168, 75.068549], [-115.214996, 75.081488], [-115.173411, 75.099514], [-115.203847, 75.151028], [-115.233266, 75.17357], [-115.262807, 75.183295], [-115.254872, 75.165839], [-115.274037, 75.1494], [-115.405751, 75.102932], [-115.448069, 75.100246], [-115.524159, 75.125067], [-115.653432, 75.151435], [-115.666575, 75.148505], [-115.668202, 75.140448], [-115.652659, 75.12873], [-115.591176, 75.115627], [-115.605946, 75.105048], [-115.53718, 75.039944], [-115.543365, 75.039944], [-115.550282, 75.016059], [-115.58434, 74.995429], [-115.660064, 74.972235], [-115.715443, 74.970364], [-115.927235, 74.99787], [-116.025502, 75.026068], [-116.166412, 75.040188], [-116.25593, 75.06037], [-116.25593, 75.067288], [-116.084462, 75.0987], [-116.043691, 75.12873], [-116.269683, 75.100491], [-116.308502, 75.102607], [-116.33849, 75.115627], [-116.249664, 75.162421], [-116.244049, 75.208075], [-116.2565, 75.211249], [-116.46703, 75.184394], [-116.545481, 75.185248], [-116.612213, 75.163398], [-116.66804, 75.127183], [-116.767242, 75.122219], [-116.893951, 75.14232], [-116.951487, 75.161851], [-116.988678, 75.149604], [-117.017161, 75.149482], [-117.510081, 75.201117], [-117.646311, 75.236477], [-117.688466, 75.25967], [-117.653717, 75.279527], [-117.674875, 75.293158], [-117.651438, 75.305732], [-117.558176, 75.314276], [-117.576731, 75.336615], [-117.554311, 75.358059], [-117.30427, 75.458319], [-117.202219, 75.48078], [-116.447499, 75.477484], [-116.369211, 75.489163], [-116.149526, 75.4772], [-116.0419, 75.484809], [-115.589711, 75.587958], [-115.262807, 75.60163], [-115.284413, 75.619696], [-115.283518, 75.627143], [-115.254872, 75.649237], [-115.112131, 75.6883], [-115.002105, 75.698472], [-115.052235, 75.710273], [-115.372222, 75.66059], [-115.697499, 75.645819], [-115.77477, 75.627021], [-115.982737, 75.611396], [-116.115631, 75.577786], [-117.198313, 75.575507], [-117.239003, 75.582709], [-117.249013, 75.609076], [-117.228017, 75.63349], [-116.965647, 75.761379], [-116.885365, 75.789008], [-115.800649, 75.834418], [-115.762318, 75.861762], [-115.578114, 75.834418], [-114.874989, 75.867377], [-114.827382, 75.879381], [-114.805979, 75.892279], [-114.812489, 75.902167], [-114.857737, 75.910793], [-115.697662, 75.886664], [-115.761627, 75.896064], [-116.202545, 75.868069], [-116.221791, 75.875963], [-116.244374, 75.869534], [-116.708119, 75.899563], [-116.733998, 75.921088], [-116.736318, 75.937445], [-116.728505, 75.954169], [-116.713857, 75.961249], [-116.616119, 75.976264], [-116.484975, 75.972113], [-116.461334, 75.97842], [-116.475697, 75.992418], [-116.516428, 76.001451], [-116.530263, 76.013129], [-116.496165, 76.026801], [-116.541982, 76.035346], [-116.658315, 76.019924], [-116.701568, 76.040473], [-116.705881, 76.057807], [-116.630279, 76.120429], [-116.571197, 76.129218], [-116.526235, 76.160142], [-116.162709, 76.203843], [-115.946441, 76.202094], [-115.841135, 76.184963], [-115.671986, 76.180487], [-115.45226, 76.188218], [-115.04011, 76.15884], [-114.949818, 76.163967], [-114.827138, 76.149319], [-114.711049, 76.154202], [-114.666982, 76.164008], [-114.706288, 76.174384], [-114.794993, 76.167955], [-114.878326, 76.177436], [-114.975331, 76.177314], [-115.040273, 76.208441], [-115.279286, 76.237047], [-115.779449, 76.237291], [-115.877309, 76.253241], [-115.926991, 76.286851], [-115.851877, 76.322252], [-115.913319, 76.349026], [-115.512318, 76.456204], [-115.021474, 76.479071], [-114.981679, 76.486151], [-114.904897, 76.51675], [-114.872426, 76.520209], [-114.70051, 76.520209], [-114.762563, 76.492336], [-114.450795, 76.500922], [-114.205922, 76.471015], [-114.15925, 76.458808], [-114.115793, 76.430609], [-114.090932, 76.389879], [-114.118276, 76.369452], [-114.104604, 76.363227], [-114.179758, 76.35578], [-114.168772, 76.344062], [-114.150502, 76.340237], [-114.110829, 76.341498], [-114.138783, 76.322252], [-114.135813, 76.318183], [-114.083567, 76.294338], [-114.008412, 76.273261], [-113.984853, 76.255927], [-114.063629, 76.218573], [-113.963043, 76.190619], [-113.873769, 76.206488], [-113.713531, 76.204983], [-113.568227, 76.234687], [-113.44286, 76.241156], [-113.35436, 76.266059], [-113.219838, 76.264309], [-113.159006, 76.253363], [-112.994211, 76.273261], [-112.911041, 76.264106], [-112.86856, 76.250312], [-112.850209, 76.228583], [-112.8308, 76.219224], [-112.756174, 76.22191], [-112.754628, 76.204983], [-112.619537, 76.205308], [-112.425649, 76.170844], [-112.502797, 76.14468], [-112.500152, 76.122992], [-112.525746, 76.120998], [-112.447174, 76.079779], [-112.418813, 76.050727], [-112.364613, 76.033637], [-112.118031, 76.012397], [-111.85554, 75.953518], [-111.769276, 75.947414], [-111.746205, 75.937079], [-111.726796, 75.916938], [-111.781402, 75.900539], [-112.072743, 75.875637], [-112.186106, 75.84809], [-112.137603, 75.834418], [-112.22704, 75.814521], [-112.159535, 75.808295], [-112.089915, 75.821357], [-112.034657, 75.841864], [-111.980051, 75.834418], [-112.035268, 75.821357], [-111.948964, 75.807074], [-111.86734, 75.828803], [-111.459055, 75.841864], [-111.446685, 75.837592], [-111.493276, 75.814521], [-111.596425, 75.814521], [-111.458892, 75.788804], [-111.431956, 75.766099], [-111.447865, 75.757758], [-111.44872, 75.742255], [-111.369862, 75.732611], [-111.36144, 75.715237], [-111.397532, 75.695014], [-111.410797, 75.677965], [-111.376698, 75.653144], [-111.410797, 75.615912], [-111.384755, 75.608385], [-111.351308, 75.579779], [-111.294749, 75.574368], [-111.322092, 75.547675], [-111.281117, 75.540229], [-111.274281, 75.527167], [-111.250844, 75.521877], [-111.013743, 75.53144], [-110.856068, 75.55744], [-110.51358, 75.57331], [-110.43102, 75.559516], [-110.418691, 75.539862], [-110.218617, 75.535834], [-110.157867, 75.546942], [-110.116078, 75.540229], [-110.068267, 75.547675], [-109.02538, 75.498725], [-108.937489, 75.477444], [-108.909983, 75.478746], [-108.896392, 75.492377], [-108.926829, 75.53026], [-108.951039, 75.54267], [-109.033599, 75.5539], [-108.99413, 75.568101], [-108.855458, 75.560696], [-108.855458, 75.568183], [-108.878651, 75.572699], [-108.896392, 75.588609], [-108.83495, 75.622748], [-108.937367, 75.677965], [-108.828114, 75.691067], [-108.857655, 75.700263], [-108.957875, 75.704657], [-108.992584, 75.71894], [-109.067738, 75.71894], [-109.061513, 75.738837], [-109.10204, 75.750067], [-109.408274, 75.778795], [-109.464345, 75.794094], [-109.404164, 75.80093], [-109.691518, 75.807074], [-109.681467, 75.81802], [-109.629465, 75.834418], [-109.70519, 75.84809], [-109.657379, 75.869818], [-109.70108, 75.880357], [-109.745839, 75.879381], [-109.788645, 75.864244], [-109.839589, 75.870917], [-109.893381, 75.85224], [-109.951731, 75.860541], [-110.054596, 75.89647], [-109.976186, 75.919501], [-109.685699, 75.947821], [-109.586985, 75.983873], [-109.433339, 76.003607], [-109.389882, 76.020657], [-109.437652, 76.033637], [-109.399485, 76.041327], [-109.297353, 76.03913], [-109.272572, 76.054145], [-109.389882, 76.067776], [-109.382436, 76.088284], [-109.307973, 76.102525], [-109.323069, 76.115383], [-109.421742, 76.142401], [-109.489369, 76.151801], [-109.519602, 76.164008], [-109.520172, 76.178168], [-109.542226, 76.189439], [-109.699574, 76.195014], [-109.725006, 76.204983], [-109.687489, 76.210395], [-109.684071, 76.218573], [-109.695465, 76.224677], [-109.869618, 76.239814], [-109.903798, 76.231635], [-109.88329, 76.204983], [-109.909739, 76.196723], [-110.146962, 76.276313], [-110.383616, 76.300523], [-110.375396, 76.314765], [-110.328359, 76.341498], [-110.368886, 76.353705], [-110.37678, 76.363227], [-110.363515, 76.371649], [-110.397206, 76.396715], [-110.381337, 76.410386], [-110.383616, 76.430854], [-110.321278, 76.428778], [-110.112782, 76.453803], [-110.006825, 76.486151], [-109.91686, 76.486151], [-109.861562, 76.498196], [-109.808258, 76.491645], [-109.771962, 76.50019], [-109.70519, 76.527086], [-109.733469, 76.535468], [-109.849192, 76.533352], [-109.849192, 76.540717], [-109.801747, 76.551703], [-109.759836, 76.574897], [-109.780263, 76.596015], [-109.650543, 76.588568], [-109.663564, 76.616441], [-109.554311, 76.630072], [-109.560292, 76.654975], [-109.552073, 76.674872], [-109.506581, 76.698432], [-109.494456, 76.722846], [-109.335276, 76.759833], [-109.348948, 76.773505], [-109.325103, 76.788886], [-109.176991, 76.821926], [-109.184438, 76.821926], [-109.006256, 76.828762], [-108.901235, 76.816148], [-108.82079, 76.834418], [-108.808461, 76.852444], [-108.775624, 76.864163], [-108.649403, 76.814521], [-108.687245, 76.783759], [-108.690012, 76.771145], [-108.532338, 76.766995], [-108.485504, 76.757148], [-108.450795, 76.732611], [-108.444081, 76.703315], [-108.468617, 76.686265], [-108.576527, 76.645982], [-108.597279, 76.643052], [-108.649078, 76.653469], [-108.731923, 76.643215], [-108.687245, 76.6022], [-108.66275, 76.597968], [-108.628651, 76.579169], [-108.538686, 76.561754], [-108.533315, 76.547553], [-108.548329, 76.539455], [-108.606516, 76.530707], [-108.628896, 76.520209], [-108.603342, 76.515123], [-108.548248, 76.520453], [-108.525868, 76.514065], [-108.586822, 76.49258], [-108.591054, 76.482408], [-108.569407, 76.471747], [-108.509592, 76.469387], [-108.484934, 76.458808], [-108.587229, 76.443183], [-108.615875, 76.423489], [-108.589711, 76.410224], [-108.530019, 76.415839], [-108.318837, 76.396389], [-108.238515, 76.35578], [-108.177073, 76.349026], [-108.224233, 76.335273], [-108.080881, 76.286851], [-108.080881, 76.280015], [-108.128651, 76.280015], [-108.128651, 76.273261], [-108.11498, 76.273261], [-108.138499, 76.259101], [-108.211537, 76.266913], [-108.231679, 76.253363], [-108.214223, 76.239081], [-108.087636, 76.225409], [-108.119944, 76.21011], [-108.336415, 76.186428], [-108.377553, 76.173774], [-108.409779, 76.149726], [-108.396881, 76.132025], [-108.45759, 76.102525], [-108.382476, 76.088284], [-108.448394, 76.071194], [-108.499176, 76.040473], [-108.355214, 76.054145], [-108.161977, 76.047919], [-108.039866, 76.067776], [-107.889027, 76.067776], [-107.730702, 76.039008], [-107.690094, 76.01557], [-107.650258, 76.005764], [-107.640126, 75.989244], [-107.648305, 75.972846], [-107.793446, 75.930609], [-107.738189, 75.916938], [-107.788157, 75.902574], [-107.897369, 75.901109], [-107.944244, 75.875963], [-107.936838, 75.862372], [-107.969065, 75.859565], [-107.999379, 75.844428], [-108.046702, 75.807074], [-108.018788, 75.794094], [-108.026235, 75.787258], [-107.978627, 75.780707], [-107.921457, 75.790676], [-107.865305, 75.810696], [-107.753407, 75.877834], [-107.72057, 75.88581], [-107.367177, 75.918647], [-107.216054, 75.915839], [-107.150258, 75.898627], [-107.075999, 75.8994], [-107.046132, 75.888983], [-107.093902, 75.869818], [-107.107574, 75.841864], [-107.077016, 75.815253], [-106.956776, 75.794094], [-107.0006, 75.791205], [-107.023508, 75.784654], [-107.03307, 75.773586], [-106.949941, 75.752509], [-106.96703, 75.735093], [-106.961659, 75.710395], [-106.929433, 75.670559], [-106.88093, 75.649237], [-106.874867, 75.663723], [-106.904205, 75.683743], [-106.90217, 75.698472], [-106.909006, 75.698472], [-106.879709, 75.746568], [-106.861195, 75.759955], [-106.882314, 75.766099], [-106.754018, 75.795844], [-106.614817, 75.80093], [-106.664174, 75.814399], [-106.862294, 75.825629], [-106.885894, 75.838202], [-106.891021, 75.858466], [-106.871449, 75.885932], [-106.86856, 75.902655], [-106.891428, 75.941107], [-106.874867, 75.965399], [-106.841298, 75.982123], [-106.718658, 76.015082], [-106.631744, 76.058539], [-106.339833, 76.061591], [-105.759918, 75.99018], [-105.606801, 75.937445], [-105.51183, 75.89057], [-105.466542, 75.857733], [-105.442942, 75.821357], [-105.46345, 75.801215], [-105.457102, 75.782375], [-105.422434, 75.745673], [-105.463368, 75.732611], [-105.419749, 75.711737], [-105.389963, 75.653388]]], [[[-114.87857, 76.767279], [-114.858754, 76.801459], [-114.631581, 76.86164], [-114.43456, 76.882392], [-114.237131, 76.879096], [-114.192738, 76.890815], [-113.846059, 76.898871], [-113.734039, 76.883368], [-113.586334, 76.846625], [-113.510365, 76.83633], [-113.46349, 76.798245], [-113.453481, 76.773505], [-113.604644, 76.728705], [-113.65217, 76.705268], [-113.673166, 76.70425], [-113.830556, 76.725531], [-114.421946, 76.729682], [-114.51065, 76.744818], [-114.87857, 76.767279]]], [[[-119.379547, 76.233588], [-119.442494, 76.2508], [-119.459584, 76.263332], [-119.486318, 76.36107], [-119.522613, 76.36164], [-119.535024, 76.338365], [-119.575917, 76.320746], [-119.671457, 76.338853], [-119.716868, 76.335273], [-119.716868, 76.328437], [-119.677561, 76.324408], [-119.661773, 76.314602], [-119.655426, 76.297431], [-119.66039, 76.277737], [-119.710683, 76.267035], [-119.577301, 76.196194], [-119.564605, 76.17182], [-119.620025, 76.16177], [-119.703236, 76.164008], [-119.675771, 76.141343], [-119.552398, 76.122992], [-119.577707, 76.111965], [-119.805653, 76.115627], [-119.76183, 76.099677], [-119.684153, 76.093573], [-119.523346, 76.052558], [-119.491689, 76.036851], [-119.477284, 76.006334], [-119.485951, 75.974921], [-119.511138, 75.967231], [-119.595326, 75.994371], [-119.635325, 75.995551], [-119.703236, 75.944281], [-119.648671, 75.93773], [-119.621002, 75.929633], [-119.607004, 75.916938], [-119.702016, 75.92178], [-119.775746, 75.883124], [-119.862945, 75.859117], [-120.0, 75.84669646854138], [-120.0, 77.02040081504856], [-119.930816, 77.020087], [-119.908681, 77.041002], [-119.922353, 77.047268], [-119.85436, 77.054836], [-119.836659, 77.065253], [-119.826975, 77.098578], [-119.723744, 77.116156], [-119.650706, 77.116441], [-119.628082, 77.123603], [-119.627065, 77.142524], [-119.599273, 77.151842], [-119.387318, 77.192532], [-119.289703, 77.288804], [-119.162709, 77.324897], [-118.966298, 77.319648], [-118.87678, 77.336859], [-118.820546, 77.361029], [-118.782948, 77.354315], [-118.700266, 77.364325], [-118.178782, 77.360256], [-118.102284, 77.380357], [-117.852366, 77.390448], [-117.852366, 77.383612], [-117.962229, 77.370022], [-117.934926, 77.361396], [-117.799184, 77.372056], [-117.773305, 77.364447], [-117.743723, 77.342678], [-117.663645, 77.340888], [-117.613393, 77.329047], [-117.474355, 77.335883], [-117.455068, 77.315375], [-117.380605, 77.315375], [-117.231109, 77.285712], [-117.133616, 77.301703], [-117.039215, 77.292792], [-117.010081, 77.301703], [-117.097279, 77.343451], [-117.158193, 77.336656], [-117.181386, 77.348863], [-117.173736, 77.359687], [-117.155873, 77.363837], [-117.033315, 77.352932], [-116.860219, 77.318264], [-116.8131, 77.316596], [-116.777333, 77.329047], [-116.810862, 77.342678], [-116.682525, 77.370592], [-116.646962, 77.390448], [-116.746327, 77.400824], [-116.851918, 77.384019], [-116.852406, 77.40412], [-116.994008, 77.399563], [-117.034576, 77.431383], [-117.154042, 77.458726], [-117.110097, 77.474595], [-117.064687, 77.479885], [-117.071523, 77.466213], [-117.055328, 77.462348], [-116.913645, 77.474311], [-116.756825, 77.513373], [-116.928131, 77.527655], [-116.900746, 77.536363], [-116.406728, 77.562405], [-116.427235, 77.548163], [-116.33849, 77.540717], [-116.359609, 77.527655], [-116.215688, 77.522162], [-116.064117, 77.486721], [-116.1256, 77.472398], [-116.086659, 77.460273], [-115.891998, 77.441352], [-115.850209, 77.429348], [-115.776519, 77.429836], [-115.658355, 77.389228], [-115.447825, 77.348863], [-115.460805, 77.335883], [-115.404164, 77.318427], [-115.392568, 77.307929], [-115.470611, 77.305854], [-115.505767, 77.294257], [-115.537099, 77.269477], [-115.776112, 77.253323], [-115.927805, 77.212348], [-116.247222, 77.19595], [-116.274526, 77.189846], [-116.283844, 77.170722], [-116.276438, 77.164537], [-116.301829, 77.148261], [-116.400543, 77.137274], [-116.289906, 77.111884], [-116.283844, 77.082668], [-116.25768, 77.055894], [-116.221669, 77.041653], [-115.83137, 76.972805], [-115.778432, 76.970404], [-115.753651, 76.964789], [-115.732045, 76.948554], [-115.751047, 76.933092], [-115.907094, 76.89704], [-116.024037, 76.898749], [-116.256581, 76.940497], [-116.325795, 76.945543], [-116.365793, 76.931789], [-116.357004, 76.90762], [-116.174916, 76.841742], [-116.040151, 76.828315], [-115.995229, 76.793931], [-115.995229, 76.767279], [-115.892812, 76.698432], [-116.000234, 76.682847], [-116.016347, 76.664252], [-116.08316, 76.629462], [-116.324818, 76.581732], [-116.451324, 76.579576], [-116.520009, 76.568061], [-116.762074, 76.573147], [-116.844838, 76.540269], [-116.959788, 76.555732], [-117.007924, 76.552151], [-117.077626, 76.519599], [-117.057851, 76.494696], [-117.002594, 76.478705], [-117.010081, 76.471869], [-116.98644, 76.462388], [-116.998525, 76.436835], [-116.993031, 76.420356], [-116.941884, 76.389879], [-116.947987, 76.376899], [-116.934316, 76.35578], [-116.968251, 76.339789], [-117.026275, 76.331855], [-117.136342, 76.290229], [-117.276967, 76.280015], [-117.352447, 76.259589], [-117.571401, 76.271633], [-117.660512, 76.294338], [-117.651275, 76.316799], [-117.676259, 76.326606], [-117.858022, 76.330471], [-117.880238, 76.349026], [-117.866567, 76.349026], [-118.006988, 76.402493], [-118.05842, 76.410386], [-118.031077, 76.430854], [-118.051584, 76.445136], [-117.990102, 76.465644], [-118.031077, 76.486151], [-118.010121, 76.505032], [-117.907582, 76.533352], [-117.955393, 76.568061], [-117.907582, 76.581732], [-117.961293, 76.592108], [-117.976471, 76.6022], [-117.900746, 76.643215], [-117.925649, 76.666571], [-117.92809, 76.677924], [-117.918568, 76.693345], [-117.859486, 76.708686], [-117.764231, 76.757066], [-117.736236, 76.780341], [-117.77302, 76.810981], [-117.818512, 76.824693], [-117.865793, 76.82331], [-117.956654, 76.781887], [-118.01061, 76.767279], [-118.339833, 76.771308], [-118.305409, 76.743109], [-118.31428, 76.711493], [-118.496653, 76.718899], [-118.462473, 76.698432], [-118.476145, 76.684149], [-118.348215, 76.644599], [-118.325999, 76.589789], [-118.302113, 76.567694], [-118.305409, 76.554999], [-118.327789, 76.54975], [-118.43517, 76.554999], [-118.479848, 76.545233], [-118.490387, 76.540717], [-118.504058, 76.514065], [-118.534901, 76.503811], [-118.673004, 76.510688], [-118.72997, 76.544135], [-118.829213, 76.559394], [-118.853505, 76.554999], [-118.77774, 76.533352], [-118.946278, 76.522854], [-118.97643, 76.492336], [-118.840443, 76.478705], [-118.818715, 76.458808], [-118.733388, 76.458808], [-118.674306, 76.446601], [-118.646392, 76.43244], [-118.597076, 76.387844], [-118.594838, 76.37637], [-118.613922, 76.369452], [-118.568959, 76.345201], [-118.651601, 76.291083], [-118.692779, 76.284491], [-118.860463, 76.284817], [-118.899729, 76.275092], [-118.928578, 76.253363], [-118.93692, 76.229682], [-118.93163, 76.206122], [-118.914459, 76.188951], [-118.887603, 76.184475], [-118.901031, 76.172268], [-118.963368, 76.164008], [-118.963531, 76.135728], [-119.058665, 76.12641], [-119.079457, 76.115627], [-119.072621, 76.095689], [-119.095326, 76.088324], [-119.180979, 76.112047], [-119.244862, 76.113186], [-119.285512, 76.129218], [-119.302561, 76.149319], [-119.303334, 76.187445], [-119.379547, 76.233588]]], [[[-104.450022, 77.15176], [-104.51358, 77.140692], [-104.647817, 77.137274], [-104.754018, 77.111233], [-104.791168, 77.109931], [-104.856191, 77.126166], [-104.958079, 77.167711], [-105.005767, 77.174954], [-105.09968, 77.178168], [-105.224599, 77.164496], [-105.26415, 77.178168], [-105.243642, 77.205512], [-105.278066, 77.215033], [-105.357777, 77.211859], [-105.395131, 77.219184], [-105.395131, 77.22602], [-105.356272, 77.217231], [-105.318756, 77.22602], [-105.390777, 77.258938], [-105.469594, 77.2744], [-105.408193, 77.280585], [-105.408193, 77.287421], [-105.536285, 77.304429], [-105.565785, 77.321601], [-105.572255, 77.33926], [-105.565785, 77.35635], [-105.544057, 77.370836], [-105.601389, 77.384467], [-105.661366, 77.383612], [-105.648834, 77.397691], [-105.627838, 77.40412], [-105.68932, 77.425238], [-105.659739, 77.440985], [-105.68106, 77.45307], [-105.765045, 77.466213], [-105.755483, 77.47956], [-105.709828, 77.493476], [-105.68163, 77.516181], [-105.860666, 77.548163], [-105.821034, 77.567939], [-105.839508, 77.575385], [-105.826243, 77.595689], [-105.844228, 77.620266], [-105.903147, 77.656073], [-106.05016, 77.694973], [-106.08967, 77.716376], [-106.093658, 77.729641], [-106.077219, 77.738593], [-105.908762, 77.76789], [-105.648346, 77.754218], [-105.503041, 77.721096], [-104.996083, 77.537095], [-104.966217, 77.516791], [-104.952016, 77.487006], [-105.006215, 77.460842], [-105.006907, 77.432034], [-105.015859, 77.414618], [-104.748525, 77.41767], [-104.729726, 77.393866], [-104.703928, 77.382758], [-104.421254, 77.307929], [-104.465077, 77.297838], [-104.476471, 77.287421], [-104.397206, 77.273261], [-104.371083, 77.234768], [-104.394521, 77.192532], [-104.450022, 77.15176]]], [[[-102.425649, 77.742418], [-102.413319, 77.760443], [-102.498891, 77.782375], [-102.516998, 77.795152], [-102.499135, 77.809272], [-102.500803, 77.819322], [-102.530629, 77.836127], [-102.495188, 77.864732], [-102.448476, 77.881293], [-102.398183, 77.888861], [-101.805409, 77.895413], [-101.725209, 77.90648], [-101.645172, 77.890326], [-101.214345, 77.840725], [-100.95816, 77.760321], [-100.931996, 77.744534], [-100.960683, 77.728502], [-101.042592, 77.730862], [-101.147572, 77.719794], [-101.341664, 77.730129], [-101.44636, 77.720526], [-101.557973, 77.730699], [-101.620961, 77.700873], [-101.790598, 77.679389], [-102.17634, 77.695136], [-102.290435, 77.719428], [-102.44872, 77.7331], [-102.44872, 77.739936], [-102.425649, 77.742418]]], [[[-113.671498, 77.845933], [-113.600942, 77.832424], [-113.577016, 77.815009], [-113.722483, 77.769232], [-114.162587, 77.706732], [-114.300689, 77.713284], [-114.479604, 77.75141], [-114.621327, 77.756822], [-114.652699, 77.76789], [-114.622874, 77.774115], [-114.516103, 77.760443], [-114.537994, 77.783026], [-114.666982, 77.808173], [-114.798248, 77.850328], [-114.857818, 77.859809], [-115.118235, 77.959662], [-115.069325, 77.96894], [-114.968332, 77.956773], [-114.898915, 77.973578], [-114.795074, 77.982856], [-114.741119, 77.999945], [-114.679677, 78.034491], [-114.501861, 78.048407], [-114.388824, 78.076606], [-114.32726, 78.080797], [-114.282786, 78.062079], [-114.350982, 78.034735], [-114.269114, 78.014228], [-114.316884, 78.014228], [-114.257802, 77.989447], [-114.114613, 78.000434], [-113.951324, 77.91885], [-113.737294, 77.901679], [-113.701527, 77.890367], [-113.671498, 77.845933]]], [[[-109.581532, 78.054104], [-109.601552, 78.03205], [-109.660512, 77.996894], [-109.676259, 77.976996], [-109.786855, 77.949774], [-110.123931, 77.92121], [-110.224762, 77.898017], [-110.841461, 77.869818], [-110.903717, 77.853217], [-110.88036, 77.821234], [-110.777496, 77.803656], [-110.71996, 77.766181], [-110.408274, 77.773383], [-110.344635, 77.784857], [-110.1079, 77.77619], [-110.0808, 77.752509], [-110.09557, 77.746772], [-110.088206, 77.7331], [-110.116078, 77.705797], [-110.110707, 77.69245], [-110.068267, 77.671617], [-110.081899, 77.658026], [-110.041005, 77.644355], [-110.055898, 77.632025], [-110.163686, 77.600165], [-110.160797, 77.592353], [-110.092152, 77.581977], [-110.086822, 77.571479], [-110.09557, 77.554918], [-110.113881, 77.542711], [-110.235422, 77.504218], [-110.572621, 77.455308], [-110.788075, 77.445746], [-110.828603, 77.425238], [-110.880727, 77.412421], [-111.193227, 77.421088], [-111.281117, 77.431464], [-111.401235, 77.40351], [-111.88386, 77.353176], [-111.990834, 77.329291], [-112.109242, 77.325751], [-112.469309, 77.370592], [-112.506337, 77.388007], [-112.600575, 77.453681], [-112.637441, 77.464057], [-112.777821, 77.448432], [-112.954986, 77.471015], [-112.974273, 77.501899], [-113.035064, 77.518459], [-113.165883, 77.515082], [-113.199615, 77.527655], [-113.219472, 77.576077], [-113.241282, 77.582261], [-113.216135, 77.600409], [-113.089752, 77.623236], [-113.190297, 77.658433], [-113.254262, 77.671617], [-113.219228, 77.682034], [-113.206776, 77.693793], [-113.210194, 77.70954], [-113.233795, 77.726874], [-113.226674, 77.734442], [-113.186025, 77.739936], [-113.267812, 77.759833], [-113.305572, 77.776842], [-113.32315, 77.808173], [-113.312123, 77.838772], [-113.282135, 77.862372], [-113.213287, 77.890774], [-113.241282, 77.904975], [-113.141103, 77.922512], [-113.085113, 77.922675], [-113.028554, 77.899359], [-112.981516, 77.89761], [-112.958241, 77.903062], [-112.924916, 77.929592], [-112.905426, 77.931708], [-112.911692, 77.931708], [-112.270904, 78.015326], [-112.169057, 78.00788], [-112.056304, 78.024075], [-111.950551, 78.021308], [-111.824127, 78.052639], [-111.799143, 78.051744], [-111.774892, 78.029527], [-111.744537, 78.027411], [-111.52717, 78.067084], [-111.391957, 78.071967], [-111.278066, 78.090033], [-111.206532, 78.082465], [-111.007639, 78.096869], [-110.996816, 78.079169], [-110.979888, 78.073228], [-110.860504, 78.068752], [-110.711741, 78.103827], [-109.697174, 78.097357], [-109.603668, 78.07392], [-109.581532, 78.054104]]], [[[-102.799184, 78.256659], [-102.783844, 78.237047], [-102.778472, 78.214789], [-102.799184, 78.200141], [-102.869496, 78.189032], [-103.047231, 78.127021], [-103.086537, 78.122382], [-103.234242, 78.128079], [-103.269114, 78.139228], [-103.284169, 78.161363], [-103.272857, 78.179429], [-103.246816, 78.195299], [-103.065053, 78.261298], [-103.024241, 78.269843], [-102.900543, 78.274359], [-102.799184, 78.256659]]], [[[-109.317454, 78.441962], [-109.33434, 78.428371], [-109.314117, 78.410875], [-109.355702, 78.391059], [-109.325103, 78.373847], [-109.338938, 78.354682], [-109.404164, 78.32274], [-109.408681, 78.309882], [-109.507924, 78.316474], [-109.823232, 78.295396], [-109.960439, 78.329088], [-110.013051, 78.329006], [-110.332428, 78.285956], [-110.840321, 78.315172], [-110.862782, 78.32274], [-110.862904, 78.339057], [-110.888295, 78.345526], [-110.945912, 78.350043], [-111.026112, 78.374905], [-111.154612, 78.39053], [-111.28893, 78.379828], [-111.315256, 78.36994], [-111.240102, 78.336371], [-111.278676, 78.321845], [-111.411488, 78.32982], [-111.431956, 78.308498], [-111.408315, 78.300116], [-111.404612, 78.291978], [-111.409291, 78.281806], [-111.43399, 78.274604], [-111.778472, 78.270209], [-111.836293, 78.285224], [-111.870758, 78.302232], [-111.890614, 78.329006], [-111.912465, 78.335842], [-112.175526, 78.377387], [-112.755686, 78.326361], [-112.786041, 78.308661], [-112.7683, 78.295396], [-112.804433, 78.307807], [-112.83967, 78.306464], [-113.061513, 78.274359], [-113.18517, 78.273586], [-113.24828, 78.28498], [-113.295277, 78.315334], [-113.282216, 78.32274], [-113.336171, 78.336371], [-113.220774, 78.363715], [-113.224355, 78.392401], [-113.233795, 78.398505], [-113.214223, 78.406562], [-113.14981, 78.409898], [-113.101796, 78.42768], [-112.780873, 78.473131], [-112.682037, 78.498277], [-112.492747, 78.51203], [-112.354604, 78.540025], [-112.150054, 78.557034], [-112.035512, 78.551744], [-111.926747, 78.560696], [-111.816029, 78.548896], [-111.420155, 78.606635], [-111.376698, 78.623765], [-111.43814, 78.644232], [-111.314361, 78.648424], [-111.275624, 78.670233], [-111.164418, 78.69892], [-111.131703, 78.691596], [-110.979644, 78.720038], [-110.844065, 78.730618], [-110.740956, 78.757961], [-110.71467, 78.753079], [-110.42691, 78.766343], [-110.366322, 78.744127], [-110.23766, 78.727851], [-110.136586, 78.69892], [-109.887278, 78.67593], [-109.856028, 78.665351], [-109.858022, 78.646796], [-109.840159, 78.636298], [-109.759389, 78.628241], [-109.663564, 78.603949], [-109.67101, 78.597113], [-109.633453, 78.586819], [-109.504506, 78.589586], [-109.47936, 78.572333], [-109.40689, 78.559027], [-109.335276, 78.528225], [-109.332753, 78.502672], [-109.319651, 78.495795], [-109.266469, 78.493598], [-109.259511, 78.483547], [-109.278717, 78.465725], [-109.259511, 78.459296], [-109.317454, 78.441962]]], [[[-105.599965, 79.110419], [-105.627838, 79.165025], [-105.581166, 79.205024], [-105.56078, 79.2355], [-105.449045, 79.269477], [-105.425526, 79.285102], [-105.425649, 79.296373], [-105.483876, 79.302191], [-105.456899, 79.329291], [-105.408111, 79.334296], [-105.15685, 79.299872], [-103.721588, 79.363349], [-103.656972, 79.341295], [-103.372426, 79.30093], [-103.290354, 79.309638], [-103.12092, 79.290676], [-102.996165, 79.240709], [-102.879465, 79.233303], [-102.927846, 79.213446], [-102.893707, 79.171861], [-102.824859, 79.165025], [-102.769643, 79.142808], [-102.749745, 79.124091], [-102.618764, 79.096747], [-102.607167, 79.076483], [-102.637034, 79.041815], [-102.664906, 78.985989], [-102.749989, 78.968248], [-102.776438, 78.94595], [-102.728831, 78.940131], [-102.664296, 78.952541], [-102.571645, 78.94595], [-102.577789, 78.939114], [-102.571645, 78.931627], [-102.62621, 78.904975], [-102.592112, 78.885077], [-102.598948, 78.877631], [-102.525624, 78.880276], [-102.40274, 78.934801], [-102.379791, 78.953355], [-102.379791, 78.966986], [-102.426991, 79.008002], [-102.407135, 79.014228], [-102.420766, 79.014228], [-102.295318, 79.020697], [-102.280832, 79.0244], [-102.282948, 79.035305], [-102.120513, 79.04267], [-101.957753, 79.086493], [-101.910308, 79.091213], [-101.648427, 79.081], [-101.626943, 79.064643], [-101.57665, 79.057807], [-101.347239, 78.996283], [-101.305409, 78.977484], [-101.167104, 78.958319], [-101.133697, 78.978258], [-101.014231, 78.950507], [-100.988189, 78.931627], [-101.11266, 78.872545], [-101.162587, 78.837795], [-101.207916, 78.822455], [-101.18517, 78.80744], [-101.03539, 78.80386], [-101.004994, 78.798041], [-101.001861, 78.78144], [-100.906361, 78.773749], [-100.764638, 78.801581], [-100.595448, 78.800849], [-100.52123, 78.82392], [-100.398549, 78.829901], [-100.349762, 78.823717], [-100.326812, 78.814276], [-100.316396, 78.784166], [-100.273915, 78.772121], [-100.0, 78.73729230701377], [-100.0, 78.6638870212742], [-100.034332, 78.656968], [-100.063385, 78.638088], [-100.0, 78.63093687947604], [-100.0, 77.7943266668675], [-100.111195, 77.815009], [-100.27953, 77.819037], [-100.389027, 77.84398], [-100.610015, 77.863959], [-100.625111, 77.870307], [-100.604848, 77.883857], [-100.616282, 77.900621], [-100.78185, 77.972602], [-100.830678, 78.015326], [-100.837392, 78.038153], [-100.828481, 78.054999], [-100.762929, 78.062079], [-100.762074, 78.082994], [-100.968902, 78.124823], [-101.002309, 78.138007], [-101.02302, 78.158271], [-101.021392, 78.186957], [-101.059722, 78.205512], [-101.262563, 78.185533], [-101.498362, 78.237779], [-102.160756, 78.288316], [-102.542877, 78.24258], [-102.592519, 78.244452], [-102.765004, 78.274075], [-102.802235, 78.287787], [-102.817983, 78.311916], [-102.79719, 78.328762], [-102.667144, 78.363715], [-102.74413, 78.380561], [-103.334543, 78.348212], [-103.37975, 78.336371], [-103.498036, 78.324774], [-103.658803, 78.321112], [-103.914174, 78.274359], [-103.90453, 78.252997], [-103.946523, 78.242825], [-104.465688, 78.274644], [-104.675689, 78.32274], [-104.731272, 78.346747], [-104.819569, 78.36164], [-104.868764, 78.396796], [-104.990387, 78.43887], [-105.046376, 78.504788], [-104.975331, 78.540025], [-104.882151, 78.557359], [-104.819163, 78.57803], [-104.640981, 78.583441], [-104.037709, 78.520738], [-103.721832, 78.524319], [-103.53954, 78.500393], [-103.497182, 78.506537], [-103.453603, 78.539618], [-103.453033, 78.547431], [-103.494293, 78.566148], [-103.37975, 78.589586], [-103.405344, 78.601955], [-103.434967, 78.603949], [-103.400217, 78.616929], [-103.439361, 78.62519], [-104.01065, 78.620185], [-104.044504, 78.630601], [-103.981353, 78.655178], [-103.910308, 78.668769], [-103.482777, 78.671576], [-103.530588, 78.706366], [-103.459584, 78.720649], [-103.347971, 78.721747], [-103.318267, 78.737047], [-103.325795, 78.747545], [-103.358551, 78.748603], [-103.384023, 78.774604], [-103.498443, 78.788275], [-103.582102, 78.746527], [-103.612538, 78.753485], [-103.59203, 78.767768], [-103.616078, 78.772895], [-103.817942, 78.740465], [-103.761342, 78.7744], [-103.695058, 78.795722], [-103.720937, 78.806464], [-103.811757, 78.795722], [-103.88915, 78.80976], [-103.907338, 78.795722], [-103.893666, 78.78144], [-103.992299, 78.757392], [-104.048166, 78.757392], [-104.092885, 78.767768], [-104.078603, 78.767768], [-104.099965, 78.777167], [-104.188059, 78.776679], [-104.223256, 78.788275], [-104.149037, 78.824368], [-103.856272, 78.882554], [-103.831614, 78.891425], [-103.832183, 78.904975], [-104.025868, 78.944159], [-104.044586, 78.953111], [-104.058176, 78.980048], [-104.077626, 78.986274], [-104.247222, 78.997056], [-104.271067, 78.990668], [-104.299428, 78.958686], [-104.370188, 78.96898], [-104.415598, 78.967922], [-104.456288, 78.956977], [-104.529286, 78.893012], [-104.579498, 78.863349], [-104.688791, 78.843492], [-104.784983, 78.808783], [-104.835357, 78.799791], [-104.955434, 78.798163], [-105.005605, 78.807115], [-105.03185, 78.826158], [-105.009999, 78.84512], [-104.873769, 78.890692], [-104.832753, 78.911811], [-104.817047, 78.940172], [-104.678538, 79.011135], [-104.708404, 79.031073], [-104.745595, 79.038967], [-104.953359, 79.05386], [-105.402496, 79.012885], [-105.563466, 79.025946], [-105.591786, 79.037828], [-105.607045, 79.055406], [-105.593129, 79.07685], [-105.598378, 79.099189], [-105.606801, 79.103583], [-105.599965, 79.110419]]], [[[-100.193715, 80.032294], [-100.179799, 80.045803], [-100.125152, 80.059475], [-100.096913, 80.083645], [-100.10436, 80.07685], [-100.060292, 80.096177], [-100.0, 80.10789677205223], [-100.0, 79.87947489337994], [-100.070221, 79.87816], [-100.180084, 79.911689], [-100.138539, 79.949897], [-100.138539, 79.974433], [-100.15217, 79.997992], [-100.193715, 80.032294]]]]}}]}