{"type": "FeatureCollection", "features": [{"type": "Feature", "properties": {"name": "China"}, "geometry": {"type": "Polygon", "coordinates": [[[119.208516, 50.015139], [119.31621, 50.092654], [119.34396, 50.142419], [119.348301, 50.184586], [119.331558, 50.217349], [119.33378, 50.27626], [119.338534, 50.294037], [119.365509, 50.310832], [119.356621, 50.340753], [119.31435, 50.351708], [119.250788, 50.34251], [119.223709, 50.356101], [119.17534, 50.356101], [119.180508, 50.369795], [119.141234, 50.376616], [119.133482, 50.381474], [119.137565, 50.392532], [119.154876, 50.411394], [119.206759, 50.415115], [119.243656, 50.445501], [119.264585, 50.48276], [119.250891, 50.504515], [119.264585, 50.520018], [119.293576, 50.599238], [119.326132, 50.609987], [119.348973, 50.634688], [119.373726, 50.64275], [119.391658, 50.67205], [119.442817, 50.685073], [119.496664, 50.737059], [119.514854, 50.79194], [119.514079, 50.813385], [119.497491, 50.835916], [119.52798, 50.866767], [119.529996, 50.887076], [119.517955, 50.904801], [119.604255, 50.978181], [119.683216, 51.01606], [119.710191, 51.03854], [119.710398, 51.062466], [119.740835, 51.071535], [119.765227, 51.142435], [119.758147, 51.158015], [119.785432, 51.171658], [119.758147, 51.199021], [119.762178, 51.21504], [119.814991, 51.215893], [119.805948, 51.244005], [119.819642, 51.274727], [119.860621, 51.289015], [119.883307, 51.318006], [119.915657, 51.330744], [119.895296, 51.383971], [119.952864, 51.397665], [119.982733, 51.442158], [119.974155, 51.464172], [119.977203, 51.487013], [120.0, 51.50664336522864], [120.0, 50.0], [119.14661864338456, 50.0], [119.208516, 50.015139]]]}}, {"type": "Feature", "properties": {"name": "Mongolia"}, "geometry": {"type": "MultiPolygon", "coordinates": [[[[100.005968, 51.731727], [100.098262, 51.738652], [100.210296, 51.726224], [100.510898, 51.726895], [101.069469, 51.553444], [101.117011, 51.527838], [101.241551, 51.515177], [101.315448, 51.463604], [101.350175, 51.450452], [101.387795, 51.450556], [101.482053, 51.47288], [101.526392, 51.475826], [101.643697, 51.450091], [101.723692, 51.450582], [101.821774, 51.413581], [101.901873, 51.417069], [101.97422, 51.387226], [102.051217, 51.383609], [102.074679, 51.374824], [102.183871, 51.323897], [102.193379, 51.307205], [102.135295, 51.240284], [102.150023, 51.185404], [102.142168, 51.134839], [102.146509, 51.097632], [102.165371, 51.057556], [102.229656, 50.979267], [102.231051, 50.964901], [102.215238, 50.938184], [102.239475, 50.912294], [102.203043, 50.829353], [102.216789, 50.798864], [102.307533, 50.748221], [102.329392, 50.718817], [102.320245, 50.696131], [102.275907, 50.650191], [102.271566, 50.620942], [102.282418, 50.590608], [102.302933, 50.563892], [102.327635, 50.545546], [102.372697, 50.533661], [102.471864, 50.524927], [102.513101, 50.503688], [102.586585, 50.41527], [102.617798, 50.399302], [102.762595, 50.374807], [102.887135, 50.314966], [102.927391, 50.302977], [102.974107, 50.295639], [103.130015, 50.309127], [103.20169, 50.296983], [103.253108, 50.214972], [103.276776, 50.197557], [103.306593, 50.190426], [103.407104, 50.197299], [103.43873, 50.192596], [103.601407, 50.13353], [103.66807, 50.131205], [103.785272, 50.186137], [103.845423, 50.18469], [103.973994, 50.148723], [104.03952, 50.141178], [104.121685, 50.148258], [104.198115, 50.170014], [104.268963, 50.228873], [104.405802, 50.300548], [104.474119, 50.313261], [104.610441, 50.314191], [104.671884, 50.348297], [104.789552, 50.352638], [104.901586, 50.389794], [105.050104, 50.383489], [105.10576, 50.390052], [105.240739, 50.458006], [105.278462, 50.472579], [105.32864, 50.476455], [105.639371, 50.421936], [105.779259, 50.428913], [105.904212, 50.403798], [105.984879, 50.399767], [106.038933, 50.371397], [106.044462, 50.346024], [106.055934, 50.33357], [106.135309, 50.32711], [106.222281, 50.292384], [106.244863, 50.290265], [106.439787, 50.327937], [106.548204, 50.335792], [106.656518, 50.327007], [106.788293, 50.291505], [106.936449, 50.209133], [106.973656, 50.196369], [106.997996, 50.149808], [107.033601, 50.118802], [107.057113, 50.074102], [107.192196, 50.006044], [107.21418524302081, 50.0], [100.0, 50.0], [100.0, 51.73293006128984], [100.005968, 51.731727]]], [[[107.30485, 50.010023], [107.32236001749314, 50.0], [107.24307138095605, 50.0], [107.30485, 50.010023]]], [[[113.579661, 50.019945], [113.75226, 50.078598], [113.849825, 50.080717], [113.973125, 50.160505], [114.055291, 50.183811], [114.118233, 50.224377], [114.200088, 50.25621], [114.286285, 50.276881], [114.333, 50.272333], [114.424984, 50.241844], [114.473043, 50.234041], [114.659699, 50.251404], [114.75375, 50.236211], [114.997352, 50.144331], [115.063395, 50.077513], [115.17088401942684, 50.0], [113.54111916401577, 50.0], [113.579661, 50.019945]]], [[[116.135371, 50.014416], [116.21764, 50.013848], [116.27144626505083, 50.0], [116.06156483567133, 50.0], [116.135371, 50.014416]]]]}}, {"type": "Feature", "properties": {"name": "Russia"}, "geometry": {"type": "Polygon", "coordinates": [[[119.977203, 51.487013], [119.974155, 51.464172], [119.982733, 51.442158], [119.952864, 51.397665], [119.895296, 51.383971], [119.915657, 51.330744], [119.883307, 51.318006], [119.860621, 51.289015], [119.819642, 51.274727], [119.805948, 51.244005], [119.814991, 51.215893], [119.762178, 51.21504], [119.758147, 51.199021], [119.785432, 51.171658], [119.758147, 51.158015], [119.765227, 51.142435], [119.740835, 51.071535], [119.710398, 51.062466], [119.710191, 51.03854], [119.683216, 51.01606], [119.604255, 50.978181], [119.517955, 50.904801], [119.529996, 50.887076], [119.52798, 50.866767], [119.497491, 50.835916], [119.514079, 50.813385], [119.514854, 50.79194], [119.496664, 50.737059], [119.442817, 50.685073], [119.391658, 50.67205], [119.373726, 50.64275], [119.348973, 50.634688], [119.326132, 50.609987], [119.293576, 50.599238], [119.264585, 50.520018], [119.250891, 50.504515], [119.264585, 50.48276], [119.243656, 50.445501], [119.206759, 50.415115], [119.154876, 50.411394], [119.137565, 50.392532], [119.133482, 50.381474], [119.141234, 50.376616], [119.180508, 50.369795], [119.17534, 50.356101], [119.223709, 50.356101], [119.250788, 50.34251], [119.31435, 50.351708], [119.356621, 50.340753], [119.365509, 50.310832], [119.338534, 50.294037], [119.33378, 50.27626], [119.331558, 50.217349], [119.348301, 50.184586], [119.34396, 50.142419], [119.31621, 50.092654], [119.208516, 50.015139], [119.14661864338456, 50.0], [116.27144626505083, 50.0], [116.21764, 50.013848], [116.135371, 50.014416], [116.06156483567133, 50.0], [115.17088401942684, 50.0], [115.063395, 50.077513], [114.997352, 50.144331], [114.75375, 50.236211], [114.659699, 50.251404], [114.473043, 50.234041], [114.424984, 50.241844], [114.333, 50.272333], [114.286285, 50.276881], [114.200088, 50.25621], [114.118233, 50.224377], [114.055291, 50.183811], [113.973125, 50.160505], [113.849825, 50.080717], [113.75226, 50.078598], [113.579661, 50.019945], [113.54111916401577, 50.0], [107.32236001749314, 50.0], [107.30485, 50.010023], [107.24307138095605, 50.0], [107.21418524302081, 50.0], [107.192196, 50.006044], [107.057113, 50.074102], [107.033601, 50.118802], [106.997996, 50.149808], [106.973656, 50.196369], [106.936449, 50.209133], [106.788293, 50.291505], [106.656518, 50.327007], [106.548204, 50.335792], [106.439787, 50.327937], [106.244863, 50.290265], [106.222281, 50.292384], [106.135309, 50.32711], [106.055934, 50.33357], [106.044462, 50.346024], [106.038933, 50.371397], [105.984879, 50.399767], [105.904212, 50.403798], [105.779259, 50.428913], [105.639371, 50.421936], [105.32864, 50.476455], [105.278462, 50.472579], [105.240739, 50.458006], [105.10576, 50.390052], [105.050104, 50.383489], [104.901586, 50.389794], [104.789552, 50.352638], [104.671884, 50.348297], [104.610441, 50.314191], [104.474119, 50.313261], [104.405802, 50.300548], [104.268963, 50.228873], [104.198115, 50.170014], [104.121685, 50.148258], [104.03952, 50.141178], [103.973994, 50.148723], [103.845423, 50.18469], [103.785272, 50.186137], [103.66807, 50.131205], [103.601407, 50.13353], [103.43873, 50.192596], [103.407104, 50.197299], [103.306593, 50.190426], [103.276776, 50.197557], [103.253108, 50.214972], [103.20169, 50.296983], [103.130015, 50.309127], [102.974107, 50.295639], [102.927391, 50.302977], [102.887135, 50.314966], [102.762595, 50.374807], [102.617798, 50.399302], [102.586585, 50.41527], [102.513101, 50.503688], [102.471864, 50.524927], [102.372697, 50.533661], [102.327635, 50.545546], [102.302933, 50.563892], [102.282418, 50.590608], [102.271566, 50.620942], [102.275907, 50.650191], [102.320245, 50.696131], [102.329392, 50.718817], [102.307533, 50.748221], [102.216789, 50.798864], [102.203043, 50.829353], [102.239475, 50.912294], [102.215238, 50.938184], [102.231051, 50.964901], [102.229656, 50.979267], [102.165371, 51.057556], [102.146509, 51.097632], [102.142168, 51.134839], [102.150023, 51.185404], [102.135295, 51.240284], [102.193379, 51.307205], [102.183871, 51.323897], [102.074679, 51.374824], [102.051217, 51.383609], [101.97422, 51.387226], [101.901873, 51.417069], [101.821774, 51.413581], [101.723692, 51.450582], [101.643697, 51.450091], [101.526392, 51.475826], [101.482053, 51.47288], [101.387795, 51.450556], [101.350175, 51.450452], [101.315448, 51.463604], [101.241551, 51.515177], [101.117011, 51.527838], [101.069469, 51.553444], [100.510898, 51.726895], [100.210296, 51.726224], [100.098262, 51.738652], [100.005968, 51.731727], [100.0, 51.73293006128984], [100.0, 70.0], [120.0, 70.0], [120.0, 51.50664336522864], [119.977203, 51.487013]]]}}]}