{"type": "FeatureCollection", "features": [{"type": "Feature", "properties": {"name": "China"}, "geometry": {"type": "Polygon", "coordinates": [[[120.052909, 51.552203], [120.056733, 51.596387], [120.100452, 51.659949], [120.165616, 51.668553], [120.319301, 51.77604], [120.40834, 51.826088], [120.464822, 51.840196], [120.493141, 51.875724], [120.541148, 51.882984], [120.566315, 51.905334], [120.647602, 51.911019], [120.710905, 51.988327], [120.697314, 52.04871], [120.705634, 52.061035], [120.745064, 52.076667], [120.77917, 52.117595], [120.771263, 52.140979], [120.783201, 52.161985], [120.751265, 52.202965], [120.758086, 52.237407], [120.738966, 52.256605], [120.65494, 52.299109], [120.626156, 52.346806], [120.628378, 52.357891], [120.652201, 52.372463], [120.660418, 52.398792], [120.69039, 52.439126], [120.69039, 52.470158], [120.72398, 52.542169], [120.654475, 52.566999], [120.608741, 52.574001], [120.491849, 52.617255], [120.454022, 52.639036], [120.367619, 52.617255], [120.261114, 52.611053], [120.175951, 52.583742], [120.079368, 52.589969], [120.056423, 52.600511], [120.033789, 52.625368], [120.032601, 52.65888], [120.052909, 52.693012], [120.046088, 52.733992], [120.032962, 52.760657], [120.065828, 52.783213], [120.155952, 52.809077], [120.219618, 52.844915], [120.280182, 52.865922], [120.290724, 52.885352], [120.326691, 52.899046], [120.35408, 52.93323], [120.450301, 53.008342], [120.527609, 53.055807], [120.614787, 53.09707], [120.652201, 53.122831], [120.714058, 53.185049], [120.82387, 53.235227], [120.830433, 53.244839], [120.825989, 53.261866], [120.874255, 53.28016], [121.054864, 53.290004], [121.151809, 53.274501], [121.203485, 53.276749], [121.299965, 53.302536], [121.340996, 53.323646], [121.405798, 53.316824], [121.512148, 53.329821], [121.64103, 53.384908], [121.888973, 53.43059], [122.081623, 53.429505], [122.168698, 53.469141], [122.225697, 53.473946], [122.316751, 53.496012], [122.337835, 53.49131], [122.401603, 53.45095], [122.471211, 53.464748], [122.859663, 53.473946], [123.002548, 53.507329], [123.153599, 53.513117], [123.252559, 53.567791], [123.340254, 53.561435], [123.367746, 53.545828], [123.43167, 53.535803], [123.481537, 53.518078], [123.494766, 53.560091], [123.514404, 53.562416], [123.535281, 53.554613], [123.547476, 53.540506], [123.519571, 53.51999], [123.541895, 53.514099], [123.591918, 53.557869], [123.614294, 53.563347], [123.701782, 53.510068], [123.850197, 53.494979], [123.970551, 53.455188], [124.01737, 53.407025], [124.068892, 53.38961], [124.121808, 53.352688], [124.182218, 53.378552], [124.20878, 53.382686], [124.253066, 53.375503], [124.293426, 53.351292], [124.342518, 53.272486], [124.383704, 53.246131], [124.500493, 53.213678], [124.651595, 53.208769], [124.688285, 53.193602], [124.698259, 53.162648], [124.72017, 53.148824], [124.801353, 53.155155], [124.822024, 53.147248], [124.848121, 53.113684], [124.870135, 53.108], [124.896231, 53.117663], [124.879178, 53.153863], [124.880418, 53.172518], [124.897678, 53.185514], [125.019428, 53.210733], [125.073688, 53.212205], [125.127432, 53.206547], [125.428085, 53.094693], [125.476506, 53.083505], [125.499502, 53.050613], [125.521309, 53.042422], [125.621355, 53.062137], [125.65019, 53.02338], [125.733545, 52.981651], [125.71985, 52.946304], [125.678871, 52.93323], [125.660939, 52.919355], [125.64709, 52.900906], [125.64647, 52.884887], [125.668691, 52.877962], [125.73649, 52.895791], [125.837363, 52.90672], [125.863717, 52.888582], [125.856948, 52.86432], [125.867438, 52.849359], [125.976941, 52.764997], [126.017817, 52.782387], [126.066703, 52.783188], [126.088045, 52.77541], [126.104065, 52.754455], [126.035128, 52.727119], [126.068615, 52.679886], [126.002572, 52.665494], [125.98278, 52.65304], [125.973168, 52.631569], [125.990842, 52.58643], [126.009238, 52.568394], [126.028049, 52.566379], [126.059106, 52.5755], [126.068615, 52.595318], [126.082774, 52.593354], [126.212327, 52.533048], [126.200338, 52.467083], [126.275992, 52.463285], [126.350716, 52.376907], [126.315731, 52.316213], [126.344412, 52.302623], [126.421203, 52.287301], [126.43929, 52.275286], [126.392057, 52.264356], [126.312217, 52.22795], [126.309323, 52.213868], [126.316713, 52.199761], [126.53117, 52.152658], [126.555975, 52.130643], [126.514427, 52.042535], [126.467092, 52.031657], [126.447351, 52.01879], [126.43929, 51.997861], [126.647907, 51.741261], [126.713588, 51.723175], [126.725577, 51.708731], [126.724854, 51.697543], [126.707335, 51.685632], [126.724543, 51.649588], [126.723717, 51.635893], [126.675141, 51.588377], [126.676898, 51.576595], [126.700566, 51.562719], [126.807432, 51.53422], [126.830377, 51.508123], [126.792705, 51.459056], [126.789294, 51.435802], [126.800301, 51.418956], [126.890115, 51.407018], [126.909442, 51.391102], [126.897505, 51.361956], [126.827018, 51.338986], [126.807329, 51.30811], [126.808983, 51.289067], [126.823711, 51.265554], [126.84588, 51.251472], [126.869909, 51.251731], [126.890683, 51.271497], [126.885309, 51.30289], [126.899365, 51.316507], [126.934453, 51.328754], [126.972177, 51.324], [126.981169, 51.308859], [126.977758, 51.29656], [126.916315, 51.232765], [126.905153, 51.208116], [126.905411, 51.164268], [126.931766, 51.063783], [126.981169, 51.027687], [127.032328, 50.972445], [127.110773, 50.931518], [127.144259, 50.903509], [127.220741, 50.788167], [127.287352, 50.751012], [127.296447, 50.730083], [127.282287, 50.69484], [127.288953, 50.675151], [127.343989, 50.627764], [127.367088, 50.577792], [127.364814, 50.554745], [127.288953, 50.466016], [127.35851, 50.415115], [127.358717, 50.381319], [127.337529, 50.35269], [127.330656, 50.328195], [127.354634, 50.298636], [127.578393, 50.220553], [127.590641, 50.208719], [127.586713, 50.167172], [127.570177, 50.130223], [127.506615, 50.063457], [127.486668, 50.02563], [127.4904554271715, 50.0], [120.0, 50.0], [120.0, 51.50664336522864], [120.052909, 51.552203]]]}}, {"type": "Feature", "properties": {"name": "Russia"}, "geometry": {"type": "MultiPolygon", "coordinates": [[[[139.98154, 57.687738], [139.93487, 57.653298], [139.877435, 57.594114], [139.789678, 57.482731], [139.712087, 57.491767], [139.620572, 57.467344], [139.563068, 57.430056], [139.541618, 57.381063], [139.522202, 57.359637], [139.497895, 57.339545], [139.446788, 57.320746], [139.418459, 57.297194], [139.380023, 57.308162], [139.317068, 57.277608], [139.196544, 57.27265], [139.068733, 57.207021], [139.025624, 57.140003], [138.989897, 57.154255], [138.932957, 57.135025], [138.921583, 57.107565], [138.931546, 57.095649], [138.922476, 57.058116], [138.88511, 57.019113], [138.859136, 57.013162], [138.806057, 57.031614], [138.788853, 57.023441], [138.796002, 57.013529], [138.787305, 57.006157], [138.760167, 57.004834], [138.718072, 56.980029], [138.661615, 56.977943], [138.605628, 56.945224], [138.585956, 56.921676], [138.56152, 56.826548], [138.581736, 56.784509], [138.56361, 56.777509], [138.543363, 56.793859], [138.549835, 56.859518], [138.454448, 56.839337], [138.466609, 56.816607], [138.433279, 56.774482], [138.411388, 56.759711], [138.396007, 56.731269], [138.328097, 56.711709], [138.290205, 56.692131], [138.287852, 56.674994], [138.261875, 56.654305], [138.259184, 56.642778], [138.267833, 56.626626], [138.260511, 56.615821], [138.253107, 56.623885], [138.23099, 56.624487], [138.216325, 56.609607], [138.148448, 56.603583], [138.129649, 56.585639], [138.114838, 56.528104], [138.125126, 56.506933], [138.174698, 56.471758], [138.257773, 56.46605], [138.228499, 56.443673], [138.223477, 56.42416], [138.191557, 56.42911], [138.163081, 56.451136], [138.148623, 56.441057], [138.069428, 56.437755], [138.060232, 56.426174], [138.053683, 56.387851], [137.914067, 56.359526], [137.85377, 56.268785], [137.834428, 56.225476], [137.79167, 56.221026], [137.776287, 56.211273], [137.754144, 56.176776], [137.723096, 56.158949], [137.723597, 56.136324], [137.698029, 56.126202], [137.571951, 56.116523], [137.500255, 56.062812], [137.443661, 56.048512], [137.425993, 56.031146], [137.413476, 55.987367], [137.416823, 55.973007], [137.400213, 55.965652], [137.390831, 55.945607], [137.331075, 55.968905], [137.295634, 55.961322], [137.237533, 55.915609], [137.155683, 55.88755], [137.0467, 55.81909], [137.056907, 55.799707], [137.049797, 55.793116], [137.030026, 55.78755], [137.005576, 55.794944], [136.979426, 55.792255], [136.90992, 55.771267], [136.887829, 55.744937], [136.83546, 55.722846], [136.773285, 55.660549], [136.714921, 55.658733], [136.670964, 55.646398], [136.623072, 55.616037], [136.565515, 55.623199], [136.529477, 55.580403], [136.488054, 55.583308], [136.430161, 55.565246], [136.319021, 55.486558], [136.307671, 55.424624], [136.268708, 55.41494], [136.219779, 55.354589], [136.17806, 55.343119], [136.175348, 55.329419], [136.161627, 55.318284], [136.126638, 55.308254], [136.054364, 55.268841], [135.981079, 55.244811], [135.868943, 55.173886], [135.81085, 55.171362], [135.706348, 55.115413], [135.670469, 55.121306], [135.534255, 55.086565], [135.469064, 55.056664], [135.455424, 55.028827], [135.339218, 54.980713], [135.219571, 54.894121], [135.203948, 54.869289], [135.183724, 54.859155], [135.17335, 54.821275], [135.265147, 54.721666], [135.237804, 54.707994], [135.244151, 54.701239], [135.292491, 54.715644], [135.340831, 54.71483], [135.654145, 54.665961], [135.680186, 54.649604], [135.698578, 54.599026], [135.725108, 54.577704], [135.750173, 54.57095], [135.880707, 54.58515], [135.979991, 54.580797], [136.129242, 54.61225], [136.206716, 54.620673], [136.249278, 54.620429], [136.276541, 54.607489], [136.320567, 54.611802], [136.534923, 54.595526], [136.567231, 54.602729], [136.598399, 54.622707], [136.662446, 54.685248], [136.677094, 54.673896], [136.658946, 54.637437], [136.681407, 54.614691], [136.720225, 54.614447], [136.775564, 54.650824], [136.823497, 54.647528], [136.826671, 54.63935], [136.814464, 54.626125], [136.844412, 54.604071], [136.883311, 54.591376], [136.838634, 54.551581], [136.838145, 54.534003], [136.807465, 54.516262], [136.841645, 54.488267], [136.820567, 54.485256], [136.818044, 54.473456], [136.840831, 54.432318], [136.806651, 54.424018], [136.758637, 54.436957], [136.744884, 54.428941], [136.738617, 54.413804], [136.76002, 54.38109], [136.752289, 54.365424], [136.820649, 54.316107], [136.800629, 54.297187], [136.755219, 54.297431], [136.752289, 54.283515], [136.814464, 54.248725], [136.763438, 54.216498], [136.762869, 54.204047], [136.806488, 54.173774], [136.814464, 54.159329], [136.768809, 54.080227], [136.780284, 54.063788], [136.689138, 54.012274], [136.692068, 53.98017], [136.65919, 53.935045], [136.677094, 53.820746], [136.684744, 53.808498], [136.775157, 53.773098], [136.821788, 53.788398], [136.842052, 53.828762], [136.898692, 53.846991], [136.957774, 53.857652], [137.019786, 53.851508], [137.107921, 53.807929], [137.142751, 53.81391], [137.18572, 53.85106], [137.290863, 54.035712], [137.271658, 54.050238], [137.188162, 54.038804], [137.156993, 54.044013], [137.138194, 54.083441], [137.061371, 54.145697], [137.090587, 54.154283], [137.177501, 54.20775], [137.260509, 54.227444], [137.287364, 54.248725], [137.279959, 54.255561], [137.300141, 54.271918], [137.37672, 54.290269], [137.394786, 54.308295], [137.451427, 54.317613], [137.546723, 54.297187], [137.643321, 54.297187], [137.711681, 54.330471], [137.73585, 54.32099], [137.740001, 54.306586], [137.726248, 54.295478], [137.684581, 54.276597], [137.588715, 54.206122], [137.580821, 54.187323], [137.504242, 54.136542], [137.485362, 54.112128], [137.483897, 54.084662], [137.450206, 54.089057], [137.451182, 54.118354], [137.460704, 54.124172], [137.453624, 54.138373], [137.43686, 54.145697], [137.405121, 54.146674], [137.336925, 54.132514], [137.307872, 54.118354], [137.302745, 54.087877], [137.29363, 54.07746], [137.320079, 54.049465], [137.438162, 54.037014], [137.546235, 53.972073], [137.590505, 53.956122], [137.602061, 53.953843], [137.636241, 53.967597], [137.771332, 53.943549], [137.862804, 53.967597], [137.773936, 53.899319], [137.678966, 53.877834], [137.650401, 53.865139], [137.639659, 53.841254], [137.609141, 53.834418], [137.596934, 53.824164], [137.591807, 53.793158], [137.565929, 53.770941], [137.563975, 53.726874], [137.55421, 53.714301], [137.500255, 53.698188], [137.487966, 53.670559], [137.345388, 53.66474], [137.314708, 53.652818], [137.27768, 53.6164], [137.217621, 53.600572], [137.211681, 53.587714], [137.228201, 53.566799], [137.335134, 53.529364], [137.678071, 53.550116], [137.918224, 53.586615], [138.047211, 53.650458], [138.150076, 53.672756], [138.28419, 53.738511], [138.298188, 53.756171], [138.338878, 53.869615], [138.366384, 53.909491], [138.395681, 53.928412], [138.46811, 53.949897], [138.578624, 53.999335], [138.584727, 53.97724], [138.564952, 53.942084], [138.588878, 53.879381], [138.579926, 53.828315], [138.536632, 53.786078], [138.378754, 53.684149], [138.353282, 53.660102], [138.34254, 53.635484], [138.349864, 53.611274], [138.345063, 53.607123], [138.273936, 53.583889], [138.246104, 53.566352], [138.246837, 53.532782], [138.215587, 53.491767], [138.267345, 53.522528], [138.284434, 53.524848], [138.405772, 53.510565], [138.43922, 53.513658], [138.473155, 53.525946], [138.527843, 53.564154], [138.655772, 53.731757], [138.696788, 53.818671], [138.698578, 53.836737], [138.682465, 53.875434], [138.76059, 53.975246], [138.771821, 54.01557], [138.7671, 54.104682], [138.675792, 54.071519], [138.664724, 54.07746], [138.725434, 54.159329], [138.732921, 54.180487], [138.725434, 54.200344], [138.746593, 54.242499], [138.734386, 54.266343], [138.643565, 54.297187], [138.700369, 54.314602], [138.738536, 54.315985], [138.934418, 54.253079], [139.161876, 54.204739], [139.302257, 54.190619], [139.371837, 54.195868], [139.644786, 54.266059], [139.7317, 54.304145], [139.767589, 54.303941], [139.797048, 54.297431], [139.803559, 54.286811], [139.794932, 54.238837], [139.815929, 54.215155], [139.883637, 54.187323], [139.918468, 54.200344], [139.908458, 54.18887], [139.920421, 54.175686], [140.0, 54.12410681912447], [140.0, 50.0], [127.4904554271715, 50.0], [127.486668, 50.02563], [127.506615, 50.063457], [127.570177, 50.130223], [127.586713, 50.167172], [127.590641, 50.208719], [127.578393, 50.220553], [127.354634, 50.298636], [127.330656, 50.328195], [127.337529, 50.35269], [127.358717, 50.381319], [127.35851, 50.415115], [127.288953, 50.466016], [127.364814, 50.554745], [127.367088, 50.577792], [127.343989, 50.627764], [127.288953, 50.675151], [127.282287, 50.69484], [127.296447, 50.730083], [127.287352, 50.751012], [127.220741, 50.788167], [127.144259, 50.903509], [127.110773, 50.931518], [127.032328, 50.972445], [126.981169, 51.027687], [126.931766, 51.063783], [126.905411, 51.164268], [126.905153, 51.208116], [126.916315, 51.232765], [126.977758, 51.29656], [126.981169, 51.308859], [126.972177, 51.324], [126.934453, 51.328754], [126.899365, 51.316507], [126.885309, 51.30289], [126.890683, 51.271497], [126.869909, 51.251731], [126.84588, 51.251472], [126.823711, 51.265554], [126.808983, 51.289067], [126.807329, 51.30811], [126.827018, 51.338986], [126.897505, 51.361956], [126.909442, 51.391102], [126.890115, 51.407018], [126.800301, 51.418956], [126.789294, 51.435802], [126.792705, 51.459056], [126.830377, 51.508123], [126.807432, 51.53422], [126.700566, 51.562719], [126.676898, 51.576595], [126.675141, 51.588377], [126.723717, 51.635893], [126.724543, 51.649588], [126.707335, 51.685632], [126.724854, 51.697543], [126.725577, 51.708731], [126.713588, 51.723175], [126.647907, 51.741261], [126.43929, 51.997861], [126.447351, 52.01879], [126.467092, 52.031657], [126.514427, 52.042535], [126.555975, 52.130643], [126.53117, 52.152658], [126.316713, 52.199761], [126.309323, 52.213868], [126.312217, 52.22795], [126.392057, 52.264356], [126.43929, 52.275286], [126.421203, 52.287301], [126.344412, 52.302623], [126.315731, 52.316213], [126.350716, 52.376907], [126.275992, 52.463285], [126.200338, 52.467083], [126.212327, 52.533048], [126.082774, 52.593354], [126.068615, 52.595318], [126.059106, 52.5755], [126.028049, 52.566379], [126.009238, 52.568394], [125.990842, 52.58643], [125.973168, 52.631569], [125.98278, 52.65304], [126.002572, 52.665494], [126.068615, 52.679886], [126.035128, 52.727119], [126.104065, 52.754455], [126.088045, 52.77541], [126.066703, 52.783188], [126.017817, 52.782387], [125.976941, 52.764997], [125.867438, 52.849359], [125.856948, 52.86432], [125.863717, 52.888582], [125.837363, 52.90672], [125.73649, 52.895791], [125.668691, 52.877962], [125.64647, 52.884887], [125.64709, 52.900906], [125.660939, 52.919355], [125.678871, 52.93323], [125.71985, 52.946304], [125.733545, 52.981651], [125.65019, 53.02338], [125.621355, 53.062137], [125.521309, 53.042422], [125.499502, 53.050613], [125.476506, 53.083505], [125.428085, 53.094693], [125.127432, 53.206547], [125.073688, 53.212205], [125.019428, 53.210733], [124.897678, 53.185514], [124.880418, 53.172518], [124.879178, 53.153863], [124.896231, 53.117663], [124.870135, 53.108], [124.848121, 53.113684], [124.822024, 53.147248], [124.801353, 53.155155], [124.72017, 53.148824], [124.698259, 53.162648], [124.688285, 53.193602], [124.651595, 53.208769], [124.500493, 53.213678], [124.383704, 53.246131], [124.342518, 53.272486], [124.293426, 53.351292], [124.253066, 53.375503], [124.20878, 53.382686], [124.182218, 53.378552], [124.121808, 53.352688], [124.068892, 53.38961], [124.01737, 53.407025], [123.970551, 53.455188], [123.850197, 53.494979], [123.701782, 53.510068], [123.614294, 53.563347], [123.591918, 53.557869], [123.541895, 53.514099], [123.519571, 53.51999], [123.547476, 53.540506], [123.535281, 53.554613], [123.514404, 53.562416], [123.494766, 53.560091], [123.481537, 53.518078], [123.43167, 53.535803], [123.367746, 53.545828], [123.340254, 53.561435], [123.252559, 53.567791], [123.153599, 53.513117], [123.002548, 53.507329], [122.859663, 53.473946], [122.471211, 53.464748], [122.401603, 53.45095], [122.337835, 53.49131], [122.316751, 53.496012], [122.225697, 53.473946], [122.168698, 53.469141], [122.081623, 53.429505], [121.888973, 53.43059], [121.64103, 53.384908], [121.512148, 53.329821], [121.405798, 53.316824], [121.340996, 53.323646], [121.299965, 53.302536], [121.203485, 53.276749], [121.151809, 53.274501], [121.054864, 53.290004], [120.874255, 53.28016], [120.825989, 53.261866], [120.830433, 53.244839], [120.82387, 53.235227], [120.714058, 53.185049], [120.652201, 53.122831], [120.614787, 53.09707], [120.527609, 53.055807], [120.450301, 53.008342], [120.35408, 52.93323], [120.326691, 52.899046], [120.290724, 52.885352], [120.280182, 52.865922], [120.219618, 52.844915], [120.155952, 52.809077], [120.065828, 52.783213], [120.032962, 52.760657], [120.046088, 52.733992], [120.052909, 52.693012], [120.032601, 52.65888], [120.033789, 52.625368], [120.056423, 52.600511], [120.079368, 52.589969], [120.175951, 52.583742], [120.261114, 52.611053], [120.367619, 52.617255], [120.454022, 52.639036], [120.491849, 52.617255], [120.608741, 52.574001], [120.654475, 52.566999], [120.72398, 52.542169], [120.69039, 52.470158], [120.69039, 52.439126], [120.660418, 52.398792], [120.652201, 52.372463], [120.628378, 52.357891], [120.626156, 52.346806], [120.65494, 52.299109], [120.738966, 52.256605], [120.758086, 52.237407], [120.753745, 52.194464], [120.784079, 52.158006], [120.771263, 52.140979], [120.77917, 52.117595], [120.745064, 52.076667], [120.705634, 52.061035], [120.697314, 52.04871], [120.696384, 52.034474], [120.711577, 52.001582], [120.705789, 51.979955], [120.647602, 51.911019], [120.566315, 51.905334], [120.541148, 51.882984], [120.493141, 51.875724], [120.464822, 51.840196], [120.40834, 51.826088], [120.319301, 51.77604], [120.165616, 51.668553], [120.100452, 51.659949], [120.056733, 51.596387], [120.052909, 51.552203], [120.0, 51.50664336522864], [120.0, 70.0], [140.0, 70.0], [140.0, 57.69651482069755], [139.98154, 57.687738]]], [[[137.832286, 54.491034], [137.858084, 54.501899], [137.917979, 54.509426], [137.927501, 54.474514], [137.921723, 54.464097], [137.848318, 54.43773], [137.835704, 54.399115], [137.819672, 54.384955], [137.798595, 54.375637], [137.715099, 54.367174], [137.716482, 54.392157], [137.748302, 54.394599], [137.803477, 54.43244], [137.821788, 54.457831], [137.832286, 54.491034]]], [[[137.63559, 54.520819], [137.650401, 54.509426], [137.643321, 54.495551], [137.650401, 54.482123], [137.62322, 54.466783], [137.608897, 54.441107], [137.641124, 54.400458], [137.613455, 54.407782], [137.568126, 54.396633], [137.546723, 54.413804], [137.568858, 54.426337], [137.572032, 54.448635], [137.561046, 54.495754], [137.546723, 54.516262], [137.622569, 54.570787], [137.63559, 54.520819]]], [[[137.185313, 55.106269], [137.180675, 55.093207], [137.113617, 55.025377], [137.071056, 55.009711], [137.065115, 55.00023], [137.088145, 54.954413], [137.074962, 54.933173], [137.017914, 54.920356], [136.943044, 54.922838], [136.929861, 54.92772], [136.92335, 54.957831], [136.895844, 54.96015], [136.841319, 54.937812], [136.812755, 54.94302], [136.783376, 54.92772], [136.748871, 54.931098], [136.738617, 54.920315], [136.759776, 54.893012], [136.738129, 54.885077], [136.670421, 54.907294], [136.68572, 54.92121], [136.690766, 54.954413], [136.700938, 54.964789], [136.754731, 54.982327], [136.809255, 55.018052], [136.855968, 55.030219], [136.979015, 55.086859], [137.046072, 55.106431], [137.088145, 55.085395], [137.101573, 55.107001], [137.122081, 55.121283], [137.146332, 55.126166], [137.171235, 55.119534], [137.185313, 55.106269]]], [[[138.137218, 55.063178], [138.183604, 55.057603], [138.212169, 55.036363], [138.188243, 55.021064], [138.132823, 55.01557], [138.112804, 55.006293], [138.047699, 54.940823], [138.010916, 54.933254], [138.003429, 54.905097], [137.986176, 54.882758], [138.004731, 54.819525], [137.986176, 54.797431], [137.87908, 54.759711], [137.84311, 54.715074], [137.766449, 54.66706], [137.742686, 54.660224], [137.73585, 54.636379], [137.718923, 54.624335], [137.706065, 54.624986], [137.646251, 54.661322], [137.585216, 54.751044], [137.544119, 54.784735], [137.519542, 54.839057], [137.485362, 54.87934], [137.394705, 54.851386], [137.292735, 54.795844], [137.225922, 54.777818], [137.249197, 54.809149], [137.256114, 54.860785], [137.274913, 54.898261], [137.390147, 55.006293], [137.444591, 55.016181], [137.461436, 55.026801], [137.490896, 55.070502], [137.498057, 55.09691], [137.492198, 55.119534], [137.5171, 55.135159], [137.543956, 55.178616], [137.567882, 55.194648], [137.60613, 55.2001], [137.638845, 55.192532], [137.704926, 55.167914], [137.702159, 55.151272], [137.786388, 55.1376], [137.855968, 55.133205], [137.929047, 55.153144], [137.952159, 55.146877], [137.972016, 55.106431], [137.986176, 55.099066], [137.966156, 55.071967], [137.898123, 55.025458], [137.883149, 55.002875], [138.046723, 55.058051], [138.137218, 55.063178]]], [[[139.261462, 54.599234], [139.27675, 54.61311], [139.262138, 54.591994], [139.243593, 54.581032], [139.213725, 54.585579], [139.261462, 54.599234]]], [[[138.226783, 54.715626], [138.240995, 54.713712], [138.195944, 54.70111], [138.182536, 54.707847], [138.180823, 54.715083], [138.226783, 54.715626]]]]}}]}