{"type": "FeatureCollection", "features": [{"type": "Feature", "properties": {"name": "Tanzania"}, "geometry": {"type": "MultiPolygon", "coordinates": [[[[32.920863, -9.4079], [32.713228, -9.28584], [32.518046, -9.258245], [32.423426, -9.143834], [31.938081, -9.061771], [31.936634, -8.93258], [31.672671, -8.913047], [31.55335, -8.809074], [31.539036, -8.70355], [31.353311, -8.587175], [31.077824, -8.61632], [30.959536, -8.550485], [30.441635, -7.596331], [30.29446, -7.149433], [30.090855, -6.890018], [29.707003, -6.619336], [29.525515, -6.273104], [29.476113, -6.002113], [29.612435, -5.704354], [29.32377, -4.920164], [29.404179, -4.449805], [29.732841, -4.463344], [29.784104, -4.37384], [30.003005, -4.271935], [30.31172, -3.789897], [30.381587, -3.788346], [30.432282, -3.551875], [30.639142, -3.41948], [30.640538, -3.33287], [30.799753, -3.274579], [30.832205, -3.172777], [30.778255, -3.04741], [30.825488, -2.978577], [30.637592, -2.974443], [30.53889, -2.898995], [30.488454, -2.94354], [30.415797, -2.851659], [30.52256, -2.649398], [30.412128, -2.670172], [30.508091, -2.463466], [30.674799, -2.351742], [30.834376, -2.345334], [30.887809, -2.082507], [30.796962, -1.929338], [30.831017, -1.594165], [30.737534, -1.406683], [30.555323, -1.31842], [30.481012, -1.059107], [30.638626, -1.07337], [30.777118, -0.98583], [34.000022, -1.002573], [37.644865, -3.045963], [37.700055, -3.31437], [37.58523, -3.412969], [37.599079, -3.513428], [37.708323, -3.527174], [37.770955, -3.655435], [39.215099, -4.688653], [39.170177, -4.779962], [39.213552, -4.856378], [39.162283, -4.938653], [39.163341, -4.848321], [39.108653, -4.916599], [39.132172, -5.010186], [39.084483, -5.047784], [39.142751, -5.09588], [38.888927, -5.63714], [38.779063, -6.054864], [38.91505, -6.4367], [39.040863, -6.470147], [39.28004, -6.727146], [39.280284, -6.830499], [39.464529, -6.85768], [39.553722, -7.000746], [39.547537, -7.118259], [39.32781, -7.309259], [39.252615, -7.823337], [39.32781, -7.726332], [39.443533, -7.832615], [39.454356, -8.010431], [39.348318, -8.275079], [39.28004, -8.309259], [39.35434, -8.713962], [39.553722, -8.922296], [39.449392, -8.858657], [39.388682, -8.898858], [39.491873, -8.938409], [39.498546, -9.1242], [39.569184, -9.093032], [39.643809, -9.18906], [39.642833, -9.368585], [39.567393, -9.447524], [39.650727, -9.444757], [39.740896, -9.666762], [39.696951, -9.744887], [39.800629, -9.823826], [39.690766, -10.04339], [39.826915, -9.99033], [39.914317, -10.033868], [39.985118, -10.220961], [40.019786, -10.132908], [40.13266, -10.169692], [40.120616, -10.271173], [40.232107, -10.296645], [40.232107, -10.200453], [40.348806, -10.358087], [40.42213, -10.355645], [40.427013, -10.300063], [40.43686, -10.474786], [40.008131, -10.811122], [39.760498, -10.943104], [39.498498, -10.990646], [39.263267, -11.166759], [38.896261, -11.167689], [38.492255, -11.413462], [38.25661, -11.27714], [37.938077, -11.283961], [37.868417, -11.327783], [37.816947, -11.533558], [37.469681, -11.71949], [37.141639, -11.674738], [37.032395, -11.564874], [36.820109, -11.573556], [36.625702, -11.721351], [36.199681, -11.701507], [36.168055, -11.578724], [35.826371, -11.413462], [35.576257, -11.605182], [34.964615, -11.573556], [34.886583, -11.375429], [34.765557, -11.345146], [34.613525, -11.102164], [34.67502, -10.752418], [34.581072, -10.539717], [34.536424, -10.043003], [34.317936, -9.719199], [34.012735, -9.477457], [33.911862, -9.717959], [33.734612, -9.584117], [33.438971, -9.62153], [33.300272, -9.492236], [33.172941, -9.511046], [32.97471, -9.381235], [32.920863, -9.4079]]], [[[39.895681, -7.637628], [39.823253, -7.913995], [39.629731, -7.985772], [39.587169, -7.945489], [39.814301, -7.788507], [39.773448, -7.775486], [39.895681, -7.637628]]], [[[39.498546, -6.123793], [39.574067, -6.377618], [39.508474, -6.462823], [39.416515, -6.301365], [39.375662, -6.363377], [39.300466, -6.239353], [39.282481, -6.312188], [39.177013, -6.157892], [39.19044, -5.914239], [39.28004, -5.841974], [39.313487, -5.718438], [39.430186, -6.054864], [39.416515, -6.192071], [39.500987, -6.196222], [39.498546, -6.123793]]], [[[39.643077, -5.413995], [39.650564, -5.338474], [39.698253, -5.34238], [39.663585, -5.287205], [39.780935, -5.239353], [39.649913, -5.190851], [39.746104, -5.205173], [39.690766, -5.137465], [39.684093, -4.890313], [39.821544, -4.993829], [39.855968, -4.897231], [39.855968, -5.253025], [39.796072, -5.406834], [39.729015, -5.454197], [39.643077, -5.413995]]], [[[39.7028, -8.049004], [39.801492, -8.006587], [39.702796, -8.091393], [39.7028, -8.049004]]], [[[39.214412, -5.77738], [39.237862, -5.856047], [39.21447, -5.858106], [39.214412, -5.77738]]], [[[39.575458, -5.394548], [39.652181, -5.450943], [39.659811, -5.47597], [39.615331, -5.463799], [39.575458, -5.394548]]]]}}, {"type": "Feature", "properties": {"name": "France"}, "geometry": {"type": "MultiPolygon", "coordinates": [[[[-54.111527, 2.11427], [-54.476644, 2.21413], [-54.615292, 2.326267], [-54.375617, 2.483777], [-54.170203, 2.853057], [-54.211182, 3.127407], [-54.00303, 3.455397], [-53.994813, 3.623604], [-54.241051, 3.876354], [-54.353861, 4.041718], [-54.338565, 4.152332], [-54.406571, 4.191528], [-54.486721, 4.902958], [-54.311331, 5.225806], [-54.061106, 5.43651], [-53.934023, 5.744765], [-52.896519, 5.405668], [-52.402333, 4.973822], [-52.388987, 4.895901], [-52.279124, 4.93122], [-52.340484, 4.724595], [-52.231923, 4.875434], [-52.024526, 4.693549], [-51.950754, 4.454006], [-52.046295, 4.333564], [-51.936513, 4.391913], [-51.909169, 4.655707], [-51.801503, 4.612698], [-51.649037, 4.15233], [-51.683217, 4.039374], [-51.988424, 3.704555], [-52.227918, 3.260112], [-52.355327, 3.151592], [-52.409277, 2.897344], [-52.690603, 2.372983], [-52.980922, 2.173253], [-53.268501, 2.195733], [-53.234188, 2.250975], [-53.344104, 2.349625], [-53.531792, 2.247047], [-53.742167, 2.308542], [-53.764801, 2.368694], [-54.111527, 2.11427]]], [[[2.5218, 51.087541], [2.60845, 50.961128], [2.586746, 50.845425], [2.786734, 50.723365], [2.886883, 50.696648], [3.129245, 50.779072], [3.232391, 50.695925], [3.271045, 50.526943], [3.608286, 50.476507], [3.696859, 50.298223], [4.0033, 50.34406], [4.197604, 50.258484], [4.125774, 50.128156], [4.210006, 50.06015], [4.131665, 49.974987], [4.435109, 49.93225], [4.645845, 49.984495], [4.681915, 50.083921], [4.815551, 50.161332], [4.871878, 50.139783], [4.783925, 49.958295], [4.860199, 49.913337], [4.849037, 49.794171], [5.259244, 49.691335], [5.456132, 49.498944], [5.746346, 49.549431], [5.9607, 49.441324], [6.193554, 49.499409], [6.402741, 49.465457], [6.511674, 49.424736], [6.713781, 49.158861], [6.914389, 49.206662], [7.042546, 49.107598], [7.274367, 49.105014], [7.410483, 49.168938], [7.634965, 49.037783], [8.200305, 48.958563], [8.090338, 48.807513], [7.810252, 48.615018], [7.75072, 48.341366], [7.585666, 48.129725], [7.621116, 47.97144], [7.511872, 47.707322], [7.586028, 47.584619], [7.378547, 47.430646], [6.9733, 47.489092], [6.86664, 47.354165], [7.036552, 47.329515], [6.665412, 47.021291], [6.442635, 46.944164], [6.429199, 46.760816], [6.118417, 46.583463], [6.054235, 46.419416], [6.135057, 46.370401], [6.094026, 46.253044], [5.954809, 46.19992], [5.95884, 46.130467], [6.140328, 46.150207], [6.281198, 46.240073], [6.214122, 46.315469], [6.269105, 46.375026], [6.482942, 46.448587], [6.787058, 46.414171], [6.750368, 46.345518], [6.827676, 46.269477], [6.765664, 46.151603], [7.022083, 45.92526], [6.800804, 45.826455], [6.795946, 45.718141], [6.963378, 45.640729], [6.982808, 45.511125], [7.160679, 45.410924], [7.055466, 45.213675], [6.602728, 45.10345], [6.723496, 45.013378], [6.745407, 44.907803], [7.007096, 44.822071], [7.055155, 44.684871], [6.959864, 44.683165], [6.835737, 44.534027], [6.9178, 44.436307], [6.866123, 44.372125], [6.982808, 44.241745], [7.331004, 44.125266], [7.655636, 44.176064], [7.689949, 44.067337], [7.477869, 43.865515], [7.47641, 43.764635], [7.151622, 43.654771], [7.138916, 43.55402], [6.962087, 43.540107], [6.894028, 43.427628], [6.731146, 43.407847], [6.590892, 43.268898], [6.693374, 43.272973], [6.679801, 43.201553], [6.401679, 43.146938], [6.375371, 43.090841], [6.193198, 43.108773], [6.180072, 43.035922], [5.940929, 43.134019], [5.879405, 43.120429], [5.951379, 43.079978], [5.856605, 43.044829], [5.673919, 43.179889], [5.34698, 43.215899], [5.369151, 43.270413], [5.294173, 43.355472], [5.034022, 43.335476], [5.026134, 43.409329], [5.226329, 43.480292], [5.029145, 43.55858], [5.051117, 43.429267], [4.868175, 43.421454], [4.901005, 43.366965], [4.855778, 43.341779], [4.694591, 43.579088], [4.820279, 43.346356], [4.592336, 43.359889], [4.513031, 43.455797], [4.181651, 43.463772], [4.105317, 43.551866], [3.952973, 43.539944], [3.513357, 43.281073], [3.317719, 43.263088], [3.114024, 43.106309], [3.038992, 42.942776], [3.04184, 42.629055], [3.18097, 42.431484], [2.933702, 42.470225], [2.690409, 42.406172], [2.662194, 42.339019], [2.514812, 42.325661], [2.277411, 42.428626], [1.995671, 42.348682], [1.927458, 42.436894], [1.712174, 42.493712], [1.765091, 42.563372], [1.721993, 42.609855], [1.543089, 42.649362], [1.429297, 42.595386], [1.342584, 42.70866], [1.151485, 42.706723], [0.812901, 42.831624], [0.656321, 42.83842], [0.643609, 42.684476], [0.354169, 42.717497], [0.275388, 42.668689], [0.169168, 42.726463], [-0.038933, 42.685148], [-0.322792, 42.842502], [-0.56903, 42.772636], [-0.759665, 42.946501], [-1.149925, 43.005722], [-1.293689, 43.055203], [-1.286041, 43.109179], [-1.366139, 43.033318], [-1.457141, 43.045074], [-1.403501, 43.243331], [-1.621886, 43.247], [-1.796449, 43.374382], [-1.661, 43.399685], [-1.476877, 43.580064], [-1.257232, 44.556057], [-1.186513, 44.665473], [-1.044749, 44.66942], [-1.172231, 44.778266], [-1.260365, 44.627427], [-1.085276, 45.569037], [-0.766184, 45.326077], [-0.715972, 45.134508], [-0.534657, 44.894965], [-0.596181, 45.024644], [-0.493764, 44.997992], [-0.655995, 45.099107], [-0.795481, 45.477118], [-1.247304, 45.709906], [-1.230295, 45.792426], [-1.163808, 45.806708], [-0.987172, 45.717353], [-1.151723, 45.86815], [-1.073354, 45.904364], [-1.110748, 46.018378], [-1.048695, 46.038804], [-1.210805, 46.174547], [-1.110748, 46.30268], [-1.240102, 46.284247], [-1.7954, 46.494534], [-1.909901, 46.691799], [-2.118764, 46.819973], [-2.128774, 46.893459], [-1.990712, 47.035386], [-2.241119, 47.142483], [-2.165191, 47.167873], [-2.160553, 47.271186], [-2.014556, 47.300116], [-1.72704, 47.210761], [-2.010121, 47.319729], [-2.278391, 47.246405], [-2.541982, 47.300116], [-2.436187, 47.307034], [-2.556386, 47.383246], [-2.391835, 47.423651], [-2.49474, 47.491197], [-2.363922, 47.506171], [-2.631988, 47.519843], [-2.599355, 47.52912], [-2.576812, 47.553941], [-2.817128, 47.499213], [-2.90925, 47.558417], [-2.741444, 47.551337], [-2.688629, 47.604397], [-2.706532, 47.642727], [-2.919423, 47.595526], [-2.97468, 47.663804], [-2.939931, 47.560777], [-3.12328, 47.598782], [-3.084543, 47.478217], [-3.131703, 47.478217], [-3.200592, 47.639594], [-3.118031, 47.732123], [-3.193186, 47.746405], [-3.159088, 47.711005], [-3.224192, 47.656399], [-3.358266, 47.697333], [-3.282623, 47.691148], [-3.358266, 47.711005], [-3.282623, 47.78734], [-3.446441, 47.704576], [-3.52831, 47.779934], [-3.851715, 47.801011], [-3.961822, 47.89997], [-4.036692, 47.855048], [-4.132192, 47.923896], [-4.111195, 47.869289], [-4.185618, 47.874416], [-4.185211, 47.813381], [-4.371816, 47.807196], [-4.34732, 47.862942], [-4.434641, 47.975653], [-4.728139, 48.040595], [-4.28539, 48.115383], [-4.379262, 48.232367], [-4.485463, 48.242621], [-4.557485, 48.177191], [-4.54719, 48.25259], [-4.626332, 48.287055], [-4.546702, 48.346829], [-4.515533, 48.295844], [-4.187489, 48.307522], [-4.324696, 48.321723], [-4.269399, 48.362738], [-4.453725, 48.335395], [-4.289906, 48.431586], [-4.768381, 48.345404], [-4.764556, 48.520209], [-4.57726, 48.568183], [-4.563629, 48.629625], [-4.193756, 48.650092], [-3.973988, 48.732815], [-3.954742, 48.657538], [-3.851715, 48.629625], [-3.810129, 48.733222], [-3.584788, 48.682807], [-3.52831, 48.739488], [-3.581532, 48.790595], [-3.515289, 48.841946], [-3.397613, 48.807318], [-3.229726, 48.87226], [-3.22053, 48.794135], [-3.091461, 48.871283], [-3.125478, 48.759955], [-3.008168, 48.821438], [-3.042388, 48.787909], [-2.933095, 48.767401], [-2.682362, 48.509019], [-2.31607, 48.698554], [-2.330312, 48.629625], [-2.250966, 48.650092], [-2.213694, 48.581855], [-2.052358, 48.650092], [-1.980295, 48.513577], [-1.952952, 48.575019], [-2.028717, 48.643256], [-1.945627, 48.698554], [-1.843739, 48.712144], [-1.860951, 48.640855], [-1.79601, 48.615912], [-1.356557, 48.643256], [-1.553619, 48.747138], [-1.602935, 48.849351], [-1.507965, 49.033677], [-1.593577, 49.028998], [-1.610422, 49.215888], [-1.548411, 49.225491], [-1.624664, 49.219306], [-1.699127, 49.355862], [-1.816477, 49.383734], [-1.884674, 49.530911], [-1.839508, 49.619778], [-1.935211, 49.724107], [-1.606679, 49.650051], [-1.263051, 49.695502], [-1.227773, 49.624091], [-1.306264, 49.558092], [-1.122874, 49.345445], [-0.940419, 49.392279], [-0.219472, 49.280097], [0.411306, 49.452053], [0.493175, 49.493598], [0.256847, 49.464057], [0.076589, 49.53498], [0.23585, 49.729315], [1.221202, 49.97899], [1.521007, 50.214667], [1.672537, 50.192532], [1.541515, 50.277899], [1.610362, 50.370673], [1.555186, 50.404771], [1.610362, 50.548163], [1.580577, 50.868801], [1.921397, 50.996772], [2.5218, 51.087541]], [[1.947509, 42.451234], [1.999495, 42.443896], [1.956604, 42.481775], [1.947509, 42.451234]]], [[[-60.810414, 14.461982], [-60.870595, 14.408108], [-60.86852, 14.475979], [-61.069569, 14.466702], [-61.105865, 14.516588], [-60.996002, 14.565009], [-61.159576, 14.666938], [-61.219472, 14.846503], [-61.135894, 14.876899], [-60.961293, 14.749945], [-60.879303, 14.777289], [-60.937489, 14.666409], [-60.832143, 14.578599], [-60.810414, 14.461982]]], [[[-61.194, 15.932074], [-61.274892, 15.873765], [-61.332021, 15.931952], [-61.2683, 16.009263], [-61.194, 15.932074]]], [[[-60.989247, 16.346381], [-61.068593, 16.302232], [-61.091624, 16.305406], [-61.039133, 16.344468], [-60.989247, 16.346381]]], [[[-61.551666, 16.285549], [-61.565989, 16.033515], [-61.694936, 15.949164], [-61.797353, 16.312201], [-61.737864, 16.365302], [-61.551666, 16.285549]]], [[[-61.544179, 16.285386], [-61.495513, 16.365139], [-61.534291, 16.449286], [-61.462514, 16.513088], [-61.365712, 16.348822], [-61.163564, 16.252997], [-61.462148, 16.202338], [-61.544179, 16.285386]]], [[[55.695323, -20.935235], [55.854503, -21.156996], [55.812022, -21.342543], [55.575043, -21.367934], [55.34962, -21.271417], [55.225434, -21.029718], [55.287446, -20.911716], [55.40797, -20.863214], [55.695323, -20.935235]]], [[[45.275727, -12.804864], [45.282563, -12.743422], [45.282563, -12.804864], [45.275727, -12.804864]]], [[[45.200694, -12.722914], [45.186371, -12.968845], [45.097179, -12.982354], [45.062511, -12.898533], [45.136485, -12.903904], [45.042491, -12.698419], [45.090831, -12.647231], [45.200694, -12.722914]]], [[[9.456554, 42.647406], [9.482107, 42.620103], [9.476817, 42.619086], [9.456554, 42.647406]]], [[[8.559581, 42.153998], [8.54949, 42.242255], [8.687755, 42.272935], [8.549083, 42.377102], [8.659516, 42.429877], [8.709158, 42.579169], [8.786957, 42.561998], [9.117849, 42.732001], [9.292166, 42.67475], [9.34669, 43.00373], [9.464041, 42.990058], [9.442882, 42.64057], [9.528087, 42.563544], [9.559581, 42.146552], [9.403168, 41.952948], [9.401622, 41.706448], [9.292166, 41.62641], [9.350597, 41.581204], [9.210704, 41.448228], [9.223155, 41.372504], [9.096446, 41.40351], [9.079845, 41.482367], [8.791759, 41.561225], [8.801768, 41.639065], [8.922699, 41.694648], [8.655121, 41.749905], [8.784923, 41.824408], [8.805431, 41.906928], [8.614268, 41.900784], [8.586274, 41.96898], [8.744965, 42.056586], [8.559581, 42.153998]]], [[[-1.247629, 46.001776], [-1.176096, 45.898749], [-1.209218, 45.814154], [-1.404937, 46.053168], [-1.247629, 46.001776]]], [[[-1.25414, 46.162421], [-1.504262, 46.207668], [-1.555816, 46.251776], [-1.480092, 46.259223], [-1.25414, 46.162421]]], [[[-2.371409, 46.704291], [-2.298207, 46.72016], [-2.268951, 46.697414], [-2.371409, 46.704291]]], [[[-2.200022, 47.024359], [-2.142568, 46.909857], [-2.295644, 47.033189], [-2.200022, 47.024359]]], [[[-3.242991, 47.395331], [-3.072743, 47.328315], [-3.067006, 47.301947], [-3.223459, 47.312161], [-3.242991, 47.395331]]], [[[-5.132802, 48.458319], [-5.03661, 48.465155], [-5.087961, 48.447211], [-5.132802, 48.458319]]], [[[-61.638336, 15.853217], [-61.616078, 15.860053], [-61.627553, 15.846991], [-61.638336, 15.853217]]], [[[-61.579945, 15.880805], [-61.582183, 15.861802], [-61.595693, 15.86286], [-61.579945, 15.880805]]], [[[6.175141, 43.008979], [6.252209, 43.002632], [6.166189, 42.999661], [6.175141, 43.008979]]]]}}, {"type": "Feature", "properties": {"name": "Mozambique"}, "geometry": {"type": "MultiPolygon", "coordinates": [[[[32.113884, -26.840014], [32.039884, -26.283666], [32.070579, -26.009781], [31.949243, -25.958104], [31.905835, -25.812997], [31.995752, -25.636884], [31.986554, -24.423108], [31.869455, -24.163795], [31.850438, -23.930631], [31.527615, -23.45681], [31.536349, -23.156983], [31.279103, -22.415323], [32.408543, -21.290327], [32.447197, -21.313685], [32.339814, -21.134058], [32.491019, -20.936344], [32.481614, -20.603031], [32.671783, -20.531821], [32.852961, -20.273852], [32.88531, -20.10301], [33.007266, -20.032006], [33.032795, -19.784166], [32.943188, -19.64929], [32.819629, -19.674302], [32.832187, -19.500876], [32.763354, -19.463979], [32.855906, -19.083744], [32.814203, -19.023799], [32.698965, -19.022249], [32.681085, -18.954966], [32.69142, -18.83425], [32.902518, -18.774512], [32.870737, -18.535767], [32.996414, -18.46714], [33.042768, -18.352005], [32.95497, -18.256301], [32.927375, -17.972907], [33.024526, -17.619233], [32.936573, -17.498311], [33.021633, -17.345555], [32.828776, -16.935141], [32.968509, -16.681616], [32.731314, -16.708798], [32.671783, -16.599761], [32.290463, -16.45176], [31.910279, -16.428919], [31.710705, -16.217872], [31.404574, -16.162268], [31.259983, -16.023465], [31.1141, -15.996904], [30.989767, -16.06429], [30.857424, -15.998144], [30.402568, -16.001244], [30.392852, -15.480759], [30.214465, -14.981462], [33.202707, -14.013872], [33.64485, -14.601743], [33.720401, -14.489709], [33.802412, -14.532807], [34.050769, -14.495186], [34.344084, -14.387389], [34.51813, -14.607428], [34.569083, -15.27116], [34.233186, -15.88983], [34.404546, -16.059742], [34.426456, -16.273889], [34.524745, -16.300761], [34.905497, -16.740838], [35.1183, -16.833442], [35.125122, -16.932867], [35.036548, -17.03591], [35.066004, -17.109807], [35.291933, -17.129341], [35.278187, -16.700737], [35.131943, -16.537646], [35.228165, -16.47026], [35.258757, -16.271512], [35.374616, -16.140977], [35.514555, -16.171363], [35.785133, -16.042275], [35.84053, -15.417197], [35.784203, -15.171838], [35.904299, -14.886894], [35.847248, -14.650422], [35.084091, -13.704227], [34.863122, -13.515815], [34.640603, -13.492354], [34.545312, -13.325749], [34.494463, -12.68739], [34.354006, -12.199461], [34.563812, -11.830905], [34.616729, -11.57831], [35.531505, -11.612727], [35.66483, -11.572006], [35.826371, -11.413462], [36.168055, -11.578724], [36.199681, -11.701507], [36.625702, -11.721351], [36.820109, -11.573556], [37.032395, -11.564874], [37.141639, -11.674738], [37.469681, -11.71949], [37.816947, -11.533558], [37.868417, -11.327783], [37.938077, -11.283961], [38.25661, -11.27714], [38.492255, -11.413462], [38.896261, -11.167689], [39.238152, -11.174201], [39.498498, -10.990646], [39.785819, -10.932562], [40.43686, -10.474786], [40.510509, -10.477716], [40.506602, -10.566339], [40.654959, -10.686944], [40.485362, -10.76214], [40.620291, -10.840916], [40.496104, -10.955743], [40.506521, -11.037205], [40.566091, -11.01393], [40.506521, -11.187433], [40.348806, -11.317071], [40.465831, -11.385186], [40.427582, -11.650079], [40.520193, -11.839044], [40.524913, -12.204522], [40.451182, -12.263604], [40.561046, -12.38714], [40.478201, -12.501072], [40.562022, -12.530043], [40.61964, -12.645115], [40.568044, -12.649591], [40.578136, -12.706313], [40.646821, -12.76629], [40.531993, -12.811456], [40.524425, -12.909356], [40.410899, -12.942071], [40.483409, -13.021905], [40.500173, -12.948012], [40.595225, -12.975681], [40.527029, -13.298272], [40.58839, -13.360447], [40.527029, -13.510593], [40.595225, -13.565199], [40.539399, -13.636407], [40.650564, -14.031915], [40.538585, -14.164483], [40.591482, -14.263279], [40.6963, -14.18255], [40.746104, -14.270929], [40.732432, -14.339939], [40.636241, -14.339939], [40.629405, -14.566339], [40.700531, -14.432061], [40.801443, -14.41074], [40.84254, -14.464451], [40.760997, -14.534926], [40.828624, -14.524835], [40.847992, -14.705011], [40.840099, -14.798272], [40.726248, -14.886895], [40.643077, -14.853774], [40.773936, -14.997735], [40.670909, -14.976658], [40.711925, -15.072931], [40.528005, -15.131036], [40.512706, -15.182061], [40.635427, -15.164646], [40.681651, -15.233005], [40.581798, -15.49212], [40.064952, -15.98919], [40.134776, -15.986505], [39.992361, -16.222426], [39.783376, -16.301935], [39.807953, -16.38893], [39.855968, -16.429783], [39.746104, -16.443292], [39.678396, -16.546075], [39.129161, -16.867852], [39.090505, -16.983819], [38.875499, -17.045587], [38.662934, -17.025567], [38.666759, -17.075372], [38.172862, -17.28753], [38.080821, -17.190688], [38.12794, -17.28631], [37.189464, -17.738702], [36.98406, -18.012384], [36.88795, -17.881036], [36.832774, -17.877618], [36.977224, -18.046563], [36.472911, -18.55641], [36.384288, -18.698663], [36.407481, -18.784845], [36.295421, -18.780206], [36.238129, -18.694106], [36.266938, -18.890883], [36.146739, -18.900486], [36.12379, -18.800714], [36.009532, -18.920831], [35.855317, -18.951349], [35.126801, -19.705011], [34.880056, -19.863377], [34.62672, -19.59588], [34.553233, -19.582289], [34.530447, -19.623712], [34.61378, -19.611586], [34.777599, -19.815037], [34.709239, -19.883884], [34.764822, -19.903253], [34.774913, -20.152114], [34.655284, -20.151462], [34.743337, -20.226495], [34.698741, -20.373224], [34.64031, -20.376072], [34.716319, -20.466974], [34.668305, -20.541111], [34.739919, -20.524347], [34.893565, -20.658461], [34.872406, -20.713067], [34.993337, -20.730157], [35.037608, -20.938409], [35.120128, -20.966404], [35.016449, -21.111098], [35.085948, -21.213311], [35.072276, -21.321954], [35.126964, -21.178643], [35.120128, -21.377211], [35.271007, -21.644138], [35.335785, -22.089125], [35.305675, -22.388604], [35.394054, -22.487726], [35.441417, -22.119561], [35.500824, -22.106052], [35.517345, -22.310154], [35.551443, -22.179132], [35.489431, -22.690037], [35.537852, -22.946954], [35.60613, -22.914727], [35.478526, -23.176853], [35.390391, -23.747979], [35.340343, -23.676202], [35.332367, -23.964532], [35.380138, -23.844415], [35.466075, -23.880141], [35.475841, -23.782403], [35.527354, -23.802992], [35.496837, -24.101332], [35.106456, -24.597914], [33.277192, -25.296808], [33.319184, -25.252374], [32.872732, -25.543878], [32.687022, -25.885919], [32.591482, -25.969008], [32.516612, -25.949965], [32.476817, -25.984552], [32.54713, -25.978936], [32.680837, -26.188165], [32.842459, -26.28867], [32.954438, -26.078871], [32.893077, -26.846124], [32.113884, -26.840014]], [[34.69414, -12.000403], [34.6559, -12.076264], [34.688973, -12.12453], [34.762353, -12.040298], [34.69414, -12.000403]], [[34.627478, -11.987278], [34.544072, -12.011359], [34.611148, -12.072544], [34.627478, -11.987278]]], [[[32.906749, -26.057794], [32.918305, -26.001397], [32.982595, -25.969008], [32.961274, -26.044122], [32.906749, -26.057794]]], [[[35.469574, -21.549086], [35.490733, -21.64186], [35.434906, -21.782892], [35.469574, -21.549086]]], [[[39.821337, -16.317412], [39.943577, -16.279272], [39.903302, -16.409806], [39.832455, -16.390517], [39.821337, -16.317412]]]]}}, {"type": "Feature", "properties": {"name": "Fiji"}, "geometry": {"type": "MultiPolygon", "coordinates": [[[[-179.961781, -16.154718], [-179.987538, -16.138116], [-179.938588, -16.12127], [-179.961781, -16.154718]]], [[[-180.0, -16.541115], [-179.991404, -16.475763], [-179.897654, -16.429783], [-179.921986, -16.497491], [-180.0, -16.541115]]], [[[-180.0, -16.964144], [-180.0, -16.786733], [-179.864084, -16.681329], [-179.815663, -16.772231], [-180.0, -16.964144]]], [[[179.987153, -16.518324], [180.0, -16.541275], [179.987478, -16.542413], [179.987153, -16.518324]]], [[[180.0, -16.785349], [180.0, -16.962782], [179.917491, -16.998793], [179.895274, -16.939142], [180.0, -16.785349]]], [[[180.0, -16.149112], [179.478689, -16.697198], [179.478689, -16.758722], [179.548106, -16.766046], [179.939464, -16.463311], [179.848643, -16.662367], [179.949718, -16.730076], [179.910655, -16.766046], [179.726329, -16.717706], [179.582286, -16.807061], [179.296886, -16.806817], [179.35141, -16.731378], [179.266368, -16.689874], [179.06544, -16.798923], [179.026866, -16.92311], [178.910004, -16.848077], [178.733897, -17.007013], [178.636404, -16.807061], [178.485606, -16.79339], [178.585623, -16.665134], [178.533946, -16.629002], [178.800955, -16.635837], [178.917003, -16.470636], [179.403575, -16.407973], [179.37615, -16.360772], [179.520274, -16.244806], [179.630138, -16.258966], [179.764415, -16.18141], [179.855968, -16.231134], [180.0, -16.149112]]], [[[-178.553822, -19.109145], [-178.533315, -19.156996], [-178.536977, -19.177179], [-178.600331, -19.147719], [-178.597117, -19.128513], [-178.581654, -19.111505], [-178.553822, -19.109145]]], [[[-178.930979, -18.971368], [-178.969065, -18.942641], [-178.943593, -18.926365], [-178.930979, -18.971368]]], [[[-179.858266, -19.005955], [-179.84968, -18.923435], [-179.78718, -18.955336], [-179.837758, -18.948826], [-179.858266, -19.005955]]], [[[-178.789784, -18.172133], [-178.745676, -18.221612], [-178.763295, -18.245864], [-178.845408, -18.21738], [-178.789784, -18.172133]]], [[[-179.069336, -17.989319], [-179.031831, -17.966329], [-179.027865, -18.003014], [-179.069336, -17.989319]]], [[[-178.33788, -17.886], [-178.248647, -17.952569], [-178.352284, -17.945733], [-178.33788, -17.886]]], [[[-179.019968, -17.149102], [-178.910715, -17.214532], [-178.985829, -17.313572], [-178.958323, -17.211358], [-179.019968, -17.149102]]], [[[179.777517, -19.122817], [179.802013, -19.184259], [179.745942, -19.190118], [179.774099, -19.170668], [179.777517, -19.122817]]], [[[178.344981, -18.9249], [178.496593, -19.013279], [178.281505, -19.00742], [178.174327, -19.07586], [178.178966, -19.157485], [177.951182, -19.129653], [178.344981, -18.9249]]], [[[178.49586, -18.86297], [178.533946, -18.910577], [178.471934, -18.907159], [178.49586, -18.86297]]], [[[179.943427, -18.556346], [179.891831, -18.609644], [179.882754, -18.662524], [179.830666, -18.589302], [179.943427, -18.556346]]], [[[177.618988, -18.511895], [177.654063, -18.504083], [177.663097, -18.588474], [177.618988, -18.511895]]], [[[178.108735, -18.403497], [178.150076, -18.357843], [178.142345, -18.411879], [178.108735, -18.403497]]], [[[179.297374, -17.937921], [179.350271, -18.118829], [179.232758, -17.944757], [179.297374, -17.937921]]], [[[179.391775, -17.793064], [179.432302, -17.832778], [179.422618, -17.850518], [179.391775, -17.793064]]], [[[178.713189, -17.710978], [178.779552, -17.766046], [178.772716, -17.780369], [178.734685, -17.767566], [178.713189, -17.710978]]], [[[178.776378, -17.628839], [178.835544, -17.693159], [178.768077, -17.747166], [178.739355, -17.67333], [178.776378, -17.628839]]], [[[179.033376, -17.656183], [179.006847, -17.593194], [179.040782, -17.656183], [179.033376, -17.656183]]], [[[178.711436, -17.991957], [178.588634, -18.136], [178.389903, -18.101821], [178.168305, -18.248468], [177.894054, -18.273126], [177.335948, -18.105564], [177.251638, -17.952244], [177.265636, -17.859552], [177.434337, -17.750177], [177.388927, -17.640558], [177.515147, -17.50506], [177.638927, -17.437107], [177.663097, -17.498468], [177.663097, -17.443943], [177.829926, -17.364028], [177.82016, -17.417169], [177.956228, -17.40252], [178.190115, -17.300551], [178.286469, -17.383722], [178.245372, -17.471287], [178.348318, -17.440118], [178.590831, -17.630955], [178.567719, -17.754978], [178.635997, -17.863702], [178.5949, -17.926039], [178.711436, -17.991957]]], [[[177.093923, -17.245294], [177.149181, -17.245294], [177.162852, -17.265802], [177.111827, -17.310317], [177.093923, -17.245294]]], [[[179.437836, -17.241795], [179.432872, -17.358331], [179.39088, -17.396254], [179.371349, -17.259861], [179.437836, -17.241795]]], [[[177.218272, -17.073826], [177.285818, -17.046645], [177.287852, -17.085219], [177.238048, -17.149102], [177.175955, -17.163344], [177.218272, -17.073826]]], [[[177.443696, -16.867852], [177.403656, -16.902602], [177.395356, -16.936782], [177.395763, -16.866143], [177.443696, -16.867852]]], [[[178.28004, -16.786716], [178.333669, -16.828871], [178.290212, -16.834405], [178.28004, -16.786716]]], [[[177.56072, -16.676853], [177.580333, -16.728448], [177.429698, -16.834405], [177.558604, -16.721449], [177.56072, -16.676853]]], [[[179.947439, -16.644464], [179.883311, -16.655532], [179.951671, -16.607843], [179.947439, -16.644464]]], [[[178.592459, -16.595636], [178.605154, -16.580011], [178.622569, -16.573012], [178.592459, -16.595636]]], [[[179.328136, -16.326593], [179.389659, -16.333591], [179.328136, -16.333591], [179.328136, -16.326593]]], [[[177.124766, -12.486098], [177.091075, -12.516371], [177.00587, -12.489516], [177.124766, -12.486098]]], [[[174.626638, -21.676528], [174.596853, -21.698419], [174.594005, -21.668715], [174.626638, -21.676528]]], [[[-178.708119, -20.671319], [-178.731028, -20.657647], [-178.724965, -20.642348], [-178.708119, -20.671319]]], [[[-178.220041, -19.827895], [-178.228953, -19.829034], [-178.216135, -19.815199], [-178.220041, -19.827895]]], [[[-178.391957, -19.165785], [-178.401112, -19.133477], [-178.392934, -19.127537], [-178.391957, -19.165785]]], [[[-178.879872, -18.854262], [-178.914866, -18.884047], [-178.930613, -18.882094], [-178.879872, -18.854262]]], [[[-178.486073, -18.651788], [-178.516306, -18.649998], [-178.499216, -18.633722], [-178.486073, -18.651788]]], [[[-179.280751, -17.760186], [-179.334218, -17.740004], [-179.298085, -17.72324], [-179.280751, -17.760186]]], [[[-179.130808, -17.453709], [-179.175486, -17.439711], [-179.145579, -17.424249], [-179.130808, -17.453709]]], [[[-179.130808, -17.277032], [-179.156687, -17.254083], [-179.134389, -17.25213], [-179.130808, -17.277032]]]]}}, {"type": "Feature", "properties": {"name": "New Zealand"}, "geometry": {"type": "MultiPolygon", "coordinates": [[[[165.924083, -50.851251], [166.226329, -50.885431], [165.985525, -50.904392], [165.924083, -50.851251]]], [[[169.293524, -52.520198], [169.195296, -52.600313], [169.015391, -52.542657], [169.113593, -52.546453], [169.186255, -52.469199], [169.293524, -52.520198]]], [[[166.287771, -50.542739], [166.164317, -50.686782], [166.226329, -50.693536], [166.122732, -50.700372], [166.232595, -50.75506], [166.240082, -50.851007], [166.061209, -50.830743], [166.083507, -50.786798], [166.040212, -50.752048], [165.992931, -50.776137], [166.021495, -50.836033], [165.896739, -50.851251], [165.925304, -50.754002], [166.078787, -50.675551], [166.095876, -50.535903], [166.287771, -50.542739]]], [[[178.839041, -49.629164], [178.822113, -49.719822], [178.719005, -49.700128], [178.770763, -49.627211], [178.839041, -49.629164]]], [[[-176.236073, -44.241957], [-176.113881, -44.265069], [-176.218984, -44.341241], [-176.236073, -44.241957]]], [[[-176.285105, -43.769708], [-176.398793, -43.907647], [-176.372263, -43.765883], [-176.53539, -43.755629], [-176.423044, -43.805841], [-176.501536, -43.864435], [-176.456532, -43.949802], [-176.395212, -43.938572], [-176.300038, -44.042576], [-176.51179, -44.121759], [-176.581492, -44.123142], [-176.664377, -44.01922], [-176.51594, -43.922296], [-176.566151, -43.837823], [-176.85497, -43.820082], [-176.580637, -43.703383], [-176.169138, -43.731378], [-176.285105, -43.769708]]], [[[-177.848134, -29.278578], [-177.924875, -29.284356], [-177.957997, -29.222752], [-177.889394, -29.233819], [-177.848134, -29.278578]]], [[[-171.185658, -9.361261], [-171.199696, -9.344334], [-171.2058, -9.330987], [-171.185658, -9.361261]]], [[[-172.483632, -8.586521], [-172.494944, -8.554783], [-172.502553, -8.543227], [-172.483632, -8.586521]]], [[[166.637218, -47.993585], [166.637218, -48.062433], [166.56837, -48.041925], [166.637218, -47.993585]]], [[[167.426768, -47.244561], [167.454275, -47.207452], [167.48699, -47.218927], [167.426768, -47.244561]]], [[[167.69337, -46.757257], [167.682628, -46.795099], [167.662852, -46.778497], [167.69337, -46.757257]]], [[[168.542166, -46.759698], [168.605724, -46.754571], [168.563243, -46.801202], [168.542166, -46.759698]]], [[[168.199474, -47.047621], [168.259288, -47.084731], [167.901866, -47.188409], [167.764903, -47.137465], [167.61671, -47.212172], [167.726573, -47.205255], [167.671886, -47.260512], [167.521007, -47.273045], [167.545584, -47.188246], [167.630382, -47.156915], [167.627452, -47.064711], [167.743826, -47.027276], [167.737071, -46.955173], [167.81422, -46.911228], [167.758311, -46.807387], [167.787446, -46.697198], [167.96754, -46.699802], [168.17921, -46.864435], [168.167328, -46.909845], [168.008149, -46.895115], [167.966645, -46.972589], [168.048676, -46.931573], [168.131114, -46.992446], [168.230235, -46.971612], [168.247325, -47.040785], [168.199474, -47.047621]]], [[[166.711436, -45.616306], [166.739268, -45.72796], [166.650076, -45.73919], [166.623057, -45.658298], [166.506196, -45.724867], [166.566661, -45.63714], [166.711436, -45.616306]]], [[[166.966156, -45.149591], [166.997081, -45.233168], [167.034434, -45.30047], [166.893321, -45.243422], [166.966156, -45.149591]]], [[[174.38087, -41.106378], [174.38087, -41.195082], [174.197276, -41.230076], [174.351248, -41.17547], [174.325694, -41.126886], [174.38087, -41.106378]]], [[[173.777599, -40.921482], [173.784434, -40.838962], [173.845876, -40.873142], [173.832286, -40.757582], [173.887462, -40.805352], [173.964854, -40.708754], [173.921641, -40.866795], [173.777599, -40.921482]]], [[[172.748694, -43.279694], [172.747732, -43.567153], [172.832286, -43.601658], [172.681407, -43.639337], [172.875743, -43.668878], [172.893809, -43.614516], [172.928396, -43.685724], [173.064952, -43.648126], [173.092947, -43.854181], [172.996837, -43.88893], [172.948578, -43.751153], [172.965587, -43.90545], [172.817231, -43.881443], [172.763438, -43.792739], [172.422618, -43.854587], [172.647716, -43.782647], [172.417328, -43.737481], [172.376313, -43.864435], [171.346002, -44.278631], [171.173839, -44.54697], [171.203136, -44.905532], [170.926117, -45.238377], [170.865977, -45.482029], [170.62672, -45.706313], [170.759288, -45.776788], [170.556814, -45.896254], [170.776622, -45.780206], [170.778575, -45.876153], [170.333751, -45.981541], [170.21697, -46.172947], [169.899425, -46.344903], [169.848969, -46.467543], [169.659353, -46.49212], [169.755544, -46.499607], [169.704112, -46.549005], [169.035981, -46.681899], [168.889171, -46.65602], [168.8449, -46.560154], [168.617849, -46.547459], [168.645193, -46.601983], [168.591482, -46.614353], [168.4192, -46.601983], [168.565115, -46.585056], [168.365733, -46.540216], [168.378103, -46.619806], [168.267833, -46.5263], [168.385102, -46.499607], [168.368907, -46.416925], [168.301931, -46.478448], [168.171153, -46.336684], [167.838634, -46.393243], [167.740245, -46.322035], [167.789236, -46.294122], [167.712901, -46.197931], [167.590017, -46.159601], [167.45281, -46.15016], [167.405772, -46.251153], [167.295177, -46.273614], [166.761974, -46.219985], [166.671235, -46.153578], [166.952485, -45.944024], [166.616059, -46.088067], [166.658539, -46.000177], [166.808604, -45.930434], [166.691254, -45.940199], [166.743907, -45.860935], [166.629242, -45.965265], [166.474783, -45.996026], [166.489757, -45.80755], [166.889659, -45.776462], [167.020844, -45.697686], [166.774262, -45.718845], [166.890961, -45.649835], [166.77768, -45.656671], [166.781993, -45.594171], [166.991954, -45.575453], [166.952485, -45.546808], [167.054942, -45.491632], [166.71461, -45.575616], [166.767589, -45.409601], [166.952485, -45.436944], [166.809255, -45.357192], [166.825531, -45.317153], [166.890961, -45.282973], [166.93214, -45.355076], [167.047537, -45.361912], [167.011078, -45.426446], [167.097179, -45.382094], [167.20574, -45.478611], [167.047537, -45.327081], [167.308849, -45.313409], [167.247244, -45.253106], [167.047537, -45.269708], [167.012055, -45.132908], [167.170746, -45.184747], [167.054942, -45.101739], [167.1185, -45.039239], [167.192149, -45.135919], [167.274669, -45.094415], [167.151541, -45.007582], [167.335704, -45.037205], [167.198985, -44.964044], [167.385753, -44.84238], [167.459646, -44.991876], [167.514171, -44.992608], [167.457693, -44.789321], [167.555186, -44.785821], [167.568126, -44.882013], [167.548839, -44.73447], [167.679373, -44.765395], [167.594737, -44.697686], [167.751964, -44.603204], [167.932628, -44.697035], [167.836436, -44.505304], [168.028168, -44.320408], [168.127452, -44.316583], [168.103282, -44.258233], [168.30714, -44.148858], [168.37086, -44.039158], [168.645844, -43.964532], [168.803722, -43.997247], [169.419607, -43.650567], [169.717784, -43.573663], [170.104991, -43.258071], [170.23878, -43.237888], [170.303559, -43.162205], [170.200531, -43.216729], [170.289317, -43.106866], [170.858409, -42.843357], [171.225413, -42.450689], [171.48878, -41.830336], [171.46811, -41.76629], [171.855235, -41.66546], [172.070811, -41.414239], [172.139659, -41.291436], [172.106781, -40.886895], [172.507091, -40.589451], [172.592621, -40.604099], [172.595876, -40.527765], [172.83961, -40.50213], [172.996837, -40.524184], [172.742198, -40.520929], [172.660411, -40.647719], [172.694509, -40.750177], [172.856456, -40.843683], [173.017345, -40.797296], [173.058279, -40.963067], [172.996837, -41.017022], [173.103852, -41.307794], [173.212738, -41.301853], [173.588634, -41.056329], [173.674571, -41.106378], [173.747569, -41.037205], [173.681407, -41.034438], [173.707286, -40.994236], [173.992035, -40.899998], [174.034841, -40.933526], [173.917979, -41.001886], [173.780528, -41.011407], [173.778656, -41.10768], [173.828868, -41.058689], [173.95574, -41.058689], [173.829112, -41.140069], [173.859548, -41.229913], [173.774262, -41.283949], [174.133962, -41.175388], [173.896332, -41.191664], [173.948904, -41.079034], [173.976329, -41.147393], [174.045665, -41.092869], [174.033702, -41.017185], [173.948904, -41.010837], [173.998546, -40.968845], [174.094249, -41.019138], [174.183116, -40.973077], [174.207205, -41.070571], [174.326427, -41.009373], [174.257335, -41.126886], [174.167328, -41.115899], [174.216482, -41.188897], [173.935232, -41.279555], [174.325694, -41.216241], [174.050629, -41.436944], [174.225922, -41.723403], [174.292166, -41.730157], [174.21518, -41.856703], [173.703624, -42.378595], [173.723155, -42.4367], [173.558604, -42.491143], [173.287283, -42.953871], [172.91505, -43.102797], [172.748694, -43.279694]]], [[[175.011729, -36.802667], [175.190603, -36.731215], [175.21518, -36.758477], [175.182628, -36.824965], [175.011729, -36.802667]]], [[[175.847667, -36.625095], [175.797537, -36.621759], [175.771983, -36.576593], [175.799164, -36.569757], [175.847667, -36.625095]]], [[[174.84547, -36.4485], [174.895518, -36.401544], [174.906016, -36.449151], [174.84547, -36.4485]]], [[[175.080821, -36.205662], [175.154959, -36.213556], [175.100352, -36.227797], [175.080821, -36.205662]]], [[[175.501801, -36.241306], [175.565929, -36.309747], [175.522797, -36.352146], [175.333751, -36.223728], [175.375499, -36.065851], [175.53061, -36.176365], [175.501801, -36.241306]]], [[[172.138882, -34.149129], [172.144776, -34.169046], [172.114697, -34.146487], [172.138882, -34.149129]]], [[[176.953712, -39.607513], [177.118907, -39.66725], [176.861827, -40.14072], [176.681814, -40.274591], [176.628429, -40.462091], [176.424815, -40.603936], [175.966807, -41.247003], [175.237478, -41.620294], [175.181814, -41.417901], [174.865571, -41.419529], [174.889659, -41.224542], [174.785411, -41.249444], [174.810069, -41.333754], [174.609386, -41.291925], [174.611501, -41.2374], [174.865977, -41.104181], [174.84197, -41.043715], [175.141287, -40.674412], [175.23878, -40.296319], [175.183767, -40.134454], [174.967296, -39.916436], [174.567638, -39.826755], [174.319021, -39.613865], [173.851248, -39.463962], [173.759288, -39.301365], [173.852712, -39.134454], [174.211599, -38.973321], [174.41505, -38.963067], [174.594005, -38.818617], [174.709809, -38.10475], [174.84669, -38.153741], [174.942638, -38.097345], [174.792003, -38.084731], [174.888031, -37.966892], [174.788097, -37.985284], [174.79184, -37.872003], [174.976817, -37.803806], [174.977061, -37.749933], [174.850352, -37.764907], [174.717784, -37.411879], [174.837901, -37.299005], [174.706391, -37.347833], [174.558279, -37.062758], [174.667328, -37.069513], [174.740001, -37.244399], [174.73585, -37.179457], [174.804861, -37.166274], [174.716645, -37.152602], [174.855968, -37.078302], [174.948416, -37.101739], [174.785818, -37.008477], [174.832774, -36.942804], [174.667328, -36.944106], [174.500336, -37.032159], [174.407563, -36.761489], [174.182302, -36.45322], [174.257172, -36.446954], [174.431407, -36.665623], [174.490733, -36.576593], [174.465994, -36.373224], [174.331228, -36.392511], [174.271007, -36.33766], [174.524913, -36.241469], [174.353038, -36.296075], [174.305186, -36.282403], [174.45045, -36.163263], [174.393891, -36.1242], [174.385509, -36.188735], [174.33253, -36.227797], [174.284679, -36.117934], [174.182302, -36.145196], [174.318858, -36.241469], [174.26059, -36.268243], [174.075206, -36.168064], [173.900564, -35.959649], [173.946788, -35.916436], [173.90797, -35.870294], [173.880138, -35.959649], [174.20281, -36.347589], [174.079845, -36.399509], [173.407237, -35.571222], [173.457856, -35.437921], [173.541515, -35.452569], [173.660899, -35.312921], [173.592621, -35.336521], [173.565278, -35.274509], [173.566417, -35.360528], [173.406993, -35.391209], [173.369965, -35.516534], [173.272146, -35.391371], [173.31837, -35.302341], [173.24936, -35.370701], [173.201671, -35.322849], [173.256847, -35.281345], [173.177501, -35.29046], [173.092947, -35.206801], [173.198416, -35.109063], [173.156749, -34.945001], [172.674083, -34.479913], [172.70281, -34.411798], [173.079275, -34.411716], [173.038097, -34.522068], [172.970063, -34.466567], [172.907481, -34.541436], [172.996837, -34.561782], [173.007498, -34.651137], [173.035818, -34.552341], [173.18865, -34.835626], [173.123057, -34.809666], [173.298188, -34.909438], [173.266612, -35.007745], [173.3685, -34.967218], [173.357921, -34.868748], [173.444102, -34.796319], [173.503184, -34.869806], [173.404063, -34.903416], [173.458751, -34.981215], [173.586436, -35.014907], [173.588227, -34.927504], [173.784434, -35.007501], [173.724457, -35.064223], [173.760265, -35.096938], [173.89088, -35.000665], [173.990001, -35.118748], [174.12794, -35.136489], [174.15504, -35.182306], [174.058116, -35.151544], [174.014985, -35.216974], [174.093516, -35.219822], [174.151134, -35.369724], [174.251638, -35.322524], [174.15504, -35.274509], [174.353038, -35.199395], [174.34018, -35.311782], [174.422374, -35.373712], [174.33253, -35.329034], [174.569509, -35.594334], [174.565278, -35.651788], [174.476573, -35.643243], [174.606781, -35.84352], [174.496918, -35.768487], [174.385509, -35.789483], [174.359874, -35.713311], [174.352712, -35.841974], [174.503754, -35.830011], [174.496918, -35.987563], [174.621104, -36.04225], [174.824474, -36.277032], [174.806407, -36.334893], [174.880544, -36.351332], [174.750743, -36.354425], [174.778819, -36.487237], [174.716645, -36.411554], [174.722911, -36.593683], [174.856944, -36.610935], [174.723481, -36.63128], [174.819102, -36.823663], [174.703624, -36.758477], [174.621104, -36.796319], [174.682628, -36.803155], [174.680186, -36.907403], [174.750743, -36.844822], [174.875662, -36.851007], [174.891449, -36.957778], [174.935232, -36.837335], [174.963145, -36.933526], [175.02711, -36.874607], [175.093435, -36.970473], [175.240977, -36.942315], [175.32602, -37.009454], [175.367198, -37.207208], [175.562755, -37.179946], [175.609548, -37.25156], [175.527843, -36.962498], [175.436209, -36.864679], [175.53712, -36.786065], [175.497569, -36.63128], [175.354259, -36.490981], [175.532237, -36.507745], [175.628103, -36.763849], [175.851736, -36.718357], [175.713552, -36.875177], [175.850759, -36.840997], [175.868012, -37.053399], [175.919688, -37.05462], [175.88795, -37.241957], [175.975434, -37.469903], [176.169119, -37.624933], [175.943126, -37.521905], [175.997244, -37.631768], [176.214122, -37.719496], [176.216807, -37.618259], [177.131033, -38.021661], [177.556814, -37.913832], [177.73878, -37.676202], [177.992035, -37.590916], [177.992035, -37.543064], [178.27768, -37.559259], [178.550548, -37.680597], [178.348318, -38.012628], [178.381114, -38.078709], [178.318533, -38.26572], [178.362071, -38.316502], [178.300141, -38.531671], [178.079845, -38.70908], [177.932384, -38.702407], [177.882823, -39.085545], [177.998871, -39.129815], [177.911957, -39.255955], [177.8685, -39.290216], [177.841156, -39.228936], [177.852061, -39.089288], [177.413259, -39.059015], [177.064952, -39.199395], [176.937511, -39.348728], [176.953712, -39.607513]]]]}}, {"type": "Feature", "properties": {"name": "Madagascar"}, "geometry": {"type": "MultiPolygon", "coordinates": [[[[43.901541, -20.882908], [44.473888, -19.986261], [44.471853, -19.87949], [44.37086, -19.774021], [44.479747, -19.483982], [44.234386, -19.0888], [44.257335, -18.803888], [44.041759, -18.396905], [44.035655, -17.769464], [43.924001, -17.546482], [44.430675, -16.700372], [44.462901, -16.485447], [44.398204, -16.340427], [44.444672, -16.195733], [44.868337, -16.22088], [45.266368, -15.923923], [45.297862, -16.111993], [45.406261, -16.054864], [45.379405, -15.97381], [45.570079, -15.943048], [45.604747, -16.051853], [45.660899, -15.803806], [45.948578, -15.774184], [45.958751, -15.839939], [46.066091, -15.861912], [46.070974, -15.778578], [46.015798, -15.79225], [46.144216, -15.703709], [46.235525, -15.717462], [46.207367, -15.819513], [46.331065, -15.977227], [46.38559, -15.902114], [46.468761, -15.95672], [46.444347, -15.881036], [46.299001, -15.815688], [46.355642, -15.732517], [46.303722, -15.710219], [46.332693, -15.630141], [46.949474, -15.198419], [47.074718, -15.323989], [46.958263, -15.549574], [47.232107, -15.433282], [47.055919, -15.193617], [47.371837, -14.890558], [47.283702, -14.846938], [47.444835, -14.671563], [47.5171, -14.819594], [47.420665, -14.96559], [47.427745, -15.107599], [47.562511, -14.98504], [47.79713, -14.566339], [47.920665, -14.709731], [47.968598, -14.622166], [48.000255, -14.762302], [48.013031, -14.63006], [47.803884, -14.545587], [47.75294, -14.600518], [47.701508, -14.446384], [47.790863, -14.22324], [47.943533, -14.232517], [47.920095, -14.086033], [48.013682, -14.140558], [47.982758, -14.325372], [48.033946, -14.262384], [48.048188, -14.08408], [47.941091, -14.004083], [48.0171, -13.952813], [47.917491, -13.897638], [47.875824, -13.784275], [47.904307, -13.603204], [47.984874, -13.506768], [48.01531, -13.580173], [48.06837, -13.517348], [48.192393, -13.76686], [48.298676, -13.798272], [48.333344, -13.546319], [48.393565, -13.585707], [48.427582, -13.524184], [48.53419, -13.520766], [48.48227, -13.360447], [48.604991, -13.445489], [48.780121, -13.383884], [48.955333, -12.8117], [48.865896, -12.647231], [48.886974, -12.56463], [48.729991, -12.434991], [48.852712, -12.413751], [48.945811, -12.479913], [48.98463, -12.333429], [49.151215, -12.250746], [49.201508, -12.146661], [49.093028, -12.098565], [49.161388, -12.050714], [49.223399, -12.106052], [49.181895, -12.043878], [49.278087, -11.947686], [49.373057, -12.198175], [49.263845, -12.140232], [49.229666, -12.222101], [49.349376, -12.298517], [49.381358, -12.222833], [49.456228, -12.373468], [49.539399, -12.378188], [49.490408, -12.406996], [49.586436, -12.482029], [49.562511, -12.627862], [49.653331, -12.694757], [49.654796, -12.804864], [49.744151, -12.743422], [49.942149, -13.033868], [49.942149, -13.219496], [50.142914, -13.783136], [50.209727, -14.750665], [50.490001, -15.219496], [50.483409, -15.443455], [50.336762, -15.811293], [50.168142, -15.984633], [49.970225, -15.718032], [49.901134, -15.422296], [49.717784, -15.44671], [49.638438, -15.54461], [49.733735, -15.905694], [49.689789, -16.086847], [49.849864, -16.240818], [49.854015, -16.539646], [49.724946, -16.754002], [49.840343, -16.827569], [49.608409, -16.89658], [49.431326, -17.283868], [49.509613, -17.727716], [49.359223, -18.424005], [49.076915, -19.065606], [48.791352, -19.993097], [48.750499, -19.965753], [48.781749, -20.037205], [48.201834, -21.796157], [47.900645, -22.481134], [47.738048, -23.255466], [47.574962, -23.598728], [47.620128, -23.640395], [47.568696, -23.852634], [47.370779, -24.270115], [47.324718, -24.269627], [47.312266, -24.485935], [47.12615, -24.93434], [47.105642, -24.879164], [46.964692, -25.065688], [46.653656, -25.183852], [46.237641, -25.198175], [45.561209, -25.559991], [45.162608, -25.598565], [44.834727, -25.344008], [44.369477, -25.256768], [44.296397, -25.153497], [44.404959, -25.188165], [44.028819, -24.998956], [43.918305, -24.619073], [43.672862, -24.334893], [43.624766, -23.761895], [43.761241, -23.4638], [43.631033, -23.344822], [43.583181, -23.07586], [43.361176, -22.843194], [43.222911, -22.254815], [43.301768, -22.218845], [43.246837, -22.035089], [43.336192, -21.768813], [43.472667, -21.672052], [43.507498, -21.309503], [43.812755, -21.224298], [43.901541, -20.882908]]], [[[49.826182, -17.094415], [49.973155, -16.721124], [50.024099, -16.690362], [49.826182, -17.094415]]], [[[48.31837, -13.200291], [48.359548, -13.407973], [48.22462, -13.400486], [48.188731, -13.264255], [48.31837, -13.200291]]]]}}, {"type": "Feature", "properties": {"name": "Fr. S. Antarctic Lands"}, "geometry": {"type": "MultiPolygon", "coordinates": [[[[42.751801, -17.076104], [42.724376, -17.063572], [42.7588, -17.060642], [42.751801, -17.076104]]], [[[69.993012, -49.57464], [69.84783, -49.514337], [69.835785, -49.501153], [69.920584, -49.497003], [69.993012, -49.57464]]], [[[68.791352, -49.323663], [68.773204, -49.363702], [68.643403, -49.34352], [68.691254, -49.315606], [68.791352, -49.323663]]], [[[69.624034, -49.208266], [69.53419, -49.192804], [69.678071, -49.151788], [69.624034, -49.208266]]], [[[69.192149, -48.986586], [69.342947, -48.88421], [69.315115, -48.938897], [69.411306, -48.928643], [69.222504, -49.094334], [69.192149, -48.986586]]], [[[69.162771, -48.906508], [69.243907, -48.890069], [69.143809, -48.980564], [69.162771, -48.906508]]], [[[69.519867, -48.857029], [69.428396, -48.864435], [69.40447, -48.829034], [69.519867, -48.857029]]], [[[70.521983, -49.09588], [70.568533, -49.219415], [70.523692, -49.30755], [70.311534, -49.378513], [70.466482, -49.439142], [70.288341, -49.439142], [70.243419, -49.359959], [70.139903, -49.3388], [69.822276, -49.349786], [69.925304, -49.39129], [69.898448, -49.443129], [69.691905, -49.404474], [69.813813, -49.532485], [70.136974, -49.617852], [70.049083, -49.52044], [70.295909, -49.530369], [70.323985, -49.574477], [70.164806, -49.617852], [70.276052, -49.654067], [70.244314, -49.685479], [69.855642, -49.679132], [69.738536, -49.498793], [69.637218, -49.504571], [69.715017, -49.58172], [69.66391, -49.664972], [69.469737, -49.631443], [69.227387, -49.488458], [69.231944, -49.573012], [69.143809, -49.514337], [69.150645, -49.624119], [69.08546, -49.540297], [69.104015, -49.644301], [69.025645, -49.709893], [68.764496, -49.674981], [68.822439, -49.48447], [68.901703, -49.431085], [68.806488, -49.365818], [68.924083, -49.288263], [68.836111, -49.303399], [68.764334, -49.188897], [68.930919, -49.144952], [68.74879, -49.076755], [68.827403, -49.054132], [68.813243, -48.965102], [68.903087, -48.974705], [68.791759, -48.846287], [68.896821, -48.822849], [68.956798, -48.671482], [69.07545, -48.65838], [69.116466, -48.726658], [68.908214, -48.893976], [69.188813, -48.773045], [69.10906, -48.808526], [69.163748, -48.846124], [68.999766, -49.090427], [69.068126, -49.110772], [69.105724, -48.993422], [69.214529, -49.12127], [69.437999, -49.014581], [69.452485, -49.088962], [69.589529, -48.952569], [69.568207, -49.048761], [69.657725, -49.062433], [69.582042, -49.090427], [69.644054, -49.124444], [69.399913, -49.113702], [69.282481, -49.184259], [69.472179, -49.151788], [69.381033, -49.18255], [69.53419, -49.247328], [69.411306, -49.274672], [69.725922, -49.247328], [69.582042, -49.302016], [69.71225, -49.306817], [69.95574, -49.159438], [70.194021, -49.156915], [70.335948, -49.053969], [70.521983, -49.09588]]], [[[68.625987, -48.629815], [68.667979, -48.645278], [68.610118, -48.637628], [68.625987, -48.629815]]], [[[68.818614, -48.566664], [68.79005, -48.615899], [68.781016, -48.584568], [68.818614, -48.566664]]], [[[51.736013, -46.327407], [51.868175, -46.410252], [51.705577, -46.437595], [51.656505, -46.378351], [51.736013, -46.327407]]], [[[50.175548, -46.064711], [50.268077, -46.043715], [50.292247, -46.115981], [50.201182, -46.113458], [50.175548, -46.064711]]], [[[77.504649, -37.88242], [77.543956, -37.820245], [77.585216, -37.8742], [77.504649, -37.88242]]], [[[77.510916, -38.705743], [77.549327, -38.731134], [77.516368, -38.735447], [77.510916, -38.705743]]], [[[40.336436, -22.320489], [40.368663, -22.362563], [40.339122, -22.359633], [40.336436, -22.320489]]], [[[39.728282, -21.444594], [39.729096, -21.441908], [39.73113, -21.444187], [39.728282, -21.444594]]], [[[54.514496, -15.889581], [54.520925, -15.885186], [54.521332, -15.894057], [54.514496, -15.889581]]], [[[47.287934, -11.565525], [47.299571, -11.550632], [47.306407, -11.56992], [47.287934, -11.565525]]]]}}, {"type": "Feature", "properties": {"name": "Kiribati"}, "geometry": {"type": "MultiPolygon", "coordinates": [[[[173.162934, 1.356513], [173.011241, 1.337348], [173.153168, 1.386542], [173.162934, 1.356513]]], [[[-151.819529, -11.420994], [-151.780955, -11.454685], [-151.800893, -11.461114], [-151.819529, -11.420994]]], [[[-155.906443, -5.635349], [-155.879628, -5.60947], [-155.859812, -5.625095], [-155.906443, -5.635349]]], [[[-155.010813, -4.060642], [-154.940297, -4.031996], [-154.953359, -4.094822], [-155.010813, -4.060642]]], [[[-171.625722, -2.86891], [-171.712717, -2.822198], [-171.626943, -2.855727], [-171.715077, -2.759047], [-171.649851, -2.797296], [-171.629628, -2.827244], [-171.62446, -2.856134], [-171.625722, -2.86891]]], [[[176.827322, -2.656183], [176.813162, -2.614435], [176.850922, -2.654067], [176.827322, -2.656183]]], [[[175.993175, -2.510349], [175.976817, -2.497817], [175.973155, -2.489679], [175.993175, -2.510349]]], [[[175.591482, -1.8742], [175.586274, -1.922459], [175.552257, -1.819268], [175.591482, -1.8742]]], [[[175.058767, -1.436293], [175.060557, -1.531671], [175.012543, -1.549249], [175.058279, -1.506768], [175.058767, -1.436293]]], [[[176.395681, -1.319594], [176.444835, -1.373793], [176.464041, -1.436293], [176.395681, -1.319594]]], [[[175.942149, -1.284845], [176.023448, -1.362888], [176.018321, -1.387872], [175.942149, -1.284845]]], [[[174.716645, -1.134698], [174.778819, -1.264418], [174.75587, -1.257501], [174.716645, -1.134698]]], [[[174.462901, -0.648126], [174.498383, -0.789158], [174.497325, -0.805108], [174.483409, -0.819431], [174.462901, -0.648126]]], [[[174.393891, -0.592869], [174.463634, -0.644789], [174.38087, -0.592869], [174.393891, -0.592869]]], [[[173.620616, 0.133368], [173.606212, 0.215969], [173.628673, 0.219143], [173.640798, 0.192125], [173.620616, 0.133368]]], [[[173.804942, 0.434394], [173.917247, 0.399482], [173.921641, 0.379788], [173.804942, 0.434394]]], [[[172.983409, 0.831285], [172.990245, 0.83397], [172.990001, 0.825426], [172.983409, 0.831285]]], [[[172.975759, 0.839667], [172.982432, 0.831163], [172.969412, 0.839667], [172.975759, 0.839667]]], [[[173.075938, 0.965888], [173.061209, 0.914211], [172.990977, 0.834418], [173.071788, 0.962592], [172.990001, 1.024075], [173.075938, 0.965888]]], [[[172.962901, 1.620592], [172.969412, 1.537991], [172.948985, 1.627346], [172.962901, 1.620592]]], [[[173.027354, 1.810452], [173.038341, 1.742377], [173.029307, 1.716295], [172.993175, 1.712063], [173.027354, 1.810452]]], [[[172.934744, 1.942694], [173.023448, 1.821438], [172.938487, 1.923163], [172.934744, 1.942694]]], [[[-157.347727, 1.860785], [-157.178782, 1.718492], [-157.246409, 1.713324], [-157.566029, 1.863756], [-157.578236, 1.907945], [-157.52123, 1.92768], [-157.537302, 1.86636], [-157.428538, 1.838568], [-157.475209, 1.880601], [-157.411977, 1.858466], [-157.419993, 1.929023], [-157.355051, 1.947659], [-157.509389, 2.024604], [-157.423818, 2.020453], [-157.310129, 1.97309], [-157.347727, 1.860785]]], [[[172.770274, 3.011461], [172.771495, 3.023871], [172.886974, 3.072943], [172.770274, 3.011461]]], [[[172.944184, 3.127387], [172.969412, 3.12816], [172.886974, 3.100246], [172.944184, 3.127387]]], [[[-159.37682, 3.933295], [-159.249989, 3.81977], [-159.308705, 3.784654], [-159.352854, 3.909003], [-159.367136, 3.840155], [-159.410024, 3.862047], [-159.37682, 3.933295]]], [[[-172.20344, -4.532159], [-172.202016, -4.520685], [-172.174387, -4.513116], [-172.20344, -4.532159]]], [[[-174.516713, -4.684259], [-174.501536, -4.697361], [-174.521555, -4.683852], [-174.516713, -4.684259]]], [[[-174.541737, -4.672784], [-174.527659, -4.683852], [-174.533884, -4.680759], [-174.541737, -4.672784]]], [[[-174.524403, -4.664483], [-174.513987, -4.676202], [-174.543406, -4.660252], [-174.524403, -4.664483]]], [[[-171.259633, -4.465265], [-171.244985, -4.441339], [-171.230051, -4.460545], [-171.259633, -4.465265]]], [[[-171.092478, -3.14544], [-171.090037, -3.120864], [-171.085439, -3.111261], [-171.092478, -3.14544]]], [[[169.555349, -0.866143], [169.522634, -0.860528], [169.545177, -0.847914], [169.555349, -0.866143]]], [[[173.289724, 2.03384], [173.257823, 1.997016], [173.278005, 2.058661], [173.31837, 1.976996], [173.304454, 1.961575], [173.257498, 1.974595], [173.307872, 1.973293], [173.289724, 2.03384]]], [[[-160.395375, 4.704779], [-160.401194, 4.72309], [-160.378896, 4.713284], [-160.395375, 4.704779]]]]}}, {"type": "Feature", "properties": {"name": "Mauritius"}, "geometry": {"type": "MultiPolygon", "coordinates": [[[[57.795746, -20.222752], [57.672211, -20.479669], [57.378103, -20.507013], [57.307872, -20.444268], [57.36378, -20.414483], [57.400157, -20.200616], [57.596528, -19.982599], [57.679698, -19.999933], [57.795746, -20.222752]]], [[[56.529796, -10.35296], [56.535655, -10.323907], [56.569347, -10.406508], [56.529796, -10.35296]]], [[[63.332286, -19.736423], [63.493907, -19.681899], [63.366384, -19.767185], [63.332286, -19.736423]]]]}}, {"type": "Feature", "properties": {"name": "Comoros"}, "geometry": {"type": "MultiPolygon", "coordinates": [[[[43.635753, -12.236912], [43.858165, -12.371352], [43.665212, -12.352472], [43.635753, -12.236912]]], [[[44.467052, -12.064386], [44.511485, -12.380304], [44.206391, -12.160577], [44.373546, -12.180352], [44.467052, -12.064386]]], [[[43.377126, -11.605076], [43.498302, -11.882013], [43.479991, -11.922784], [43.217784, -11.750258], [43.276541, -11.379571], [43.394867, -11.40016], [43.377126, -11.605076]]]]}}]}