{"type": "FeatureCollection", "features": [{"type": "Feature", "properties": {"name": "Russia"}, "geometry": {"type": "MultiPolygon", "coordinates": [[[[80.010102, 72.20775], [80.473969, 72.152045], [80.834646, 72.083319], [80.851573, 72.069281], [80.837576, 72.034125], [80.820811, 72.024604], [80.732107, 72.045111], [80.813975, 72.079901], [80.685883, 72.078762], [80.649425, 72.065579], [80.632335, 72.046088], [80.647227, 72.034125], [81.249766, 71.859198], [81.26588, 71.847113], [81.259613, 71.825995], [81.27947, 71.796047], [81.307384, 71.77619], [81.342296, 71.764228], [81.546641, 71.741604], [81.736664, 71.699897], [82.194347, 71.70775], [82.304047, 71.730373], [82.418793, 71.736884], [82.498546, 71.754625], [82.867361, 71.786444], [82.924327, 71.771389], [82.963552, 71.740668], [83.019216, 71.729438], [83.153331, 71.739814], [83.25172, 71.725653], [83.320486, 71.683295], [83.305186, 71.658393], [83.13559, 71.571845], [83.050141, 71.561591], [83.026541, 71.549872], [83.011974, 71.528957], [82.985362, 71.462836], [82.989513, 71.452338], [83.037446, 71.429348], [83.047862, 71.415107], [82.939952, 71.398017], [82.820079, 71.391303], [82.272634, 71.278795], [82.259044, 71.264309], [82.259288, 71.252672], [82.28004, 71.223334], [82.279307, 71.188056], [82.331554, 71.144192], [82.349294, 71.11872], [82.352794, 71.096259], [82.341482, 71.076483], [82.31422, 71.059475], [82.235362, 71.0362], [82.203136, 71.016262], [82.208344, 70.986802], [82.307384, 70.908026], [82.30128, 70.896186], [82.3296, 70.874091], [82.323985, 70.846096], [82.348399, 70.83161], [82.348888, 70.81802], [82.408376, 70.790188], [82.417247, 70.777045], [82.368988, 70.742621], [82.235362, 70.696112], [82.192393, 70.65705], [82.198741, 70.633694], [82.187266, 70.621772], [82.100108, 70.589301], [82.085948, 70.579657], [82.082042, 70.565375], [82.143403, 70.531236], [82.153331, 70.518134], [82.153494, 70.475898], [82.167654, 70.456936], [82.202891, 70.349026], [82.232758, 70.318345], [82.239594, 70.27733], [82.348888, 70.202297], [82.344412, 70.225572], [82.327403, 70.25023], [82.286876, 70.290432], [82.294281, 70.297838], [82.251801, 70.375922], [82.225352, 70.47956], [82.239594, 70.497056], [82.157237, 70.571601], [82.180186, 70.585761], [82.297374, 70.603949], [82.445323, 70.606513], [82.46461, 70.613186], [82.472423, 70.62995], [82.463878, 70.645941], [82.43393, 70.666653], [82.438243, 70.681464], [82.430919, 70.695136], [82.483409, 70.707587], [82.496349, 70.719306], [82.502126, 70.753363], [82.55421, 70.761542], [82.533946, 70.777045], [82.48878, 70.790473], [82.478689, 70.804999], [82.568614, 70.853176], [82.582286, 70.869818], [82.573741, 70.90176], [82.578624, 70.911119], [82.631847, 70.929389], [82.688162, 70.9619], [82.734548, 70.965522], [82.843028, 70.952216], [82.865977, 70.917914], [82.876638, 70.916978], [82.896658, 70.939765], [82.875824, 70.996772], [82.88795, 71.006741], [82.901622, 71.001044], [82.932384, 70.954047], [82.966645, 70.933987], [83.032563, 70.906195], [83.106619, 70.896186], [83.1338, 70.882392], [83.144054, 70.845933], [83.131358, 70.786811], [83.137218, 70.763983], [83.111827, 70.750556], [83.064952, 70.692532], [83.054698, 70.667792], [83.06837, 70.613186], [83.05714, 70.597113], [82.993175, 70.571601], [83.013927, 70.561713], [83.021983, 70.530992], [83.052501, 70.499905], [83.033458, 70.482001], [83.010509, 70.426581], [82.969981, 70.405015], [82.875824, 70.372992], [82.664073, 70.260159], [82.651215, 70.247952], [82.650645, 70.22956], [82.672699, 70.199123], [82.671397, 70.188666], [82.643809, 70.18122], [82.673513, 70.165595], [82.775645, 70.142035], [82.883067, 70.089016], [82.919281, 70.080715], [83.001231, 70.082994], [83.111095, 70.069485], [83.176768, 70.083075], [83.18572, 70.092434], [83.157725, 70.098578], [83.181651, 70.109524], [83.188731, 70.12287], [83.182953, 70.138861], [83.129731, 70.208564], [83.065278, 70.23314], [83.014415, 70.287299], [82.951671, 70.325141], [83.013031, 70.335028], [83.205414, 70.312161], [83.337413, 70.313178], [83.483897, 70.335028], [83.534434, 70.331977], [83.534434, 70.353095], [83.645844, 70.398993], [83.774669, 70.47663], [83.745128, 70.502997], [83.764415, 70.547024], [83.757335, 70.568508], [83.69516, 70.609768], [83.664806, 70.660956], [83.602712, 70.702582], [83.598643, 70.717231], [83.60963, 70.754096], [83.601573, 70.769843], [83.541026, 70.791327], [83.513438, 70.839748], [83.520763, 70.845933], [83.476085, 70.917914], [83.383067, 70.976264], [83.399425, 71.003363], [83.381847, 71.03266], [83.347667, 71.056098], [83.315684, 71.06566], [83.16863, 71.082017], [83.116059, 71.113471], [83.257009, 71.116523], [83.209727, 71.189276], [83.147634, 71.244818], [83.210948, 71.273668], [83.266287, 71.285712], [83.375824, 71.369818], [83.384939, 71.382025], [83.375255, 71.420478], [83.382172, 71.465033], [83.396739, 71.474066], [83.492524, 71.482611], [83.562836, 71.509914], [83.619151, 71.556586], [83.630626, 71.575873], [83.618907, 71.631171], [83.547862, 71.668524], [83.526703, 71.70303], [83.458751, 71.740383], [83.410899, 71.750922], [83.415538, 71.807766], [83.360525, 71.840644], [83.258556, 71.857489], [83.161794, 71.884345], [83.050955, 71.885077], [82.969981, 71.897935], [82.786957, 71.905463], [82.703868, 71.877346], [82.678071, 71.879462], [82.641368, 71.902248], [82.62379, 71.941596], [82.470551, 72.020819], [82.381602, 72.040229], [82.276052, 72.079495], [82.185069, 72.093492], [82.223888, 72.115058], [82.266856, 72.120307], [82.299571, 72.134467], [82.307384, 72.182847], [82.297699, 72.220649], [82.286306, 72.233344], [82.219249, 72.257392], [82.19809, 72.281562], [82.18214, 72.2862], [82.128184, 72.277493], [81.944021, 72.293036], [81.861827, 72.317125], [81.586192, 72.350653], [81.208181, 72.354926], [81.15504, 72.365424], [80.906993, 72.455715], [80.834483, 72.4737], [80.704112, 72.545356], [80.718272, 72.557929], [80.779145, 72.579535], [80.78297, 72.597317], [80.834483, 72.62051], [80.795746, 72.635972], [80.685883, 72.646308], [80.634125, 72.703925], [80.632091, 72.733791], [80.77296, 72.806098], [80.774587, 72.827216], [80.786632, 72.826565], [80.805186, 72.849595], [80.84197, 72.922105], [80.814301, 72.97427], [80.800304, 72.991034], [80.764334, 73.007554], [80.750499, 73.037746], [80.654633, 73.065131], [80.506196, 73.078355], [80.437185, 73.100898], [80.513927, 73.114814], [80.594981, 73.114569], [80.568614, 73.141547], [80.520844, 73.155829], [80.401378, 73.164862], [80.327322, 73.182807], [80.23113, 73.175971], [80.273774, 73.194892], [80.322439, 73.202623], [80.467052, 73.203437], [80.563487, 73.221503], [80.567556, 73.238023], [80.528331, 73.28148], [80.272716, 73.30976], [80.254893, 73.329739], [80.320811, 73.354885], [80.349864, 73.382554], [80.392345, 73.383979], [80.428722, 73.371812], [80.485037, 73.419135], [80.587413, 73.436103], [80.610037, 73.448879], [80.622813, 73.485745], [80.677419, 73.50495], [80.6338, 73.514106], [80.540294, 73.48725], [80.505544, 73.498114], [80.51295, 73.567043], [80.535818, 73.580756], [80.574474, 73.584174], [80.832205, 73.571763], [80.917003, 73.586859], [81.253591, 73.604804], [81.318126, 73.623603], [81.529796, 73.647773], [81.956879, 73.662665], [83.483653, 73.655463], [83.728038, 73.695461], [84.365977, 73.710273], [84.571788, 73.752997], [84.793224, 73.764716], [85.007986, 73.710395], [85.097423, 73.717231], [85.427013, 73.7119], [85.472423, 73.719794], [85.494477, 73.737738], [85.472179, 73.759752], [85.480642, 73.769029], [85.58546, 73.818671], [85.868419, 73.824042], [86.016124, 73.866523], [86.783214, 73.902248], [87.080089, 73.871527], [87.098481, 73.861233], [87.103526, 73.844875], [87.063731, 73.820258], [87.026622, 73.783596], [87.010753, 73.778713], [86.863292, 73.764838], [86.723481, 73.705552], [86.619395, 73.682766], [86.519786, 73.672309], [86.396169, 73.624823], [86.275401, 73.600531], [86.116222, 73.587836], [85.974783, 73.533677], [85.891856, 73.518622], [85.786794, 73.48078], [85.784516, 73.455756], [85.802989, 73.402533], [85.797211, 73.364814], [85.833181, 73.331773], [85.914317, 73.30744], [86.233735, 73.254869], [86.254893, 73.231269], [86.247406, 73.223822], [86.328624, 73.180609], [86.522797, 73.163479], [86.663341, 73.122138], [86.713145, 73.083686], [86.734141, 73.03266], [86.782481, 73.000881], [86.781993, 73.046047], [86.765473, 73.083564], [86.659679, 73.151801], [86.583832, 73.175971], [86.489757, 73.184638], [86.377778, 73.244289], [86.250255, 73.27733], [85.93393, 73.32392], [85.893809, 73.339667], [85.852306, 73.37519], [85.850271, 73.402533], [85.858409, 73.423041], [85.844005, 73.439846], [85.882335, 73.496243], [85.97169, 73.519232], [86.074229, 73.528266], [86.203624, 73.557847], [86.772634, 73.583808], [86.8449, 73.606269], [87.111583, 73.604926], [87.164806, 73.611396], [87.344249, 73.704169], [87.323497, 73.708401], [87.273285, 73.689765], [87.248709, 73.690579], [87.280528, 73.729926], [87.327159, 73.75316], [87.55714, 73.801744], [87.617361, 73.823554], [87.653331, 73.861233], [87.645844, 73.868069], [87.664073, 73.890855], [87.645356, 73.905585], [87.610688, 73.91352], [87.544932, 73.914293], [87.530528, 73.907416], [87.529796, 73.864651], [87.5171, 73.850287], [87.454275, 73.824693], [87.430186, 73.820258], [87.362804, 73.826972], [87.296397, 73.841376], [87.166677, 73.896552], [87.144542, 73.930609], [87.08074, 73.960883], [87.043224, 73.992174], [86.963064, 74.017768], [86.940196, 74.033149], [86.997406, 74.049791], [87.257335, 74.03913], [87.366222, 74.010728], [87.419932, 74.012112], [87.362315, 74.047756], [87.290782, 74.06269], [86.895763, 74.070217], [86.850759, 74.087795], [86.864513, 74.108303], [86.723888, 74.132148], [86.730235, 74.143459], [86.802989, 74.184027], [86.711436, 74.224351], [86.505626, 74.255276], [86.02003, 74.262519], [85.974376, 74.27619], [85.948741, 74.292629], [85.960134, 74.320543], [85.911876, 74.339789], [85.905528, 74.354682], [85.936697, 74.368109], [86.158539, 74.357652], [86.29713, 74.313056], [86.309581, 74.32803], [86.308442, 74.339057], [86.281586, 74.347846], [86.254893, 74.388861], [86.202159, 74.401516], [86.095714, 74.403998], [86.04949, 74.416164], [86.069509, 74.423529], [86.201182, 74.431342], [86.253917, 74.419501], [86.315766, 74.437974], [86.475271, 74.458197], [86.590668, 74.437242], [86.621755, 74.412787], [86.639171, 74.409898], [86.597504, 74.395697], [86.623546, 74.387519], [86.706798, 74.395697], [86.782481, 74.382636], [86.850759, 74.395697], [86.953868, 74.388861], [86.926768, 74.365058], [86.886241, 74.350531], [86.700531, 74.320543], [86.698985, 74.307115], [86.715831, 74.301825], [86.781749, 74.307074], [86.833018, 74.301581], [86.858165, 74.306301], [86.906505, 74.335273], [86.948904, 74.342597], [86.959727, 74.338853], [86.991059, 74.296088], [86.968028, 74.279608], [86.992931, 74.27025], [87.020844, 74.273017], [87.042817, 74.285834], [87.050059, 74.306301], [87.002208, 74.354682], [87.015961, 74.367255], [87.118337, 74.354682], [87.26238, 74.354682], [87.125499, 74.3758], [87.080089, 74.38996], [87.060313, 74.402167], [87.063975, 74.413031], [87.087901, 74.426215], [87.092459, 74.435981], [87.079112, 74.442043], [86.795909, 74.42357], [86.768891, 74.444037], [86.706798, 74.450873], [86.68686, 74.478217], [86.625499, 74.484361], [86.590668, 74.505561], [86.535492, 74.512356], [86.564464, 74.525051], [86.758311, 74.547187], [86.782481, 74.560736], [86.491466, 74.566962], [86.439952, 74.581244], [86.370128, 74.585842], [86.324718, 74.603339], [86.193858, 74.621975], [85.740408, 74.635891], [85.798676, 74.662177], [85.864513, 74.6706], [85.834321, 74.686916], [85.842459, 74.701158], [85.900157, 74.723293], [85.937999, 74.727973], [86.016124, 74.714789], [86.056326, 74.71776], [86.101085, 74.735785], [86.120616, 74.751939], [86.125255, 74.773017], [86.109874, 74.788031], [86.028331, 74.813951], [86.090587, 74.820787], [86.121837, 74.807196], [86.196625, 74.810696], [86.280284, 74.783149], [86.367035, 74.775051], [86.377778, 74.758734], [86.21339, 74.76557], [86.282237, 74.734849], [86.321462, 74.707668], [86.354503, 74.706448], [86.411143, 74.727607], [86.473969, 74.725287], [86.639171, 74.697333], [86.607595, 74.674506], [86.604991, 74.663153], [86.618419, 74.655666], [86.68686, 74.656317], [86.666515, 74.642646], [86.691661, 74.621894], [86.717133, 74.617743], [86.775157, 74.629055], [86.842133, 74.630276], [86.95753, 74.608832], [86.968028, 74.615424], [86.96518, 74.625067], [86.926524, 74.635891], [86.902599, 74.65412], [86.953868, 74.683661], [86.906016, 74.690619], [86.794688, 74.685045], [86.762055, 74.704088], [86.816661, 74.71776], [86.809825, 74.725287], [86.858735, 74.74608], [86.914236, 74.757717], [86.968028, 74.755439], [87.037283, 74.723538], [87.063731, 74.725287], [87.06422, 74.748725], [87.081716, 74.773017], [87.036388, 74.79975], [87.06129, 74.839667], [87.097179, 74.862128], [87.385753, 74.944322], [87.363943, 74.957465], [87.250255, 74.96133], [87.172862, 74.985297], [87.212738, 75.002916], [87.269542, 75.011623], [87.42628, 75.005805], [87.479991, 74.98725], [87.433604, 74.96483], [87.445486, 74.953274], [87.574067, 74.929674], [87.598155, 74.936916], [87.556651, 74.961412], [87.563731, 74.96483], [87.666352, 74.978095], [87.695079, 74.991156], [87.706065, 75.004828], [87.680024, 75.012641], [87.736176, 75.013739], [87.789887, 75.026272], [87.732188, 75.038642], [87.454926, 75.038967], [87.41212, 75.04564], [87.364757, 75.039944], [87.323741, 75.06037], [87.267833, 75.072943], [87.035167, 75.092678], [86.940766, 75.074042], [86.898611, 75.087714], [86.937185, 75.126614], [87.024587, 75.164211], [87.201182, 75.169176], [87.539073, 75.141099], [87.587901, 75.143012], [87.952647, 75.100043], [87.992524, 75.10692], [88.083263, 75.143988], [88.11671, 75.145982], [88.139415, 75.12873], [88.169281, 75.150051], [88.306651, 75.176011], [88.314464, 75.180854], [88.326182, 75.234565], [88.371349, 75.255316], [88.517914, 75.28266], [88.625987, 75.266506], [88.59311, 75.295885], [88.550304, 75.314276], [88.611664, 75.344224], [88.752615, 75.350735], [88.81837, 75.362047], [88.769867, 75.375678], [88.84254, 75.398627], [88.924571, 75.412258], [89.008474, 75.414455], [89.085216, 75.403022], [89.056407, 75.425686], [89.007172, 75.433539], [88.73585, 75.409857], [88.757172, 75.416653], [89.016368, 75.451483], [89.132335, 75.452826], [89.170177, 75.462958], [89.245779, 75.506741], [89.311209, 75.478746], [89.393809, 75.465074], [89.395193, 75.448961], [89.703624, 75.443508], [89.722667, 75.451483], [89.623871, 75.477484], [89.612804, 75.492377], [89.635753, 75.504788], [90.057872, 75.519721], [90.035981, 75.54328], [89.914561, 75.560696], [89.954112, 75.577623], [90.598888, 75.611884], [90.755626, 75.652981], [90.886729, 75.670559], [90.906098, 75.667426], [90.91505, 75.643256], [90.944102, 75.625881], [90.978038, 75.620429], [91.014659, 75.624498], [91.128184, 75.665717], [91.194998, 75.663723], [91.186209, 75.642808], [91.217296, 75.632148], [91.29127, 75.628974], [91.450938, 75.650092], [91.580251, 75.637763], [91.62086, 75.643256], [91.6421, 75.654364], [91.648774, 75.668647], [91.641449, 75.684149], [91.62086, 75.698472], [91.659028, 75.723782], [91.700206, 75.736396], [91.742931, 75.73607], [91.812022, 75.71662], [91.901215, 75.732611], [92.007823, 75.725775], [92.225597, 75.75373], [92.371349, 75.740465], [92.516287, 75.772935], [92.861176, 75.793443], [93.18572, 75.826565], [93.549815, 75.853013], [94.052989, 75.915432], [94.163097, 75.944281], [94.144216, 75.955146], [94.052989, 75.930609], [93.740489, 75.900214], [93.664317, 75.902248], [93.594005, 75.916938], [93.603038, 75.93891], [93.580577, 75.950751], [93.546072, 75.953437], [93.518809, 75.947984], [93.447927, 75.908596], [93.494395, 75.895331], [93.463878, 75.880601], [93.418956, 75.87287], [93.313324, 75.930609], [93.32016, 75.937445], [93.258149, 75.951728], [93.32016, 75.972235], [93.277354, 75.982123], [93.1421, 75.957953], [93.00587, 75.944037], [92.964041, 75.930609], [93.107921, 75.910793], [93.071462, 75.88939], [93.007009, 75.886664], [92.888194, 75.89647], [92.901703, 75.912909], [92.884288, 75.934027], [92.826834, 75.965399], [92.92921, 75.992662], [92.911632, 76.017971], [92.914073, 76.029039], [92.92921, 76.033637], [92.923839, 76.05329], [92.952485, 76.06684], [92.993419, 76.074205], [93.040701, 76.071479], [93.101085, 76.023749], [93.210704, 76.04328], [93.230805, 76.054145], [93.219493, 76.070624], [93.120942, 76.095689], [93.430349, 76.106879], [93.429454, 76.099107], [93.353363, 76.080715], [93.333832, 76.067776], [93.375743, 76.050971], [93.422048, 76.047309], [93.38795, 76.020657], [93.427013, 76.01203], [93.531912, 76.047309], [93.628184, 76.047309], [93.703949, 76.061591], [93.76531, 76.040473], [93.847911, 76.054145], [93.960704, 76.048326], [93.998709, 76.054145], [93.934906, 76.080471], [93.881602, 76.073676], [93.783539, 76.102973], [93.689789, 76.095689], [93.635509, 76.122992], [93.685802, 76.13227], [94.102306, 76.122504], [94.201345, 76.104804], [94.328949, 76.123847], [94.374197, 76.120795], [94.394786, 76.10871], [94.382335, 76.095689], [94.428396, 76.091742], [94.471528, 76.075263], [94.436778, 76.061591], [94.459483, 76.051703], [94.59547, 76.06391], [94.615001, 76.075263], [94.587169, 76.084621], [94.586762, 76.092353], [94.60434, 76.099555], [94.656912, 76.113023], [94.738536, 76.115627], [94.709809, 76.139472], [94.649913, 76.149115], [94.539887, 76.149726], [94.572765, 76.15998], [94.834727, 76.149726], [94.93214, 76.111762], [95.055431, 76.112006], [95.153331, 76.132229], [95.255056, 76.123196], [95.341319, 76.154975], [95.389822, 76.164008], [95.872895, 76.138129], [95.975108, 76.114203], [96.137055, 76.107123], [96.196462, 76.087551], [96.192556, 76.079779], [96.143403, 76.075873], [96.037608, 76.081366], [95.992931, 76.061591], [96.061209, 76.059638], [96.074962, 76.047309], [95.978689, 76.033637], [96.012706, 76.002631], [96.004893, 75.993354], [95.918468, 75.989407], [95.851329, 75.974311], [95.711436, 75.90705], [95.678477, 75.89883], [95.605479, 75.898627], [95.575206, 75.888983], [95.678884, 75.862128], [95.739513, 75.856431], [95.820974, 75.916938], [95.937266, 75.949164], [96.076427, 75.961575], [96.173106, 75.949897], [96.309255, 75.958808], [96.341807, 75.972235], [96.265961, 75.992662], [96.301117, 75.999335], [96.374522, 75.995347], [96.479828, 76.015611], [96.518565, 76.015774], [96.547862, 76.006334], [96.500011, 75.97842], [96.638682, 75.984687], [96.664561, 75.965399], [96.573904, 75.937567], [96.463878, 75.880032], [96.437999, 75.875963], [96.461436, 75.871894], [96.686371, 75.906724], [96.835216, 75.888983], [96.830577, 75.915432], [96.862966, 75.928046], [96.937836, 75.935696], [97.002615, 75.975246], [97.061778, 75.985826], [97.250987, 76.043402], [97.396821, 76.047309], [97.199229, 75.993109], [97.19158, 75.982123], [97.198741, 75.975816], [97.246755, 75.957953], [97.213552, 75.949205], [97.185313, 75.930609], [97.312266, 75.934516], [97.342296, 75.944281], [97.313487, 75.954901], [97.317149, 75.965277], [97.394379, 75.988715], [97.456065, 75.983344], [97.519216, 75.991767], [97.63795, 75.989936], [97.706065, 75.97842], [97.823904, 75.988105], [97.84254, 75.992377], [97.836192, 76.009019], [97.820567, 76.018785], [97.700938, 76.0515], [97.5796, 76.047797], [97.54835, 76.054145], [97.625824, 76.081936], [97.712169, 76.096096], [97.798595, 76.09455], [97.912852, 76.059312], [98.09547, 76.087836], [98.161388, 76.090806], [98.219981, 76.102525], [98.018728, 76.105292], [97.917735, 76.122992], [98.027599, 76.157172], [98.118419, 76.148098], [98.165375, 76.17829], [98.34311, 76.17768], [98.404307, 76.184272], [98.576182, 76.231635], [98.816417, 76.267035], [98.78297, 76.231635], [98.712738, 76.204983], [98.836925, 76.198147], [98.932872, 76.225409], [99.17213, 76.212388], [99.165294, 76.218573], [99.235037, 76.223578], [99.274099, 76.216864], [99.295584, 76.204983], [99.244965, 76.198676], [99.200043, 76.17768], [99.234141, 76.164008], [99.09018, 76.164008], [99.214366, 76.12995], [99.574229, 76.155097], [99.599783, 76.130561], [99.46754, 76.10871], [99.5171, 76.086005], [99.576182, 76.081488], [99.555675, 76.067776], [99.571056, 76.064399], [99.663097, 76.082913], [99.754893, 76.049018], [99.762462, 76.035102], [99.74464, 76.009752], [99.681814, 75.96601], [99.691661, 75.913764], [99.676524, 75.892483], [99.67921, 75.875963], [99.614757, 75.837226], [99.424001, 75.793443], [99.570649, 75.779731], [99.612641, 75.789293], [99.71339, 75.862372], [99.859874, 75.899482], [99.902354, 75.927191], [99.913341, 75.953274], [99.899913, 75.975735], [99.825206, 76.024359], [99.868907, 76.069973], [99.877778, 76.095689], [99.865733, 76.107652], [99.809581, 76.129218], [99.79835, 76.156195], [99.643077, 76.196275], [99.623871, 76.221991], [99.615001, 76.255072], [99.590668, 76.272406], [99.555837, 76.278998], [99.394867, 76.280015], [99.354015, 76.318549], [99.315196, 76.341295], [99.264985, 76.35224], [99.066173, 76.353095], [99.020193, 76.362372], [99.028087, 76.389879], [99.020193, 76.399482], [98.924083, 76.449774], [98.828136, 76.473334], [98.816417, 76.482408], [98.817882, 76.494208], [98.848888, 76.517279], [98.874766, 76.520941], [99.508556, 76.468736], [99.779796, 76.475328], [99.892426, 76.488959], [100.0, 76.4900108780694], [100.0, 70.0], [80.0, 70.0], [80.0, 72.21030752241968], [80.010102, 72.20775]]], [[[86.792491, 73.645209], [86.789399, 73.637885], [86.798839, 73.625718], [86.796153, 73.614814], [86.783946, 73.608222], [86.398936, 73.594387], [86.487641, 73.621649], [86.509613, 73.641832], [86.693696, 73.662665], [86.851085, 73.698554], [86.906016, 73.704169], [86.792491, 73.645209]]], [[[97.293305, 76.09634], [97.334809, 76.10871], [97.304861, 76.083401], [97.178477, 76.054145], [97.047374, 76.006334], [96.748057, 75.981024], [96.698578, 75.995795], [96.713145, 76.021633], [96.747732, 76.030992], [97.158051, 76.088284], [97.293305, 76.09634]]], [[[95.197276, 76.164008], [95.155935, 76.153713], [95.101573, 76.154975], [95.006033, 76.17768], [95.048839, 76.191555], [95.081228, 76.218573], [95.101573, 76.225409], [95.181814, 76.185533], [95.177419, 76.170844], [95.197276, 76.164008]]], [[[94.855235, 76.239081], [94.903575, 76.212388], [94.848888, 76.186103], [94.781016, 76.18122], [94.557628, 76.204413], [94.500255, 76.189643], [94.410167, 76.212388], [94.492198, 76.239081], [94.778656, 76.210924], [94.799978, 76.218573], [94.770518, 76.242662], [94.738536, 76.253363], [94.752208, 76.259589], [94.745372, 76.259589], [94.822439, 76.265123], [94.896739, 76.280015], [94.914073, 76.292792], [94.944021, 76.280015], [94.999197, 76.273261], [94.855235, 76.239081]]], [[[96.72462, 76.346381], [96.766938, 76.335273], [96.719737, 76.322252], [96.697927, 76.297512], [96.684744, 76.294338], [96.610606, 76.323228], [96.433767, 76.321112], [96.383311, 76.335273], [96.427257, 76.345364], [96.72462, 76.346381]]], [[[96.929942, 76.261542], [97.04127, 76.239081], [96.908946, 76.220404], [96.760916, 76.176418], [96.72934, 76.181098], [96.715994, 76.208686], [96.71697, 76.222724], [96.740245, 76.252021], [96.725841, 76.259589], [96.781016, 76.280707], [96.815766, 76.303656], [96.876801, 76.322252], [96.82838, 76.341498], [96.854015, 76.355658], [96.885265, 76.355373], [96.94516, 76.339911], [97.031423, 76.341864], [97.043142, 76.320299], [97.07545, 76.30801], [96.985606, 76.282172], [96.890147, 76.280015], [96.859548, 76.272162], [96.787364, 76.212388], [96.818696, 76.214179], [96.896658, 76.256496], [96.929942, 76.261542]]], [[[94.316417, 76.589667], [94.362315, 76.574897], [93.868337, 76.588568], [93.944102, 76.616441], [94.316417, 76.589667]]], [[[95.327485, 76.664252], [95.285167, 76.642524], [95.227794, 76.63996], [95.118419, 76.650621], [94.84669, 76.637844], [94.821462, 76.642727], [94.817638, 76.653998], [94.839041, 76.667914], [94.867849, 76.673977], [95.065929, 76.681383], [95.122081, 76.718899], [95.129161, 76.706732], [95.163097, 76.705268], [95.196625, 76.686754], [95.327485, 76.664252]]], [[[93.807673, 78.143112], [93.62908, 78.15705], [93.592914, 78.172398], [93.599564, 78.18768], [93.646473, 78.197674], [93.792723, 78.203025], [93.914868, 78.168992], [93.920874, 78.157024], [93.807673, 78.143112]]], [[[92.659923, 79.091783], [92.724376, 79.07685], [92.516612, 79.08039], [92.242198, 79.11522], [92.175629, 79.130845], [92.21339, 79.139553], [92.659923, 79.091783]]], [[[92.948253, 79.40351], [92.904307, 79.397935], [92.813243, 79.398993], [92.820567, 79.391588], [92.79184, 79.383246], [92.668956, 79.3876], [92.593516, 79.405219], [92.58725, 79.415107], [92.79127, 79.440009], [92.892426, 79.435736], [92.990571, 79.419501], [92.948253, 79.40351]]], [[[92.470551, 79.432563], [92.265147, 79.412665], [92.305431, 79.391588], [92.243826, 79.38231], [91.784679, 79.419501], [91.949718, 79.422675], [92.070567, 79.413886], [92.111583, 79.421129], [92.181814, 79.447821], [92.305431, 79.45303], [92.470551, 79.432563]]], [[[91.531261, 79.449286], [91.463145, 79.459866], [91.38502, 79.460883], [91.360118, 79.467271], [91.363617, 79.477851], [91.194835, 79.515082], [90.793793, 79.563544], [91.144216, 79.53734], [91.531261, 79.449286]]], [[[99.944102, 79.590766], [99.905772, 79.603827], [99.935069, 79.631903], [99.94044, 79.645453], [99.936046, 79.674302], [99.946625, 79.686428], [99.982921, 79.697903], [100.0, 79.69831135127573], [100.0, 79.61198460729189], [99.944102, 79.590766]]], [[[94.249848, 80.011054], [94.169444, 80.008531], [94.182953, 79.994859], [94.154145, 79.983344], [93.993988, 79.964789], [93.929861, 79.974433], [93.954356, 79.999091], [93.984386, 80.015367], [94.125824, 80.018866], [94.250255, 80.040107], [94.327647, 80.028998], [94.249848, 80.011054]]], [[[84.328136, 74.012519], [84.418305, 73.970445], [84.378591, 73.956041], [84.334239, 73.955471], [84.228689, 73.966946], [84.178722, 73.984768], [83.91212, 73.993598], [83.88502, 74.006537], [83.884532, 74.018866], [84.017589, 74.034369], [84.157888, 74.018866], [84.244965, 74.024156], [84.379405, 74.047675], [84.406505, 74.048], [84.418305, 74.039984], [84.410899, 74.027248], [84.393077, 74.020982], [84.328136, 74.012519]]], [[[83.569672, 74.114325], [83.620128, 74.090888], [83.613048, 74.080878], [83.527599, 74.067328], [83.534841, 74.082506], [83.503103, 74.085598], [83.395518, 74.07453], [83.403656, 74.062079], [83.465587, 74.04682], [83.43336, 74.036811], [83.392345, 74.035793], [83.081309, 74.087104], [82.828136, 74.080308], [82.828136, 74.087795], [82.814464, 74.09398], [82.859223, 74.118598], [82.917491, 74.130927], [83.059093, 74.136786], [83.180024, 74.155178], [83.569672, 74.114325]]], [[[82.740001, 74.101386], [82.61964, 74.054999], [82.592133, 74.056464], [82.551768, 74.07392], [82.352875, 74.080878], [82.334321, 74.085639], [82.317556, 74.116848], [82.333263, 74.134467], [82.398692, 74.152899], [82.568044, 74.162909], [82.740001, 74.101386]]], [[[84.933116, 74.492906], [84.934825, 74.482001], [84.850841, 74.468004], [84.673595, 74.477607], [84.578624, 74.468492], [84.54184, 74.457099], [84.767833, 74.409898], [84.732758, 74.395697], [84.43922, 74.425523], [84.397797, 74.440619], [84.386567, 74.457668], [84.591807, 74.498928], [84.87086, 74.505561], [84.933116, 74.492906]]], [[[85.644786, 74.546454], [85.630707, 74.511298], [85.495372, 74.499416], [85.501313, 74.464545], [85.31186, 74.465644], [85.208507, 74.489814], [85.166759, 74.511868], [85.148123, 74.537177], [85.178559, 74.560736], [85.237478, 74.575263], [85.53891, 74.574408], [85.644786, 74.546454]]], [[[86.202159, 74.533881], [86.207205, 74.512356], [86.113048, 74.48725], [86.079926, 74.508694], [86.039073, 74.515326], [85.968272, 74.512356], [85.983897, 74.496161], [86.008556, 74.491889], [85.977875, 74.469428], [85.858409, 74.444037], [85.803722, 74.442328], [85.658458, 74.471381], [85.727306, 74.501776], [85.802989, 74.574408], [85.939138, 74.582465], [86.202159, 74.533881]]], [[[85.114513, 74.745836], [85.09669, 74.755601], [85.113292, 74.765692], [85.346202, 74.777899], [85.408702, 74.790025], [85.466645, 74.813951], [85.49586, 74.81387], [85.559825, 74.79975], [85.634776, 74.80272], [85.658458, 74.793524], [85.650645, 74.771145], [85.661957, 74.753852], [85.706228, 74.731431], [85.678966, 74.723131], [85.60377, 74.738267], [85.506033, 74.716254], [85.427989, 74.745063], [85.365733, 74.752509], [85.114513, 74.745836]]], [[[87.122081, 74.951646], [87.138845, 74.936916], [87.077647, 74.899644], [86.994151, 74.883734], [86.945486, 74.884101], [86.855235, 74.912828], [86.726573, 74.916205], [86.69988, 74.910102], [86.68686, 74.895941], [86.740896, 74.871324], [86.826182, 74.851264], [86.947032, 74.840725], [86.919607, 74.81981], [86.871593, 74.820461], [86.732432, 74.849514], [86.570811, 74.840725], [86.467784, 74.854967], [86.319835, 74.850898], [86.298188, 74.857652], [86.279063, 74.882514], [86.21339, 74.903388], [86.25115, 74.918647], [86.320079, 74.900295], [86.509451, 74.890326], [86.565929, 74.896918], [86.597504, 74.91706], [86.501313, 74.93065], [86.529307, 74.950588], [86.495128, 74.978461], [86.523936, 74.986965], [86.639171, 74.972235], [86.618663, 74.950588], [86.718923, 74.954779], [86.915782, 74.989325], [87.028982, 74.991523], [87.122081, 74.951646]]], [[[82.150401, 75.121487], [82.150401, 75.09516], [82.026703, 75.12873], [82.08253, 75.158026], [82.113292, 75.158637], [82.150401, 75.121487]]], [[[82.294281, 75.334174], [82.076915, 75.346137], [82.041189, 75.337836], [82.052582, 75.298163], [82.033702, 75.280097], [82.045421, 75.255805], [82.010916, 75.247219], [81.992686, 75.232367], [82.011729, 75.209621], [82.005626, 75.183295], [82.013031, 75.177151], [81.956391, 75.182034], [81.906586, 75.208157], [81.894542, 75.223944], [81.896983, 75.266506], [81.870779, 75.315904], [81.817638, 75.323717], [81.802013, 75.316148], [81.813975, 75.293158], [81.758556, 75.293199], [81.731212, 75.29914], [81.711599, 75.314276], [81.725108, 75.287014], [81.688487, 75.277045], [81.553884, 75.320502], [81.581716, 75.348456], [81.511078, 75.350287], [81.492442, 75.362047], [81.524913, 75.381252], [81.751801, 75.463284], [81.793305, 75.465074], [81.741222, 75.424262], [81.731944, 75.406928], [81.77296, 75.396796], [81.73878, 75.382514], [81.939626, 75.3935], [81.965343, 75.403022], [81.921397, 75.43301], [81.869151, 75.444037], [81.887706, 75.455268], [81.95102, 75.465074], [81.95102, 75.478746], [81.896983, 75.492377], [81.959972, 75.509752], [82.170746, 75.519721], [82.150401, 75.506741], [82.130138, 75.457221], [82.134288, 75.440823], [82.164561, 75.43773], [82.131358, 75.424302], [82.013031, 75.444037], [82.052908, 75.419623], [82.203949, 75.414944], [82.217784, 75.40762], [82.239594, 75.375678], [82.294281, 75.334174]]], [[[82.228038, 75.88703], [82.259044, 75.875963], [82.223155, 75.860419], [81.761404, 75.893866], [81.678884, 75.913153], [81.593272, 75.917182], [81.553884, 75.930609], [81.627615, 75.936754], [81.636404, 75.930609], [81.686371, 75.931464], [82.109548, 75.888983], [82.228038, 75.88703]]], [[[83.29713, 75.943101], [83.276052, 75.930732], [83.212901, 75.916938], [83.061534, 75.930609], [82.862315, 75.917182], [82.843272, 75.924872], [82.85613, 75.944281], [82.823985, 75.954779], [82.707286, 75.944281], [82.533946, 75.957953], [82.389415, 75.944281], [82.277843, 75.95539], [82.259044, 75.972235], [82.415294, 75.965074], [82.561209, 75.998847], [82.657481, 75.998847], [82.695567, 75.990627], [83.27947, 75.956285], [83.29713, 75.943101]]], [[[96.646332, 76.24787], [96.589366, 76.212388], [96.57838, 76.194648], [96.595551, 76.157172], [96.54949, 76.163153], [96.519867, 76.19066], [96.561534, 76.231635], [96.446788, 76.271633], [96.403819, 76.273261], [96.346853, 76.254706], [96.355317, 76.242499], [96.424327, 76.212388], [96.381114, 76.206], [96.278494, 76.222235], [96.246104, 76.204983], [96.370372, 76.189887], [96.396495, 76.17768], [96.400564, 76.155178], [96.3213, 76.136054], [96.36964, 76.115627], [96.344737, 76.105048], [96.301768, 76.111396], [96.181407, 76.15469], [95.891368, 76.153632], [95.704112, 76.176093], [95.663341, 76.19066], [95.670177, 76.198147], [95.310557, 76.201158], [95.266124, 76.218573], [95.3213, 76.239081], [95.310883, 76.248196], [95.313975, 76.276597], [95.32488, 76.286078], [95.349946, 76.288764], [95.469493, 76.285834], [95.541026, 76.253363], [95.533702, 76.245917], [95.57016, 76.238186], [95.613617, 76.245347], [95.727061, 76.290717], [95.812266, 76.302924], [95.848888, 76.294338], [95.872325, 76.279527], [96.021983, 76.286851], [96.068126, 76.280015], [96.072276, 76.235785], [96.104177, 76.231635], [96.144298, 76.245022], [96.174164, 76.276597], [96.219574, 76.301215], [96.28297, 76.309272], [96.644054, 76.267035], [96.646332, 76.24787]]], [[[96.394216, 76.679877], [96.361339, 76.665473], [96.36964, 76.643215], [96.313487, 76.622545], [96.25294, 76.616441], [96.154307, 76.623196], [96.092052, 76.614203], [95.996349, 76.622707], [95.944184, 76.609605], [95.889903, 76.616441], [95.896658, 76.635647], [95.889903, 76.650621], [95.925629, 76.66592], [96.004161, 76.679633], [96.080089, 76.668158], [96.194021, 76.69477], [96.232432, 76.712063], [96.383311, 76.705268], [96.465831, 76.712063], [96.472016, 76.691596], [96.394216, 76.679877]]], [[[95.733653, 76.698432], [95.834727, 76.691596], [95.792654, 76.669338], [95.684418, 76.651068], [95.528656, 76.648749], [95.479747, 76.654242], [95.437348, 76.671088], [95.437755, 76.689521], [95.417003, 76.705268], [95.520844, 76.716783], [95.554047, 76.705268], [95.59547, 76.676418], [95.619151, 76.670396], [95.733653, 76.698432]]], [[[97.484874, 76.630276], [97.596202, 76.6022], [97.565196, 76.586737], [97.525401, 76.582221], [97.417003, 76.598944], [97.34311, 76.599311], [97.314952, 76.609605], [97.391368, 76.634955], [97.386974, 76.653998], [97.371918, 76.672309], [97.288259, 76.691596], [97.384125, 76.714586], [97.4463, 76.714748], [97.46754, 76.696723], [97.478526, 76.672593], [97.476329, 76.650336], [97.484874, 76.630276]]], [[[96.545746, 77.193549], [96.566417, 77.156195], [96.589366, 77.14411], [96.477224, 77.082221], [96.265961, 77.034247], [96.282725, 77.019721], [96.307628, 77.013658], [96.235037, 76.990465], [96.191254, 76.98843], [96.119802, 77.006741], [96.006602, 76.985785], [95.684418, 76.952297], [95.79713, 76.992621], [95.917003, 77.002387], [95.951427, 77.013658], [95.918468, 77.030707], [95.869884, 77.030463], [95.78004, 77.013658], [95.257091, 76.991604], [95.231944, 77.006293], [95.420665, 77.055487], [95.580821, 77.078559], [95.704845, 77.075141], [96.302013, 77.160631], [96.462169, 77.210273], [96.527354, 77.205512], [96.545746, 77.193549]]], [[[89.727551, 77.244077], [89.81702, 77.21059], [89.746795, 77.164424], [89.49279, 77.140757], [89.301216, 77.147222], [89.134613, 77.217719], [89.162934, 77.249945], [89.213064, 77.277899], [89.304373, 77.307929], [89.604015, 77.312567], [89.653168, 77.302436], [89.68922, 77.280585], [89.727551, 77.244077]]], [[[99.871267, 77.952216], [99.658702, 77.965888], [99.514659, 77.943549], [99.473806, 77.959662], [99.371349, 77.959662], [99.426036, 77.987006], [99.386974, 78.003485], [99.344005, 78.007473], [99.350271, 78.021145], [99.268321, 78.041571], [99.304454, 78.054633], [99.426036, 78.07567], [99.535818, 78.144599], [99.522146, 78.165269], [99.543142, 78.179674], [99.603526, 78.192369], [99.597341, 78.199205], [99.755138, 78.264553], [99.802257, 78.270738], [99.968761, 78.334418], [100.0, 78.3378121498665], [100.0, 77.95950422202077], [99.871267, 77.952216]]], [[[99.998057, 78.384833], [100.0, 78.38702778644974], [100.0, 78.38372949260942], [99.998057, 78.384833]]], [[[93.723888, 79.927314], [93.771007, 79.918036], [93.813731, 79.898668], [93.746837, 79.856147], [93.669932, 79.831732], [93.464122, 79.801825], [93.361827, 79.775214], [93.279063, 79.767646], [93.052094, 79.715277], [92.624766, 79.672797], [91.921886, 79.678941], [91.970225, 79.693264], [91.915701, 79.706936], [91.944509, 79.715888], [92.148123, 79.734198], [92.205089, 79.730211], [92.283214, 79.711819], [92.308442, 79.714504], [92.353282, 79.734198], [92.322113, 79.756822], [92.280772, 79.771064], [92.099457, 79.809882], [91.07252, 79.850979], [91.059093, 79.860785], [91.065929, 79.876899], [91.082774, 79.883979], [91.26238, 79.903022], [91.298595, 79.919135], [91.232432, 79.941799], [91.087169, 79.952379], [91.017589, 79.966986], [91.153819, 79.980048], [91.181895, 79.994859], [91.179861, 80.011176], [91.161469, 80.026842], [91.113617, 80.048896], [90.894867, 80.054999], [90.866547, 80.062567], [90.90211, 80.073635], [91.596446, 80.037828], [91.782074, 80.063788], [92.040294, 80.037299], [92.424327, 80.030707], [92.648774, 79.983791], [93.723888, 79.927314]]], [[[99.863048, 79.024359], [99.887543, 79.001451], [99.946625, 78.97012], [99.925548, 78.94599], [99.877208, 78.931138], [99.686046, 78.898139], [99.630382, 78.867621], [99.40561, 78.822455], [99.133067, 78.82746], [98.927501, 78.807318], [98.602712, 78.815863], [98.555186, 78.802558], [98.602712, 78.792548], [98.5796, 78.782172], [98.327403, 78.784735], [98.240489, 78.808783], [98.08961, 78.808783], [98.116954, 78.81623], [98.082774, 78.824205], [97.945567, 78.808783], [97.760753, 78.808783], [97.738536, 78.821112], [97.673513, 78.828111], [97.442231, 78.817206], [97.40447, 78.829901], [97.452322, 78.838039], [97.559744, 78.830512], [97.603038, 78.843492], [97.557872, 78.854682], [97.263927, 78.853013], [97.219493, 78.863349], [97.226817, 78.870795], [97.201671, 78.878485], [97.12322, 78.885077], [96.918712, 78.941352], [96.842052, 78.94595], [96.869395, 78.966986], [96.798513, 78.989203], [96.280284, 78.99433], [96.354503, 79.006781], [96.36964, 79.021674], [95.932465, 78.992906], [95.855235, 79.000556], [95.672537, 79.000963], [95.653494, 79.011135], [95.652599, 79.038398], [95.642833, 79.048977], [95.670177, 79.069403], [95.575206, 79.083075], [95.561778, 79.097073], [95.523774, 79.109076], [95.42213, 79.106269], [95.289236, 79.072496], [95.06658, 79.038153], [95.01824, 79.03852], [94.97934, 79.055162], [94.992442, 79.062649], [94.957286, 79.069525], [94.826671, 79.066636], [94.632335, 79.127427], [94.622813, 79.137641], [94.64975, 79.179267], [94.617361, 79.201321], [94.364513, 79.236884], [94.333995, 79.248603], [94.320811, 79.264309], [94.323253, 79.282538], [94.354828, 79.315863], [94.313324, 79.350002], [94.321056, 79.362047], [94.320811, 79.391588], [94.362315, 79.440009], [94.312266, 79.479193], [94.222911, 79.48664], [94.053233, 79.473538], [94.080577, 79.446845], [94.04127, 79.429755], [93.988048, 79.427151], [93.739268, 79.44774], [93.696951, 79.459866], [93.768403, 79.471747], [93.924571, 79.470526], [93.991222, 79.494045], [93.958832, 79.505683], [93.792491, 79.520901], [93.748871, 79.54385], [93.690196, 79.542426], [93.800059, 79.562934], [93.882009, 79.603827], [93.765147, 79.603827], [93.720958, 79.595404], [93.70281, 79.586737], [93.703868, 79.576565], [93.685395, 79.563178], [93.558279, 79.549384], [93.449474, 79.514553], [93.443126, 79.501451], [93.539317, 79.487128], [93.36378, 79.469916], [93.361827, 79.459866], [93.303477, 79.445258], [93.23585, 79.438951], [93.169281, 79.445014], [93.114106, 79.467271], [93.163097, 79.484076], [93.272716, 79.487006], [93.32016, 79.501451], [93.278819, 79.519761], [93.17628, 79.528754], [93.054454, 79.518541], [93.018565, 79.528754], [93.041759, 79.534329], [92.854177, 79.556098], [92.903331, 79.574693], [92.970714, 79.572252], [93.157074, 79.54267], [93.280284, 79.552476], [93.551524, 79.609117], [93.610606, 79.613511], [93.761485, 79.650702], [93.785655, 79.658515], [93.794444, 79.688178], [93.847911, 79.709662], [94.169444, 79.775214], [94.690115, 79.816107], [94.640798, 79.833726], [94.563324, 79.840318], [94.51588, 79.85399], [94.359874, 79.867906], [94.347992, 79.884996], [94.322765, 79.893988], [94.22462, 79.898668], [94.25294, 79.916571], [94.296641, 79.926581], [94.382335, 79.933417], [94.370372, 79.946682], [94.320811, 79.966986], [94.351248, 79.976996], [94.451182, 79.966986], [94.749766, 80.007473], [94.799978, 80.028998], [94.793712, 80.04267], [94.899181, 80.05386], [94.935557, 80.071275], [94.909841, 80.097317], [94.951996, 80.104478], [94.992931, 80.101874], [95.107758, 80.073432], [95.107758, 80.056342], [95.206391, 80.039374], [95.241873, 80.021552], [95.349294, 80.032538], [95.363048, 80.079169], [95.401378, 80.093451], [95.502126, 80.111477], [96.10963, 80.110989], [96.102794, 80.090481], [96.174083, 80.091498], [96.27003, 80.117825], [96.360037, 80.0987], [96.501475, 80.106635], [96.566417, 80.131415], [96.607921, 80.138251], [96.715668, 80.117825], [97.154796, 80.154446], [97.592133, 80.174872], [97.739268, 80.149237], [97.774262, 80.131415], [97.829438, 80.131415], [97.943696, 80.078599], [98.042979, 80.071112], [98.08961, 80.056342], [98.058849, 80.031806], [98.007172, 80.014594], [97.84783, 79.996527], [97.841807, 79.992255], [97.856212, 79.977484], [97.768077, 79.946479], [97.829438, 79.933417], [97.81422, 79.916327], [97.751964, 79.886176], [97.615733, 79.856879], [97.58253, 79.857123], [97.658214, 79.829779], [97.624278, 79.822659], [97.551524, 79.823717], [97.520518, 79.809272], [97.630382, 79.788804], [97.608735, 79.776597], [97.443858, 79.744615], [97.213145, 79.720364], [97.19158, 79.706936], [97.215587, 79.700629], [97.277843, 79.702867], [97.327891, 79.719062], [97.705821, 79.76317], [97.719574, 79.771715], [97.723155, 79.805365], [97.897227, 79.84455], [97.917735, 79.857123], [97.884044, 79.877183], [97.892833, 79.892401], [97.926117, 79.902167], [98.087901, 79.905504], [98.255626, 79.87287], [98.377208, 79.877875], [98.45281, 79.905504], [98.41863, 79.919135], [98.486827, 79.939643], [98.473155, 79.946479], [98.487315, 79.955552], [98.582367, 79.975979], [98.577891, 79.982571], [98.465587, 79.999905], [98.439138, 80.015367], [98.515391, 80.052314], [98.556977, 80.058539], [98.756196, 80.037787], [99.198985, 80.049994], [99.247813, 80.035834], [99.158458, 80.015367], [99.230724, 80.010199], [99.331716, 80.019761], [99.362804, 80.012152], [99.375824, 80.000434], [99.350271, 79.988023], [99.375824, 79.97956], [99.563162, 79.966986], [99.50172, 79.953315], [99.535818, 79.935736], [99.665538, 79.933417], [99.734874, 79.923163], [99.803396, 79.905504], [99.819347, 79.885647], [99.880626, 79.85928], [99.962576, 79.846096], [100.0, 79.83201138987579], [100.0, 79.75462942747309], [99.939789, 79.74726], [99.842052, 79.748765], [99.817068, 79.741645], [99.881114, 79.711412], [99.885997, 79.693264], [99.867361, 79.678534], [99.767914, 79.645453], [99.779796, 79.633043], [99.778168, 79.624945], [99.739431, 79.584377], [99.707205, 79.569078], [99.725352, 79.552558], [99.789073, 79.521918], [99.70281, 79.489651], [99.686046, 79.473538], [99.702322, 79.441881], [99.733735, 79.419501], [99.697276, 79.39643], [99.6963, 79.38817], [99.748057, 79.364244], [99.666677, 79.312242], [99.603526, 79.295966], [99.583018, 79.274888], [99.470063, 79.266303], [99.460134, 79.247545], [99.414806, 79.264635], [99.146983, 79.310696], [99.089203, 79.309149], [99.034923, 79.295966], [99.062266, 79.280015], [99.583181, 79.172797], [99.61085, 79.15884], [99.55128, 79.145006], [99.488048, 79.145168], [99.527029, 79.123765], [99.821056, 79.101467], [99.854503, 79.089911], [99.885997, 79.04149], [99.863048, 79.024359]]], [[[80.437185, 80.940172], [80.399913, 80.885932], [80.326427, 80.860541], [80.0, 80.84588270104153], [80.0, 80.96487328570802], [80.437185, 80.940172]]], [[[91.573904, 81.135565], [91.37086, 81.104071], [91.344249, 81.096259], [91.332774, 81.080756], [91.186209, 81.05683], [89.996349, 81.105292], [89.914561, 81.132636], [89.923025, 81.158026], [89.893891, 81.17357], [90.022797, 81.205959], [90.064708, 81.207099], [90.071544, 81.214545], [91.454845, 81.192613], [91.573904, 81.135565]]], [[[97.801117, 80.733873], [97.926524, 80.740953], [97.972911, 80.721137], [97.944102, 80.700141], [97.780284, 80.691067], [97.719005, 80.663642], [97.555349, 80.674262], [97.37322, 80.652777], [97.329845, 80.653225], [97.288259, 80.665839], [97.2942, 80.670722], [97.130626, 80.665839], [97.19158, 80.645331], [97.16033, 80.622545], [97.081879, 80.602525], [97.047374, 80.58393], [97.059418, 80.572252], [97.019786, 80.548041], [97.020763, 80.525865], [97.148774, 80.487006], [97.146983, 80.453681], [97.187348, 80.444403], [97.208507, 80.430854], [97.209809, 80.410468], [97.19158, 80.391547], [97.193614, 80.370551], [97.205821, 80.355618], [97.225841, 80.346666], [97.334809, 80.343695], [97.422862, 80.326972], [97.414236, 80.310533], [97.389985, 80.295722], [97.219493, 80.261786], [97.233084, 80.248114], [97.187999, 80.233588], [95.033946, 80.138251], [94.863048, 80.151557], [94.718028, 80.117825], [94.53004, 80.131008], [94.505707, 80.12523], [94.457774, 80.094428], [94.172537, 80.041571], [93.850597, 80.020209], [93.749848, 79.996772], [93.694102, 79.998114], [92.984386, 80.097317], [92.990571, 80.103461], [92.965017, 80.111029], [92.504893, 80.15766], [92.408458, 80.151923], [92.065766, 80.172431], [92.090994, 80.182685], [92.167328, 80.1883], [92.182465, 80.20718], [92.195323, 80.208157], [92.837413, 80.160142], [92.888194, 80.172431], [92.85727, 80.187974], [92.775727, 80.189765], [92.699962, 80.203681], [92.438975, 80.21011], [92.362071, 80.226467], [92.281016, 80.230414], [92.243988, 80.241278], [92.252126, 80.248114], [92.217621, 80.265326], [92.129649, 80.275865], [92.107432, 80.28974], [92.692068, 80.29914], [93.289399, 80.266832], [93.32016, 80.276068], [93.244395, 80.309556], [93.192149, 80.316474], [92.735525, 80.311306], [91.531993, 80.28974], [91.6185, 80.304389], [91.641287, 80.317043], [91.503429, 80.306708], [91.42213, 80.309556], [91.472423, 80.350409], [91.624685, 80.359565], [91.688975, 80.371649], [91.662364, 80.38524], [91.98878, 80.401597], [92.070649, 80.388373], [92.120942, 80.398993], [92.100108, 80.404364], [92.562266, 80.379462], [92.627615, 80.391547], [92.096853, 80.418891], [91.887706, 80.460395], [92.276622, 80.509467], [92.769298, 80.51675], [92.792654, 80.529283], [92.793224, 80.547431], [92.820567, 80.58393], [92.801768, 80.595893], [92.778982, 80.59691], [92.813243, 80.617418], [92.825206, 80.650621], [92.888682, 80.680487], [93.239594, 80.769436], [93.272472, 80.782538], [93.270274, 80.797105], [92.898448, 80.76203], [92.755138, 80.775702], [92.682384, 80.755194], [92.534679, 80.753079], [92.502615, 80.758612], [92.497244, 80.775702], [92.520356, 80.792182], [92.628184, 80.809882], [92.685802, 80.842678], [92.731212, 80.851467], [92.708832, 80.872626], [92.676524, 80.87873], [92.805186, 80.891791], [92.888845, 80.91059], [93.106944, 80.920722], [93.148448, 80.930732], [93.162608, 80.946967], [93.075857, 80.973456], [93.073253, 80.987982], [93.052745, 80.995429], [93.471365, 81.043891], [93.654959, 81.032294], [93.699718, 81.054023], [94.058849, 81.069037], [94.161632, 81.092475], [94.385997, 81.114081], [94.55714, 81.10399], [94.889659, 81.144355], [95.03712, 81.187934], [95.109223, 81.196357], [95.187022, 81.217597], [95.547211, 81.220771], [95.518077, 81.230292], [95.060557, 81.241645], [95.033946, 81.248684], [95.103526, 81.271308], [95.776622, 81.288804], [95.898204, 81.251695], [96.020274, 81.234442], [95.965587, 81.222805], [95.958751, 81.214545], [95.96754, 81.205024], [96.135265, 81.20246], [96.171153, 81.193427], [96.1574, 81.179836], [96.184581, 81.171454], [96.274913, 81.161078], [96.293956, 81.138821], [96.554698, 81.077379], [96.532888, 81.064643], [96.530772, 81.046332], [96.544119, 81.029853], [96.732758, 81.00845], [96.644054, 80.987982], [96.683279, 80.97602], [96.725841, 80.974311], [96.719737, 80.967515], [96.766368, 80.949937], [96.910899, 80.933336], [96.972992, 80.906073], [97.424815, 80.851467], [97.410655, 80.837144], [97.560883, 80.842027], [97.65268, 80.828681], [97.754649, 80.829291], [97.788585, 80.816636], [97.747081, 80.79621], [97.816417, 80.789618], [97.883556, 80.769477], [97.852306, 80.755439], [97.747081, 80.741604], [97.801117, 80.733873]]], [[[92.110362, 77.621649], [92.110118, 77.610907], [92.032725, 77.58808], [91.984548, 77.587226], [91.911143, 77.600246], [91.88087, 77.612006], [91.865977, 77.628648], [91.891287, 77.641791], [91.943614, 77.643948], [92.110362, 77.621649]]], [[[83.371637, 70.788277], [83.469408, 70.737735], [83.443884, 70.691306], [83.30476, 70.644604], [83.301349, 70.605461], [83.259191, 70.548807], [83.264517, 70.511127], [83.308696, 70.480807], [83.309572, 70.4431], [83.194423, 70.378895], [83.09138, 70.361112], [83.065271, 70.365329], [83.132232, 70.433807], [83.117732, 70.480166], [83.136716, 70.565792], [83.130917, 70.60926], [83.147059, 70.649909], [83.207245, 70.686354], [83.231186, 70.769062], [83.256722, 70.801033], [83.305109, 70.805515], [83.371637, 70.788277]]], [[[97.64796, 76.748603], [97.623057, 76.737494], [97.565522, 76.752305], [97.520844, 76.744289], [97.459809, 76.718451], [97.449392, 76.727525], [97.44752, 76.742336], [97.166921, 76.745714], [97.160737, 76.753607], [97.639008, 76.773098], [97.64796, 76.748603]]], [[[89.135898, 77.127114], [89.098579, 77.098601], [88.968837, 77.039435], [89.018686, 77.013078], [88.989262, 76.989877], [88.919571, 76.977101], [88.816334, 76.98541], [88.699812, 77.039723], [88.663875, 77.080351], [88.785649, 77.123572], [89.047128, 77.140895], [89.135898, 77.127114]]]]}}]}