{"type": "FeatureCollection", "features": [{"type": "Feature", "properties": {"name": "Mohale's Hoek District", "country": "LSO"}, "geometry": {"type": "Polygon", "coordinates": [[[28.04941, -29.8737], [28.0655696, -29.8892156], [28.0554447, -29.8990547], [28.0619047, -29.9096546], [28.0566447, -29.9149445], [28.0596547, -29.9214844], [28.0554647, -29.9286843], [28.0580547, -29.9388742], [28.0550322, -29.9436891], [28.0526647, -29.9355042], [28.0345247, -29.9284043], [28.0249947, -29.9274844], [28.0107347, -29.9313443], [28.0013647, -29.9292743], [27.9988347, -29.9196645], [27.9861647, -29.9163945], [27.9756747, -29.9081446], [27.9627172, -29.9193787], [27.9529247, -29.9145145], [27.9147847, -29.9177745], [27.9141447, -29.9117946], [27.9243647, -29.9059846], [27.9146188, -29.900852], [27.9204947, -29.8949548], [27.9179647, -29.8882049], [27.9083712, -29.8847976], [27.9076947, -29.8908548], [27.8988647, -29.8938348], [27.8982547, -29.9022447], [27.8891347, -29.9216644], [27.8943147, -29.9382242], [27.8905747, -29.9453141], [27.8840491, -29.9455267], [27.8757047, -29.9268444], [27.8599569, -29.9167713], [27.8658452, -29.9078345], [27.8617447, -29.9034547], [27.8533347, -29.9104446], [27.8461547, -29.9030147], [27.8338947, -29.9009947], [27.8291733, -29.9024948], [27.8434147, -29.9094446], [27.8448847, -29.9190445], [27.8339247, -29.9301743], [27.8459347, -29.9266344], [27.8526347, -29.9297543], [27.8459447, -29.9366042], [27.8380447, -29.9390242], [27.8349447, -29.951744], [27.8296347, -29.9559939], [27.8039447, -29.9631338], [27.7863547, -29.9557739], [27.7847947, -29.9472641], [27.7725447, -29.9445941], [27.7693247, -29.9395342], [27.7558247, -29.9369642], [27.7373247, -29.9537639], [27.7361247, -29.9664637], [27.7127947, -29.9692337], [27.7117047, -29.9776336], [27.7049947, -29.9774336], [27.6920947, -29.9863835], [27.6841747, -29.9844335], [27.6734147, -29.9706737], [27.6534447, -29.9591138], [27.6438547, -29.9484641], [27.6339347, -29.9450341], [27.6292147, -29.9326643], [27.6201247, -29.9256944], [27.6139947, -29.9304343], [27.6145651, -29.9546925], [27.6074847, -29.9557939], [27.6044347, -29.9633538], [27.6011747, -29.9643138], [27.5952147, -29.9562639], [27.5888621, -29.9545661], [27.5867617, -29.9469603], [27.5734848, -29.9315509], [27.5666962, -29.9270479], [27.5607833, -29.9317327], [27.5538318, -29.9264408], [27.541959, -29.936175], [27.5357267, -29.9319024], [27.5304347, -29.9409242], [27.522631, -29.9415404], [27.5218547, -29.9482341], [27.5275247, -29.952614], [27.5274447, -29.9643538], [27.5185147, -29.9677037], [27.5201247, -29.9757136], [27.5157647, -29.9761336], [27.5034149, -29.9866868], [27.4862447, -29.9873734], [27.4860047, -29.9908634], [27.4968803, -29.9934111], [27.5034463, -30.0024426], [27.5011525, -30.0069695], [27.4950547, -30.0035732], [27.4849648, -30.0065784], [27.484004, -30.0183452], [27.4759123, -30.0195471], [27.4703199, -30.0246674], [27.4781706, -30.0326782], [27.4671108, -30.032154], [27.4673447, -30.0357228], [27.4727875, -30.0367675], [27.4673347, -30.0425927], [27.4489547, -30.0419327], [27.4422335, -30.0463064], [27.4432447, -30.0521226], [27.4261747, -30.0582525], [27.4147347, -30.0525326], [27.4083989, -30.0355801], [27.4048308, -30.0353818], [27.4057847, -30.0302529], [27.3889147, -30.016893], [27.3814947, -30.0030632], [27.3719047, -30.0020332], [27.3689629, -29.9946819], [27.3737176, -29.9902684], [27.3672358, -29.9866208], [27.3680647, -29.9830235], [27.3626537, -29.9769208], [27.3644261, -29.9727243], [27.3605347, -29.9706837], [27.363373, -29.9575644], [27.3601843, -29.9563434], [27.3618261, -29.9544859], [27.3579047, -29.9470541], [27.3635247, -29.9357842], [27.359026, -29.9321728], [27.3591643, -29.927423], [27.3671847, -29.9194145], [27.3639882, -29.9120567], [27.3654547, -29.9048747], [27.3770547, -29.8982147], [27.3824347, -29.8860749], [27.3765147, -29.877155], [27.3809547, -29.8653352], [27.3786047, -29.8539253], [27.3692547, -29.8562853], [27.3623547, -29.8452755], [27.3569647, -29.8449255], [27.3536447, -29.8502354], [27.3477447, -29.8514654], [27.3356506, -29.8688876], [27.3353947, -29.8867649], [27.3164147, -29.8936348], [27.2991347, -29.9051347], [27.2523771, -29.9106421], [27.2158647, -29.8974948], [27.1766391, -29.9015915], [27.22294, -29.99677], [27.22408, -30.00576], [27.21887, -30.01003], [27.23467, -30.00827], [27.25386, -30.02606], [27.26948, -30.02603], [27.26542, -30.03322], [27.26847, -30.04301], [27.29089, -30.05028], [27.29654, -30.05611], [27.32689, -30.14812], [27.39003, -30.14341], [27.4019928, -30.1391837], [27.40731, -30.14453], [27.4039701, -30.1496226], [27.41007, -30.1521], [27.4091, -30.15552], [27.4014, -30.15843], [27.40169, -30.16368], [27.39234, -30.16697], [27.38945, -30.17802], [27.38098, -30.17747], [27.38111, -30.18081], [27.38619, -30.18265], [27.38618, -30.19327], [27.38184, -30.19475], [27.37089, -30.1899], [27.36823, -30.19217], [27.37133, -30.19785], [27.37532, -30.19849], [27.37377, -30.20709], [27.36544, -30.21796], [27.37012, -30.22737], [27.36657, -30.23725], [27.37056, -30.24859], [27.36576, -30.25915], [27.3708, -30.26716], [27.36693, -30.27384], [27.36927, -30.27903], [27.37383, -30.28064], [27.37984, -30.27421], [27.38272, -30.28229], [27.38932, -30.28346], [27.385, -30.28945], [27.38915, -30.29339], [27.37993, -30.30017], [27.3835, -30.30429], [27.39337, -30.3036], [27.3952, -30.30768], [27.39442, -30.31048], [27.38771, -30.30821], [27.38534, -30.31085], [27.39184, -30.31893], [27.39075, -30.32242], [27.38688, -30.32406], [27.38415, -30.31987], [27.3767029, -30.3252525], [27.38258, -30.33651], [27.39375, -30.33957], [27.42026, -30.32414], [27.43742, -30.3234], [27.45132, -30.31431], [27.46459, -30.31403], [27.47576, -30.32299], [27.47695, -30.34877], [27.4747, -30.35615], [27.48829, -30.36291], [27.48942, -30.37341], [27.50212, -30.3718], [27.50068, -30.3781], [27.50689, -30.38759], [27.52042, -30.38331], [27.53378, -30.38422], [27.53878, -30.39312], [27.55455, -30.40261], [27.5594866, -30.4139572], [27.5663116, -30.4148305], [27.5819063, -30.4129636], [27.5976129, -30.4004143], [27.591455, -30.3938784], [27.5797284, -30.4004626], [27.5735096, -30.3997477], [27.5730278, -30.3896239], [27.5665976, -30.3782151], [27.5746751, -30.3652829], [27.5807476, -30.3632833], [27.5998875, -30.364892], [27.6094528, -30.3575913], [27.6179698, -30.3618605], [27.6244194, -30.3537708], [27.642893, -30.343608], [27.6510694, -30.3443049], [27.6562428, -30.3408854], [27.672055, -30.3464131], [27.685697, -30.3588646], [27.6982723, -30.3631458], [27.721832, -30.3652931], [27.7251148, -30.3555453], [27.7151129, -30.3472921], [27.713761, -30.3404269], [27.727883, -30.3352061], [27.736823, -30.3364048], [27.7418963, -30.3272586], [27.7327303, -30.3180354], [27.7389809, -30.2985403], [27.7371582, -30.2907159], [27.7250129, -30.2893567], [27.7197756, -30.2840534], [27.7260053, -30.2787576], [27.7290625, -30.2704831], [27.7447849, -30.2578104], [27.7498176, -30.2573396], [27.7546241, -30.261343], [27.753244, -30.2793387], [27.7572544, -30.286119], [27.7762763, -30.2856506], [27.7890764, -30.2784793], [27.8027656, -30.283756], [27.8147899, -30.2716917], [27.8153077, -30.2627151], [27.8187722, -30.2603071], [27.8247475, -30.2619902], [27.8350277, -30.2750645], [27.8416781, -30.2745162], [27.8445555, -30.2685281], [27.8437163, -30.2511118], [27.8635222, -30.2517812], [27.872425, -30.2453393], [27.8747925, -30.2266937], [27.872926, -30.2175307], [27.8762841, -30.2114024], [27.8856849, -30.2086804], [27.8956604, -30.2205809], [27.9227148, -30.1954393], [27.915669, -30.1908134], [27.9003173, -30.1929753], [27.8928115, -30.1885154], [27.8897381, -30.1818772], [27.9010145, -30.1756583], [27.9037448, -30.1655501], [27.897871, -30.1538273], [27.8856981, -30.1408836], [27.8878914, -30.1342517], [27.8989846, -30.1314704], [27.902429, -30.1244267], [27.9280941, -30.1161985], [27.9125035, -30.1013438], [27.9112103, -30.0951038], [27.912966, -30.085307], [27.9226638, -30.0755107], [27.9446532, -30.0749394], [27.9503667, -30.0870082], [27.9446591, -30.1008243], [27.9642191, -30.1097002], [27.9777581, -30.0963355], [27.9809039, -30.0855598], [27.9723984, -30.0722443], [27.9855173, -30.064929], [27.9920549, -30.0671628], [28.0111054, -30.0856145], [28.0166169, -30.0836241], [28.0169177, -30.0771256], [28.0243919, -30.0748267], [28.0415764, -30.0847288], [28.062914, -30.0900037], [28.0777199, -30.0740384], [28.1114991, -30.067115], [28.1273798, -30.0727148], [28.1245923, -30.0610325], [28.1294417, -30.0512077], [28.1510769, -30.0381542], [28.1637526, -30.0389114], [28.1738163, -30.0330632], [28.1903857, -30.0454919], [28.2049742, -30.0400835], [28.2114061, -30.0287734], [28.2217231, -30.0295648], [28.2332319, -30.0252218], [28.2481513, -30.0271958], [28.2538144, -30.0228917], [28.2841744, -30.0269745], [28.288092, -30.0233943], [28.2769268, -30.0098919], [28.2842991, -29.9960292], [28.2913781, -30.0008093], [28.3081673, -29.9994539], [28.3436175, -30.0058583], [28.3516543, -30.0143394], [28.346598, -30.0187505], [28.3384436, -30.0157753], [28.3357029, -30.01898], [28.3454224, -30.0217588], [28.3538363, -30.0320455], [28.362765, -30.0284388], [28.3739278, -30.0285337], [28.3774886, -30.0366575], [28.3884575, -30.0479712], [28.3896978, -30.0627316], [28.4051652, -30.0622404], [28.4064935, -30.0509282], [28.4162435, -30.0286783], [28.4364235, -30.0187284], [28.4389176, -30.0093681], [28.4490135, -30.0087284], [28.4559003, -29.9968615], [28.4640135, -30.0002485], [28.4739835, -29.9893385], [28.4804835, -29.9904685], [28.4862635, -29.9747386], [28.4958635, -29.9620986], [28.5094935, -29.9594386], [28.5141735, -29.9522887], [28.5371835, -29.9442087], [28.5481035, -29.9345687], [28.5559635, -29.9407087], [28.5703535, -29.9393087], [28.5823835, -29.9156988], [28.5813135, -29.8986589], [28.5654635, -29.883419], [28.5641235, -29.870209], [28.5741535, -29.8621691], [28.5733535, -29.8414092], [28.5843735, -29.8289592], [28.5794235, -29.8192593], [28.5879835, -29.8151393], [28.5918435, -29.8094593], [28.5744435, -29.7965993], [28.5636035, -29.7958694], [28.5578884, -29.7891534], [28.55972, -29.78771], [28.55341, -29.78733], [28.54079, -29.79396], [28.52659, -29.79026], [28.50392, -29.80952], [28.48931, -29.80591], [28.47667, -29.80658], [28.43794, -29.82553], [28.4231, -29.82702], [28.41345, -29.84211], [28.40157, -29.84398], [28.4006476, -29.8536566], [28.37935, -29.84621], [28.37274, -29.84071], [28.35643, -29.84051], [28.33671, -29.84856], [28.33689, -29.8622], [28.34188, -29.87191], [28.33945, -29.87835], [28.2842707, -29.8870992], [28.28411, -29.8952], [28.29489, -29.92088], [28.30295, -29.92268], [28.31363, -29.93449], [28.31257, -29.94433], [28.3077067, -29.9469502], [28.3021404, -29.9451335], [28.30053, -29.94963], [28.2911182, -29.9491865], [28.292, -29.95431], [28.3020136, -29.9636369], [28.29393, -29.96271], [28.26609, -29.94888], [28.26091, -29.94461], [28.2615, -29.93872], [28.25786, -29.93344], [28.24925, -29.93272], [28.24096, -29.92026], [28.21491, -29.90686], [28.20525, -29.91168], [28.19234, -29.90584], [28.17668, -29.90551], [28.1671796, -29.9089463], [28.15945, -29.90159], [28.12691, -29.90738], [28.10925, -29.91955], [28.0828178, -29.9256726], [28.080392, -29.9238023], [28.08374, -29.92287], [28.08564, -29.91517], [28.07774, -29.91216], [28.07817, -29.90495], [28.06952, -29.9002], [28.0761, -29.89522], [28.07202, -29.8893], [28.07136, -29.88092], [28.05609, -29.87273], [28.05228, -29.86647], [28.04941, -29.8737]]]}}, {"type": "Feature", "properties": {"name": "Mafeteng District", "country": "LSO"}, "geometry": {"type": "Polygon", "coordinates": [[[27.2946647, -29.533757], [27.28833, -29.53316], [27.27787, -29.52626], [27.25766, -29.53309], [27.25493, -29.53637], [27.25594, -29.54754], [27.24424, -29.55448], [27.23145, -29.55427], [27.22688, -29.54365], [27.22126, -29.5448], [27.2217, -29.54951], [27.20675, -29.55781], [27.2085, -29.56568], [27.20266, -29.56869], [27.19487, -29.56758], [27.1896172, -29.5703013], [27.18497, -29.56589], [27.15871, -29.55961], [27.15417, -29.561], [27.14108, -29.57519], [27.1331716, -29.5733252], [27.1196332, -29.5775888], [27.1147132, -29.5850889], [27.1042232, -29.5901689], [27.1063732, -29.6028589], [27.0949632, -29.6044489], [27.0853532, -29.6149089], [27.0786232, -29.6105689], [27.0766397, -29.6024504], [27.0664932, -29.5971089], [27.0661032, -29.6193689], [27.0574232, -29.6369689], [27.0435132, -29.6293289], [27.0341232, -29.6132689], [27.0201332, -29.6156789], [27.0176732, -29.6180189], [27.0252132, -29.6280789], [27.0282632, -29.6390789], [27.0118232, -29.648399], [27.0135432, -29.660799], [27.0197443, -29.6637374], [27.0197832, -29.666579], [27.02475, -29.66641], [27.04423, -29.68332], [27.06438, -29.7051], [27.088, -29.71947], [27.08334, -29.72299], [27.09658, -29.72993], [27.1766391, -29.9015915], [27.2158647, -29.8974948], [27.2523771, -29.9106421], [27.2991347, -29.9051347], [27.3164147, -29.8936348], [27.3353947, -29.8867649], [27.3356506, -29.8688876], [27.3477447, -29.8514654], [27.3536447, -29.8502354], [27.3569647, -29.8449255], [27.3623547, -29.8452755], [27.3692547, -29.8562853], [27.3800747, -29.8553453], [27.3809547, -29.8653352], [27.3765147, -29.877155], [27.3824347, -29.8860749], [27.3770547, -29.8982147], [27.3654547, -29.9048747], [27.3639882, -29.9120567], [27.3671847, -29.9194145], [27.3591643, -29.927423], [27.359026, -29.9321728], [27.3635247, -29.9357842], [27.3579047, -29.9470541], [27.3618261, -29.9544859], [27.3601843, -29.9563434], [27.363373, -29.9575644], [27.3605347, -29.9706837], [27.3644261, -29.9727243], [27.3626537, -29.9769208], [27.3680647, -29.9830235], [27.3672358, -29.9866208], [27.3737176, -29.9902684], [27.3689629, -29.9946819], [27.3719047, -30.0020332], [27.3814947, -30.0030632], [27.3889147, -30.016893], [27.4057847, -30.0302529], [27.4048308, -30.0353818], [27.4083989, -30.0355801], [27.4109357, -30.047689], [27.4200147, -30.0570725], [27.4376047, -30.0552525], [27.4432447, -30.0521226], [27.4422335, -30.0463064], [27.4489547, -30.0419327], [27.4626747, -30.0440927], [27.4727875, -30.0367675], [27.4673447, -30.0357228], [27.4671108, -30.032154], [27.4781706, -30.0326782], [27.4703199, -30.0246674], [27.4759123, -30.0195471], [27.484004, -30.0183452], [27.4849648, -30.0065784], [27.4950547, -30.0035732], [27.5011525, -30.0069695], [27.5034463, -30.0024426], [27.4968803, -29.9934111], [27.4860047, -29.9908634], [27.4862447, -29.9873734], [27.5034149, -29.9866868], [27.5157647, -29.9761336], [27.5201247, -29.9757136], [27.5185147, -29.9677037], [27.5274447, -29.9643538], [27.5275247, -29.952614], [27.5218547, -29.9482341], [27.522631, -29.9415404], [27.5304347, -29.9409242], [27.5357267, -29.9319024], [27.541959, -29.936175], [27.5538318, -29.9264408], [27.5607833, -29.9317327], [27.5666962, -29.9270479], [27.5734848, -29.9315509], [27.5867617, -29.9469603], [27.5888621, -29.9545661], [27.5952147, -29.9562639], [27.6011747, -29.9643138], [27.6044347, -29.9633538], [27.6074847, -29.9557939], [27.6145651, -29.9546925], [27.6139947, -29.9304343], [27.6201247, -29.9256944], [27.6292147, -29.9326643], [27.6339347, -29.9450341], [27.6438547, -29.9484641], [27.6534447, -29.9591138], [27.6734147, -29.9706737], [27.6841747, -29.9844335], [27.6920947, -29.9863835], [27.7049947, -29.9774336], [27.7117047, -29.9776336], [27.7127947, -29.9692337], [27.7361247, -29.9664637], [27.7373247, -29.9537639], [27.7558247, -29.9369642], [27.7693247, -29.9395342], [27.7725447, -29.9445941], [27.7847947, -29.9472641], [27.7863547, -29.9557739], [27.8039447, -29.9631338], [27.8296347, -29.9559939], [27.8349447, -29.951744], [27.8380447, -29.9390242], [27.8459447, -29.9366042], [27.8526347, -29.9297543], [27.8459347, -29.9266344], [27.8339247, -29.9301743], [27.8448847, -29.9190445], [27.8434147, -29.9094446], [27.8291733, -29.9024948], [27.8338947, -29.9009947], [27.8461547, -29.9030147], [27.8533347, -29.9104446], [27.8617447, -29.9034547], [27.8658452, -29.9078345], [27.8599569, -29.9167713], [27.8757047, -29.9268444], [27.8840491, -29.9455267], [27.8905747, -29.9453141], [27.8943147, -29.9382242], [27.8891347, -29.9216644], [27.8982547, -29.9022447], [27.8988647, -29.8938348], [27.9076947, -29.8908548], [27.9083712, -29.8847976], [27.9179647, -29.8882049], [27.9204947, -29.8949548], [27.9146188, -29.900852], [27.9243647, -29.9059846], [27.9141447, -29.9117946], [27.9147847, -29.9177745], [27.9529247, -29.9145145], [27.9627172, -29.9193787], [27.9756747, -29.9081446], [27.9861647, -29.9163945], [27.9988347, -29.9196645], [28.0013647, -29.9292743], [28.0107347, -29.9313443], [28.0249947, -29.9274844], [28.0345247, -29.9284043], [28.0526647, -29.9355042], [28.0550322, -29.9436891], [28.0580547, -29.9388742], [28.0554647, -29.9286843], [28.0596547, -29.9214844], [28.0566447, -29.9149445], [28.0619047, -29.9096546], [28.0554447, -29.8990547], [28.0655696, -29.8892156], [28.0643947, -29.8852849], [28.0574513, -29.8798726], [28.0536561, -29.8843551], [28.052315, -29.8820732], [28.0424708, -29.8887497], [28.0328808, -29.8903497], [27.9960008, -29.8891097], [27.9737608, -29.8793597], [27.9564708, -29.8518499], [27.9587508, -29.8342999], [27.9542908, -29.82286], [27.9414708, -29.81997], [27.9354608, -29.8234], [27.9081808, -29.82269], [27.8926608, -29.81469], [27.8772308, -29.82378], [27.8568208, -29.82439], [27.8398408, -29.8118301], [27.8309008, -29.81411], [27.8189008, -29.82252], [27.8248208, -29.8353099], [27.7797208, -29.8288601], [27.7557208, -29.8308801], [27.7514008, -29.8346299], [27.7324108, -29.8362799], [27.7002908, -29.8463699], [27.6771108, -29.8587598], [27.6719008, -29.8541199], [27.6570708, -29.8596998], [27.6445908, -29.8562698], [27.6211661, -29.8611054], [27.6209308, -29.8529399], [27.6266508, -29.8411999], [27.6307508, -29.8404899], [27.6382808, -29.8466199], [27.6434408, -29.8433499], [27.6435208, -29.8359499], [27.6357846, -29.8257292], [27.6453708, -29.82831], [27.6575508, -29.82566], [27.6571408, -29.81447], [27.6607108, -29.8115701], [27.6729708, -29.8178], [27.6808708, -29.81774], [27.6898008, -29.82562], [27.6987908, -29.8287401], [27.7051708, -29.8287101], [27.7193208, -29.82139], [27.7137308, -29.8094602], [27.6916208, -29.7976301], [27.6832308, -29.7819102], [27.6889508, -29.7557204], [27.6724908, -29.7639003], [27.6617808, -29.7586803], [27.6613008, -29.7522504], [27.6695108, -29.7311505], [27.6586508, -29.6945207], [27.6448953, -29.698165], [27.6227408, -29.6952007], [27.6029599, -29.6981534], [27.5950309, -29.7042894], [27.5911908, -29.7129706], [27.5816308, -29.7186406], [27.5565808, -29.7176106], [27.5417908, -29.7062205], [27.5413508, -29.7013306], [27.5347608, -29.6945307], [27.5390708, -29.6850106], [27.5298608, -29.6745608], [27.5277208, -29.6652307], [27.5428108, -29.6671107], [27.546669, -29.6640597], [27.5432108, -29.6519109], [27.5340208, -29.6474809], [27.5013108, -29.6535009], [27.4895508, -29.6710108], [27.4597708, -29.6921007], [27.4508408, -29.6878907], [27.4385308, -29.6884607], [27.4298008, -29.6733008], [27.4430008, -29.6466408], [27.4338977, -29.6410624], [27.4378008, -29.632681], [27.4262108, -29.630221], [27.419245, -29.6216595], [27.4044402, -29.6270394], [27.4024161, -29.6236176], [27.3993996, -29.6246706], [27.4004443, -29.6180469], [27.396068, -29.6087232], [27.3871508, -29.6108811], [27.3869808, -29.606341], [27.3919908, -29.6020011], [27.3917408, -29.5911512], [27.384308, -29.5808873], [27.3809208, -29.5865712], [27.3699361, -29.5818837], [27.3735181, -29.570831], [27.3643761, -29.5580717], [27.3682108, -29.5439814], [27.3618486, -29.5447713], [27.359531, -29.5381736], [27.3540945, -29.5351521], [27.3467164, -29.5380697], [27.3440992, -29.5346609], [27.3132477, -29.5520754], [27.2946647, -29.533757]]]}}, {"type": "Feature", "properties": {"name": "Quthing District", "country": "LSO"}, "geometry": {"type": "Polygon", "coordinates": [[[27.5594866, -30.4139572], [27.5712032, -30.4272524], [27.5711244, -30.4307112], [27.5645073, -30.4342881], [27.5674557, -30.4449467], [27.572481, -30.4481479], [27.5923667, -30.4503807], [27.6034735, -30.4475969], [27.5975764, -30.4571845], [27.6037672, -30.4582928], [27.6149995, -30.4774535], [27.615186, -30.4882604], [27.6069191, -30.4922944], [27.6095187, -30.4954433], [27.6208639, -30.4942734], [27.6212763, -30.5042911], [27.6271903, -30.5088786], [27.6454803, -30.5197987], [27.6526403, -30.5175087], [27.6568703, -30.5193687], [27.6721903, -30.5355586], [27.6792003, -30.5346186], [27.6899803, -30.5409586], [27.6929903, -30.5449286], [27.6912103, -30.5487186], [27.6968503, -30.5531486], [27.6938803, -30.5588385], [27.7016903, -30.5646386], [27.7147639, -30.5680961], [27.7192385, -30.5782541], [27.7298103, -30.5897286], [27.7343603, -30.5905185], [27.7414903, -30.6040186], [27.7585003, -30.6069186], [27.7865803, -30.6190285], [27.7950503, -30.6192285], [27.8302218, -30.6136754], [27.8549103, -30.6159485], [27.8807803, -30.6138285], [27.8892103, -30.6053586], [27.8980603, -30.6073586], [27.9027703, -30.6030685], [27.9150703, -30.6014185], [27.9219803, -30.6093285], [27.9197503, -30.6221385], [27.9326203, -30.6276085], [27.9401003, -30.6442284], [27.97752, -30.65503], [27.99165, -30.65092], [28.00375, -30.65899], [28.05244, -30.65805], [28.08457, -30.65398], [28.113575, -30.675575], [28.12383, -30.65918], [28.12357, -30.64932], [28.11633, -30.6348], [28.11881, -30.62266], [28.11057, -30.60868], [28.11315, -30.59987], [28.12158, -30.59889], [28.12947, -30.59181], [28.13734, -30.59242], [28.15123, -30.58401], [28.15357, -30.57584], [28.16044, -30.57249], [28.16084, -30.55862], [28.16355, -30.5567], [28.15696, -30.544], [28.1684, -30.52803], [28.17707, -30.52525], [28.17234, -30.5088], [28.17533, -30.50321], [28.18082, -30.50124], [28.17973, -30.49134], [28.16546, -30.48176], [28.16442, -30.47588], [28.15493, -30.47122], [28.15635, -30.46554], [28.1637, -30.46123], [28.16553, -30.45476], [28.18613, -30.43522], [28.19774, -30.43299], [28.20627, -30.43722], [28.21539, -30.43057], [28.22829, -30.43046], [28.23925, -30.41307], [28.24973, -30.41946], [28.25695, -30.41865], [28.25307, -30.40453], [28.25865, -30.40229], [28.27078, -30.37082], [28.26779, -30.36038], [28.26985, -30.35338], [28.25286, -30.34207], [28.25155, -30.33358], [28.25682, -30.3298], [28.25277, -30.32778], [28.25651, -30.32444], [28.24788, -30.32329], [28.24252, -30.31788], [28.23295, -30.31501], [28.22825, -30.30852], [28.21536, -30.30681], [28.20691, -30.29067], [28.21459, -30.2864], [28.22306, -30.27336], [28.23588, -30.266], [28.23643, -30.25994], [28.25973, -30.25652], [28.26404, -30.25212], [28.27401, -30.25621], [28.30319, -30.25623], [28.31071, -30.25077], [28.31349, -30.24067], [28.32521, -30.23715], [28.33043, -30.22971], [28.33308, -30.23387], [28.34585, -30.23207], [28.34777, -30.22886], [28.3434, -30.22356], [28.34773, -30.21692], [28.34515, -30.21276], [28.35629, -30.19248], [28.36088, -30.17574], [28.3704782, -30.162693], [28.3696253, -30.1586694], [28.2977982, -30.152563], [28.2882782, -30.150173], [28.2787882, -30.143083], [28.2564582, -30.147173], [28.2484982, -30.145833], [28.2264882, -30.129353], [28.2289182, -30.114953], [28.2256482, -30.104643], [28.2317782, -30.098733], [28.2302782, -30.086203], [28.2351182, -30.079183], [28.2423248, -30.0780981], [28.2442878, -30.0819215], [28.2498519, -30.0751925], [28.2519582, -30.081363], [28.2560182, -30.082573], [28.2583654, -30.0780953], [28.2625662, -30.0787342], [28.2613957, -30.0718299], [28.2689282, -30.068693], [28.2761182, -30.059193], [28.2808472, -30.0601803], [28.2804376, -30.0670027], [28.2829182, -30.068243], [28.2885582, -30.066453], [28.2934082, -30.071343], [28.3024082, -30.066733], [28.3095482, -30.075283], [28.3238782, -30.077523], [28.3120982, -30.054913], [28.3129982, -30.043353], [28.2921182, -30.036013], [28.2805682, -30.036403], [28.276619, -30.0269754], [28.2614818, -30.0233374], [28.2538144, -30.0228917], [28.2481513, -30.0271958], [28.2332319, -30.0252218], [28.2217231, -30.0295648], [28.2114061, -30.0287734], [28.2049742, -30.0400835], [28.1903857, -30.0454919], [28.1738163, -30.0330632], [28.1637526, -30.0389114], [28.1510769, -30.0381542], [28.1294417, -30.0512077], [28.1245923, -30.0610325], [28.1273798, -30.0727148], [28.1114991, -30.067115], [28.0777199, -30.0740384], [28.062914, -30.0900037], [28.0415764, -30.0847288], [28.0243919, -30.0748267], [28.0169177, -30.0771256], [28.0166169, -30.0836241], [28.0111054, -30.0856145], [27.9920549, -30.0671628], [27.9855173, -30.064929], [27.9723984, -30.0722443], [27.9809039, -30.0855598], [27.9777581, -30.0963355], [27.9642191, -30.1097002], [27.9446591, -30.1008243], [27.9503667, -30.0870082], [27.9446532, -30.0749394], [27.9226638, -30.0755107], [27.912966, -30.085307], [27.9112103, -30.0951038], [27.9125035, -30.1013438], [27.9280941, -30.1161985], [27.902429, -30.1244267], [27.8989846, -30.1314704], [27.8878914, -30.1342517], [27.8856981, -30.1408836], [27.897871, -30.1538273], [27.9037448, -30.1655501], [27.9010145, -30.1756583], [27.8897381, -30.1818772], [27.8928115, -30.1885154], [27.9003173, -30.1929753], [27.915669, -30.1908134], [27.9227148, -30.1954393], [27.8956604, -30.2205809], [27.8856849, -30.2086804], [27.8762841, -30.2114024], [27.872926, -30.2175307], [27.8747925, -30.2266937], [27.872425, -30.2453393], [27.8635222, -30.2517812], [27.8437163, -30.2511118], [27.8445555, -30.2685281], [27.8416781, -30.2745162], [27.8350277, -30.2750645], [27.8247475, -30.2619902], [27.8187722, -30.2603071], [27.8153077, -30.2627151], [27.8147899, -30.2716917], [27.8027656, -30.283756], [27.7890764, -30.2784793], [27.7762763, -30.2856506], [27.7572544, -30.286119], [27.753244, -30.2793387], [27.7546241, -30.261343], [27.7498176, -30.2573396], [27.7447849, -30.2578104], [27.7290625, -30.2704831], [27.7260053, -30.2787576], [27.7197756, -30.2840534], [27.7250129, -30.2893567], [27.7371582, -30.2907159], [27.7389809, -30.2985403], [27.7327303, -30.3180354], [27.7418963, -30.3272586], [27.736823, -30.3364048], [27.727883, -30.3352061], [27.713761, -30.3404269], [27.7151129, -30.3472921], [27.7251148, -30.3555453], [27.721832, -30.3652931], [27.6982723, -30.3631458], [27.685697, -30.3588646], [27.672055, -30.3464131], [27.6589187, -30.3409946], [27.6510694, -30.3443049], [27.642893, -30.343608], [27.6244194, -30.3537708], [27.6179698, -30.3618605], [27.6094528, -30.3575913], [27.5998875, -30.364892], [27.5746751, -30.3652829], [27.5665976, -30.3782151], [27.5730278, -30.3896239], [27.5735096, -30.3997477], [27.5797284, -30.4004626], [27.591455, -30.3938784], [27.5976129, -30.4004143], [27.5819063, -30.4129636], [27.5594866, -30.4139572]]]}}, {"type": "Feature", "properties": {"name": "Qacha's Nek District", "country": "LSO"}, "geometry": {"type": "Polygon", "coordinates": [[[28.276619, -30.0269754], [28.2805682, -30.036403], [28.2921182, -30.036013], [28.3129982, -30.043353], [28.3120982, -30.054913], [28.3238782, -30.077523], [28.3095482, -30.075283], [28.3024082, -30.066733], [28.2934082, -30.071343], [28.2885582, -30.066453], [28.2829182, -30.068243], [28.2804376, -30.0670027], [28.2808472, -30.0601803], [28.2761182, -30.059193], [28.2689282, -30.068693], [28.2613957, -30.0718299], [28.2625662, -30.0787342], [28.2583654, -30.0780953], [28.2560182, -30.082573], [28.2519582, -30.081363], [28.2498519, -30.0751925], [28.2442878, -30.0819215], [28.2423248, -30.0780981], [28.2351182, -30.079183], [28.2302782, -30.086203], [28.2317782, -30.098733], [28.2256482, -30.104643], [28.2289182, -30.114953], [28.2264882, -30.129353], [28.2484982, -30.145833], [28.2564582, -30.147173], [28.2787882, -30.143083], [28.2882782, -30.150173], [28.2977982, -30.152563], [28.3696253, -30.1586694], [28.3673482, -30.168393], [28.37089, -30.16974], [28.38286, -30.16882], [28.38407, -30.16512], [28.39017, -30.16282], [28.3998, -30.14368], [28.4518942, -30.1579325], [28.46074, -30.15452], [28.47251, -30.1556], [28.48133, -30.14879], [28.49983, -30.15099], [28.51668, -30.13878], [28.53143, -30.13289], [28.53492, -30.12575], [28.55059, -30.12063], [28.55372, -30.12396], [28.56825, -30.12286], [28.57506, -30.12741], [28.58995, -30.12679], [28.61862, -30.13552], [28.62694, -30.13173], [28.63836, -30.13155], [28.66622, -30.14079], [28.68797, -30.1288], [28.69031, -30.12407], [28.70162, -30.12647], [28.70902, -30.1196], [28.72888, -30.113], [28.73612, -30.1123], [28.73965, -30.1158], [28.74982, -30.10648], [28.79117, -30.1094], [28.79498, -30.10083], [28.82622, -30.09555], [28.83129, -30.09761], [28.83895, -30.09209], [28.85637, -30.08969], [28.85945, -30.08731], [28.85753, -30.07756], [28.86929, -30.07786], [28.87894, -30.06982], [28.89338, -30.06876], [28.89692, -30.06472], [28.90307, -30.06591], [28.91063, -30.05919], [28.91888, -30.05805], [28.92173, -30.05307], [28.93633, -30.04916], [28.94097, -30.03641], [28.95785, -30.03914], [28.96479, -30.0331], [28.96922, -30.03411], [28.97791, -30.02978], [28.98533, -30.03137], [28.99014, -30.02743], [28.99076, -30.02017], [29.00421, -30.00502], [29.01102, -30.00455], [29.0198299, -29.9969101], [29.0292199, -29.9977499], [29.0334399, -29.9922601], [29.0332699, -29.9864701], [29.0572099, -29.9790099], [29.0688894, -29.9706975], [29.071248, -29.9653939], [29.0788267, -29.9672977], [29.0839826, -29.9606282], [29.0887998, -29.9606096], [29.1037199, -29.9669799], [29.1024699, -29.9570999], [29.1089899, -29.9369699], [29.1149599, -29.9369199], [29.1255999, -29.9301699], [29.1554101, -29.9258299], [29.1696599, -29.9158399], [29.1683699, -29.9120299], [29.1582199, -29.9059699], [29.1615799, -29.9030701], [29.1609299, -29.8955199], [29.1635601, -29.8929899], [29.1626099, -29.8835499], [29.1488799, -29.8839299], [29.1417899, -29.8775501], [29.1453999, -29.8682499], [29.1373301, -29.8601599], [29.1119399, -29.8541901], [29.1012399, -29.8481699], [29.1136799, -29.8414299], [29.1182999, -29.8333801], [29.1302301, -29.8296101], [29.1294501, -29.8188999], [29.1325099, -29.8148299], [29.1268699, -29.8120199], [29.1236799, -29.8047801], [29.1310899, -29.7732199], [29.1235899, -29.7673999], [29.1285099, -29.7643199], [29.1347999, -29.7650499], [29.1338301, -29.7611799], [29.1398499, -29.7592499], [29.1407099, -29.7503299], [29.1355699, -29.7401799], [29.1460399, -29.7409899], [29.1498499, -29.7369299], [29.1222611, -29.7382694], [29.0994811, -29.7245895], [29.0945611, -29.7175895], [29.0772111, -29.7170395], [29.0412711, -29.7094595], [29.0342611, -29.7098195], [29.0172211, -29.7179995], [29.0108511, -29.7370194], [29.0025411, -29.7394494], [28.9987411, -29.7470294], [28.9832111, -29.7573994], [28.9863011, -29.7707894], [28.9789811, -29.7861194], [28.9649811, -29.7941494], [28.9517111, -29.8111894], [28.9576911, -29.8337294], [28.9691482, -29.8423963], [28.9623811, -29.8502294], [28.9734911, -29.8693894], [28.9699911, -29.8745594], [28.9498911, -29.8675094], [28.9190711, -29.8463394], [28.9068011, -29.8439594], [28.8561711, -29.8071794], [28.8253611, -29.8090894], [28.7967435, -29.8004746], [28.7962072, -29.8084095], [28.7844086, -29.8075021], [28.7794984, -29.818572], [28.7872776, -29.8278577], [28.7907141, -29.8386084], [28.8057067, -29.8375688], [28.8046346, -29.8446918], [28.7670973, -29.8475442], [28.759499, -29.8609944], [28.744705, -29.8618158], [28.7349887, -29.8705445], [28.7239346, -29.8751476], [28.7202119, -29.8828312], [28.7164271, -29.8837365], [28.7156803, -29.8723957], [28.7104156, -29.8702631], [28.7064926, -29.8748548], [28.7038351, -29.8658483], [28.7133796, -29.8498935], [28.7104007, -29.842561], [28.7144133, -29.8343527], [28.7061806, -29.8192459], [28.6976833, -29.8151409], [28.691997, -29.8067068], [28.6868365, -29.8078053], [28.6838405, -29.8029894], [28.6713977, -29.7993148], [28.6672456, -29.7945758], [28.6554224, -29.7937844], [28.643213, -29.7842591], [28.6289437, -29.7816239], [28.596446, -29.7658391], [28.5578884, -29.7891534], [28.5636035, -29.7958694], [28.5744435, -29.7965993], [28.5918435, -29.8094593], [28.5879835, -29.8151393], [28.5794235, -29.8192593], [28.5843735, -29.8289592], [28.5733535, -29.8414092], [28.5741535, -29.8621691], [28.5641235, -29.870209], [28.5654635, -29.883419], [28.5813135, -29.8986589], [28.5823835, -29.9156988], [28.5703535, -29.9393087], [28.5559635, -29.9407087], [28.5481035, -29.9345687], [28.5371835, -29.9442087], [28.5141735, -29.9522887], [28.5094935, -29.9594386], [28.4958635, -29.9620986], [28.4862635, -29.9747386], [28.4804835, -29.9904685], [28.4739835, -29.9893385], [28.4640135, -30.0002485], [28.4559003, -29.9968615], [28.4490135, -30.0087284], [28.4389176, -30.0093681], [28.4364235, -30.0187284], [28.4162435, -30.0286783], [28.4064935, -30.0509282], [28.4051652, -30.0622404], [28.3896978, -30.0627316], [28.3884575, -30.0479712], [28.3774886, -30.0366575], [28.3739278, -30.0285337], [28.362765, -30.0284388], [28.3538363, -30.0320455], [28.3454224, -30.0217588], [28.3357029, -30.01898], [28.3384436, -30.0157753], [28.346598, -30.0187505], [28.3516543, -30.0143394], [28.3436175, -30.0058583], [28.3081673, -29.9994539], [28.2913781, -30.0008093], [28.2842991, -29.9960292], [28.2769268, -30.0098919], [28.288092, -30.0233943], [28.2841744, -30.0269745], [28.276619, -30.0269754]]]}}]}