{"type": "FeatureCollection", "features": [{"type": "Feature", "properties": {"name": "South Africa"}, "geometry": {"type": "MultiPolygon", "coordinates": [[[[30.890636, -30.050063], [30.84254, -30.123305], [30.786469, -30.237481], [30.641612, -30.459568], [30.609548, -30.529555], [30.562348, -30.573907], [30.392345, -30.847101], [30.364024, -30.882257], [30.320323, -30.912286], [30.288748, -30.971124], [30.123383, -31.161554], [30.095063, -31.178643], [30.062755, -31.238702], [30.009939, -31.29225], [29.864106, -31.411554], [29.784516, -31.434747], [29.742035, -31.457452], [29.672374, -31.539727], [29.641368, -31.553318], [29.619884, -31.586033], [29.592052, -31.593032], [29.526052, -31.643976], [29.460785, -31.672296], [29.411632, -31.677504], [29.405528, -31.684177], [29.411632, -31.698012], [29.391856, -31.735528], [29.362478, -31.74977], [29.342052, -31.793552], [29.276703, -31.844659], [29.213634, -31.94378], [29.147634, -31.969822], [29.096365, -32.053643], [28.973318, -32.166681], [28.870372, -32.287042], [28.817149, -32.315118], [28.674083, -32.430597], [28.651215, -32.45908], [28.617198, -32.478204], [28.562673, -32.531996], [28.548595, -32.562433], [28.363292, -32.678155], [28.360118, -32.693943], [28.336925, -32.709405], [28.210785, -32.774672], [28.155528, -32.788507], [28.11085, -32.836521], [28.094005, -32.887465], [27.9699, -32.980564], [27.939626, -32.989841], [27.903982, -33.020685], [27.897146, -33.039972], [27.849294, -33.058526], [27.829845, -33.077244], [27.732677, -33.108819], [27.609874, -33.211847], [27.539236, -33.234552], [27.492361, -33.277032], [27.465668, -33.27337], [27.458507, -33.298923], [27.434581, -33.320733], [27.355805, -33.369561], [27.342296, -33.363377], [27.334809, -33.377048], [27.218761, -33.448663], [27.143077, -33.479425], [27.119802, -33.496759], [27.100922, -33.525323], [27.0713, -33.530857], [26.98463, -33.570245], [26.919119, -33.581476], [26.863048, -33.622735], [26.794607, -33.632257], [26.653331, -33.684828], [26.632579, -33.712172], [26.476085, -33.764255], [26.349864, -33.755548], [26.286632, -33.766371], [26.225597, -33.739435], [26.09254, -33.717055], [25.955251, -33.71087], [25.867442, -33.721856], [25.785411, -33.743585], [25.679047, -33.79518], [25.634044, -33.855157], [25.614919, -33.934991], [25.619395, -33.945896], [25.677013, -33.986505], [25.704356, -34.020685], [25.69752, -34.034926], [25.666026, -34.026544], [25.598155, -34.048517], [25.485199, -34.02752], [25.410492, -34.032973], [25.383556, -34.019627], [25.347992, -34.014418], [25.277517, -33.981134], [25.192638, -33.962172], [25.101085, -33.960545], [24.952891, -33.985121], [24.913341, -34.011326], [24.927419, -34.052341], [24.916352, -34.072361], [24.841075, -34.132501], [24.834158, -34.147638], [24.838227, -34.159763], [24.861339, -34.178318], [24.834158, -34.205662], [24.793712, -34.184747], [24.725352, -34.183282], [24.647227, -34.168227], [24.564952, -34.176935], [24.478526, -34.15781], [24.435232, -34.13893], [24.400157, -34.112563], [24.259125, -34.094171], [24.163097, -34.054783], [23.984223, -34.041111], [23.919607, -34.023533], [23.812999, -34.014418], [23.635509, -33.979669], [23.588552, -33.981215], [23.427582, -34.012384], [23.386892, -34.031183], [23.361176, -34.066664], [23.367931, -34.086602], [23.38559, -34.100274], [23.408376, -34.103204], [23.408376, -34.11004], [23.062836, -34.082696], [23.049001, -34.041111], [23.018891, -34.039158], [22.998057, -34.02752], [23.001638, -34.042576], [23.038748, -34.072442], [23.032237, -34.086114], [22.984548, -34.075291], [22.936046, -34.082696], [22.856212, -34.061782], [22.800141, -34.035577], [22.790538, -34.004327], [22.812511, -34.000746], [22.774587, -33.983575], [22.730479, -33.979669], [22.753184, -34.009535], [22.785167, -34.02752], [22.766775, -34.032892], [22.629893, -33.995782], [22.583669, -33.994073], [22.547699, -34.003595], [22.455414, -34.057061], [22.410492, -34.065606], [22.275157, -34.057712], [22.1692, -34.083185], [22.123546, -34.120538], [22.111013, -34.141534], [22.115408, -34.15781], [22.147716, -34.178318], [22.114106, -34.193943], [21.98406, -34.210138], [21.946951, -34.223728], [21.921723, -34.246677], [21.923839, -34.295668], [21.894542, -34.336033], [21.788748, -34.38128], [21.702647, -34.390558], [21.597179, -34.372654], [21.537608, -34.348891], [21.438975, -34.372328], [21.415538, -34.394952], [21.348969, -34.419203], [21.305919, -34.424574], [21.262462, -34.421563], [21.05836, -34.363377], [20.961274, -34.356052], [20.913422, -34.360447], [20.805186, -34.398045], [20.832205, -34.401788], [20.85613, -34.416925], [20.868175, -34.437921], [20.859874, -34.458754], [20.841075, -34.46502], [20.664317, -34.438409], [20.524425, -34.454278], [20.482677, -34.470473], [20.448009, -34.493341], [20.374522, -34.569757], [20.341156, -34.578709], [20.318614, -34.603448], [20.277599, -34.617771], [20.243337, -34.641046], [20.222423, -34.675063], [20.187266, -34.677423], [20.146658, -34.692153], [20.072602, -34.736912], [20.044444, -34.768324], [20.057872, -34.801446], [20.015636, -34.818943], [20.0, -34.81771543842395], [20.0, -30.0], [27.2251244032897, -30.0], [27.265911, -30.033308], [27.312782, -30.131596], [27.356655, -30.132216], [27.381357, -30.142655], [27.343685, -30.212935], [27.345545, -30.241564], [27.367817, -30.295411], [27.366164, -30.311017], [27.407815, -30.318562], [27.452102, -30.310087], [27.477475, -30.356286], [27.529668, -30.382227], [27.536593, -30.403208], [27.586822, -30.454987], [27.598604, -30.490334], [27.743608, -30.600302], [27.8204, -30.614564], [27.858227, -30.603712], [27.936568, -30.640816], [28.054701, -30.649704], [28.078782, -30.658799], [28.081572, -30.586866], [28.120846, -30.553379], [28.141207, -30.500773], [28.125394, -30.457261], [28.218205, -30.387395], [28.238462, -30.352255], [28.235775, -30.329414], [28.198464, -30.301095], [28.200635, -30.282492], [28.237015, -30.256343], [28.294376, -30.242494], [28.383879, -30.144205], [28.456226, -30.146996], [28.540562, -30.113303], [28.605881, -30.131286], [28.639678, -30.131493], [28.729491, -30.101831], [28.795637, -30.089428], [28.860026, -30.066381], [28.979447725872642, -30.0], [30.948971413660313, -30.0], [30.890636, -30.050063]]], [[[37.728526, -46.825291], [37.821056, -46.844171], [37.868419, -46.882094], [37.895763, -46.889907], [37.86378, -46.940851], [37.836436, -46.958673], [37.806488, -46.965753], [37.781098, -46.959405], [37.65504, -46.958266], [37.602061, -46.948663], [37.58253, -46.930759], [37.575369, -46.903497], [37.662446, -46.828546], [37.728526, -46.825291]]], [[[37.864919, -46.61419], [37.900401, -46.599705], [37.945567, -46.598321], [37.977794, -46.615655], [37.97641, -46.644708], [37.93865, -46.654392], [37.891124, -46.649672], [37.861095, -46.636163], [37.864919, -46.61419]]]]}}, {"type": "Feature", "properties": {"name": "Lesotho"}, "geometry": {"type": "Polygon", "coordinates": [[[28.860026, -30.066381], [28.795637, -30.089428], [28.729491, -30.101831], [28.639678, -30.131493], [28.605881, -30.131286], [28.540562, -30.113303], [28.456226, -30.146996], [28.383879, -30.144205], [28.294376, -30.242494], [28.237015, -30.256343], [28.200635, -30.282492], [28.198464, -30.301095], [28.235775, -30.329414], [28.238462, -30.352255], [28.218205, -30.387395], [28.125394, -30.457261], [28.141207, -30.500773], [28.120846, -30.553379], [28.081572, -30.586866], [28.078782, -30.658799], [28.054701, -30.649704], [27.936568, -30.640816], [27.858227, -30.603712], [27.8204, -30.614564], [27.743608, -30.600302], [27.598604, -30.490334], [27.586822, -30.454987], [27.536593, -30.403208], [27.529668, -30.382227], [27.477475, -30.356286], [27.452102, -30.310087], [27.407815, -30.318562], [27.366164, -30.311017], [27.367817, -30.295411], [27.345545, -30.241564], [27.343685, -30.212935], [27.381357, -30.142655], [27.356655, -30.132216], [27.312782, -30.131596], [27.265911, -30.033308], [27.2251244032897, -30.0], [28.979447725872642, -30.0], [28.860026, -30.066381]]]}}]}