{"type": "FeatureCollection", "features": [{"type": "Feature", "properties": {"name": "Norway"}, "geometry": {"type": "Polygon", "coordinates": [[[3.486664, -54.402032], [3.46754, -54.441339], [3.382579, -54.449314], [3.364513, -54.462498], [3.350841, -54.455662], [3.345551, -54.418552], [3.377208, -54.391371], [3.42213, -54.380141], [3.486664, -54.402032]]]}}, {"type": "Feature", "properties": {"name": "Antarctica"}, "geometry": {"type": "Polygon", "coordinates": [[[16.552094, -69.718032], [16.637218, -69.742852], [16.59018, -69.776625], [16.330414, -69.828871], [16.288748, -69.849867], [16.2588, -69.875746], [16.247244, -69.897882], [16.252208, -69.963637], [16.225375756473365, -70.0], [15.925698080359387, -70.0], [15.897227, -69.989353], [15.688243, -69.964044], [15.589122, -69.932061], [15.554942, -69.872735], [15.585704, -69.837091], [15.630707, -69.805108], [15.721853, -69.76393], [15.972179, -69.71795], [16.246837, -69.705987], [16.552094, -69.718032]]]}}]}