{"type": "FeatureCollection", "features": [{"type": "Feature", "properties": {"name": "Brazil"}, "geometry": {"type": "MultiPolygon", "coordinates": [[[[-57.602793, -30.190517], [-57.325153, -29.981011], [-57.291511, -29.81513], [-57.112866, -29.766037], [-56.819034, -29.474996], [-56.617289, -29.160906], [-56.427972, -29.069852], [-56.286146, -28.780154], [-56.040812, -28.609002], [-56.011589, -28.496554], [-55.902035, -28.465135], [-55.905601, -28.378008], [-55.694244, -28.400126], [-55.6636, -28.326539], [-55.772534, -28.231971], [-55.440746, -28.078905], [-55.314113, -27.914987], [-55.029634, -27.850702], [-55.081155, -27.778252], [-54.913207, -27.736911], [-54.805048, -27.526381], [-54.690326, -27.551289], [-54.589454, -27.452587], [-54.448377, -27.458891], [-54.444553, -27.408972], [-54.286888, -27.428402], [-54.177024, -27.243401], [-54.091758, -27.285155], [-53.964117, -27.154], [-53.830017, -27.156791], [-53.712505, -26.904507], [-53.77431, -26.714337], [-53.661552, -26.259791], [-53.833428, -25.962238], [-53.90996, -25.629236], [-53.967735, -25.653213], [-54.082715, -25.550067], [-54.09889, -25.597196], [-54.116408, -25.494567], [-54.2148, -25.531464], [-54.190253, -25.580763], [-54.395409, -25.581073], [-54.447344, -25.68918], [-54.600203, -25.574945], [-54.597981, -25.397518], [-54.426621, -25.149472], [-54.462278, -25.03723], [-54.262187, -24.358512], [-54.334637, -24.148912], [-54.245289, -24.050624], [-54.639218, -23.804437], [-55.165439, -24.016827], [-55.420669, -23.954506], [-55.445319, -23.735449], [-55.530533, -23.603468], [-55.535236, -23.229124], [-55.637814, -23.000714], [-55.62368, -22.638669], [-55.723932, -22.569629], [-55.760235, -22.391965], [-55.86103, -22.289543], [-56.214264, -22.275383], [-56.407637, -22.075809], [-56.5113, -22.091415], [-56.648811, -22.263498], [-56.715371, -22.215439], [-56.85606, -22.29316], [-56.90368, -22.236936], [-57.384994, -22.213268], [-57.614075, -22.176991], [-57.663685, -22.100614], [-57.843881, -22.143712], [-57.986249, -22.074465], [-57.895609, -21.688442], [-57.949145, -21.508298], [-57.855559, -21.330738], [-57.90429, -21.274928], [-57.833959, -21.173849], [-57.817577, -20.953604], [-57.914832, -20.905648], [-57.859642, -20.831647], [-57.940412, -20.793613], [-57.86021, -20.730258], [-57.918088, -20.669797], [-57.980616, -20.692741], [-57.989401, -20.433119], [-58.156316, -20.261656], [-58.158797, -20.165125], [-57.859745, -19.980123], [-58.124639, -19.729906], [-57.789, -19.059249], [-57.715826, -19.044573], [-57.731794, -18.921996], [-57.782334, -18.910421], [-57.56674, -18.256094], [-57.465661, -18.21775], [-57.551082, -18.183643], [-57.730089, -17.846093], [-57.800731, -17.533451], [-58.010175, -17.49676], [-58.399144, -17.237448], [-58.480276, -16.683683], [-58.342661, -16.473154], [-58.339561, -16.289289], [-58.464721, -16.33125], [-60.16069, -16.264794], [-60.246395, -15.478279], [-60.582241, -15.098871], [-60.269805, -15.083368], [-60.291716, -14.630062], [-60.464341, -14.278352], [-60.473513, -14.117225], [-60.387188, -13.98328], [-60.472635, -13.797865], [-61.022007, -13.535245], [-61.047225, -13.464552], [-61.149105, -13.519845], [-61.83635, -13.540619], [-62.109408, -13.248958], [-62.114679, -13.150204], [-62.424118, -13.126536], [-62.686634, -12.964996], [-62.789832, -13.000652], [-62.988011, -12.843866], [-63.075034, -12.652663], [-63.317913, -12.701963], [-63.485758, -12.557475], [-63.801398, -12.454949], [-63.921236, -12.544349], [-64.287544, -12.497117], [-64.48978, -12.373611], [-64.489392, -12.239459], [-64.66486, -12.180961], [-64.689923, -12.104376], [-64.739532, -12.144581], [-64.7925, -12.032546], [-64.997449, -11.996269], [-65.065559, -11.75308], [-65.113411, -11.690551], [-65.151497, -11.77313], [-65.196197, -11.741814], [-65.167439, -11.615517], [-65.319548, -11.476404], [-65.326447, -11.327783], [-65.38727, -11.277553], [-65.394738, -11.153427], [-65.299601, -10.969665], [-65.404737, -10.799236], [-65.44998, -10.468094], [-65.284822, -10.206818], [-65.336834, -9.967246], [-65.29911, -9.841259], [-65.397993, -9.686746], [-65.583977, -9.837228], [-65.788564, -9.733048], [-65.806418, -9.784415], [-66.086995, -9.784518], [-66.64262, -9.907921], [-67.0643, -10.256944], [-67.323509, -10.318852], [-67.58463, -10.501787], [-67.721727, -10.705495], [-68.043775, -10.666945], [-68.29332, -10.978967], [-68.61573, -11.112499], [-68.775926, -11.140611], [-68.757633, -11.011937], [-68.804659, -10.994677], [-69.39594, -10.935042], [-69.956113, -10.919332], [-70.2894, -11.06475], [-70.437272, -11.036741], [-70.534114, -10.938143], [-70.641342, -11.0108], [-70.638448, -9.851801], [-70.541865, -9.708244], [-70.624418, -9.565823], [-70.564525, -9.56541], [-70.524993, -9.430948], [-71.2997, -9.993394], [-72.195666, -10.00559], [-72.162903, -9.877225], [-72.265223, -9.762194], [-72.312661, -9.532544], [-72.813303, -9.410897], [-73.214984, -9.409037], [-72.972001, -9.134428], [-72.976084, -8.985394], [-73.174573, -8.720707], [-73.350583, -8.598337], [-73.356422, -8.479791], [-73.540829, -8.359075], [-73.668031, -8.013773], [-73.784949, -7.940393], [-73.712163, -7.788154], [-74.018475, -7.543518], [-73.944319, -7.448743], [-73.982895, -7.356449], [-73.713093, -7.304669], [-73.812337, -7.102924], [-73.759421, -6.887434], [-73.147804, -6.476193], [-73.234776, -6.077561], [-72.97691, -5.651747], [-72.917948, -5.132089], [-72.644786, -5.060569], [-72.386094, -4.79397], [-71.907208, -4.518431], [-71.363262, -4.45921], [-71.264818, -4.375494], [-70.968687, -4.385313], [-70.832235, -4.179434], [-70.646768, -4.115665], [-70.585273, -4.194523], [-70.549694, -4.140676], [-70.515975, -4.182328], [-70.330612, -4.143157], [-70.316711, -4.247026], [-70.205632, -4.342938], [-70.138892, -4.260462], [-70.037038, -4.340871], [-69.971822, -4.290951], [-69.399454, -1.182717], [-69.442863, -1.008361], [-69.628381, -0.733442], [-69.584223, -0.644559], [-69.619751, -0.524566], [-70.068044, -0.160144], [-70.054246, 0.588131], [-69.619157, 0.650659], [-69.47808, 0.732825], [-69.297057, 0.618103], [-69.137455, 0.650142], [-69.192258, 0.728949], [-69.152389, 0.867803], [-69.288815, 1.038439], [-69.852192, 1.05942], [-69.856171, 1.707675], [-69.541952, 1.772709], [-69.352403, 1.720206], [-68.163302, 1.721291], [-68.280246, 1.829398], [-68.192189, 2.014891], [-68.031786, 1.777515], [-67.928846, 1.74129], [-67.424639, 2.138114], [-67.340614, 2.090106], [-67.117165, 1.709793], [-67.086107, 1.176002], [-66.875061, 1.22251], [-66.285071, 0.745847], [-66.134382, 0.731119], [-65.74544, 0.974154], [-65.596043, 0.98361], [-65.517004, 0.862791], [-65.585217, 0.691483], [-65.497832, 0.658721], [-65.327196, 0.910281], [-65.203044, 0.923821], [-65.136769, 1.126909], [-64.839293, 1.270828], [-64.730876, 1.247574], [-64.40901, 1.507506], [-64.352941, 1.365835], [-64.092957, 1.622615], [-64.036629, 1.927274], [-63.411758, 2.149379], [-63.372639, 2.266839], [-63.384834, 2.420577], [-64.047972, 2.471323], [-63.997562, 2.714926], [-64.222923, 3.123996], [-64.202976, 3.594717], [-64.642897, 3.972963], [-64.813042, 4.210571], [-64.791622, 4.284417], [-64.69987, 4.264159], [-64.58967, 4.118871], [-64.1467, 4.110551], [-64.037663, 3.882503], [-63.671587, 3.946246], [-63.510666, 3.854546], [-63.4254, 3.968364], [-63.35171, 3.958726], [-62.997054, 3.599135], [-62.889412, 3.560817], [-62.749576, 3.660372], [-62.766216, 4.020712], [-62.560957, 4.037791], [-62.536979, 4.125408], [-62.428097, 4.183182], [-62.153592, 4.090294], [-62.035046, 4.159876], [-61.88813, 4.150161], [-61.756355, 4.246357], [-61.552156, 4.254961], [-61.501874, 4.401851], [-61.29305, 4.44805], [-61.315581, 4.520785], [-60.977281, 4.53497], [-60.895813, 4.708525], [-60.71815, 4.784283], [-60.59193, 4.949725], [-60.664303, 5.170254], [-60.739854, 5.202138], [-60.448967, 5.174233], [-60.213426, 5.267225], [-59.983104, 5.085944], [-60.032455, 4.725423], [-60.159992, 4.527787], [-59.809626, 4.465749], [-59.68674, 4.381181], [-59.738468, 4.202768], [-59.527654, 3.939528], [-59.686223, 3.690215], [-59.862879, 3.58172], [-59.82177, 3.356592], [-59.993724, 2.857294], [-59.913444, 2.378719], [-59.741698, 2.263791], [-59.758751, 1.862136], [-59.646458, 1.839966], [-59.680849, 1.757387], [-59.530729, 1.703075], [-59.259918, 1.387436], [-58.966499, 1.310154], [-58.834001, 1.18582], [-58.69773, 1.28106], [-58.51893, 1.267262], [-58.513659, 1.43888], [-58.38638, 1.490194], [-58.320492, 1.601221], [-58.027229, 1.516859], [-57.985009, 1.657704], [-57.561159, 1.708967], [-57.319416, 1.977141], [-57.238439, 1.948539], [-57.104494, 2.021454], [-57.011167, 1.918566], [-56.806476, 1.873582], [-56.481819, 1.941614], [-55.953815, 1.853273], [-55.918262, 2.050393], [-56.146775, 2.256194], [-55.971023, 2.530338], [-55.724294, 2.396909], [-55.399585, 2.430189], [-55.32052, 2.518297], [-55.120894, 2.524808], [-54.959095, 2.608989], [-54.978577, 2.54305], [-54.880289, 2.447345], [-54.703194, 2.445847], [-54.704124, 2.32482], [-54.588162, 2.324355], [-54.476644, 2.21413], [-54.134908, 2.110673], [-53.764801, 2.368694], [-53.742167, 2.308542], [-53.531792, 2.247047], [-53.344104, 2.349625], [-53.234188, 2.250975], [-53.268501, 2.195733], [-52.959683, 2.175217], [-52.590403, 2.504706], [-52.355327, 3.151592], [-52.227918, 3.260112], [-51.783191, 3.980947], [-51.631744, 4.067816], [-51.585347, 4.233818], [-51.436838, 3.929511], [-51.546702, 4.255032], [-51.516498, 4.441122], [-51.18693, 4.078849], [-51.176137, 3.648342], [-51.136383, 3.867743], [-51.079905, 3.88227], [-51.092742, 3.376329], [-51.016779, 3.035572], [-50.67927, 2.171698], [-50.792551, 2.161811], [-50.779693, 2.07095], [-50.702056, 2.130316], [-50.619555, 2.105238], [-50.466542, 1.815416], [-50.164598, 1.815634], [-49.950597, 1.721326], [-49.883026, 1.307714], [-50.149741, 1.221209], [-49.887563, 1.174872], [-49.978831, 1.072211], [-50.031565, 1.105943], [-50.453359, 0.664049], [-50.790639, 0.169501], [-50.979848, 0.120429], [-51.08141, -0.032525], [-51.326975, -0.079522], [-51.25121, -0.127374], [-51.453603, -0.486749], [-51.58019, -0.52516], [-51.532379, -0.551853], [-51.713735, -0.793227], [-51.715484, -1.02752], [-51.929351, -1.178318], [-51.93456, -1.339532], [-52.065785, -1.405043], [-52.238108, -1.346368], [-52.708119, -1.60003], [-52.279124, -1.518243], [-52.260243, -1.695245], [-52.203969, -1.690199], [-51.283437, -1.231378], [-51.003407, -1.013767], [-50.997304, -0.922459], [-50.839589, -0.912774], [-50.82665, -1.045343], [-50.95641, -1.128513], [-50.819936, -1.231703], [-50.819203, -1.436293], [-50.654693, -1.73797], [-50.737294, -1.73797], [-50.717283, -1.822473], [-50.787567, -1.89737], [-50.879803, -1.851951], [-50.844215, -1.955301], [-50.610581, -1.814203], [-50.466664, -1.92783], [-50.484039, -1.977634], [-50.443023, -1.935968], [-50.415761, -2.073175], [-50.312539, -1.908774], [-50.161936, -1.915623], [-49.976918, -1.826104], [-49.869293, -1.888767], [-49.887563, -2.087498], [-49.853424, -2.045831], [-49.812489, -2.108005], [-49.846588, -1.901788], [-49.832346, -1.94964], [-49.810455, -1.900567], [-49.676096, -1.908624], [-49.592763, -2.011651], [-49.654775, -1.895115], [-49.537465, -1.860935], [-49.485219, -1.76393], [-49.422027, -1.778985], [-49.451161, -1.82464], [-49.454213, -1.856134], [-49.434804, -1.879978], [-49.370432, -1.905043], [-49.381093, -1.991306], [-49.545766, -2.516534], [-49.663686, -2.677667], [-49.527415, -2.628351], [-49.232004, -1.948175], [-48.965589, -1.599719], [-48.856369, -1.559031], [-49.033269, -1.846568], [-48.929465, -1.787832], [-48.656946, -1.38338], [-48.428334, -1.662286], [-48.4829, -1.511407], [-48.325307, -1.470473], [-48.496571, -1.461358], [-48.482753, -1.2813], [-48.435903, -1.218688], [-48.425387, -1.297312], [-48.334584, -1.313653], [-48.305043, -1.188246], [-48.250152, -1.189386], [-48.278147, -1.128513], [-48.22289, -1.113539], [-48.291737, -1.043634], [-48.187489, -1.01865], [-48.140289, -0.9013], [-48.154042, -0.781834], [-48.037913, -0.661716], [-47.962148, -0.781834], [-47.866238, -0.673505], [-47.802444, -0.690334], [-47.809071, -0.565167], [-47.770253, -0.63714], [-47.725168, -0.644138], [-47.728668, -0.756524], [-47.610585, -0.693943], [-47.584514, -0.578247], [-47.496693, -0.764744], [-47.393056, -0.812595], [-47.393056, -0.747166], [-47.468739, -0.730645], [-47.461903, -0.592869], [-47.39981, -0.592869], [-47.407338, -0.681573], [-47.294016, -0.592869], [-47.255849, -0.676039], [-47.242787, -0.620212], [-47.19811, -0.651544], [-47.235951, -0.716404], [-47.160878, -0.681573], [-47.194407, -0.761], [-47.13976, -0.798923], [-47.077545, -0.665704], [-47.0572, -0.86712], [-46.969106, -0.695896], [-46.947377, -0.9013], [-46.819203, -0.711684], [-46.782867, -0.9013], [-46.755523, -0.819431], [-46.714589, -0.877699], [-46.749379, -0.942966], [-46.697865, -0.880792], [-46.68871, -0.825779], [-46.63268, -0.863214], [-46.655913, -0.80182], [-46.598541, -0.86712], [-46.749379, -1.01865], [-46.427629, -0.86855], [-46.475006, -1.045343], [-46.364898, -1.008396], [-46.324818, -1.107354], [-46.296864, -1.031671], [-46.248443, -1.093683], [-46.278979, -0.986261], [-46.200307, -0.907647], [-46.262115, -1.183201], [-46.139231, -1.113539], [-46.146067, -1.176365], [-46.101674, -1.073337], [-46.050445, -1.210382], [-45.979454, -1.055084], [-45.948069, -1.141534], [-46.002675, -1.192804], [-45.948069, -1.251397], [-45.867487, -1.063471], [-45.899648, -1.257582], [-45.838206, -1.202895], [-45.810902, -1.32643], [-45.721588, -1.134942], [-45.675535, -1.366316], [-45.543853, -1.270278], [-45.529693, -1.415785], [-45.415679, -1.287693], [-45.542714, -1.490981], [-45.50178, -1.469985], [-45.460805, -1.546157], [-45.326161, -1.312921], [-45.296295, -1.415785], [-45.40095, -1.560154], [-45.340199, -1.583185], [-45.323638, -1.744806], [-45.221262, -1.672784], [-45.247467, -1.579278], [-45.163197, -1.482843], [-45.078928, -1.483575], [-45.062978, -1.428888], [-44.967356, -1.546157], [-45.020375, -1.578709], [-45.021962, -1.600844], [-44.967356, -1.594008], [-44.868031, -1.421319], [-44.933827, -1.65545], [-44.885365, -1.600844], [-44.83019, -1.634942], [-44.837026, -1.566095], [-44.773183, -1.724298], [-44.821929, -1.75921], [-44.707875, -1.717462], [-44.810374, -1.813165], [-44.679351, -1.81113], [-44.652699, -1.717462], [-44.598012, -1.744806], [-44.659535, -1.839776], [-44.530181, -1.833754], [-44.590647, -1.901788], [-44.521718, -1.895115], [-44.488149, -1.987481], [-44.617299, -2.038995], [-44.494374, -2.045831], [-44.693593, -2.265558], [-44.751373, -2.252048], [-44.824045, -2.279229], [-44.665639, -2.270929], [-44.720937, -2.402114], [-44.663971, -2.356703], [-44.652699, -2.429457], [-44.631581, -2.271742], [-44.461659, -2.144627], [-44.363596, -2.333917], [-44.395375, -2.402114], [-44.51065, -2.36712], [-44.551422, -2.391046], [-44.507436, -2.389825], [-44.521596, -2.500095], [-44.655995, -2.593194], [-44.540395, -2.538263], [-44.686147, -2.916681], [-44.693593, -2.994887], [-44.622222, -3.051039], [-44.781565, -3.196954], [-44.79601, -3.300226], [-44.432973, -2.950291], [-44.368072, -2.549574], [-44.28893, -2.580255], [-44.292633, -2.481052], [-44.034413, -2.415216], [-44.092152, -2.443455], [-44.032704, -2.513279], [-44.137196, -2.67018], [-44.213857, -2.669041], [-44.3485, -2.810235], [-44.186513, -2.759047], [-44.200185, -2.86891], [-44.106028, -2.749607], [-44.068105, -2.79518], [-43.923248, -2.546808], [-43.878041, -2.634942], [-43.879465, -2.571222], [-43.72411, -2.477227], [-43.721059, -2.560317], [-43.644643, -2.477227], [-43.665761, -2.511977], [-43.542226, -2.525079], [-43.537343, -2.435968], [-43.45287, -2.552911], [-43.459788, -2.443048], [-43.411936, -2.45672], [-43.48705, -2.395278], [-43.426298, -2.33785], [-42.700022, -2.563572], [-42.580881, -2.672052], [-42.487131, -2.669041], [-42.452992, -2.752211], [-42.264272, -2.759047], [-42.23941, -2.834161], [-41.943918, -2.83766], [-42.010404, -2.727189], [-41.838565, -2.72948], [-41.686147, -2.875909], [-41.343088, -2.920343], [-41.244537, -3.015232], [-41.315256, -2.903009], [-41.256907, -2.875177], [-41.082509, -2.916681], [-41.103017, -2.875177], [-40.828603, -2.882501], [-40.499623, -2.78631], [-39.985707, -2.848403], [-38.985178, -3.395929], [-38.659657, -3.676446], [-38.477406, -3.697442], [-38.029612, -4.2374], [-37.768625, -4.396417], [-37.607249, -4.608087], [-37.292551, -4.71795], [-37.182932, -4.910903], [-36.898752, -4.938246], [-36.790883, -5.051202], [-36.544423, -5.127618], [-36.579986, -5.080987], [-36.281361, -5.104587], [-35.997182, -5.04754], [-35.510569, -5.143731], [-35.390045, -5.244561], [-35.223134, -5.582615], [-35.105051, -5.995538], [-35.092844, -6.185805], [-35.150868, -6.215997], [-35.038197, -6.236505], [-34.942738, -6.766209], [-34.860097, -6.914646], [-34.914662, -7.130548], [-34.839589, -6.972914], [-34.793609, -7.176202], [-34.804799, -7.514093], [-34.928944, -7.555759], [-34.805304, -7.622716], [-34.830304, -7.680888], [-34.873769, -7.617771], [-34.907216, -7.733819], [-34.865876, -7.71754], [-34.893525, -7.804927], [-34.811635, -7.93255], [-34.851186, -8.068617], [-34.928944, -8.034926], [-34.880605, -8.089532], [-34.938588, -8.347101], [-35.305084, -9.193048], [-35.696156, -9.672947], [-35.778066, -9.700128], [-35.746246, -9.641778], [-35.799916, -9.584731], [-35.858144, -9.734552], [-35.905426, -9.62477], [-35.963043, -9.610772], [-35.873647, -9.755466], [-35.810618, -9.744806], [-36.40807, -10.50213], [-36.903066, -10.772882], [-37.138295, -11.125909], [-37.275136, -11.022719], [-37.149159, -11.187433], [-37.330068, -11.420668], [-37.402455, -11.399672], [-37.272084, -11.249444], [-37.299387, -11.194757], [-37.305572, -11.242608], [-37.344106, -11.184259], [-37.319203, -11.269952], [-37.415395, -11.406427], [-37.470082, -11.358657], [-37.395579, -11.437433], [-37.491851, -11.51629], [-37.360829, -11.454848], [-37.654652, -12.049737], [-38.320424, -12.935235], [-38.532704, -13.016534], [-38.477406, -12.935235], [-38.508901, -12.722914], [-38.62621, -12.702407], [-38.690989, -12.571466], [-38.80663, -12.835138], [-38.864003, -12.795099], [-38.861684, -12.654067], [-38.923695, -12.736586], [-38.853993, -12.851251], [-38.724477, -12.873224], [-38.895009, -13.080987], [-38.806996, -13.143813], [-38.947621, -13.246759], [-38.954579, -13.372491], [-39.039784, -13.332452], [-39.115549, -13.599379], [-39.01183, -13.497003], [-38.97997, -13.83587], [-39.091624, -13.71266], [-39.148752, -13.736912], [-38.994456, -13.863458], [-39.074534, -13.89422], [-38.979563, -14.06113], [-39.071034, -14.076349], [-39.074534, -14.140558], [-39.039784, -14.175388], [-39.063385, -14.109959], [-38.957265, -14.066095], [-38.98998, -13.930841], [-38.929921, -13.897638], [-38.923695, -14.004083], [-39.067128, -14.674981], [-38.861684, -15.854262], [-39.208608, -17.162205], [-39.137115, -17.67962], [-39.275054, -17.866876], [-39.450185, -17.948012], [-39.659413, -18.273614], [-39.744862, -18.681736], [-39.701405, -19.376153], [-39.786204, -19.601983], [-40.026845, -19.764418], [-40.157053, -19.958917], [-40.232777, -20.266778], [-40.369293, -20.23268], [-40.365971, -20.323231], [-40.259511, -20.321466], [-40.348744, -20.500095], [-40.583424, -20.801972], [-40.758463, -20.864194], [-41.05724, -21.483819], [-40.995269, -22.014255], [-41.666493, -22.281834], [-41.966298, -22.535414], [-41.993031, -22.699884], [-41.93456, -22.768731], [-41.869781, -22.75213], [-41.989613, -22.826349], [-42.013539, -22.981703], [-42.531728, -22.934177], [-43.031402, -22.974298], [-43.130767, -22.91961], [-43.025136, -22.735528], [-43.075551, -22.665704], [-43.270172, -22.747003], [-43.170766, -22.969822], [-43.560374, -23.067478], [-44.003733, -23.091078], [-43.891713, -23.021417], [-43.603749, -23.007745], [-43.850168, -22.892267], [-44.056223, -22.939548], [-44.186391, -23.049005], [-44.352651, -22.999282], [-44.325917, -22.921645], [-44.411366, -22.937433], [-44.70051, -23.10768], [-44.707997, -23.214614], [-44.62678, -23.195245], [-44.651357, -23.284763], [-44.556508, -23.227472], [-44.50121, -23.296482], [-44.826975, -23.385431], [-44.919301, -23.34881], [-45.04308, -23.405532], [-45.008372, -23.46087], [-45.070424, -23.515395], [-45.147776, -23.4874], [-45.200673, -23.572035], [-45.412994, -23.617852], [-45.426666, -23.830743], [-45.864369, -23.756443], [-46.146067, -23.844415], [-46.235422, -23.912693], [-46.111928, -23.864923], [-46.166493, -23.981622], [-46.287668, -24.021173], [-46.299469, -23.925063], [-46.385406, -23.873468], [-46.453928, -23.926446], [-46.376047, -24.024509], [-46.936635, -24.27337], [-47.01537, -24.422947], [-47.63386, -24.755629], [-47.825551, -24.894138], [-47.960561, -25.0499], [-48.051584, -25.036798], [-47.949696, -25.080011], [-47.887074, -25.057306], [-48.209055, -25.457615], [-48.222157, -25.339125], [-48.127309, -25.279962], [-48.284332, -25.289972], [-48.332753, -25.358331], [-48.325307, -25.228611], [-48.367421, -25.304783], [-48.455678, -25.248468], [-48.428334, -25.324151], [-48.496571, -25.338474], [-48.414052, -25.410089], [-48.472727, -25.475681], [-48.743031, -25.352146], [-48.710846, -25.496352], [-48.361195, -25.570977], [-48.541005, -25.845473], [-48.578521, -25.797133], [-48.583241, -25.854669], [-48.769439, -25.867364], [-48.563466, -25.865818], [-48.592519, -26.183852], [-48.733795, -26.224705], [-48.796457, -26.068455], [-48.756215, -26.249444], [-48.798248, -26.304864], [-48.6079, -26.4367], [-48.683339, -26.662367], [-48.678944, -26.731052], [-48.577952, -26.776544], [-48.628774, -26.864841], [-48.607167, -27.104425], [-48.579498, -27.158461], [-48.476145, -27.153985], [-48.492909, -27.215997], [-48.54186, -27.182387], [-48.619985, -27.246677], [-48.551869, -27.387302], [-48.64745, -27.479587], [-48.579091, -27.576349], [-48.64745, -27.647393], [-48.565541, -27.860284], [-48.635894, -28.230157], [-48.76122, -28.4874], [-48.79483, -28.370538], [-48.874013, -28.346287], [-48.854888, -28.475274], [-48.756093, -28.528416], [-49.342763, -28.923517], [-49.810658, -29.443129], [-50.045318, -29.814548], [-50.315663, -30.461521], [-50.721425, -31.044529], [-51.151845, -31.481541], [-51.863515, -31.931736], [-52.077382, -32.16725], [-52.012196, -31.950616], [-52.08727, -31.827813], [-51.836334, -31.854913], [-51.834096, -31.80047], [-51.666168, -31.769708], [-51.498687, -31.574884], [-51.447621, -31.612726], [-51.422515, -31.485121], [-51.377797, -31.526951], [-51.244985, -31.464044], [-51.158559, -31.286391], [-51.161855, -31.077732], [-51.013987, -31.062758], [-50.975942, -31.130955], [-50.935902, -31.087823], [-50.98766, -31.045587], [-50.978424, -30.893324], [-50.760121, -30.815118], [-50.692616, -30.726495], [-50.725657, -30.363051], [-50.607533, -30.485121], [-50.565012, -30.450128], [-50.539866, -30.267511], [-50.614817, -30.186212], [-50.671986, -30.288995], [-50.912994, -30.316664], [-50.936391, -30.431573], [-51.034088, -30.375665], [-51.023101, -30.263767], [-51.233022, -30.189874], [-51.283518, -30.00742], [-51.326975, -30.224542], [-51.204091, -30.285333], [-51.187734, -30.360121], [-51.090647, -30.351983], [-51.250478, -30.462335], [-51.269683, -30.781834], [-51.322499, -30.642185], [-51.377105, -30.642267], [-51.361887, -30.879164], [-51.455434, -30.889418], [-51.485707, -30.967055], [-51.443023, -31.080987], [-51.623606, -31.135349], [-51.637522, -31.256524], [-51.963531, -31.332289], [-52.007924, -31.646173], [-52.083323, -31.558689], [-52.063344, -31.66546], [-52.218617, -31.740655], [-52.248443, -31.861993], [-52.13386, -31.930841], [-52.23766, -31.966404], [-52.258616, -32.053643], [-52.08141, -32.031996], [-52.168935, -32.100681], [-52.08727, -32.067315], [-52.091176, -32.166111], [-52.253407, -32.282485], [-52.644887, -33.136977], [-53.379095, -33.740676], [-53.539647, -33.649263], [-53.536857, -33.170842], [-53.110836, -32.722394], [-53.5613, -32.449543], [-53.757308, -32.055045], [-54.274228, -31.823379], [-54.604543, -31.459784], [-54.849903, -31.425057], [-55.029375, -31.268788], [-55.087253, -31.326769], [-55.244349, -31.244603], [-55.368579, -31.037381], [-55.591873, -30.848348], [-55.854596, -31.074588], [-56.011357, -31.082133], [-56.011357, -30.798222], [-56.831281, -30.102037], [-57.077106, -30.106068], [-57.245054, -30.293344], [-57.535992, -30.27443], [-57.602793, -30.190517]]], [[[-39.032582, -13.392511], [-38.906239, -13.388849], [-38.902013, -13.671812], [-38.979056, -13.599695], [-38.967844, -13.498305], [-39.045888, -13.458185], [-39.032582, -13.392511]]], [[[-38.697133, -12.880548], [-38.587473, -12.986912], [-38.786529, -13.133884], [-38.791249, -13.058364], [-38.66926, -12.961847], [-38.697133, -12.880548]]], [[[-44.480784, -2.70436], [-44.497304, -2.949314], [-44.598012, -3.060154], [-44.576324, -2.799981], [-44.480784, -2.70436]]], [[[-42.041412, -2.70436], [-42.085194, -2.758722], [-42.186025, -2.676446], [-42.091379, -2.678399], [-42.041412, -2.70436]]], [[[-43.627309, -2.252048], [-43.634805, -2.399895], [-43.7329, -2.419875], [-43.715403, -2.289239], [-43.627309, -2.252048]]], [[[-49.319, -1.717462], [-49.28189, -1.785821], [-49.367421, -1.895115], [-49.442494, -1.867771], [-49.319, -1.717462]]], [[[-44.974355, -1.260349], [-44.885365, -1.32643], [-45.01891, -1.377699], [-44.974355, -1.260349]]], [[[-48.338979, -1.066502], [-48.334096, -1.205011], [-48.462066, -1.164483], [-48.421498, -1.079522], [-48.338979, -1.066502]]], [[[-48.194936, -0.819431], [-48.155873, -0.866306], [-48.201894, -1.011489], [-48.307118, -1.020685], [-48.194936, -0.819431]]], [[[-47.969065, -0.633884], [-47.887074, -0.669122], [-47.962148, -0.730645], [-47.982655, -0.676039], [-47.969065, -0.633884]]], [[[-50.840932, -0.558689], [-50.843129, -0.715997], [-51.100413, -0.826267], [-51.066274, -0.676039], [-50.840932, -0.558689]]], [[[-47.660512, -0.579197], [-47.643422, -0.692966], [-47.701527, -0.709568], [-47.71562, -0.636555], [-47.761379, -0.575771], [-47.660512, -0.579197]]], [[[-51.308339, -0.518731], [-51.149973, -0.658949], [-51.275624, -1.02516], [-51.331451, -1.009942], [-51.434804, -1.1867], [-51.740834, -1.420017], [-51.930287, -1.470798], [-51.884267, -1.25628], [-51.683949, -1.096938], [-51.675771, -0.846775], [-51.534047, -0.634698], [-51.347401, -0.531996], [-51.381581, -0.65488], [-51.353668, -0.580173], [-51.299631, -0.592869], [-51.308339, -0.518731]]], [[[-51.4051, -0.459649], [-51.120269, -0.14544], [-51.166737, -0.305597], [-51.4051, -0.459649]]], [[[-48.368886, -0.297947], [-48.496571, -0.743748], [-48.572336, -0.681573], [-48.527659, -0.872654], [-48.664784, -1.001235], [-48.642812, -1.083591], [-48.818715, -1.202895], [-48.921132, -1.141534], [-48.796254, -1.268487], [-48.832997, -1.415785], [-48.942209, -1.295831], [-48.990061, -1.292413], [-48.946034, -1.309015], [-48.990061, -1.374282], [-48.945058, -1.346368], [-48.839223, -1.449965], [-48.91808, -1.504571], [-49.065785, -1.531915], [-49.197743, -1.38836], [-49.181874, -1.566095], [-49.229604, -1.5735], [-49.168202, -1.586602], [-49.293729, -1.617531], [-49.387318, -1.484145], [-49.358306, -1.637587], [-49.443025, -1.635422], [-49.496571, -1.497735], [-49.531321, -1.497735], [-49.558705, -1.724216], [-49.688344, -1.769301], [-49.744211, -1.580336], [-49.729644, -1.752618], [-49.823557, -1.816583], [-50.002309, -1.745538], [-50.028188, -1.65545], [-50.155019, -1.778985], [-50.224517, -1.739028], [-50.258168, -1.484145], [-50.264963, -1.744806], [-50.306508, -1.65545], [-50.284779, -1.75506], [-50.366689, -1.772149], [-50.296986, -1.803481], [-50.405181, -1.830987], [-50.603871, -1.772149], [-50.58788, -1.684503], [-50.803212, -1.434991], [-50.792551, -1.086196], [-50.559722, -1.183201], [-50.616689, -1.119887], [-50.476633, -1.039158], [-50.663808, -1.094903], [-50.792551, -1.01865], [-50.737294, -0.551853], [-50.684071, -0.639825], [-50.548451, -0.67783], [-50.682688, -0.623793], [-50.723622, -0.479913], [-50.583363, -0.192153], [-50.368153, -0.105645], [-49.387318, -0.257582], [-49.38683, -0.184747], [-49.206044, -0.140313], [-48.893612, -0.152886], [-48.891957, -0.215916], [-48.368886, -0.297947]]], [[[-50.923411, -0.330499], [-51.012807, -0.273614], [-51.032786, -0.168227], [-50.947266, -0.011974], [-50.766004, 0.046367], [-50.628896, -0.104099], [-50.923411, -0.330499]]], [[[-49.832346, -0.103123], [-49.740468, -0.000339], [-49.496571, 0.085598], [-49.347524, -0.009698], [-49.463368, -0.128025], [-49.832346, -0.103123]]], [[[-50.634267, 0.071275], [-50.610585, 0.183417], [-50.490224, 0.159362], [-50.437729, -3.3e-05], [-50.559722, -0.003839], [-50.634267, 0.071275]]], [[[-50.113324, 0.338182], [-50.165648, 0.261734], [-50.220461, 0.246212], [-50.113324, 0.338182]]], [[[-50.036888, 0.299741], [-49.650227, 0.386373], [-49.530356, 0.35378], [-49.867055, -0.010675], [-50.004506, -0.052789], [-50.097279, 0.030911], [-50.345123, 0.047431], [-50.377797, 0.208319], [-50.107289, 0.222154], [-50.036888, 0.299741]]], [[[-50.31697, 0.308751], [-50.41902, 0.167944], [-50.516754, 0.208645], [-50.366689, 0.61994], [-50.31697, 0.308751]]], [[[-50.312123, 0.413967], [-50.258168, 0.585191], [-50.120351, 0.571601], [-50.065663, 0.647284], [-50.042714, 0.510321], [-50.249595, 0.361016], [-50.312123, 0.413967]]], [[[-50.103383, 0.755683], [-50.275274, 0.745622], [-50.283364, 0.769186], [-50.111666, 0.918253], [-50.015723, 0.892493], [-50.103383, 0.755683]]], [[[-49.964019, 0.973822], [-50.100317, 0.959063], [-49.92638, 1.069857], [-49.964019, 0.973822]]], [[[-50.50423, 2.095692], [-50.399578, 2.115108], [-50.314027, 1.968266], [-50.419119, 1.862978], [-50.523813, 2.001482], [-50.50423, 2.095692]]], [[[-50.543521, 2.146197], [-50.463348, 2.186938], [-50.415158, 2.126931], [-50.497932, 2.107398], [-50.543521, 2.146197]]], [[[-29.316884, -20.56878], [-29.348256, -20.561293], [-29.344309, -20.550958], [-29.316884, -20.56878]]], [[[-28.877838, -20.514255], [-28.880483, -20.510837], [-28.877065, -20.511651], [-28.877838, -20.514255]]], [[[-48.517079, -27.428318], [-48.426584, -27.38893], [-48.379872, -27.435724], [-48.486073, -27.774347], [-48.563791, -27.817315], [-48.517079, -27.428318]]], [[[-48.489125, -26.236017], [-48.583241, -26.421075], [-48.703277, -26.311944], [-48.547597, -26.16725], [-48.489125, -26.236017]]], [[[-47.831858, -24.913263], [-47.448313, -24.6867], [-47.900136, -25.036798], [-47.831858, -24.913263]]], [[[-46.393666, -23.92018], [-46.29186, -23.990899], [-46.4204, -23.947442], [-46.393666, -23.92018]]], [[[-45.213735, -23.906508], [-45.241689, -23.96795], [-45.452952, -23.891371], [-45.308461, -23.721368], [-45.228098, -23.772393], [-45.271108, -23.86891], [-45.213735, -23.906508]]], [[[-44.113026, -23.114679], [-44.107737, -23.17962], [-44.292633, -23.172784], [-44.327707, -23.221287], [-44.367096, -23.165216], [-44.235097, -23.06878], [-44.113026, -23.114679]]], [[[-32.462799, -3.878351], [-32.386586, -3.841241], [-32.399729, -3.861993], [-32.462799, -3.878351]]], [[[-29.410268, 0.834866], [-29.356191, 0.882758], [-29.349029, 0.852607], [-29.410268, 0.834866]]], [[[-48.339525, -25.425535], [-48.255379, -25.348212], [-48.291107, -25.489117], [-48.339525, -25.425535]]], [[[-34.85275, -7.697379], [-34.822331, -7.738797], [-34.845373, -7.813504], [-34.884229, -7.804026], [-34.85275, -7.697379]]], [[[-42.258436, -2.69621], [-42.149024, -2.735403], [-42.105776, -2.772749], [-42.249767, -2.736441], [-42.258436, -2.69621]]], [[[-43.838326, -2.507358], [-43.848708, -2.42398], [-43.756834, -2.447669], [-43.770658, -2.496004], [-43.838326, -2.507358]]], [[[-43.611692, -2.385001], [-43.542039, -2.371153], [-43.573656, -2.423468], [-43.611692, -2.385001]]], [[[-49.525482, -1.672855], [-49.424018, -1.696843], [-49.508609, -1.744872], [-49.525482, -1.672855]]]]}}, {"type": "Feature", "properties": {"name": "New Zealand"}, "geometry": {"type": "MultiPolygon", "coordinates": [[[[165.924083, -50.851251], [166.226329, -50.885431], [165.985525, -50.904392], [165.924083, -50.851251]]], [[[169.293524, -52.520198], [169.195296, -52.600313], [169.015391, -52.542657], [169.113593, -52.546453], [169.186255, -52.469199], [169.293524, -52.520198]]], [[[166.287771, -50.542739], [166.164317, -50.686782], [166.226329, -50.693536], [166.122732, -50.700372], [166.232595, -50.75506], [166.240082, -50.851007], [166.061209, -50.830743], [166.083507, -50.786798], [166.040212, -50.752048], [165.992931, -50.776137], [166.021495, -50.836033], [165.896739, -50.851251], [165.925304, -50.754002], [166.078787, -50.675551], [166.095876, -50.535903], [166.287771, -50.542739]]], [[[178.839041, -49.629164], [178.822113, -49.719822], [178.719005, -49.700128], [178.770763, -49.627211], [178.839041, -49.629164]]], [[[-176.236073, -44.241957], [-176.113881, -44.265069], [-176.218984, -44.341241], [-176.236073, -44.241957]]], [[[-176.285105, -43.769708], [-176.398793, -43.907647], [-176.372263, -43.765883], [-176.53539, -43.755629], [-176.423044, -43.805841], [-176.501536, -43.864435], [-176.456532, -43.949802], [-176.395212, -43.938572], [-176.300038, -44.042576], [-176.51179, -44.121759], [-176.581492, -44.123142], [-176.664377, -44.01922], [-176.51594, -43.922296], [-176.566151, -43.837823], [-176.85497, -43.820082], [-176.580637, -43.703383], [-176.169138, -43.731378], [-176.285105, -43.769708]]], [[[-177.848134, -29.278578], [-177.924875, -29.284356], [-177.957997, -29.222752], [-177.889394, -29.233819], [-177.848134, -29.278578]]], [[[-171.185658, -9.361261], [-171.199696, -9.344334], [-171.2058, -9.330987], [-171.185658, -9.361261]]], [[[-172.483632, -8.586521], [-172.494944, -8.554783], [-172.502553, -8.543227], [-172.483632, -8.586521]]], [[[166.637218, -47.993585], [166.637218, -48.062433], [166.56837, -48.041925], [166.637218, -47.993585]]], [[[167.426768, -47.244561], [167.454275, -47.207452], [167.48699, -47.218927], [167.426768, -47.244561]]], [[[167.69337, -46.757257], [167.682628, -46.795099], [167.662852, -46.778497], [167.69337, -46.757257]]], [[[168.542166, -46.759698], [168.605724, -46.754571], [168.563243, -46.801202], [168.542166, -46.759698]]], [[[168.199474, -47.047621], [168.259288, -47.084731], [167.901866, -47.188409], [167.764903, -47.137465], [167.61671, -47.212172], [167.726573, -47.205255], [167.671886, -47.260512], [167.521007, -47.273045], [167.545584, -47.188246], [167.630382, -47.156915], [167.627452, -47.064711], [167.743826, -47.027276], [167.737071, -46.955173], [167.81422, -46.911228], [167.758311, -46.807387], [167.787446, -46.697198], [167.96754, -46.699802], [168.17921, -46.864435], [168.167328, -46.909845], [168.008149, -46.895115], [167.966645, -46.972589], [168.048676, -46.931573], [168.131114, -46.992446], [168.230235, -46.971612], [168.247325, -47.040785], [168.199474, -47.047621]]], [[[166.711436, -45.616306], [166.739268, -45.72796], [166.650076, -45.73919], [166.623057, -45.658298], [166.506196, -45.724867], [166.566661, -45.63714], [166.711436, -45.616306]]], [[[166.966156, -45.149591], [166.997081, -45.233168], [167.034434, -45.30047], [166.893321, -45.243422], [166.966156, -45.149591]]], [[[174.38087, -41.106378], [174.38087, -41.195082], [174.197276, -41.230076], [174.351248, -41.17547], [174.325694, -41.126886], [174.38087, -41.106378]]], [[[173.777599, -40.921482], [173.784434, -40.838962], [173.845876, -40.873142], [173.832286, -40.757582], [173.887462, -40.805352], [173.964854, -40.708754], [173.921641, -40.866795], [173.777599, -40.921482]]], [[[172.748694, -43.279694], [172.747732, -43.567153], [172.832286, -43.601658], [172.681407, -43.639337], [172.875743, -43.668878], [172.893809, -43.614516], [172.928396, -43.685724], [173.064952, -43.648126], [173.092947, -43.854181], [172.996837, -43.88893], [172.948578, -43.751153], [172.965587, -43.90545], [172.817231, -43.881443], [172.763438, -43.792739], [172.422618, -43.854587], [172.647716, -43.782647], [172.417328, -43.737481], [172.376313, -43.864435], [171.346002, -44.278631], [171.173839, -44.54697], [171.203136, -44.905532], [170.926117, -45.238377], [170.865977, -45.482029], [170.62672, -45.706313], [170.759288, -45.776788], [170.556814, -45.896254], [170.776622, -45.780206], [170.778575, -45.876153], [170.333751, -45.981541], [170.21697, -46.172947], [169.899425, -46.344903], [169.848969, -46.467543], [169.659353, -46.49212], [169.755544, -46.499607], [169.704112, -46.549005], [169.035981, -46.681899], [168.889171, -46.65602], [168.8449, -46.560154], [168.617849, -46.547459], [168.645193, -46.601983], [168.591482, -46.614353], [168.4192, -46.601983], [168.565115, -46.585056], [168.365733, -46.540216], [168.378103, -46.619806], [168.267833, -46.5263], [168.385102, -46.499607], [168.368907, -46.416925], [168.301931, -46.478448], [168.171153, -46.336684], [167.838634, -46.393243], [167.740245, -46.322035], [167.789236, -46.294122], [167.712901, -46.197931], [167.590017, -46.159601], [167.45281, -46.15016], [167.405772, -46.251153], [167.295177, -46.273614], [166.761974, -46.219985], [166.671235, -46.153578], [166.952485, -45.944024], [166.616059, -46.088067], [166.658539, -46.000177], [166.808604, -45.930434], [166.691254, -45.940199], [166.743907, -45.860935], [166.629242, -45.965265], [166.474783, -45.996026], [166.489757, -45.80755], [166.889659, -45.776462], [167.020844, -45.697686], [166.774262, -45.718845], [166.890961, -45.649835], [166.77768, -45.656671], [166.781993, -45.594171], [166.991954, -45.575453], [166.952485, -45.546808], [167.054942, -45.491632], [166.71461, -45.575616], [166.767589, -45.409601], [166.952485, -45.436944], [166.809255, -45.357192], [166.825531, -45.317153], [166.890961, -45.282973], [166.93214, -45.355076], [167.047537, -45.361912], [167.011078, -45.426446], [167.097179, -45.382094], [167.20574, -45.478611], [167.047537, -45.327081], [167.308849, -45.313409], [167.247244, -45.253106], [167.047537, -45.269708], [167.012055, -45.132908], [167.170746, -45.184747], [167.054942, -45.101739], [167.1185, -45.039239], [167.192149, -45.135919], [167.274669, -45.094415], [167.151541, -45.007582], [167.335704, -45.037205], [167.198985, -44.964044], [167.385753, -44.84238], [167.459646, -44.991876], [167.514171, -44.992608], [167.457693, -44.789321], [167.555186, -44.785821], [167.568126, -44.882013], [167.548839, -44.73447], [167.679373, -44.765395], [167.594737, -44.697686], [167.751964, -44.603204], [167.932628, -44.697035], [167.836436, -44.505304], [168.028168, -44.320408], [168.127452, -44.316583], [168.103282, -44.258233], [168.30714, -44.148858], [168.37086, -44.039158], [168.645844, -43.964532], [168.803722, -43.997247], [169.419607, -43.650567], [169.717784, -43.573663], [170.104991, -43.258071], [170.23878, -43.237888], [170.303559, -43.162205], [170.200531, -43.216729], [170.289317, -43.106866], [170.858409, -42.843357], [171.225413, -42.450689], [171.48878, -41.830336], [171.46811, -41.76629], [171.855235, -41.66546], [172.070811, -41.414239], [172.139659, -41.291436], [172.106781, -40.886895], [172.507091, -40.589451], [172.592621, -40.604099], [172.595876, -40.527765], [172.83961, -40.50213], [172.996837, -40.524184], [172.742198, -40.520929], [172.660411, -40.647719], [172.694509, -40.750177], [172.856456, -40.843683], [173.017345, -40.797296], [173.058279, -40.963067], [172.996837, -41.017022], [173.103852, -41.307794], [173.212738, -41.301853], [173.588634, -41.056329], [173.674571, -41.106378], [173.747569, -41.037205], [173.681407, -41.034438], [173.707286, -40.994236], [173.992035, -40.899998], [174.034841, -40.933526], [173.917979, -41.001886], [173.780528, -41.011407], [173.778656, -41.10768], [173.828868, -41.058689], [173.95574, -41.058689], [173.829112, -41.140069], [173.859548, -41.229913], [173.774262, -41.283949], [174.133962, -41.175388], [173.896332, -41.191664], [173.948904, -41.079034], [173.976329, -41.147393], [174.045665, -41.092869], [174.033702, -41.017185], [173.948904, -41.010837], [173.998546, -40.968845], [174.094249, -41.019138], [174.183116, -40.973077], [174.207205, -41.070571], [174.326427, -41.009373], [174.257335, -41.126886], [174.167328, -41.115899], [174.216482, -41.188897], [173.935232, -41.279555], [174.325694, -41.216241], [174.050629, -41.436944], [174.225922, -41.723403], [174.292166, -41.730157], [174.21518, -41.856703], [173.703624, -42.378595], [173.723155, -42.4367], [173.558604, -42.491143], [173.287283, -42.953871], [172.91505, -43.102797], [172.748694, -43.279694]]], [[[175.011729, -36.802667], [175.190603, -36.731215], [175.21518, -36.758477], [175.182628, -36.824965], [175.011729, -36.802667]]], [[[175.847667, -36.625095], [175.797537, -36.621759], [175.771983, -36.576593], [175.799164, -36.569757], [175.847667, -36.625095]]], [[[174.84547, -36.4485], [174.895518, -36.401544], [174.906016, -36.449151], [174.84547, -36.4485]]], [[[175.080821, -36.205662], [175.154959, -36.213556], [175.100352, -36.227797], [175.080821, -36.205662]]], [[[175.501801, -36.241306], [175.565929, -36.309747], [175.522797, -36.352146], [175.333751, -36.223728], [175.375499, -36.065851], [175.53061, -36.176365], [175.501801, -36.241306]]], [[[172.138882, -34.149129], [172.144776, -34.169046], [172.114697, -34.146487], [172.138882, -34.149129]]], [[[176.953712, -39.607513], [177.118907, -39.66725], [176.861827, -40.14072], [176.681814, -40.274591], [176.628429, -40.462091], [176.424815, -40.603936], [175.966807, -41.247003], [175.237478, -41.620294], [175.181814, -41.417901], [174.865571, -41.419529], [174.889659, -41.224542], [174.785411, -41.249444], [174.810069, -41.333754], [174.609386, -41.291925], [174.611501, -41.2374], [174.865977, -41.104181], [174.84197, -41.043715], [175.141287, -40.674412], [175.23878, -40.296319], [175.183767, -40.134454], [174.967296, -39.916436], [174.567638, -39.826755], [174.319021, -39.613865], [173.851248, -39.463962], [173.759288, -39.301365], [173.852712, -39.134454], [174.211599, -38.973321], [174.41505, -38.963067], [174.594005, -38.818617], [174.709809, -38.10475], [174.84669, -38.153741], [174.942638, -38.097345], [174.792003, -38.084731], [174.888031, -37.966892], [174.788097, -37.985284], [174.79184, -37.872003], [174.976817, -37.803806], [174.977061, -37.749933], [174.850352, -37.764907], [174.717784, -37.411879], [174.837901, -37.299005], [174.706391, -37.347833], [174.558279, -37.062758], [174.667328, -37.069513], [174.740001, -37.244399], [174.73585, -37.179457], [174.804861, -37.166274], [174.716645, -37.152602], [174.855968, -37.078302], [174.948416, -37.101739], [174.785818, -37.008477], [174.832774, -36.942804], [174.667328, -36.944106], [174.500336, -37.032159], [174.407563, -36.761489], [174.182302, -36.45322], [174.257172, -36.446954], [174.431407, -36.665623], [174.490733, -36.576593], [174.465994, -36.373224], [174.331228, -36.392511], [174.271007, -36.33766], [174.524913, -36.241469], [174.353038, -36.296075], [174.305186, -36.282403], [174.45045, -36.163263], [174.393891, -36.1242], [174.385509, -36.188735], [174.33253, -36.227797], [174.284679, -36.117934], [174.182302, -36.145196], [174.318858, -36.241469], [174.26059, -36.268243], [174.075206, -36.168064], [173.900564, -35.959649], [173.946788, -35.916436], [173.90797, -35.870294], [173.880138, -35.959649], [174.20281, -36.347589], [174.079845, -36.399509], [173.407237, -35.571222], [173.457856, -35.437921], [173.541515, -35.452569], [173.660899, -35.312921], [173.592621, -35.336521], [173.565278, -35.274509], [173.566417, -35.360528], [173.406993, -35.391209], [173.369965, -35.516534], [173.272146, -35.391371], [173.31837, -35.302341], [173.24936, -35.370701], [173.201671, -35.322849], [173.256847, -35.281345], [173.177501, -35.29046], [173.092947, -35.206801], [173.198416, -35.109063], [173.156749, -34.945001], [172.674083, -34.479913], [172.70281, -34.411798], [173.079275, -34.411716], [173.038097, -34.522068], [172.970063, -34.466567], [172.907481, -34.541436], [172.996837, -34.561782], [173.007498, -34.651137], [173.035818, -34.552341], [173.18865, -34.835626], [173.123057, -34.809666], [173.298188, -34.909438], [173.266612, -35.007745], [173.3685, -34.967218], [173.357921, -34.868748], [173.444102, -34.796319], [173.503184, -34.869806], [173.404063, -34.903416], [173.458751, -34.981215], [173.586436, -35.014907], [173.588227, -34.927504], [173.784434, -35.007501], [173.724457, -35.064223], [173.760265, -35.096938], [173.89088, -35.000665], [173.990001, -35.118748], [174.12794, -35.136489], [174.15504, -35.182306], [174.058116, -35.151544], [174.014985, -35.216974], [174.093516, -35.219822], [174.151134, -35.369724], [174.251638, -35.322524], [174.15504, -35.274509], [174.353038, -35.199395], [174.34018, -35.311782], [174.422374, -35.373712], [174.33253, -35.329034], [174.569509, -35.594334], [174.565278, -35.651788], [174.476573, -35.643243], [174.606781, -35.84352], [174.496918, -35.768487], [174.385509, -35.789483], [174.359874, -35.713311], [174.352712, -35.841974], [174.503754, -35.830011], [174.496918, -35.987563], [174.621104, -36.04225], [174.824474, -36.277032], [174.806407, -36.334893], [174.880544, -36.351332], [174.750743, -36.354425], [174.778819, -36.487237], [174.716645, -36.411554], [174.722911, -36.593683], [174.856944, -36.610935], [174.723481, -36.63128], [174.819102, -36.823663], [174.703624, -36.758477], [174.621104, -36.796319], [174.682628, -36.803155], [174.680186, -36.907403], [174.750743, -36.844822], [174.875662, -36.851007], [174.891449, -36.957778], [174.935232, -36.837335], [174.963145, -36.933526], [175.02711, -36.874607], [175.093435, -36.970473], [175.240977, -36.942315], [175.32602, -37.009454], [175.367198, -37.207208], [175.562755, -37.179946], [175.609548, -37.25156], [175.527843, -36.962498], [175.436209, -36.864679], [175.53712, -36.786065], [175.497569, -36.63128], [175.354259, -36.490981], [175.532237, -36.507745], [175.628103, -36.763849], [175.851736, -36.718357], [175.713552, -36.875177], [175.850759, -36.840997], [175.868012, -37.053399], [175.919688, -37.05462], [175.88795, -37.241957], [175.975434, -37.469903], [176.169119, -37.624933], [175.943126, -37.521905], [175.997244, -37.631768], [176.214122, -37.719496], [176.216807, -37.618259], [177.131033, -38.021661], [177.556814, -37.913832], [177.73878, -37.676202], [177.992035, -37.590916], [177.992035, -37.543064], [178.27768, -37.559259], [178.550548, -37.680597], [178.348318, -38.012628], [178.381114, -38.078709], [178.318533, -38.26572], [178.362071, -38.316502], [178.300141, -38.531671], [178.079845, -38.70908], [177.932384, -38.702407], [177.882823, -39.085545], [177.998871, -39.129815], [177.911957, -39.255955], [177.8685, -39.290216], [177.841156, -39.228936], [177.852061, -39.089288], [177.413259, -39.059015], [177.064952, -39.199395], [176.937511, -39.348728], [176.953712, -39.607513]]]]}}]}