{"type": "FeatureCollection", "features": [{"type": "Feature", "properties": {"name": "Northern", "country": "FJI"}, "geometry": {"type": "MultiPolygon", "coordinates": [[[[178.3280052240001, -16.845020617999978], [178.32924603900005, -16.822375257999965], [178.33462702700012, -16.81177893499995], [178.32660338200003, -16.806028908999963], [178.31325117300003, -16.787939964999964], [178.27545252400012, -16.789003027999968], [178.26977639200004, -16.797590309999975], [178.26821806500004, -16.825394720999952], [178.2765412120001, -16.83000096199993], [178.27859296700012, -16.842906309999933], [178.3280052240001, -16.845020617999978]]], [[[179.92490348000013, -17.00838379399994], [179.97014641400006, -16.97531543499997], [180.0000000000001, -16.94925883899998], [180.0000000000001, -16.75511851799996], [179.97469141800002, -16.799248140999964], [179.95457701700002, -16.849664618999952], [179.94215583000005, -16.860671443999934], [179.9343504200001, -16.883678717999942], [179.90841088500008, -16.91334981899996], [179.9005530500001, -16.928702286999965], [179.8824633170001, -16.943018044999974], [179.86553917800006, -16.962793185999942], [179.88608161700006, -16.977987972999927], [179.89642714000001, -16.99761184299996], [179.92490348000013, -17.00838379399994]]], [[[-180.0, -16.94925883899998], [-179.96884190899996, -16.92464529199998], [-179.95086334199996, -16.896103756999935], [-179.92263250399998, -16.872961707999934], [-179.885247366, -16.860689185999945], [-179.83377791799998, -16.76462249399998], [-179.84451960099997, -16.744108147999953], [-179.86420762699998, -16.718615343999943], [-179.87507650799998, -16.686228205999953], [-179.90806367499997, -16.683711174999928], [-179.92841494699996, -16.69368269299997], [-179.96339262699996, -16.722331846999964], [-179.97575010299997, -16.740996474999974], [-180.0, -16.75511851799996], [-180.0, -16.94925883899998]]], [[[180.0000000000001, -16.470246645999964], [179.9828789380001, -16.482102080999937], [179.96600991900004, -16.50297649299995], [179.96498583800008, -16.520477767999978], [179.9843590900001, -16.536765914999933], [180.0000000000001, -16.537143425999943], [180.0000000000001, -16.470246645999964]]], [[[-179.95558461899998, -16.533121759999972], [-179.93073648299998, -16.51984515399994], [-179.916234324, -16.48585715699994], [-179.91859788399998, -16.47165775899998], [-179.89601106799998, -16.46057881699994], [-179.89948592999997, -16.449667098999953], [-179.91318679399998, -16.434447016999968], [-179.94602721599998, -16.43684054099998], [-179.95958657399999, -16.442391567999948], [-179.98104954699997, -16.452363524999953], [-180.0, -16.470246645999964], [-180.0, -16.537143425999943], [-179.97935996899997, -16.537641595999958], [-179.95558461899998, -16.533121759999972]]], [[[179.97292640600006, -16.19170691399995], [180.0000000000001, -16.17579193499995], [180.0000000000001, -16.120050351999964], [179.97080175200006, -16.133627460999946], [179.93375342700006, -16.145796485999938], [179.91445853100004, -16.171531888999937], [179.8210136470001, -16.21986472499998], [179.78743103600004, -16.223448798999982], [179.77147937300003, -16.216691485999945], [179.75369120200003, -16.19627216699996], [179.71138507800003, -16.22380683199998], [179.66361858800008, -16.22060036299996], [179.62483152000004, -16.248103364999963], [179.55941355800007, -16.255198220999944], [179.51345523800012, -16.263912588999972], [179.47984441000006, -16.264031061999958], [179.46218518500007, -16.272635065999964], [179.44463269300002, -16.311995338999964], [179.41637935300002, -16.329174188999957], [179.3863346280001, -16.341228438999963], [179.39001885400012, -16.385645718999967], [179.38830437600006, -16.402738736999936], [179.18650005000006, -16.40838102699996], [179.15998352700012, -16.427231546999963], [179.13341828600005, -16.42386406199995], [179.1104264060001, -16.437575463999963], [179.0732648620001, -16.451306703999933], [179.0484971180001, -16.46672297999993], [179.03432456200005, -16.463325002999966], [178.94755275800003, -16.46684242699996], [178.92099731200005, -16.47711887899993], [178.9227986720001, -16.511294361999944], [178.8856321070001, -16.557460549999973], [178.8377991000001, -16.56944803999994], [178.83249283400005, -16.59166511199993], [178.8006015740001, -16.61730782799998], [178.76338187800002, -16.61047819099997], [178.71375186900002, -16.64294324399998], [178.69601935600008, -16.666862961999982], [178.6729743420001, -16.663438010999982], [178.59676858600005, -16.63434561899993], [178.5560115710001, -16.62405856099997], [178.52765326000008, -16.624030120999976], [178.552431747, -16.65823162399994], [178.5665841000001, -16.689003356999933], [178.56832798400012, -16.71976352799993], [178.5062459730001, -16.733370011999966], [178.47072573100002, -16.769209708999938], [178.47068826100008, -16.79484151099996], [178.48130075000006, -16.81706988299993], [178.51677375300005, -16.825657150999973], [178.53985227900012, -16.813720521999926], [178.55939692800007, -16.78469003999993], [178.58777030600004, -16.794967164999946], [178.6143690450001, -16.810365626999953], [178.61610348900012, -16.86675696599997], [178.65690784700007, -16.89241141599996], [178.67108773000007, -16.938554541999963], [178.66930583500005, -16.953932850999934], [178.68526507400009, -17.012036825999928], [178.71367965800005, -17.02058774099993], [178.73676927000008, -17.01546426699997], [178.76695964600003, -16.98812368299997], [178.82020674800003, -16.916343664999943], [178.82907165900008, -16.890708650999954], [178.8592327450001, -16.87018934899993], [178.89650103200006, -16.870166135999966], [178.91958098400005, -16.880401077999977], [178.96221365300005, -16.91453696399998], [179.01015030000008, -16.921316735999937], [179.017207567, -16.890549759999942], [179.01894857700006, -16.866624625999975], [179.0366203310001, -16.817046097999935], [179.0507894310001, -16.801646821999952], [179.1146637930001, -16.80666991499993], [179.11811979200002, -16.758817989999955], [179.13053167400005, -16.757086691999973], [179.16949080500012, -16.729670761999955], [179.19253225600005, -16.724496379999948], [179.21907712000007, -16.70222382299994], [179.2598575080001, -16.702127357999927], [179.27938461400004, -16.710622113999932], [179.2882933620001, -16.725977909999926], [179.33086711400006, -16.730988854999964], [179.3362392580001, -16.748061073999963], [179.33630727000002, -16.770274448999942], [179.3114960040001, -16.77717847399998], [179.2902401240001, -16.78748774899998], [179.27431778200003, -16.802907597999933], [179.27967291900006, -16.814855078999926], [179.40741785000012, -16.81790386399996], [179.44820900500008, -16.81435202299997], [179.4801022470001, -16.80398916499996], [179.54217491300005, -16.800342244999968], [179.6271939190001, -16.772659241999975], [179.6749313570001, -16.74169530699993], [179.70500852700002, -16.72788943699993], [179.7333870020001, -16.72946491099998], [179.7724408260001, -16.737818241999946], [179.79549195700008, -16.737702811999952], [179.83099341700006, -16.74435423899996], [179.84174946200005, -16.764800244999947], [179.85951293400012, -16.769831044999933], [179.90735342800008, -16.762733915999945], [179.93388972700006, -16.752332235999972], [179.9496988300001, -16.72832191699996], [179.88746170900004, -16.697920345999933], [179.88887061600008, -16.636405069999967], [179.89750813400008, -16.598769492999963], [179.9114571550001, -16.561104085999943], [179.9290056200001, -16.533668900999942], [179.93240249600012, -16.509730081999976], [179.93043469300005, -16.477278783999964], [179.92146834400012, -16.458535018999953], [179.8808252230001, -16.472426893999966], [179.8774222820001, -16.49636531799996], [179.8085052790001, -16.524063161999948], [179.79976939000005, -16.546319134999976], [179.7750871510001, -16.568653869999935], [179.7397419770001, -16.58591103699996], [179.7149708820001, -16.592861884999934], [179.7097315840001, -16.608263833999956], [179.690380827, -16.637399134999953], [179.66037279700004, -16.663162615999966], [179.63744785300003, -16.688891807999937], [179.5826687220001, -16.730127400999947], [179.55082243900006, -16.74734005299996], [179.5260159600001, -16.752560853999967], [179.47812662900003, -16.75102670299998], [179.47096861600005, -16.73396483299996], [179.47265181400007, -16.71003710699995], [179.4884976940001, -16.68093319099995], [179.53090567300012, -16.646603778999975], [179.56448827700012, -16.624261755999953], [179.57143921800002, -16.59176931299993], [179.57305143600001, -16.554171693999933], [179.67198301400003, -16.49566318899997], [179.75137885300012, -16.43720443799998], [179.76537375200007, -16.404673027999934], [179.82152315600013, -16.313837236999973], [179.87257892000002, -16.269148220999966], [179.97292640600006, -16.19170691399995]]], [[[-179.97422884699998, -16.160642585999938], [-179.94973658899997, -16.12119811599996], [-179.97276775199998, -16.112794400999974], [-180.0, -16.120050351999964], [-180.0, -16.17579193499995], [-179.97422884699998, -16.160642585999938]]]]}}, {"type": "Feature", "properties": {"name": "Eastern", "country": "FJI"}, "geometry": {"type": "MultiPolygon", "coordinates": [[[[-178.57284288699998, -19.142074934999982], [-178.58346624499998, -19.124750440999946], [-178.57685292499997, -19.107175473999973], [-178.593269659, -19.086656741999946], [-178.61393128199998, -19.088046086999952], [-178.63642790599997, -19.11895604999995], [-178.62313128699998, -19.160280237999928], [-178.60916508399998, -19.171004380999932], [-178.59298578399998, -19.176233012999944], [-178.57206646599997, -19.190130345999933], [-178.54201863599997, -19.19952059899998], [-178.49640098399996, -19.176993437999954], [-178.50367720299997, -19.154162605999943], [-178.52125660899998, -19.133669254999973], [-178.54202920599997, -19.128514460999952], [-178.54508480399997, -19.152592440999967], [-178.55420764999997, -19.15709624799996], [-178.57284288699998, -19.142074934999982]]], [[[178.45434129500006, -18.966722378999975], [178.40151819200003, -18.946949728999982], [178.37050300300007, -18.942515325999977], [178.37054005900006, -18.926114750999943], [178.29699105400005, -18.932509980999953], [178.2785830790001, -18.941211043999942], [178.27394047300004, -18.95759964399997], [178.2486465170001, -18.96190637199993], [178.20497865700008, -18.961783056999934], [178.1831152860001, -18.97046424599995], [178.14855290200012, -18.994408759999942], [178.1484664200001, -19.018461946999935], [178.13690697900006, -19.03591732299998], [178.10688568700004, -19.069708354999932], [178.04132958200012, -19.07274799499993], [178.03564578200007, -19.057419676999928], [178.01494517100002, -19.058431672999973], [178.00673099200003, -19.095571167999935], [177.96303028700004, -19.095389627999964], [177.9376980940001, -19.10183938299997], [177.93404938800006, -19.142274828999973], [177.95813854300002, -19.156592931999967], [178.00526736000006, -19.16553642699995], [178.0696963700001, -19.165786451999963], [178.1111744860001, -19.15062903499995], [178.12157391200003, -19.138638390999972], [178.14227626700006, -19.139801321999983], [178.1491230360001, -19.155130353999937], [178.1571607080001, -19.159529762999966], [178.1675152470001, -19.159562895999954], [178.17913312200005, -19.12679953099996], [178.17460390000008, -19.106012134999958], [178.16082164400007, -19.100501889999975], [178.15857971800006, -19.08409473699993], [178.18968078700004, -19.068885208999973], [178.20125516500002, -19.04595984499997], [178.25190534900003, -19.02532980999996], [178.27493767700003, -19.011176844999966], [178.3013997160001, -19.00249607099994], [178.31858218800005, -19.02549755299998], [178.31970081400004, -19.037527120999982], [178.33230363100006, -19.05504981499996], [178.37485171700007, -19.052954516999932], [178.39441471200007, -19.045339698999953], [178.40939275000005, -19.03006079399995], [178.43467270600001, -19.036665914999958], [178.45882784600008, -19.030145354999945], [178.47381314200004, -19.006114106999974], [178.46580754400009, -18.982047655999963], [178.45434129500006, -18.966722378999975]]], [[[-179.85219309299998, -18.919054865999954], [-179.86033240499998, -18.90709139699993], [-179.87047155799996, -18.93121617199995], [-179.88422884499997, -18.934597382999982], [-179.88983063999999, -18.952128933999973], [-179.89411652899997, -18.990420522999955], [-179.88708860699998, -19.00676604599994], [-179.88803302199997, -19.031915242999958], [-179.86729041299998, -19.038319942999976], [-179.84778755699998, -19.033800396999936], [-179.85295980699996, -18.96497237799997], [-179.82652644399997, -18.96586431099996], [-179.82980637299997, -18.985565718999965], [-179.81492546599998, -18.97889224599993], [-179.80587505799997, -18.96242514599993], [-179.800329128, -18.939426407999974], [-179.82691554, -18.91995597099998], [-179.85219309299998, -18.919054865999954]]], [[[-178.94398189999998, -18.98866976499994], [-178.93378187399998, -18.978708222999956], [-178.92485256899997, -18.960020760999953], [-178.928599581, -18.93821412699998], [-178.93920295799998, -18.91867814799997], [-178.95086194399997, -18.905710560999978], [-178.96348878499998, -18.905866457999934], [-178.99417460699996, -18.929188950999958], [-179.002861971, -18.966447078999977], [-178.96113408699998, -18.994346236999945], [-178.94398189999998, -18.98866976499994]]], [[[178.49232105700003, -18.93069740699997], [178.51305199000012, -18.89573654399993], [178.5130842960001, -18.872775305999937], [178.49932080600001, -18.859636515999966], [178.47634741100012, -18.861790935999977], [178.44415953500004, -18.878141674999938], [178.4475739610001, -18.895641487999967], [178.45558831400012, -18.910961792999956], [178.46706199100004, -18.919726732999948], [178.47851742500006, -18.94051818899993], [178.49232105700003, -18.93069740699997]]], [[[179.9046723250001, -18.638671038999973], [179.90459848800003, -18.627738960999977], [179.91482947300005, -18.614556883999967], [179.90100394600006, -18.604802604999975], [179.9077059770001, -18.578523365999956], [179.9294644150001, -18.57510877699997], [179.93972081800007, -18.566298365999955], [179.9441994670001, -18.550964585999964], [179.93037774700008, -18.541212205999955], [179.90623570200012, -18.530428883999946], [179.8856283340001, -18.53383364299998], [179.85707467800012, -18.54930897099996], [179.83539357100005, -18.564740788999927], [179.82058701800008, -18.580131361999975], [179.82184965700003, -18.598709993999933], [179.85404426500008, -18.61273661799993], [179.86799665900003, -18.642172440999957], [179.88294871300002, -18.648642493999944], [179.9046723250001, -18.638671038999973]]], [[[-178.78581957199998, -18.249110749999943], [-178.75978702599997, -18.23019890599994], [-178.75688626699997, -18.19301137399998], [-178.78460971099997, -18.172608984999954], [-178.82125751299998, -18.16761244199995], [-178.84522795099997, -18.17009937399996], [-178.85526059599997, -18.188800753999942], [-178.85610514699997, -18.210665441999936], [-178.84787807499998, -18.226953056999946], [-178.83182705299998, -18.230029207999962], [-178.79723793699998, -18.250350091999962], [-178.78581957199998, -18.249110749999943]]], [[[179.33133737100002, -18.009046568999963], [179.28293521800003, -17.945969674999958], [179.26326547500003, -17.934062745999938], [179.2204681490001, -17.949548067999956], [179.2115826600001, -17.964946432999966], [179.2116492340001, -17.990574642999945], [179.22244405300012, -18.021302558999935], [179.23673040300002, -18.021267173999945], [179.26890959500008, -18.033143372999973], [179.27796657400006, -18.075832138999942], [179.2887314610001, -18.091179115999978], [179.29596201000004, -18.118495077999967], [179.32104303900007, -18.13892448599995], [179.3424519890001, -18.128608790999976], [179.3602612400001, -18.11146820099998], [179.35482508000007, -18.089274778999936], [179.34582944900012, -18.070509151999943], [179.33133737100002, -18.009046568999963]]], [[[-179.02130740399997, -17.986443065999936], [-179.01231032399997, -17.975411135999934], [-179.01368589199998, -17.95684892099996], [-179.04025645199997, -17.932017780999956], [-179.06206631999999, -17.922428816999968], [-179.06878136699999, -17.93343292299994], [-179.08461693799998, -17.945631643999945], [-179.07634494499996, -17.96848943699996], [-179.06022538099998, -17.979236699999944], [-179.05439456099998, -17.989006418999963], [-179.02130740399997, -17.986443065999936]]], [[[-179.313567413, -17.786940166999955], [-179.29543657099998, -17.77556754999995], [-179.29880423999998, -17.734329024999965], [-179.30685424199999, -17.72201309999997], [-179.33489950999999, -17.71216813899997], [-179.36738595499997, -17.73779721099993], [-179.36723238999997, -17.752486304999934], [-179.36269838399997, -17.76713322699993], [-179.35234485299998, -17.779625007999982], [-179.33846568299998, -17.780189535999966], [-179.32666446099998, -17.79126651699994], [-179.313567413, -17.786940166999955]]], [[[178.76168027500012, -17.757042516999945], [178.80447333200004, -17.74336619299993], [178.82408090100012, -17.727981986999964], [178.82762842400007, -17.685264390999976], [178.8418772000001, -17.663045758999942], [178.8276079540001, -17.637422002999926], [178.8044374110001, -17.623760437999977], [178.7812726960001, -17.62376544999995], [178.7295934770001, -17.659648725999944], [178.7313684500001, -17.729703651999955], [178.7420648960001, -17.757042688999945], [178.76168027500012, -17.757042516999945]]], [[[179.37619065700005, -17.412138870999968], [179.4101888350001, -17.363914747999956], [179.42722547100004, -17.35182914799998], [179.4294303260001, -17.332138441999973], [179.4440628650001, -17.28725421499996], [179.41887162600005, -17.245785866999938], [179.40633436500002, -17.240359525999963], [179.37451541600012, -17.25358319399993], [179.35403756900007, -17.255832821999945], [179.34498209800006, -17.271169327999928], [179.3518785540001, -17.291925912999943], [179.34966218800002, -17.31052257899995], [179.36221721700008, -17.32032638499993], [179.36229694000008, -17.344383708999942], [179.3522316220001, -17.400183926999944], [179.37619065700005, -17.412138870999968]]], [[[-178.97691059699997, -17.154273951999983], [-179.01562136199996, -17.14924139799996], [-179.02446668899998, -17.170104333999973], [-179.01170007599998, -17.19182115199993], [-179.00141551999997, -17.196078265999972], [-178.98756040299997, -17.21340934099993], [-179.00318762399996, -17.237627927999938], [-179.02911986399997, -17.256495358999928], [-179.028871115, -17.277257771999928], [-179.02075146299998, -17.290282514999944], [-179.01043486199998, -17.296724925999968], [-178.99793561299998, -17.29549204799997], [-178.99120402299997, -17.287766188999967], [-178.97641739199997, -17.287599143999955], [-178.95048743199996, -17.268725074999963], [-178.94157957899998, -17.253322971999978], [-178.93723505699998, -17.23688029699997], [-178.91919262799996, -17.224650788999952], [-178.93565425699998, -17.181126752999944], [-178.94721068699997, -17.16595898199995], [-178.96085067299998, -17.166114137999955], [-178.97691059699997, -17.154273951999983]]]]}}]}