{"type": "FeatureCollection", "features": [{"type": "Feature", "properties": {"name": "Indian Ocean Ter."}, "geometry": {"type": "MultiPolygon", "coordinates": [[[[96.869395, -12.187921], [96.845225, -12.197686], [96.830577, -12.179946], [96.821544, -12.12656], [96.82838, -12.12656], [96.836192, -12.182061], [96.847667, -12.187188], [96.863129, -12.181736], [96.869395, -12.187921]]], [[[96.88852, -12.187433], [96.909028, -12.182061], [96.916189, -12.161798], [96.920177, -12.184991], [96.902192, -12.199965], [96.88852, -12.187433]]]]}}]}