{"type": "FeatureCollection", "features": [{"type": "Feature", "properties": {"name": "Russia"}, "geometry": {"type": "MultiPolygon", "coordinates": [[[[120.533702, 72.874213], [120.573497, 72.888617], [120.540375, 72.901313], [120.0, 72.94426233150834], [120.0, 73.00265992354343], [120.231212, 72.986274], [120.423595, 72.988227], [120.656016, 72.977362], [120.824962, 72.947455], [121.054698, 72.931789], [121.135916, 72.94774], [121.252696, 72.951117], [121.388194, 72.97606], [121.669607, 72.970526], [121.734874, 72.958319], [121.791352, 72.976874], [121.963715, 72.96369], [121.928884, 72.938788], [121.923513, 72.925849], [122.043305, 72.891547], [122.423106, 72.874986], [122.53419, 72.839016], [122.623383, 72.827704], [122.732188, 72.826565], [122.313243, 72.934394], [122.308279, 72.941352], [122.3213, 72.9501], [122.359874, 72.950181], [122.84311, 72.872504], [122.872569, 72.872504], [122.95338, 72.891547], [122.436697, 72.977362], [122.430431, 72.984809], [122.505056, 72.991034], [122.464692, 73.018988], [122.61378, 73.030951], [122.759288, 73.004462], [122.859141, 72.998481], [122.875662, 72.967841], [122.889985, 72.958686], [123.13795, 72.918036], [123.190929, 72.922105], [123.234548, 72.934719], [123.287852, 72.968695], [123.348643, 72.987982], [123.318126, 73.013129], [123.314301, 73.025784], [123.400401, 73.093207], [123.420095, 73.099555], [123.441254, 73.090318], [123.45045, 73.074652], [123.467947, 73.079576], [123.469412, 73.106269], [123.444021, 73.114244], [123.415782, 73.112006], [123.397309, 73.121649], [123.375824, 73.155504], [123.40089, 73.174302], [123.54713, 73.197089], [123.51295, 73.175971], [123.545095, 73.160834], [123.585297, 73.160346], [123.663829, 73.169827], [123.609223, 73.182807], [123.620291, 73.193793], [123.670665, 73.203315], [123.625255, 73.218817], [123.538585, 73.220404], [123.479503, 73.25788], [123.500987, 73.25788], [123.509451, 73.26557], [123.502615, 73.274644], [123.396251, 73.29267], [123.331798, 73.350735], [123.413341, 73.390937], [123.250336, 73.392971], [123.21811, 73.408759], [123.307465, 73.426459], [123.289806, 73.446194], [123.259776, 73.45718], [123.281912, 73.464179], [123.333344, 73.463853], [123.397227, 73.432359], [123.417328, 73.443549], [123.39503, 73.466132], [123.361095, 73.483588], [123.286388, 73.50495], [123.293956, 73.518622], [123.246104, 73.545885], [123.266449, 73.56391], [123.36964, 73.559556], [123.358653, 73.572577], [123.325531, 73.582668], [123.314301, 73.594387], [123.424164, 73.580715], [123.416026, 73.596829], [123.375824, 73.621649], [123.387706, 73.642727], [123.36964, 73.662665], [123.512543, 73.687201], [123.54713, 73.710395], [123.591319, 73.716986], [123.62908, 73.696723], [123.574474, 73.676256], [123.594981, 73.66885], [123.587901, 73.656887], [123.561697, 73.643378], [123.656993, 73.635321], [123.601817, 73.614814], [123.645518, 73.602973], [123.691254, 73.604193], [123.780528, 73.621649], [123.885753, 73.623603], [123.889659, 73.635321], [123.973806, 73.627021], [123.999522, 73.641506], [123.921397, 73.668769], [123.905284, 73.700426], [123.903494, 73.717231], [123.931407, 73.745185], [123.87672, 73.772528], [123.932872, 73.774563], [123.986013, 73.758857], [124.033539, 73.726996], [124.054942, 73.724066], [124.043956, 73.709296], [124.00587, 73.702053], [123.992849, 73.690579], [124.059581, 73.684801], [124.094493, 73.688178], [124.129649, 73.71898], [124.219005, 73.72427], [124.239268, 73.734605], [124.234141, 73.755764], [124.239513, 73.759589], [124.306407, 73.774726], [124.336192, 73.804836], [124.383067, 73.806383], [124.404307, 73.792385], [124.370291, 73.786119], [124.486339, 73.778713], [124.520356, 73.758857], [124.611583, 73.737454], [124.695486, 73.742133], [124.703298, 73.732408], [124.691742, 73.717231], [124.725922, 73.708401], [124.856212, 73.724066], [124.835704, 73.704169], [124.907725, 73.690579], [124.929942, 73.667182], [124.951508, 73.66474], [124.979747, 73.676256], [124.975434, 73.666409], [124.989757, 73.64411], [124.986583, 73.627875], [125.043305, 73.641018], [125.059093, 73.659654], [125.048025, 73.683092], [125.127208, 73.688178], [125.137462, 73.704169], [125.14503, 73.682807], [125.165294, 73.66885], [125.151052, 73.655748], [125.212413, 73.648912], [125.177745, 73.621649], [125.213878, 73.616156], [125.17156, 73.577297], [125.179373, 73.558539], [125.19752, 73.55093], [125.21811, 73.5539], [125.232921, 73.567043], [125.246267, 73.544013], [125.286794, 73.53913], [125.333507, 73.551988], [125.364919, 73.582709], [125.365571, 73.568793], [125.398936, 73.555609], [125.439626, 73.573879], [125.462901, 73.571031], [125.475841, 73.559475], [125.473969, 73.548041], [125.452647, 73.545885], [125.475597, 73.540839], [125.555024, 73.545885], [125.651866, 73.525458], [125.623302, 73.50495], [125.644379, 73.50495], [125.644379, 73.498114], [125.538259, 73.474514], [125.521007, 73.45718], [125.531993, 73.439683], [125.574962, 73.423], [125.562511, 73.408759], [125.62322, 73.419989], [125.630382, 73.434231], [125.603526, 73.449693], [125.638682, 73.458197], [125.761078, 73.470404], [125.801768, 73.452297], [125.876638, 73.460598], [125.869395, 73.473944], [125.815766, 73.49136], [125.904552, 73.518622], [125.908702, 73.536933], [125.918468, 73.5397], [125.961681, 73.53913], [125.97283, 73.532294], [125.965994, 73.484442], [125.956798, 73.46894], [125.911876, 73.436103], [125.941173, 73.42829], [125.974864, 73.43594], [126.004405, 73.454047], [126.020518, 73.477688], [126.005544, 73.498969], [126.014008, 73.508694], [126.10377, 73.518622], [126.226573, 73.554592], [126.288097, 73.557278], [126.404796, 73.512397], [126.381196, 73.490302], [126.379405, 73.477037], [126.391124, 73.464016], [126.329112, 73.429877], [126.295746, 73.451809], [126.273204, 73.454657], [126.239106, 73.442613], [126.170746, 73.459296], [126.151622, 73.436103], [126.207774, 73.429267], [126.254568, 73.402533], [126.232758, 73.389879], [126.158458, 73.381496], [126.281993, 73.385932], [126.388845, 73.411811], [126.419688, 73.409491], [126.453136, 73.395087], [126.43214, 73.374661], [126.494151, 73.371731], [126.548839, 73.347317], [126.589692, 73.295803], [126.584483, 73.283637], [126.561046, 73.269436], [126.555675, 73.254828], [126.565196, 73.233466], [126.612071, 73.275336], [126.650076, 73.291693], [126.658702, 73.302639], [126.562999, 73.381496], [126.639903, 73.381171], [126.658702, 73.388902], [126.658702, 73.418362], [126.665538, 73.426459], [126.730154, 73.444159], [126.761729, 73.438707], [126.784679, 73.391425], [126.805919, 73.383246], [126.828787, 73.388617], [126.843028, 73.408759], [126.833181, 73.440131], [126.853282, 73.443549], [126.932384, 73.429877], [126.90504, 73.45718], [126.918712, 73.484442], [126.917735, 73.504299], [126.887218, 73.514716], [126.830089, 73.518622], [126.858165, 73.533393], [126.896658, 73.539293], [127.050466, 73.549018], [127.181163, 73.539049], [127.450857, 73.490709], [127.511078, 73.495998], [127.987559, 73.470852], [127.97169, 73.455024], [127.899425, 73.436103], [128.051768, 73.416327], [128.076915, 73.405666], [128.059906, 73.39053], [127.98227, 73.363349], [127.960216, 73.347317], [128.18336, 73.360989], [128.245372, 73.346503], [128.340343, 73.361029], [128.364919, 73.354153], [128.302745, 73.315904], [128.309744, 73.298896], [128.23463, 73.265367], [128.325531, 73.267564], [128.371593, 73.260972], [128.409353, 73.241156], [128.439301, 73.236274], [128.570323, 73.265367], [128.659434, 73.261298], [128.774425, 73.227932], [128.892589, 73.216986], [128.844737, 73.189643], [128.935313, 73.195868], [128.960785, 73.189643], [128.969249, 73.177395], [128.956798, 73.153876], [128.928966, 73.160631], [128.850922, 73.155504], [128.865245, 73.134426], [128.864268, 73.116156], [128.800548, 73.093085], [128.777354, 73.070787], [128.796641, 73.066107], [128.842784, 73.074774], [128.933116, 73.112738], [129.066173, 73.127672], [129.226008, 73.097747], [129.443508, 73.028944], [129.476773, 72.996528], [129.478931, 72.97924], [129.441315, 72.949442], [129.359618, 72.940012], [129.238544, 72.961224], [128.927519, 72.980158], [128.771251, 72.971747], [128.674083, 72.945217], [128.290782, 72.908637], [128.240245, 72.889635], [128.213552, 72.860663], [128.242931, 72.836615], [128.228038, 72.819485], [128.129242, 72.786078], [128.355642, 72.793931], [129.307872, 72.717475], [129.358084, 72.70303], [129.227794, 72.687893], [129.193614, 72.668891], [129.221446, 72.662055], [129.198416, 72.655178], [128.868826, 72.678209], [128.662608, 72.709906], [128.519786, 72.704413], [128.505138, 72.708401], [128.509044, 72.716702], [128.479177, 72.724555], [128.46046, 72.716213], [128.427013, 72.683173], [128.396007, 72.673163], [127.960623, 72.662055], [127.905447, 72.667141], [127.993826, 72.624579], [128.103689, 72.600653], [128.188324, 72.567816], [128.611339, 72.482733], [128.839366, 72.465074], [129.117361, 72.481513], [129.258311, 72.463935], [129.274181, 72.446967], [129.241954, 72.415676], [129.3685, 72.397366], [129.489024, 72.354193], [129.467947, 72.346747], [129.500743, 72.332465], [129.498871, 72.322577], [129.485199, 72.317206], [129.36671, 72.314927], [129.340099, 72.30508], [129.333751, 72.285549], [129.358084, 72.277899], [129.357595, 72.262885], [129.521658, 72.249416], [129.564138, 72.230658], [129.545095, 72.217108], [129.467947, 72.217027], [129.327891, 72.158677], [129.260102, 72.146674], [129.241954, 72.134467], [129.29184, 72.127346], [129.354259, 72.140286], [129.458751, 72.141588], [129.489024, 72.134467], [129.489024, 72.127631], [129.458507, 72.12641], [129.333263, 72.091051], [129.219574, 72.086086], [129.127696, 72.100531], [129.048025, 72.07685], [128.934093, 72.072984], [128.892914, 72.084621], [128.816254, 72.135891], [128.774913, 72.148139], [128.494314, 72.202786], [128.494151, 72.22016], [128.569509, 72.24372], [128.528819, 72.259345], [128.14975, 72.316636], [127.858897, 72.429145], [127.790701, 72.438422], [127.665782, 72.43008], [127.769054, 72.386461], [127.864431, 72.332465], [127.845063, 72.322252], [127.747081, 72.325629], [127.780121, 72.306301], [127.91212, 72.29149], [128.031586, 72.264146], [128.102712, 72.233791], [128.192149, 72.228339], [128.24936, 72.20482], [128.309825, 72.151435], [128.441661, 72.100287], [128.45338, 72.092922], [128.455821, 72.075507], [128.443207, 72.041734], [128.45338, 72.023993], [128.48878, 72.02147], [128.50115, 71.997301], [128.528087, 71.979804], [128.623546, 71.962592], [128.651378, 71.935858], [128.66977, 71.8935], [128.66391, 71.862982], [128.783702, 71.827053], [128.856212, 71.774807], [128.926606, 71.738756], [128.95338, 71.739814], [128.98878, 71.757758], [129.139496, 71.783922], [129.18393, 71.809272], [129.189301, 71.83275], [129.168468, 71.856269], [129.096934, 71.907904], [129.067231, 71.96662], [129.022797, 72.004096], [129.025727, 72.017971], [129.041189, 72.018785], [129.078136, 72.004096], [129.180512, 71.93244], [129.286876, 71.88349], [129.303477, 71.864203], [129.29477, 71.831855], [129.309906, 71.804185], [129.370779, 71.789944], [129.543712, 71.722968], [129.486339, 71.719428], [129.305431, 71.760891], [129.094981, 71.712144], [128.967296, 71.716457], [128.907725, 71.708157], [128.830333, 71.679145], [128.820486, 71.658108], [128.842052, 71.621975], [128.875255, 71.596747], [128.927908, 71.59101], [129.145763, 71.613105], [129.248709, 71.549872], [129.255626, 71.538642], [129.235688, 71.497016], [129.247895, 71.486274], [129.314301, 71.46601], [129.3921, 71.346829], [129.463145, 71.307034], [129.652599, 71.260891], [129.711762, 71.217231], [129.718598, 71.170966], [129.762706, 71.14761], [129.707774, 71.109687], [129.626231, 71.086127], [129.865733, 71.110419], [129.940766, 71.092963], [129.925792, 71.084784], [129.920421, 71.06566], [130.016938, 71.082465], [130.080414, 71.083441], [130.131114, 71.057522], [130.160492, 71.051988], [130.152354, 71.031887], [130.162364, 71.022162], [130.201508, 71.011054], [130.22169, 70.993638], [130.215831, 70.979438], [130.167328, 70.968817], [130.300629, 70.940131], [130.467784, 70.926703], [130.488943, 70.914252], [130.496349, 70.886908], [130.619884, 70.8664], [130.675059, 70.875067], [130.699474, 70.887885], [130.715505, 70.908026], [130.715668, 70.950426], [130.722341, 70.962592], [130.768891, 70.977525], [130.789073, 70.971137], [130.802745, 70.94359], [130.826182, 70.922675], [130.842621, 70.880316], [130.890798, 70.845282], [130.899913, 70.81802], [130.879405, 70.773912], [130.888438, 70.762763], [131.042003, 70.738756], [131.134532, 70.738105], [131.226329, 70.75023], [131.394298, 70.807318], [131.546153, 70.887112], [131.60963, 70.938707], [131.724376, 71.065253], [131.770763, 71.099799], [131.755382, 71.121243], [131.761404, 71.135199], [131.812266, 71.14761], [131.865896, 71.148871], [131.873057, 71.16059], [131.867849, 71.172553], [131.826508, 71.182318], [131.850922, 71.208197], [131.898285, 71.222357], [131.989513, 71.229478], [132.188324, 71.215888], [132.155935, 71.231024], [131.966075, 71.254584], [131.941905, 71.267401], [131.949229, 71.292955], [132.039887, 71.388902], [132.049164, 71.430243], [132.106456, 71.517524], [132.198904, 71.603461], [132.264171, 71.682034], [132.539317, 71.883612], [132.631196, 71.926174], [132.717784, 71.946234], [132.810475, 71.952265], [132.913864, 71.94757], [132.993933, 71.966039], [133.066274, 71.971291], [133.179183, 71.958123], [133.341361, 71.886265], [133.354003, 71.83396], [133.302719, 71.880392], [133.156415, 71.940171], [133.103891, 71.955672], [133.031345, 71.955099], [132.939248, 71.934681], [132.932322, 71.911212], [132.868142, 71.919073], [132.796395, 71.910922], [132.774284, 71.890108], [132.775305, 71.879815], [132.813128, 71.83147], [132.746104, 71.826483], [132.715099, 71.810696], [132.709158, 71.795315], [132.714854, 71.776801], [132.729666, 71.769232], [132.985216, 71.719717], [133.014725, 71.686208], [133.079926, 71.642564], [133.100108, 71.606879], [133.151622, 71.579169], [133.426117, 71.489976], [133.650076, 71.43651], [133.805512, 71.423326], [133.908702, 71.3994], [134.167654, 71.370795], [134.489106, 71.376858], [134.585297, 71.405829], [134.739024, 71.367987], [134.744884, 71.361233], [134.737559, 71.346829], [134.670665, 71.314643], [134.650645, 71.297309], [134.66863, 71.264309], [134.675059, 71.285956], [134.695567, 71.308661], [134.77003, 71.366929], [134.718761, 71.397528], [134.696544, 71.421332], [134.778494, 71.428778], [134.779796, 71.460761], [134.810232, 71.481838], [134.935313, 71.506293], [135.03297, 71.53913], [135.073578, 71.534898], [135.10434, 71.516262], [135.118663, 71.515774], [135.186046, 71.54975], [135.207367, 71.552232], [135.319672, 71.531195], [135.42335, 71.531195], [135.411388, 71.548], [135.340831, 71.565904], [135.421886, 71.592963], [135.546153, 71.604315], [135.621593, 71.623114], [135.985118, 71.634833], [136.303477, 71.582994], [136.443858, 71.575873], [136.516368, 71.558498], [136.519542, 71.517524], [136.512706, 71.517524], [136.555675, 71.509223], [136.546886, 71.476549], [136.571462, 71.477362], [136.615082, 71.514106], [136.66212, 71.528754], [136.718272, 71.531195], [136.774587, 71.523424], [136.828136, 71.503852], [136.889415, 71.462226], [136.981781, 71.448432], [137.066091, 71.419989], [137.210948, 71.407375], [137.274669, 71.38524], [137.238943, 71.367336], [137.28419, 71.359565], [137.355642, 71.374172], [137.403494, 71.353664], [137.492198, 71.346829], [137.444998, 71.312934], [137.485362, 71.298407], [137.465587, 71.288031], [137.424571, 71.291449], [137.403494, 71.284735], [137.526866, 71.257473], [137.532481, 71.245673], [137.615733, 71.24726], [137.704926, 71.284735], [137.692068, 71.264594], [137.670909, 71.250637], [137.686778, 71.244289], [137.739268, 71.250637], [137.720225, 71.231431], [137.692393, 71.220933], [137.632823, 71.215888], [137.561046, 71.229478], [137.526134, 71.220282], [137.563975, 71.204006], [137.625662, 71.199612], [137.766449, 71.168036], [137.764334, 71.142239], [137.783458, 71.126614], [137.812999, 71.119615], [137.859386, 71.123033], [137.909516, 71.149115], [137.972667, 71.140774], [137.944672, 71.127102], [137.977387, 71.118964], [138.074392, 71.133979], [138.046723, 71.162787], [138.006684, 71.174872], [138.019786, 71.182318], [137.994151, 71.190619], [137.910411, 71.19538], [137.917979, 71.202826], [137.842296, 71.182318], [137.855235, 71.196357], [137.847504, 71.204739], [137.773936, 71.214586], [137.739268, 71.229478], [137.831391, 71.253892], [137.969493, 71.225287], [138.067231, 71.224921], [138.088064, 71.229478], [138.10377, 71.248765], [138.184093, 71.245429], [138.215017, 71.257636], [138.239513, 71.277899], [138.212169, 71.286444], [137.992442, 71.292182], [137.996104, 71.302191], [138.150076, 71.332709], [138.266856, 71.312974], [138.322927, 71.311225], [138.362966, 71.318915], [138.362966, 71.325751], [138.304698, 71.339342], [138.009532, 71.339342], [137.951671, 71.360256], [137.930919, 71.3605], [137.965831, 71.380316], [137.944835, 71.38524], [137.886567, 71.367336], [137.828624, 71.387152], [137.828624, 71.393988], [137.869965, 71.397203], [137.905121, 71.41177], [138.014985, 71.473619], [138.029552, 71.493354], [138.038585, 71.558743], [138.098643, 71.581448], [138.219005, 71.600043], [138.500255, 71.613105], [138.421397, 71.594224], [138.403982, 71.579535], [138.401866, 71.567084], [138.438162, 71.538642], [138.577159, 71.551947], [138.594981, 71.583197], [138.588145, 71.594062], [138.554861, 71.606879], [138.677013, 71.643866], [138.756033, 71.643012], [138.876964, 71.600043], [139.008962, 71.585273], [139.045095, 71.569037], [139.077403, 71.511705], [139.09669, 71.497016], [139.089203, 71.49018], [139.158051, 71.448635], [139.116466, 71.428778], [139.192231, 71.415107], [139.346365, 71.42182], [139.362966, 71.428778], [139.379893, 71.459174], [139.421886, 71.488756], [139.44337, 71.495103], [139.587657, 71.495103], [139.717784, 71.457343], [139.8567, 71.493598], [140.0, 71.4761557546257], [140.0, 70.0], [120.0, 70.0], [120.0, 72.9299498636683], [120.533702, 72.874213]]], [[[139.979828, 71.503852], [140.0, 71.52398491251948], [140.0, 71.4985756829631], [139.979828, 71.503852]]], [[[139.836192, 71.589545], [139.734548, 71.672187], [139.712657, 71.756049], [139.699392, 71.764594], [139.708018, 71.777004], [139.691905, 71.791815], [139.729015, 71.817939], [139.743419, 71.844875], [139.809255, 71.860785], [139.780284, 71.870022], [139.710297, 71.870917], [139.648936, 71.909735], [139.573904, 71.932929], [139.336192, 71.942694], [139.336192, 71.94953], [139.428477, 71.963202], [139.583181, 71.948961], [139.634532, 71.954535], [139.68214, 71.969672], [139.71225, 71.997952], [139.701508, 72.059312], [139.715668, 72.082953], [139.831554, 72.137641], [139.874197, 72.178168], [139.930186, 72.173814], [140.0, 72.15585040263619], [140.0, 71.52535675642464], [139.836192, 71.589545]]], [[[139.56072, 72.232001], [139.432384, 72.182847], [139.459646, 72.172431], [139.555919, 72.175442], [139.53297, 72.164293], [139.386974, 72.162177], [139.256684, 72.179023], [139.260509, 72.162421], [139.280447, 72.152533], [139.333751, 72.147895], [139.349864, 72.134467], [139.242198, 72.145697], [139.19158, 72.162665], [139.096365, 72.226549], [139.089203, 72.236884], [139.094005, 72.248236], [139.117361, 72.265611], [139.135753, 72.304104], [139.166759, 72.327786], [139.286794, 72.39704], [139.312185, 72.404771], [139.328787, 72.422512], [139.384044, 72.428697], [139.498383, 72.48725], [139.541759, 72.497626], [139.844737, 72.502997], [140.0, 72.48681690514762], [140.0, 72.22668274925358], [139.56072, 72.232001]]], [[[127.392345, 73.525458], [127.428071, 73.53734], [127.520274, 73.54564], [127.690929, 73.542873], [127.981293, 73.494086], [128.063324, 73.49136], [128.032481, 73.483588], [127.775076, 73.49258], [127.697439, 73.505439], [127.617686, 73.500312], [127.539073, 73.515611], [127.404796, 73.518622], [127.392345, 73.525458]]], [[[137.965831, 71.510688], [137.942393, 71.494452], [137.767426, 71.430732], [137.69337, 71.419379], [137.586192, 71.437405], [137.521983, 71.475409], [137.482188, 71.484036], [137.39503, 71.481147], [137.318126, 71.499172], [137.266856, 71.49018], [137.410899, 71.456041], [137.37672, 71.448635], [137.389822, 71.435614], [137.344086, 71.427558], [137.043142, 71.511054], [136.991873, 71.517524], [137.023204, 71.534125], [137.128266, 71.547268], [137.218272, 71.576239], [137.472504, 71.586737], [137.580089, 71.57685], [137.706065, 71.596422], [137.85377, 71.583645], [137.914236, 71.558498], [137.965831, 71.510688]]], [[[128.910167, 72.640082], [128.945974, 72.620917], [128.974457, 72.593817], [128.872244, 72.591864], [128.844493, 72.583197], [128.816742, 72.559027], [128.769054, 72.552191], [128.782725, 72.545356], [128.653331, 72.527493], [128.476085, 72.553941], [128.383149, 72.553046], [128.339366, 72.561021], [128.103689, 72.634711], [128.134532, 72.6435], [128.652517, 72.675767], [128.910167, 72.640082]]], [[[128.321544, 72.828559], [128.419007, 72.869262], [128.735661, 72.884148], [128.843794, 72.909821], [128.994083, 72.932471], [129.21966, 72.926406], [129.398613, 72.866023], [129.417139, 72.812596], [129.334061, 72.773703], [129.207043, 72.761895], [128.317149, 72.812323], [128.321544, 72.828559]]], [[[120.209727, 73.052476], [120.230235, 73.039496], [120.0, 73.0369402483038], [120.0, 73.16756570078269], [120.021983, 73.168118], [120.248057, 73.118598], [120.278575, 73.100898], [120.209727, 73.052476]]], [[[139.9651, 73.326567], [139.816696, 73.339069], [139.786495, 73.369524], [139.767088, 73.418345], [139.906518, 73.471029], [140.0, 73.46569605397801], [140.0, 73.33026606841878], [139.9651, 73.326567]]], [[[124.656993, 73.902777], [124.660655, 73.891995], [124.629568, 73.87226], [124.514171, 73.841376], [124.462738, 73.856635], [124.390473, 73.846625], [124.349376, 73.863227], [124.296153, 73.872626], [124.287852, 73.880927], [124.294444, 73.895413], [124.312511, 73.904242], [124.356944, 73.905015], [124.376475, 73.915839], [124.321788, 73.923285], [124.381033, 73.939399], [124.575694, 73.950019], [124.486013, 73.935248], [124.458832, 73.923285], [124.585948, 73.915839], [124.656993, 73.902777]]], [[[136.269786, 73.931627], [136.248302, 73.912095], [136.174001, 73.893541], [136.156098, 73.878892], [136.135265, 73.879218], [136.066173, 73.907294], [136.041677, 73.938056], [135.732677, 74.041205], [135.685802, 74.07453], [135.677257, 74.097724], [135.660167, 74.110175], [135.552989, 74.151028], [135.439301, 74.161119], [135.40919, 74.184027], [135.391287, 74.234565], [135.354015, 74.259101], [135.40089, 74.257025], [135.451671, 74.242621], [135.589529, 74.235053], [135.745128, 74.170396], [135.913422, 74.133287], [136.010753, 74.103461], [136.114757, 74.04682], [136.216319, 74.014228], [136.262706, 73.989], [136.258962, 73.957465], [136.269786, 73.931627]]], [[[136.967621, 75.601793], [136.969819, 75.609036], [136.992035, 75.588324], [137.081309, 75.568183], [137.025157, 75.571601], [136.975108, 75.591742], [136.967621, 75.601793]]], [[[137.139903, 75.652818], [136.970225, 75.609687], [136.98463, 75.621649], [137.139903, 75.652818]]], [[[135.959321, 75.502021], [135.967133, 75.479478], [136.03297, 75.444037], [135.983409, 75.417182], [135.844493, 75.382636], [135.450043, 75.375678], [135.458832, 75.421291], [135.451182, 75.447455], [135.461599, 75.462063], [135.515798, 75.484036], [135.546235, 75.527167], [135.594086, 75.568183], [135.58839, 75.597398], [135.539399, 75.677965], [135.587901, 75.704657], [135.573497, 75.725775], [135.607758, 75.752509], [135.604747, 75.769843], [135.671072, 75.801663], [135.684093, 75.834418], [135.678233, 75.859768], [135.693126, 75.86933], [135.708507, 75.864814], [135.703949, 75.84809], [135.816417, 75.780585], [135.8213, 75.745673], [135.83839, 75.74022], [135.864757, 75.704657], [135.932791, 75.67593], [136.055675, 75.655707], [136.160167, 75.629625], [136.184337, 75.615912], [136.168305, 75.600898], [135.991384, 75.527167], [135.959321, 75.502021]]], [[[139.973643, 74.903388], [139.893565, 74.912177], [139.869965, 74.923814], [139.84962, 74.96483], [139.823497, 74.970893], [139.719412, 74.96483], [139.652029, 74.98078], [139.495128, 74.946926], [139.458507, 74.93065], [139.483165, 74.922838], [139.474376, 74.886664], [139.480235, 74.868598], [139.516612, 74.855943], [139.564301, 74.85814], [139.611095, 74.870754], [139.644786, 74.889106], [139.631684, 74.876899], [139.562022, 74.845526], [139.496267, 74.767564], [139.343435, 74.687405], [139.23585, 74.662421], [139.127208, 74.652289], [139.015961, 74.657538], [138.815603, 74.714057], [138.165701, 74.77619], [138.063243, 74.796129], [137.895274, 74.846177], [137.847341, 74.882066], [137.814789, 74.93065], [137.807628, 74.965806], [137.793793, 74.975409], [137.651378, 75.022773], [137.432791, 75.050442], [137.134125, 75.141547], [137.08546, 75.180854], [136.941661, 75.263495], [136.909923, 75.273342], [136.924327, 75.320502], [136.862153, 75.362047], [136.981619, 75.388658], [137.039317, 75.388007], [137.117686, 75.343207], [137.151703, 75.336086], [137.253754, 75.336371], [137.376231, 75.350409], [137.422374, 75.369818], [137.430675, 75.38935], [137.420258, 75.407131], [137.397309, 75.417182], [137.276134, 75.425482], [137.160655, 75.405748], [137.143321, 75.410224], [137.12908, 75.430365], [137.144542, 75.43651], [137.148692, 75.46483], [137.170746, 75.47134], [137.301036, 75.47134], [137.260997, 75.504788], [137.183849, 75.539496], [137.180675, 75.550727], [137.191091, 75.580268], [137.204845, 75.588609], [137.279552, 75.591376], [137.29363, 75.60163], [137.265636, 75.607978], [137.223888, 75.636664], [137.140147, 75.652818], [137.159516, 75.668769], [137.156993, 75.691067], [137.080333, 75.714586], [137.067638, 75.725775], [137.198497, 75.789618], [137.333018, 75.791164], [137.416515, 75.774156], [137.58839, 75.773586], [137.690684, 75.745673], [137.742686, 75.749091], [137.732432, 75.769843], [137.709727, 75.788398], [137.60141, 75.809312], [137.431977, 75.887274], [137.414317, 75.940863], [137.432953, 75.953192], [137.711925, 76.013129], [137.924083, 76.017035], [138.027517, 76.031928], [138.115977, 76.075263], [138.102794, 76.084906], [138.081309, 76.086493], [137.972667, 76.054145], [137.979828, 76.062812], [138.045665, 76.08515], [138.089203, 76.090969], [138.138031, 76.118842], [138.376638, 76.157172], [138.328298, 76.136054], [138.378184, 76.106594], [138.391612, 76.073879], [138.43214, 76.063381], [138.451671, 76.067776], [138.446137, 76.078355], [138.452973, 76.089748], [138.479666, 76.10871], [138.459239, 76.122992], [138.510265, 76.175238], [138.532725, 76.186103], [139.048839, 76.239081], [139.008149, 76.228095], [138.897309, 76.218736], [138.960785, 76.206936], [138.966319, 76.201646], [138.959483, 76.17768], [138.975352, 76.157782], [139.10963, 76.096869], [139.553966, 76.011379], [139.624278, 75.985826], [139.794932, 75.97842], [139.82545, 75.970038], [139.911632, 75.937445], [139.897146, 75.925238], [139.835785, 75.930609], [139.828787, 75.906562], [139.791352, 75.894477], [139.798595, 75.886176], [139.890636, 75.864244], [139.956065, 75.835842], [140.0, 75.82785716823955], [140.0, 74.8717596], [139.973643, 74.903388]]]]}}]}