{"type": "FeatureCollection", "features": [{"type": "Feature", "properties": {"name": "Fiji"}, "geometry": {"type": "MultiPolygon", "coordinates": [[[[180.0, -16.541275], [179.987478, -16.542413], [179.987153, -16.518324], [180.0, -16.489519], [180.0, -16.541275]]], [[[180.0, -16.962782], [179.966807, -16.993341], [179.941091, -17.001886], [179.917491, -16.998793], [179.912446, -16.983005], [179.894216, -16.967462], [179.895274, -16.939142], [179.931163, -16.909438], [179.967296, -16.858331], [180.0, -16.785349], [180.0, -16.962782]]], [[[180.0, -16.168951], [179.937999, -16.224298], [179.903819, -16.231134], [179.858246, -16.282647], [179.798106, -16.369561], [179.780935, -16.38128], [179.781016, -16.403009], [179.738455, -16.459242], [179.693858, -16.477309], [179.591807, -16.545343], [179.571462, -16.625584], [179.523611, -16.658949], [179.506602, -16.683526], [179.478689, -16.697198], [179.492198, -16.72503], [179.478689, -16.758722], [179.486095, -16.766046], [179.520274, -16.749607], [179.53712, -16.752618], [179.548106, -16.766046], [179.585216, -16.729425], [179.632579, -16.710219], [179.64088, -16.68727], [179.671072, -16.676853], [179.677908, -16.655532], [179.698416, -16.649509], [179.722667, -16.604425], [179.749766, -16.592462], [179.756684, -16.576755], [179.814138, -16.546319], [179.841807, -16.515069], [179.903819, -16.484308], [179.917166, -16.466892], [179.939464, -16.463311], [179.953461, -16.499607], [179.890147, -16.614679], [179.890147, -16.635837], [179.86964, -16.635837], [179.848643, -16.662367], [179.875011, -16.664321], [179.891938, -16.675958], [179.903819, -16.717706], [179.935557, -16.720392], [179.949718, -16.730076], [179.951671, -16.745701], [179.941905, -16.752618], [179.896332, -16.738214], [179.910655, -16.766046], [179.890147, -16.758722], [179.875743, -16.769464], [179.863617, -16.764825], [179.862153, -16.738214], [179.826345, -16.737074], [179.802013, -16.717706], [179.780772, -16.72503], [179.726329, -16.717706], [179.69988, -16.735284], [179.66627, -16.740655], [179.656749, -16.758722], [179.643809, -16.745701], [179.633311, -16.765883], [179.596853, -16.788751], [179.582286, -16.807061], [179.565115, -16.791681], [179.544932, -16.790785], [179.471446, -16.801202], [179.438243, -16.813897], [179.403819, -16.802341], [179.296886, -16.806817], [179.323416, -16.771173], [179.354747, -16.758477], [179.35141, -16.731378], [179.307953, -16.717706], [179.266368, -16.689874], [179.152843, -16.73447], [179.122895, -16.758722], [179.129405, -16.775811], [179.110199, -16.799981], [179.095714, -16.807061], [179.06544, -16.798923], [179.044444, -16.823826], [179.019867, -16.895196], [179.045421, -16.880141], [179.075206, -16.881524], [179.026866, -16.92311], [178.954438, -16.899021], [178.945323, -16.877537], [178.925955, -16.873142], [178.917003, -16.848077], [178.910004, -16.848077], [178.910004, -16.867852], [178.894542, -16.859308], [178.874034, -16.861098], [178.8213, -16.902602], [178.80714, -16.950453], [178.787771, -16.967869], [178.800955, -16.977716], [178.762706, -17.00506], [178.733897, -17.007013], [178.705333, -16.998793], [178.691905, -16.985772], [178.670421, -16.899021], [178.627452, -16.83766], [178.636404, -16.807061], [178.606212, -16.792901], [178.602306, -16.779718], [178.540701, -16.809177], [178.511567, -16.814223], [178.485606, -16.79339], [178.492442, -16.786716], [178.479015, -16.765883], [178.483572, -16.759942], [178.499278, -16.766046], [178.496593, -16.747166], [178.506521, -16.730401], [178.540212, -16.704034], [178.540212, -16.724542], [178.55714, -16.698337], [178.568044, -16.704034], [178.585623, -16.665134], [178.588634, -16.649509], [178.552745, -16.658949], [178.533946, -16.629002], [178.581798, -16.614679], [178.608409, -16.642022], [178.650076, -16.649509], [178.691091, -16.669854], [178.704275, -16.667087], [178.788341, -16.596938], [178.797699, -16.606622], [178.800955, -16.635837], [178.813975, -16.629978], [178.81837, -16.586847], [178.848643, -16.546319], [178.855479, -16.56699], [178.867931, -16.557061], [178.869151, -16.539646], [178.886241, -16.552341], [178.930919, -16.512628], [178.917003, -16.470636], [178.937348, -16.478123], [178.942719, -16.460382], [178.965099, -16.470636], [179.136729, -16.429783], [179.177582, -16.429783], [179.191254, -16.407973], [179.222341, -16.399021], [179.29835, -16.409112], [179.31422, -16.395603], [179.329275, -16.407973], [179.358735, -16.388116], [179.372081, -16.40488], [179.403575, -16.407973], [179.395763, -16.378839], [179.37615, -16.360772], [179.397716, -16.347833], [179.417817, -16.353936], [179.431407, -16.319024], [179.443207, -16.310235], [179.458181, -16.31992], [179.471202, -16.274021], [179.486095, -16.265232], [179.535655, -16.262465], [179.520274, -16.244806], [179.542491, -16.250746], [179.554373, -16.272638], [179.568044, -16.224298], [179.572927, -16.236423], [179.602794, -16.25213], [179.618907, -16.242608], [179.630138, -16.258966], [179.630138, -16.243422], [179.653331, -16.235284], [179.656423, -16.217462], [179.701834, -16.223077], [179.710297, -16.207778], [179.764415, -16.18141], [179.780935, -16.231134], [179.828787, -16.20436], [179.841319, -16.213474], [179.828787, -16.224298], [179.855968, -16.231134], [179.910655, -16.179864], [179.983165, -16.149102], [180.0, -16.149112], [180.0, -16.168951]]], [[[179.788585, -19.130466], [179.802013, -19.184259], [179.745942, -19.190118], [179.740001, -19.177423], [179.75294, -19.163832], [179.774099, -19.170668], [179.756602, -19.127699], [179.777517, -19.122817], [179.788585, -19.130466]]], [[[178.485606, -18.965102], [178.498383, -18.996759], [178.496593, -19.013279], [178.460948, -19.032647], [178.424083, -19.02044], [178.428966, -19.036798], [178.416677, -19.047784], [178.341482, -19.047784], [178.348318, -19.02044], [178.332856, -19.025649], [178.320486, -19.02044], [178.333995, -19.006768], [178.307302, -18.997166], [178.281505, -19.00742], [178.238536, -19.040948], [178.195079, -19.047459], [178.188731, -19.083591], [178.183849, -19.068943], [178.174327, -19.07586], [178.173106, -19.097752], [178.199474, -19.114028], [178.194672, -19.14658], [178.178966, -19.157485], [178.161632, -19.150567], [178.162852, -19.115981], [178.148204, -19.127537], [178.128673, -19.129653], [178.106619, -19.154555], [178.091645, -19.156996], [178.03712, -19.142755], [178.003673, -19.157485], [177.998871, -19.142755], [177.973969, -19.144789], [177.951182, -19.129653], [177.981456, -19.101251], [177.999522, -19.094822], [178.019379, -19.102309], [178.029796, -19.093845], [178.033458, -19.072035], [178.051768, -19.056736], [178.128673, -19.068943], [178.139415, -19.041925], [178.14975, -19.034112], [178.163259, -19.044041], [178.17213, -19.035333], [178.176443, -18.999282], [178.190684, -18.977227], [178.226085, -18.964125], [178.26588, -18.962091], [178.293712, -18.972589], [178.301931, -18.944024], [178.344981, -18.9249], [178.371918, -18.930352], [178.382579, -18.9249], [178.389822, -18.938165], [178.422699, -18.939711], [178.430349, -18.955255], [178.485606, -18.965102]]], [[[178.538259, -18.892267], [178.533946, -18.910577], [178.520518, -18.906183], [178.508311, -18.926446], [178.471934, -18.907159], [178.49586, -18.86297], [178.531586, -18.860447], [178.526541, -18.87656], [178.538259, -18.892267]]], [[[179.952403, -18.568536], [179.9447, -18.580617], [179.920787, -18.586044], [179.891831, -18.609644], [179.89884, -18.617466], [179.917444, -18.611501], [179.921019, -18.622643], [179.901869, -18.638147], [179.900791, -18.658595], [179.882754, -18.662524], [179.871566, -18.628824], [179.833074, -18.600249], [179.830666, -18.589302], [179.888189, -18.566928], [179.943427, -18.556346], [179.952403, -18.568536]]], [[[177.654063, -18.504083], [177.663097, -18.588474], [177.636485, -18.562758], [177.618988, -18.511895], [177.635102, -18.486017], [177.654063, -18.504083]]], [[[178.127615, -18.351658], [178.138927, -18.348728], [178.150076, -18.357843], [178.156016, -18.376153], [178.142345, -18.411879], [178.126964, -18.41546], [178.108735, -18.403497], [178.121837, -18.399184], [178.116222, -18.389825], [178.127615, -18.351658]]], [[[179.36085, -18.025974], [179.362966, -18.079767], [179.350271, -18.118829], [179.310883, -18.089776], [179.303233, -18.062188], [179.266938, -17.998793], [179.265798, -18.02988], [179.25408, -18.039158], [179.24643, -17.974867], [179.232758, -17.944757], [179.250336, -17.951267], [179.272146, -17.934503], [179.297374, -17.937921], [179.312511, -17.947442], [179.36085, -18.025974]]], [[[179.424083, -17.807061], [179.432302, -17.832778], [179.422618, -17.850518], [179.391775, -17.793064], [179.396739, -17.780369], [179.430837, -17.794041], [179.424083, -17.807061]]], [[[178.741915, -17.749584], [178.779552, -17.766046], [178.772716, -17.780369], [178.734685, -17.767566], [178.713189, -17.710978], [178.741915, -17.749584]]], [[[178.797887, -17.618605], [178.816758, -17.628951], [178.835544, -17.693159], [178.822909, -17.72913], [178.768077, -17.747166], [178.739355, -17.67333], [178.751094, -17.643363], [178.797887, -17.618605]]], [[[178.997406, -17.608005], [179.006847, -17.593194], [179.026052, -17.61061], [179.040782, -17.656183], [179.033376, -17.656183], [179.023204, -17.635431], [178.997406, -17.608005]]], [[[178.698416, -18.019301], [178.694509, -18.056899], [178.684581, -18.070408], [178.612966, -18.1124], [178.588634, -18.136], [178.588634, -18.115492], [178.547618, -18.129083], [178.560557, -18.108657], [178.555024, -18.099216], [178.52711, -18.09002], [178.485606, -18.108657], [178.487804, -18.129083], [178.470225, -18.14186], [178.437755, -18.14658], [178.438162, -18.122979], [178.413097, -18.103448], [178.389903, -18.101821], [178.396169, -18.108657], [178.378429, -18.127211], [178.368907, -18.129083], [178.355235, -18.115492], [178.322927, -18.125584], [178.309337, -18.140232], [178.277029, -18.146254], [178.252208, -18.18377], [178.214203, -18.201104], [178.168305, -18.248468], [178.135509, -18.259454], [178.113048, -18.239435], [178.03891, -18.264907], [177.978363, -18.252699], [177.959809, -18.26572], [177.921072, -18.260675], [177.894054, -18.273126], [177.885753, -18.251642], [177.859386, -18.265802], [177.827159, -18.23447], [177.64503, -18.191095], [177.591645, -18.166681], [177.567638, -18.170099], [177.524913, -18.155369], [177.465099, -18.156427], [177.437185, -18.136], [177.335948, -18.105564], [177.31365, -18.073907], [177.306814, -18.081313], [177.300059, -18.039727], [177.285818, -18.008966], [177.26295, -17.993829], [177.266449, -17.979425], [177.251638, -17.952244], [177.272146, -17.916925], [177.259044, -17.879327], [177.265636, -17.859552], [177.361501, -17.834893], [177.372895, -17.815199], [177.370291, -17.749688], [177.416026, -17.759861], [177.434337, -17.750177], [177.420584, -17.678318], [177.395681, -17.663018], [177.388927, -17.640558], [177.420421, -17.622328], [177.434337, -17.597914], [177.465099, -17.587986], [177.467459, -17.555352], [177.478201, -17.546319], [177.489594, -17.558852], [177.499522, -17.555759], [177.499278, -17.532647], [177.515147, -17.50506], [177.524425, -17.500746], [177.539561, -17.51214], [177.638927, -17.437107], [177.656261, -17.442804], [177.646821, -17.451755], [177.663097, -17.498468], [177.669281, -17.492364], [177.65919, -17.468032], [177.663097, -17.443943], [177.710134, -17.417901], [177.74879, -17.430271], [177.765473, -17.396661], [177.807628, -17.380955], [177.829926, -17.364028], [177.833669, -17.390232], [177.82016, -17.417169], [177.836274, -17.421319], [177.875987, -17.389337], [177.897309, -17.402927], [177.956228, -17.40252], [178.007172, -17.383477], [178.042247, -17.356866], [178.151052, -17.346856], [178.180837, -17.329278], [178.190115, -17.300551], [178.262706, -17.335626], [178.286469, -17.383722], [178.279552, -17.407403], [178.245372, -17.443943], [178.258067, -17.457452], [178.245372, -17.471287], [178.258637, -17.468927], [178.285981, -17.438084], [178.303722, -17.430271], [178.348318, -17.440118], [178.375743, -17.471287], [178.375743, -17.498468], [178.403575, -17.522393], [178.445486, -17.5499], [178.47877, -17.553155], [178.530284, -17.608331], [178.573009, -17.617934], [178.590831, -17.630955], [178.602306, -17.649998], [178.603282, -17.674574], [178.580577, -17.710056], [178.567719, -17.754978], [178.602306, -17.786554], [178.598888, -17.819431], [178.608409, -17.828058], [178.627208, -17.826837], [178.615896, -17.841078], [178.63502, -17.853448], [178.635997, -17.863702], [178.629568, -17.875909], [178.615896, -17.869073], [178.622732, -17.890232], [178.591075, -17.897556], [178.5949, -17.926039], [178.62615, -17.971449], [178.654307, -17.978448], [178.677013, -18.011407], [178.693858, -18.009942], [178.711436, -17.991957], [178.698416, -18.019301]]], [[[177.120128, -17.255466], [177.149181, -17.245294], [177.162852, -17.265802], [177.124522, -17.306817], [177.111827, -17.310317], [177.101329, -17.300551], [177.105235, -17.259698], [177.093923, -17.245294], [177.120128, -17.255466]]], [[[179.432872, -17.358331], [179.39088, -17.396254], [179.383474, -17.390558], [179.383474, -17.331231], [179.368826, -17.286798], [179.371349, -17.259861], [179.378673, -17.249444], [179.437836, -17.241795], [179.448253, -17.249119], [179.451915, -17.290297], [179.432872, -17.358331]]], [[[177.285818, -17.046645], [177.292247, -17.058526], [177.287852, -17.085219], [177.271739, -17.112726], [177.24171, -17.132745], [177.238048, -17.149102], [177.224294, -17.135431], [177.20753, -17.148207], [177.203787, -17.16961], [177.175955, -17.163344], [177.175955, -17.155938], [177.190196, -17.155938], [177.186046, -17.120294], [177.202485, -17.111017], [177.218272, -17.073826], [177.248546, -17.053481], [177.272146, -17.080824], [177.285818, -17.046645]]], [[[177.403656, -16.902602], [177.416515, -16.909438], [177.395356, -16.936782], [177.373057, -16.902927], [177.402843, -16.881524], [177.395763, -16.866143], [177.408214, -16.861098], [177.443696, -16.867852], [177.403656, -16.902602]]], [[[178.333669, -16.828871], [178.290212, -16.834405], [178.28004, -16.786716], [178.333995, -16.79339], [178.333669, -16.828871]]], [[[177.591156, -16.686212], [177.594005, -16.699965], [177.580333, -16.728448], [177.493419, -16.802667], [177.471365, -16.834405], [177.457774, -16.827569], [177.445567, -16.838556], [177.429698, -16.834405], [177.437185, -16.79339], [177.456554, -16.805597], [177.475352, -16.796645], [177.558604, -16.721449], [177.57252, -16.699477], [177.56072, -16.676853], [177.591156, -16.686212]]], [[[179.883311, -16.655532], [179.907237, -16.649509], [179.910167, -16.632094], [179.934581, -16.625095], [179.951671, -16.607843], [179.947439, -16.644464], [179.917491, -16.655532], [179.883311, -16.655532]]], [[[178.605154, -16.580011], [178.622569, -16.573012], [178.60613, -16.591729], [178.592459, -16.595636], [178.560395, -16.587335], [178.588227, -16.573012], [178.605154, -16.580011]]], [[[179.389659, -16.333591], [179.361176, -16.340753], [179.328136, -16.333591], [179.328136, -16.326593], [179.389659, -16.333591]]], [[[177.12908, -12.501642], [177.091075, -12.516371], [177.011485, -12.509454], [177.00587, -12.489516], [177.03297, -12.491388], [177.059744, -12.475274], [177.124766, -12.486098], [177.12908, -12.501642]]], [[[174.596853, -21.698419], [174.588878, -21.681573], [174.594005, -21.668715], [174.614106, -21.668227], [174.626638, -21.676528], [174.627778, -21.702569], [174.615896, -21.711114], [174.596853, -21.698419]]]]}}, {"type": "Feature", "properties": {"name": "New Caledonia"}, "geometry": {"type": "MultiPolygon", "coordinates": [[[[163.978201, -20.083103], [163.971365, -20.06878], [163.956391, -20.073663], [163.947113, -20.066013], [163.937266, -20.033949], [163.949718, -20.002211], [163.967133, -20.008071], [163.985118, -20.047621], [163.978201, -20.083103]]], [[[167.554698, -22.612237], [167.555186, -22.638442], [167.530935, -22.605564], [167.521007, -22.603692], [167.521007, -22.648696], [167.507335, -22.670668], [167.475841, -22.667087], [167.418712, -22.645278], [167.42449, -22.5617], [167.432302, -22.54225], [167.476899, -22.54339], [167.521007, -22.569594], [167.554698, -22.612237]]], [[[166.82545, -22.395685], [166.843272, -22.41253], [166.843435, -22.424412], [166.840587, -22.431248], [166.828949, -22.425551], [166.801768, -22.439874], [166.801768, -22.445977], [166.820974, -22.448826], [166.801768, -22.463067], [166.770763, -22.450616], [166.789399, -22.406671], [166.82545, -22.395685]]], [[[168.143728, -21.488702], [168.12379, -21.555352], [168.126801, -21.622247], [168.035411, -21.658461], [167.992931, -21.654962], [167.958181, -21.638442], [167.959972, -21.61061], [167.938975, -21.601658], [167.912608, -21.595636], [167.861176, -21.600681], [167.856781, -21.589532], [167.879893, -21.572686], [167.891612, -21.541681], [167.856781, -21.500746], [167.843923, -21.439223], [167.808442, -21.383966], [167.848806, -21.37477], [167.904959, -21.392755], [167.987804, -21.335626], [167.990408, -21.348728], [167.966645, -21.394301], [167.983653, -21.429376], [168.00766, -21.452895], [168.038748, -21.459731], [168.074474, -21.455743], [168.137462, -21.431817], [168.143728, -21.488702]]], [[[166.458507, -20.719903], [166.45338, -20.728936], [166.418142, -20.740411], [166.39088, -20.726739], [166.458507, -20.719903]]], [[[167.464692, -21.063653], [167.431814, -21.074884], [167.42335, -21.147556], [167.390798, -21.178643], [167.331065, -21.164158], [167.322439, -21.13421], [167.282074, -21.123468], [167.267589, -21.091485], [167.176036, -21.082208], [167.146332, -21.073012], [167.120128, -21.051935], [167.096446, -21.027765], [167.08839, -21.003839], [167.067393, -20.996352], [167.061534, -20.986261], [167.068614, -20.959568], [167.020844, -20.911716], [167.082205, -20.916192], [167.121593, -20.901544], [167.190929, -20.809991], [167.185313, -20.788181], [167.120128, -20.760186], [167.044444, -20.768243], [167.047048, -20.737237], [167.058849, -20.715997], [167.113129, -20.701104], [167.154307, -20.713067], [167.171886, -20.702569], [167.178477, -20.682061], [167.212576, -20.672133], [167.30128, -20.713067], [167.308279, -20.73089], [167.281505, -20.784438], [167.30128, -20.849705], [167.281505, -20.894301], [167.331065, -20.929457], [167.385509, -20.941664], [167.40504, -20.972426], [167.390798, -21.007908], [167.399181, -21.01922], [167.432302, -21.027765], [167.464692, -21.063653]]], [[[166.67335, -20.445733], [166.673839, -20.463637], [166.633474, -20.465997], [166.611339, -20.477227], [166.579275, -20.549574], [166.587657, -20.599867], [166.629731, -20.596368], [166.575206, -20.685154], [166.537283, -20.704685], [166.493907, -20.713067], [166.479666, -20.699395], [166.508962, -20.683526], [166.558279, -20.624444], [166.559581, -20.545668], [166.60377, -20.458591], [166.599376, -20.43963], [166.571462, -20.405938], [166.561371, -20.410821], [166.563731, -20.401951], [166.60377, -20.383477], [166.615977, -20.389418], [166.637218, -20.425063], [166.67335, -20.445733]]], [[[167.031749, -22.246677], [167.013438, -22.254815], [167.02711, -22.276462], [167.000743, -22.336684], [166.993419, -22.344334], [166.988536, -22.335056], [166.965587, -22.347263], [166.966156, -22.364679], [166.915701, -22.395603], [166.890961, -22.392022], [166.925304, -22.370864], [166.903087, -22.373305], [166.874278, -22.322035], [166.860037, -22.350518], [166.851817, -22.346449], [166.835785, -22.316339], [166.849457, -22.310154], [166.840343, -22.297947], [166.824718, -22.314223], [166.818858, -22.353611], [166.822276, -22.364679], [166.843272, -22.378351], [166.801768, -22.374688], [166.77768, -22.392022], [166.752615, -22.386651], [166.739268, -22.374282], [166.740571, -22.360447], [166.76002, -22.344334], [166.719981, -22.343845], [166.706065, -22.334731], [166.71225, -22.316339], [166.705577, -22.310154], [166.690603, -22.315118], [166.667491, -22.307224], [166.632823, -22.276951], [166.59962, -22.288995], [166.56658, -22.277114], [166.554454, -22.26214], [166.565684, -22.250665], [166.545584, -22.237563], [166.506196, -22.23447], [166.478363, -22.287205], [166.458507, -22.282159], [166.452322, -22.288995], [166.460134, -22.307712], [166.436697, -22.308038], [166.446056, -22.248142], [166.418142, -22.245701], [166.397634, -22.226821], [166.430024, -22.228123], [166.452322, -22.213962], [166.434255, -22.212986], [166.428233, -22.204278], [166.431814, -22.172296], [166.39088, -22.172296], [166.380544, -22.200291], [166.367931, -22.202081], [166.344005, -22.227472], [166.340994, -22.210626], [166.349864, -22.200291], [166.315115, -22.172296], [166.328136, -22.144952], [166.312022, -22.154718], [166.285899, -22.149347], [166.287771, -22.158624], [166.268728, -22.165785], [166.218761, -22.151788], [166.208832, -22.117771], [166.157481, -22.086684], [166.145274, -22.084568], [166.130138, -22.104099], [166.108897, -22.090427], [166.116466, -22.062433], [166.1421, -22.07586], [166.150401, -22.071954], [166.144542, -22.046563], [166.116466, -22.028416], [166.164317, -22.035089], [166.163341, -22.024591], [166.135265, -22.008559], [166.143809, -21.980564], [166.135753, -21.958266], [166.088552, -21.938897], [166.069998, -21.943048], [166.082286, -21.925226], [166.064464, -21.913018], [166.061209, -21.891209], [166.039887, -21.909926], [166.036143, -21.941583], [166.006602, -21.938897], [166.009613, -21.955824], [166.003184, -21.963962], [165.965994, -21.928888], [165.934906, -21.917739], [165.914317, -21.884942], [165.872813, -21.861017], [165.810883, -21.858575], [165.808604, -21.843357], [165.8296, -21.852146], [165.794932, -21.816664], [165.800304, -21.792087], [165.780772, -21.791111], [165.780772, -21.816664], [165.764008, -21.811212], [165.759532, -21.768813], [165.732921, -21.738946], [165.732921, -21.719822], [165.725352, -21.719822], [165.706879, -21.748305], [165.677745, -21.761407], [165.677501, -21.729425], [165.669932, -21.725274], [165.65089, -21.726739], [165.649425, -21.738458], [165.63795, -21.740167], [165.504568, -21.678155], [165.473888, -21.651788], [165.48585, -21.62363], [165.463145, -21.625909], [165.479015, -21.616876], [165.463145, -21.605645], [165.413422, -21.62363], [165.290782, -21.576755], [165.268809, -21.552667], [165.256847, -21.515069], [165.173513, -21.483005], [165.116547, -21.397719], [165.1185, -21.378839], [165.109141, -21.371026], [165.102224, -21.371189], [165.093272, -21.374444], [165.087087, -21.377618], [165.084483, -21.391371], [165.075694, -21.396091], [165.06186, -21.377211], [165.046641, -21.38836], [165.026622, -21.383966], [165.045421, -21.364679], [165.043142, -21.348077], [165.027517, -21.339125], [165.005544, -21.343032], [165.013927, -21.328058], [165.009288, -21.318048], [164.985525, -21.302016], [164.971934, -21.349867], [164.951427, -21.353774], [164.937755, -21.335626], [164.951427, -21.302016], [164.920421, -21.285089], [164.834158, -21.183282], [164.827159, -21.114679], [164.819184, -21.104099], [164.800059, -21.110284], [164.807384, -21.082289], [164.786388, -21.076267], [164.791026, -21.064386], [164.758962, -21.082452], [164.745942, -21.059177], [164.727306, -21.060235], [164.719249, -21.065851], [164.725434, -21.076267], [164.711762, -21.089776], [164.69337, -21.042901], [164.664073, -21.014093], [164.683279, -21.001153], [164.636729, -20.972426], [164.660818, -20.964776], [164.656586, -20.945896], [164.622813, -20.933526], [164.622406, -20.917901], [164.600597, -20.927667], [164.561046, -20.898045], [164.519379, -20.890558], [164.502615, -20.863214], [164.462413, -20.848565], [164.375499, -20.774021], [164.365571, -20.758071], [164.40268, -20.754083], [164.410411, -20.738458], [164.404307, -20.725356], [164.357188, -20.702325], [164.335134, -20.65545], [164.316742, -20.644789], [164.286632, -20.57586], [164.266124, -20.582696], [164.256033, -20.565037], [164.192556, -20.525811], [164.177419, -20.504002], [164.158702, -20.43255], [164.123383, -20.410821], [164.118663, -20.390313], [164.156993, -20.397149], [164.166515, -20.386651], [164.166515, -20.332127], [164.132498, -20.300958], [164.073741, -20.294122], [164.081228, -20.267836], [164.07488, -20.261163], [164.06072, -20.266778], [164.059337, -20.288018], [164.040212, -20.300958], [164.025401, -20.297052], [164.018077, -20.278497], [163.994802, -20.264255], [163.99822, -20.244561], [164.016612, -20.231052], [164.04713, -20.239435], [164.056407, -20.227634], [164.033458, -20.192315], [164.052501, -20.17783], [164.04713, -20.151462], [164.032237, -20.140313], [163.991954, -20.151462], [164.005544, -20.123468], [163.986013, -20.109633], [163.991954, -20.083103], [164.01352, -20.083103], [164.051768, -20.109308], [164.077403, -20.149835], [164.109141, -20.164972], [164.197927, -20.260512], [164.244314, -20.285333], [164.264334, -20.28867], [164.292817, -20.28102], [164.31658, -20.319106], [164.334483, -20.321466], [164.310883, -20.27516], [164.306488, -20.23504], [164.495616, -20.300226], [164.595225, -20.403578], [164.653494, -20.431817], [164.684581, -20.458591], [164.725434, -20.472833], [164.767751, -20.520766], [164.791759, -20.535089], [164.82781, -20.582696], [164.879649, -20.62656], [164.91977, -20.645115], [164.935232, -20.659112], [164.930349, -20.672133], [164.947927, -20.683689], [164.988536, -20.685317], [165.061534, -20.734063], [165.167166, -20.754083], [165.184093, -20.768243], [165.198578, -20.760512], [165.21754, -20.764418], [165.264415, -20.813246], [165.259939, -20.828546], [165.280447, -20.883884], [165.323253, -20.912774], [165.328298, -20.928399], [165.413097, -20.949151], [165.395518, -21.018243], [165.406749, -21.055434], [165.502208, -21.12713], [165.542979, -21.134698], [165.541026, -21.151951], [165.554861, -21.144464], [165.58546, -21.16839], [165.615408, -21.206476], [165.583263, -21.202325], [165.554861, -21.18613], [165.568614, -21.206964], [165.60255, -21.226495], [165.623057, -21.267999], [165.706554, -21.292169], [165.725352, -21.309503], [165.754405, -21.302341], [165.781261, -21.316176], [165.801117, -21.340265], [165.808604, -21.363539], [165.826182, -21.359633], [165.836681, -21.402032], [165.856293, -21.418715], [165.845876, -21.398858], [165.84962, -21.383966], [165.868175, -21.379164], [165.883637, -21.397719], [165.890391, -21.378025], [165.87615, -21.356703], [165.894054, -21.361098], [165.94988, -21.455743], [165.945323, -21.464288], [165.924083, -21.459731], [165.972341, -21.493829], [165.966482, -21.503025], [165.992931, -21.497247], [165.964041, -21.435805], [165.961925, -21.417413], [165.969412, -21.410414], [166.020274, -21.452895], [166.064626, -21.463149], [166.066742, -21.469903], [166.048188, -21.479669], [166.068044, -21.487074], [166.07488, -21.528009], [166.116466, -21.517267], [166.253917, -21.618748], [166.370372, -21.658949], [166.370372, -21.665216], [166.342459, -21.665216], [166.3567, -21.693129], [166.425548, -21.712335], [166.437022, -21.731541], [166.475841, -21.758396], [166.489757, -21.792169], [166.513682, -21.802992], [166.506196, -21.809259], [166.573416, -21.874933], [166.661388, -21.93963], [166.671235, -21.925226], [166.719086, -21.952569], [166.719086, -21.960056], [166.685069, -21.973077], [166.685069, -21.980564], [166.76002, -21.986749], [166.778331, -22.014581], [166.873709, -22.035089], [166.938813, -22.079848], [166.960785, -22.119236], [166.959321, -22.144952], [166.948009, -22.16367], [166.971528, -22.17018], [167.034434, -22.237481], [167.031749, -22.246677]]], [[[164.240245, -20.158298], [164.1692, -20.123305], [164.163748, -20.061944], [164.170584, -20.061944], [164.240245, -20.158298]]], [[[163.696137, -19.765069], [163.669688, -19.787693], [163.639985, -19.723728], [163.637869, -19.660577], [163.632335, -19.645929], [163.615733, -19.636163], [163.621837, -19.623712], [163.649669, -19.646254], [163.696137, -19.765069]]], [[[171.343765, -22.346342], [171.341922, -22.349239], [171.339025, -22.347658], [171.343765, -22.346342]]]]}}, {"type": "Feature", "properties": {"name": "Norfolk Island"}, "geometry": {"type": "Polygon", "coordinates": [[[167.996349, -29.025649], [167.99464, -29.042576], [167.966645, -29.080011], [167.95045, -29.056573], [167.926443, -29.066339], [167.918305, -29.036391], [167.930512, -29.01214], [167.91212, -29.011651], [167.926524, -28.997491], [167.996349, -29.025649]]]}}, {"type": "Feature", "properties": {"name": "Solomon Is."}, "geometry": {"type": "MultiPolygon", "coordinates": [[[[160.564464, -11.773045], [160.582205, -11.794854], [160.558849, -11.811212], [160.517833, -11.811212], [160.497325, -11.84588], [160.483165, -11.844985], [160.449555, -11.804376], [160.428477, -11.811212], [160.385265, -11.783787], [160.360118, -11.716892], [160.339692, -11.701349], [160.285818, -11.686944], [160.284841, -11.649509], [160.270763, -11.632989], [160.230479, -11.626153], [160.209972, -11.653497], [160.168468, -11.653497], [160.092621, -11.619399], [160.100759, -11.605076], [160.08253, -11.592218], [160.041352, -11.605076], [160.023692, -11.600681], [160.0, -11.57019618311649], [160.0, -11.46515355916159], [160.003266, -11.461114], [160.052419, -11.495212], [160.087169, -11.494806], [160.287446, -11.617364], [160.393891, -11.65781], [160.564464, -11.773045]]], [[[161.74586, -10.263279], [161.730642, -10.255629], [161.717296, -10.231378], [161.717052, -10.218194], [161.730642, -10.20672], [161.752452, -10.224216], [161.768809, -10.252211], [161.770518, -10.278416], [161.740733, -10.288507], [161.74586, -10.263279]]], [[[162.385509, -10.81878], [162.391612, -10.8388], [162.378266, -10.844822], [162.341156, -10.838149], [162.327159, -10.844822], [162.278656, -10.835545], [162.207042, -10.808038], [162.18393, -10.810968], [162.161957, -10.83115], [162.11085, -10.823663], [162.011241, -10.769627], [161.969412, -10.781345], [161.908865, -10.76214], [161.891775, -10.769627], [161.861501, -10.752618], [161.846853, -10.728123], [161.840505, -10.7492], [161.818614, -10.733168], [161.792166, -10.734959], [161.778494, -10.71502], [161.769216, -10.718845], [161.760997, -10.712335], [161.748709, -10.682794], [161.710216, -10.680271], [161.694835, -10.649998], [161.679454, -10.646173], [161.647472, -10.618585], [161.636567, -10.631036], [161.625824, -10.624444], [161.603038, -10.591241], [161.586681, -10.584649], [161.586681, -10.570001], [161.573009, -10.556817], [161.552745, -10.570001], [161.524669, -10.564223], [161.545177, -10.50213], [161.53419, -10.495212], [161.528331, -10.464532], [161.490408, -10.46795], [161.507498, -10.440037], [161.506684, -10.425714], [161.490408, -10.42018], [161.507498, -10.383477], [161.52003, -10.376397], [161.510997, -10.364923], [161.483653, -10.364923], [161.465994, -10.346938], [161.413748, -10.341567], [161.402843, -10.330011], [161.367524, -10.330824], [161.344005, -10.344496], [161.284923, -10.323907], [161.284923, -10.276137], [161.299327, -10.263116], [161.29184, -10.225763], [161.300059, -10.207127], [161.319102, -10.200453], [161.340831, -10.214044], [161.396007, -10.204034], [161.502208, -10.250746], [161.609548, -10.316827], [161.66863, -10.364923], [161.687266, -10.357599], [161.700206, -10.365492], [161.735118, -10.405369], [161.778494, -10.406508], [161.820567, -10.429783], [161.835704, -10.446954], [161.880544, -10.442804], [161.895193, -10.43377], [161.932465, -10.445977], [161.963552, -10.440606], [161.987071, -10.467218], [162.009288, -10.478448], [162.058849, -10.478285], [162.068533, -10.454767], [162.084239, -10.447686], [162.113617, -10.456476], [162.140391, -10.493748], [162.163097, -10.508722], [162.191742, -10.577895], [162.215343, -10.596775], [162.228852, -10.644627], [162.287771, -10.69199], [162.292003, -10.764744], [162.264985, -10.789483], [162.271739, -10.814386], [162.374848, -10.823663], [162.385509, -10.81878]]], [[[166.924016, -11.674289], [166.978448, -11.670487], [166.984149, -11.709863], [166.888241, -11.717422], [166.843021, -11.713316], [166.767248, -11.63349], [166.767203, -11.61712], [166.805532, -11.591568], [166.869884, -11.588962], [166.93556, -11.608813], [166.92392, -11.640972], [166.924016, -11.674289]]], [[[166.534163, -11.308094], [166.508827, -11.309319], [166.500207, -11.297914], [166.509127, -11.260915], [166.483449, -11.278662], [166.47976, -11.247422], [166.511856, -11.213424], [166.540424, -11.214564], [166.5639, -11.241026], [166.557252, -11.283644], [166.534163, -11.308094]]], [[[166.132986, -10.724786], [166.054501, -10.766732], [166.028168, -10.767267], [166.002376, -10.757216], [165.980805, -10.77337], [165.93422, -10.775741], [165.861965, -10.86854], [165.849358, -10.856151], [165.852392, -10.828618], [165.840418, -10.814568], [165.82837, -10.812301], [165.80008, -10.837543], [165.770235, -10.835823], [165.756474, -10.812161], [165.75303, -10.751888], [165.792634, -10.709137], [165.801813, -10.708588], [165.797417, -10.743065], [165.82195, -10.762165], [165.831218, -10.707651], [165.878062, -10.656847], [165.994527, -10.661139], [166.026664, -10.647016], [166.061174, -10.654033], [166.084972, -10.672052], [166.142757, -10.669251], [166.147905, -10.694046], [166.132986, -10.724786]]], [[[168.822927, -12.267267], [168.825857, -12.281508], [168.802419, -12.290623], [168.797862, -12.281915], [168.812266, -12.26629], [168.822927, -12.267267]]], [[[165.727794, -10.422459], [165.722911, -10.412856], [165.732188, -10.389907], [165.746349, -10.393487], [165.755056, -10.406915], [165.745291, -10.421645], [165.727794, -10.422459]]], [[[166.979666, -11.638604], [166.945649, -11.653253], [166.938975, -11.642022], [166.944347, -11.625421], [166.957693, -11.612563], [166.984874, -11.614353], [166.979666, -11.638604]]], [[[166.279959, -10.273045], [166.251475, -10.309177], [166.237315, -10.31113], [166.238048, -10.283461], [166.228689, -10.276056], [166.238536, -10.21502], [166.242442, -10.268976], [166.252452, -10.264907], [166.279959, -10.273045]]]]}}, {"type": "Feature", "properties": {"name": "Vanuatu"}, "geometry": {"type": "MultiPolygon", "coordinates": [[[[169.888845, -20.173923], [169.898936, -20.192315], [169.871593, -20.239435], [169.830089, -20.253106], [169.737966, -20.208917], [169.736339, -20.185805], [169.755544, -20.143813], [169.821137, -20.135024], [169.888845, -20.173923]]], [[[169.50172, -19.52752], [169.460134, -19.582208], [169.453298, -19.626153], [169.436209, -19.657322], [169.357677, -19.636163], [169.306163, -19.582208], [169.278331, -19.578302], [169.218516, -19.490167], [169.214529, -19.439142], [169.219981, -19.414809], [169.238943, -19.398533], [169.234711, -19.362481], [169.243419, -19.341974], [169.261485, -19.328302], [169.336599, -19.31463], [169.352875, -19.328058], [169.344005, -19.380141], [169.357677, -19.455255], [169.366466, -19.469659], [169.50172, -19.52752]]], [[[169.32781, -18.960382], [169.286957, -18.982354], [169.275076, -18.999282], [169.166515, -18.939223], [169.134125, -18.940851], [169.102794, -18.932224], [169.059255, -18.901951], [168.987315, -18.87656], [168.985525, -18.859633], [169.002208, -18.80169], [168.98227, -18.762628], [168.98878, -18.690606], [169.008149, -18.649998], [169.038422, -18.629164], [169.07781, -18.618259], [169.118419, -18.619399], [169.152354, -18.636326], [169.162446, -18.652276], [169.17213, -18.726495], [169.227306, -18.739353], [169.243988, -18.732517], [169.268321, -18.769952], [169.193207, -18.787042], [169.22047, -18.824965], [169.319835, -18.882013], [169.332367, -18.90488], [169.336599, -18.934828], [169.32781, -18.960382]]], [[[168.583751, -17.684177], [168.58546, -17.701267], [168.547618, -17.784601], [168.540212, -17.796645], [168.50115, -17.807061], [168.484141, -17.820733], [168.46697, -17.807061], [168.388357, -17.823663], [168.37086, -17.813897], [168.360362, -17.793715], [168.34962, -17.807061], [168.343516, -17.780369], [168.309337, -17.794041], [168.315603, -17.75921], [168.283051, -17.778578], [168.247325, -17.786554], [168.264659, -17.767836], [168.304698, -17.752048], [168.309337, -17.731215], [168.2942, -17.736749], [168.286632, -17.71087], [168.25172, -17.695571], [168.213145, -17.704034], [168.185802, -17.738702], [168.174815, -17.740981], [168.151134, -17.718194], [168.178966, -17.656183], [168.226817, -17.615167], [168.266612, -17.558526], [168.292735, -17.537693], [168.323009, -17.532647], [168.336681, -17.555597], [168.354177, -17.545343], [168.423106, -17.534275], [168.45338, -17.546319], [168.459158, -17.570571], [168.487478, -17.594822], [168.510427, -17.648858], [168.529063, -17.656183], [168.549571, -17.691013], [168.583751, -17.684177]]], [[[168.207856, -17.550388], [168.238943, -17.521905], [168.275645, -17.509373], [168.295421, -17.526462], [168.247081, -17.546319], [168.205414, -17.58115], [168.207856, -17.550388]]], [[[168.327403, -17.419366], [168.338552, -17.414483], [168.36378, -17.443943], [168.372081, -17.479099], [168.356293, -17.484145], [168.334158, -17.469985], [168.322765, -17.447361], [168.327403, -17.419366]]], [[[168.376475, -17.085382], [168.333018, -17.094415], [168.322765, -17.089451], [168.339529, -17.066176], [168.388357, -17.041192], [168.425141, -17.046645], [168.391124, -17.067153], [168.376475, -17.085382]]], [[[168.532725, -16.937921], [168.533946, -16.894464], [168.552745, -16.879083], [168.57838, -16.876886], [168.597016, -16.895196], [168.570323, -16.937595], [168.559255, -16.943617], [168.532725, -16.937921]]], [[[168.149913, -16.778578], [168.144216, -16.731378], [168.120372, -16.709161], [168.131114, -16.635837], [168.149099, -16.616957], [168.144216, -16.573012], [168.189952, -16.580255], [168.230235, -16.642022], [168.247325, -16.690362], [168.281505, -16.676853], [168.298106, -16.682061], [168.335216, -16.733168], [168.353363, -16.738214], [168.370291, -16.767022], [168.441173, -16.77044], [168.464122, -16.778009], [168.480724, -16.800226], [168.46754, -16.805922], [168.473888, -16.848077], [168.45338, -16.848077], [168.384125, -16.802504], [168.333263, -16.786716], [168.291677, -16.795343], [168.232921, -16.822931], [168.192068, -16.813897], [168.149913, -16.778578]]], [[[168.315929, -16.535821], [168.295421, -16.497979], [168.33725, -16.491876], [168.349376, -16.497979], [168.361176, -16.514255], [168.361339, -16.529392], [168.350434, -16.539239], [168.315929, -16.535821]]], [[[168.222667, -16.440606], [168.260997, -16.429783], [168.25172, -16.444757], [168.243826, -16.494561], [168.210134, -16.504653], [168.203136, -16.495375], [168.222667, -16.440606]]], [[[168.139985, -16.361912], [168.10255, -16.339939], [168.076508, -16.340427], [168.050059, -16.322442], [168.021983, -16.326593], [167.920909, -16.258884], [167.926443, -16.244806], [167.912852, -16.233087], [167.925792, -16.219822], [167.994477, -16.192315], [168.048676, -16.190118], [168.069509, -16.179783], [168.125499, -16.129083], [168.140961, -16.089776], [168.171641, -16.080255], [168.207286, -16.134454], [168.230724, -16.227716], [168.249685, -16.246189], [168.3213, -16.282892], [168.329845, -16.306248], [168.288259, -16.344008], [168.182384, -16.347833], [168.139985, -16.361912]]], [[[167.822765, -16.419041], [167.843923, -16.457696], [167.820323, -16.481052], [167.799571, -16.486993], [167.771658, -16.524509], [167.771983, -16.54046], [167.76059, -16.546319], [167.744395, -16.546482], [167.726573, -16.517836], [167.690929, -16.511], [167.679373, -16.499933], [167.64088, -16.501642], [167.621918, -16.494236], [167.568126, -16.525974], [167.590017, -16.539646], [167.580251, -16.552179], [167.542166, -16.560154], [167.521007, -16.580499], [167.50294, -16.574395], [167.500662, -16.587335], [167.494395, -16.587335], [167.486176, -16.577081], [167.458751, -16.567966], [167.421072, -16.520196], [167.418712, -16.497979], [167.45281, -16.517836], [167.450206, -16.501886], [167.43572, -16.462823], [167.406505, -16.420017], [167.40504, -16.38128], [167.384532, -16.368259], [167.387706, -16.272638], [167.374848, -16.192966], [167.365571, -16.189874], [167.322439, -16.115004], [167.30128, -16.128676], [167.295177, -16.12127], [167.233084, -16.16961], [167.209321, -16.148858], [167.195974, -16.14365], [167.185313, -16.149102], [167.171641, -16.108168], [167.147472, -16.08294], [167.148448, -16.046319], [167.178477, -15.990899], [167.174164, -15.9249], [167.185313, -15.89072], [167.226248, -15.867364], [167.336111, -15.908949], [167.334809, -15.944106], [167.394705, -16.017999], [167.377126, -16.052911], [167.400401, -16.064711], [167.404307, -16.074395], [167.397634, -16.087091], [167.42449, -16.111586], [167.469981, -16.134942], [167.470714, -16.102797], [167.494395, -16.134942], [167.48699, -16.162774], [167.514903, -16.176446], [167.534679, -16.162774], [167.555186, -16.20436], [167.603038, -16.224298], [167.65268, -16.269708], [167.679373, -16.258966], [167.692393, -16.265232], [167.68572, -16.287042], [167.703624, -16.306248], [167.746918, -16.340427], [167.772472, -16.336033], [167.786143, -16.358575], [167.794688, -16.407973], [167.77589, -16.441176], [167.773936, -16.459568], [167.789236, -16.470636], [167.794444, -16.438653], [167.812511, -16.419529], [167.822765, -16.419041]]], [[[167.185883, -15.750746], [167.144216, -15.724054], [167.089122, -15.703546], [167.072276, -15.676202], [167.075694, -15.649591], [167.094981, -15.629571], [167.126964, -15.621515], [167.233572, -15.641534], [167.236827, -15.659356], [167.224946, -15.690037], [167.233735, -15.741388], [167.185883, -15.750746]]], [[[167.176443, -15.531508], [167.192719, -15.535414], [167.178477, -15.538995], [167.178477, -15.545831], [167.192638, -15.553888], [167.185313, -15.56699], [167.208344, -15.579034], [167.209483, -15.596368], [167.194835, -15.607517], [167.171641, -15.601007], [167.142833, -15.60589], [167.109548, -15.587498], [167.1574, -15.538995], [167.176443, -15.531508]]], [[[168.203787, -15.534438], [168.199474, -15.627699], [168.213145, -15.659356], [168.216075, -15.70379], [168.239513, -15.768162], [168.247325, -15.819513], [168.264008, -15.85711], [168.270356, -15.914239], [168.267751, -15.949151], [168.254893, -15.975763], [168.226817, -15.990899], [168.204275, -15.992446], [168.192393, -15.985528], [168.187511, -15.971124], [168.15504, -15.793634], [168.131114, -15.737563], [168.11964, -15.662774], [168.124522, -15.621352], [168.148936, -15.543227], [168.154552, -15.463311], [168.176524, -15.461602], [168.185802, -15.517836], [168.203787, -15.534438]]], [[[167.927908, -15.423598], [167.861583, -15.476739], [167.838552, -15.484796], [167.734141, -15.484308], [167.678722, -15.461033], [167.672862, -15.449802], [167.682384, -15.43255], [167.804454, -15.320001], [167.891612, -15.291925], [167.976899, -15.277765], [168.002452, -15.281834], [168.003266, -15.291599], [167.953949, -15.34881], [167.927908, -15.423598]]], [[[167.101085, -14.93963], [167.096446, -14.928888], [167.1574, -14.956231], [167.139659, -14.969659], [167.12322, -14.963637], [167.101085, -14.93963]]], [[[168.100434, -14.962091], [168.090505, -14.943536], [168.110688, -14.915785], [168.122895, -14.922784], [168.141368, -14.960138], [168.171641, -15.172784], [168.192068, -15.206313], [168.194347, -15.289158], [168.178966, -15.395115], [168.131114, -15.395115], [168.135427, -15.346856], [168.12379, -15.299412], [168.130544, -15.264744], [168.130138, -15.157647], [168.120616, -15.134942], [168.096446, -14.980401], [168.100434, -14.962091]]], [[[167.102712, -15.580011], [167.076427, -15.592869], [166.989106, -15.575616], [166.90797, -15.586358], [166.883474, -15.608005], [166.89324, -15.617771], [166.86378, -15.614841], [166.835785, -15.648858], [166.815603, -15.658298], [166.793142, -15.656345], [166.753917, -15.627699], [166.766449, -15.608819], [166.766775, -15.583917], [166.756196, -15.562433], [166.707205, -15.53281], [166.674083, -15.468032], [166.641368, -15.434747], [166.616059, -15.385024], [166.646169, -15.285577], [166.649181, -15.218357], [166.613943, -15.14186], [166.59962, -15.062107], [166.609874, -15.031915], [166.592621, -15.0263], [166.582042, -15.011407], [166.570811, -14.956231], [166.541026, -14.90838], [166.522634, -14.832127], [166.534679, -14.775323], [166.527354, -14.737074], [166.554535, -14.682387], [166.556163, -14.645929], [166.587657, -14.636407], [166.598399, -14.625258], [166.609874, -14.634698], [166.64031, -14.690037], [166.644054, -14.713149], [166.671235, -14.74391], [166.686209, -14.779962], [166.747081, -14.819594], [166.737315, -14.829522], [166.769867, -14.947931], [166.77296, -15.009698], [166.788097, -15.028497], [166.801768, -15.152276], [166.813162, -15.160414], [166.91977, -15.155938], [166.963227, -15.104181], [166.971934, -14.979913], [166.964529, -14.951349], [166.975922, -14.93727], [167.00766, -14.922052], [167.082856, -14.928888], [167.082856, -14.936293], [167.056163, -14.947686], [167.056814, -15.002048], [167.04127, -15.025079], [167.057872, -15.026951], [167.064626, -15.038832], [167.089122, -15.141209], [167.113292, -15.1242], [167.144216, -15.128106], [167.139415, -15.146417], [167.1574, -15.226821], [167.152599, -15.242771], [167.140798, -15.24977], [167.151134, -15.264744], [167.178477, -15.277765], [167.191742, -15.305597], [167.185069, -15.340997], [167.178884, -15.346612], [167.164806, -15.33294], [167.171723, -15.366388], [167.212901, -15.463556], [167.245372, -15.488051], [167.247244, -15.498224], [167.233409, -15.523614], [167.171723, -15.517836], [167.140636, -15.535577], [167.102712, -15.580011]]], [[[167.586436, -14.172459], [167.603038, -14.18906], [167.593435, -14.250421], [167.562022, -14.298923], [167.548025, -14.313084], [167.526134, -14.31992], [167.430919, -14.318455], [167.401215, -14.305108], [167.396821, -14.299574], [167.411143, -14.267836], [167.407481, -14.19492], [167.447927, -14.161391], [167.480724, -14.161065], [167.514903, -14.140558], [167.586436, -14.172459]]], [[[167.448416, -13.885024], [167.418712, -13.86004], [167.39503, -13.824965], [167.390798, -13.77752], [167.412283, -13.739516], [167.473806, -13.708429], [167.488943, -13.708185], [167.521007, -13.736505], [167.549653, -13.789483], [167.562022, -13.798028], [167.542166, -13.818536], [167.548595, -13.832778], [167.588715, -13.848403], [167.590017, -13.856622], [167.568126, -13.86004], [167.533702, -13.880466], [167.48699, -13.887384], [167.493663, -13.89186], [167.48699, -13.901056], [167.498546, -13.924493], [167.484874, -13.942153], [167.463878, -13.943943], [167.448416, -13.885024]]], [[[167.716482, -13.640232], [167.712901, -13.668227], [167.650727, -13.681899], [167.63502, -13.693536], [167.633474, -13.684259], [167.669932, -13.636489], [167.702647, -13.619806], [167.716482, -13.640232]]], [[[167.346934, -13.528009], [167.37086, -13.517348], [167.368663, -13.54339], [167.3567, -13.553399], [167.315603, -13.551528], [167.297048, -13.520603], [167.296641, -13.50449], [167.308849, -13.490167], [167.334809, -13.483575], [167.351329, -13.492934], [167.35141, -13.505955], [167.329275, -13.510512], [167.346934, -13.528009]]], [[[166.611583, -13.215265], [166.631521, -13.216729], [166.644054, -13.230076], [166.642833, -13.247735], [166.613048, -13.268243], [166.588145, -13.258477], [166.575206, -13.236261], [166.611583, -13.215265]]], [[[166.566417, -13.178969], [166.554535, -13.188409], [166.529633, -13.169854], [166.53419, -13.095636], [166.520518, -13.064874], [166.561371, -13.078709], [166.575206, -13.120212], [166.56837, -13.138279], [166.575206, -13.154392], [166.566417, -13.178969]]], [[[166.658458, -13.41546], [166.673839, -13.407647], [166.688731, -13.423435], [166.672699, -13.455011], [166.658458, -13.41546]]]]}}]}