{"type": "FeatureCollection", "features": [{"type": "Feature", "properties": {"name": "Greenland"}, "geometry": {"type": "MultiPolygon", "coordinates": [[[[-50.209706, 70.01675], [-50.237294, 70.038398], [-50.275299, 70.045844], [-50.421986, 70.037177], [-50.456695, 70.057603], [-50.471059, 70.057929], [-50.501454, 70.040473], [-50.7016427450735, 70.0], [-50.96475485587689, 70.0], [-50.860829, 70.024115], [-50.898427, 70.038804], [-50.981842, 70.032416], [-51.018422, 70.044013], [-50.991119, 70.051459], [-50.991119, 70.057603], [-51.030832, 70.065823], [-51.221059, 70.073961], [-51.259389, 70.06684], [-51.36266865088237, 70.0], [-51.556494, 70.0], [-51.532379, 70.024115], [-51.549794, 70.030341], [-51.625356, 70.015041], [-51.835113, 70.021715], [-51.968984, 70.011054], [-52.009755, 70.019843], [-52.061269, 70.051215], [-52.192454, 70.041449], [-52.277455, 70.05622], [-52.320668, 70.051459], [-52.379872, 70.073391], [-52.5006, 70.152086], [-52.552642, 70.165676], [-52.577016, 70.198879], [-52.609975, 70.217108], [-53.231842, 70.353095], [-53.839996, 70.380683], [-54.018707, 70.413235], [-54.077992, 70.44892], [-54.184641, 70.47663], [-54.186757, 70.488715], [-54.218577, 70.518378], [-54.325266, 70.573188], [-54.459299, 70.619086], [-54.537099, 70.65648], [-54.573964, 70.661363], [-54.630238, 70.65412], [-54.630238, 70.660956], [-54.588124, 70.682563], [-54.577504, 70.714179], [-54.561025, 70.726508], [-54.44225, 70.754788], [-54.325836, 70.797593], [-54.155385, 70.828803], [-53.979644, 70.829657], [-53.889394, 70.815131], [-53.822133, 70.793769], [-53.670318, 70.798774], [-53.581899, 70.770819], [-53.43399, 70.752672], [-53.19164, 70.772162], [-52.790639, 70.756781], [-52.450347, 70.702582], [-52.269928, 70.635443], [-52.121449, 70.601752], [-52.052073, 70.569159], [-51.965077, 70.549547], [-51.843007, 70.50727], [-51.675282, 70.474311], [-51.549428, 70.431586], [-51.409495, 70.435004], [-51.19286, 70.402574], [-51.066274, 70.366767], [-50.829498, 70.356391], [-50.659413, 70.325751], [-50.611562, 70.324408], [-50.56664, 70.333686], [-50.53185, 70.35932], [-50.553375, 70.381781], [-50.586497, 70.39411], [-50.662668, 70.390204], [-50.682688, 70.400865], [-50.595204, 70.44359], [-50.593332, 70.462958], [-50.574941, 70.474514], [-50.504506, 70.50019], [-50.493723, 70.513332], [-50.49828, 70.52383], [-50.530019, 70.536566], [-50.559722, 70.53266], [-50.642242, 70.497016], [-50.653432, 70.469224], [-50.692454, 70.459377], [-50.74413, 70.428209], [-50.772084, 70.420844], [-50.992787, 70.424954], [-51.058583, 70.439032], [-51.094146, 70.469794], [-50.942738, 70.469794], [-50.963531, 70.484809], [-51.004262, 70.497219], [-51.079905, 70.510728], [-51.190256, 70.502509], [-51.223297, 70.510728], [-51.24059, 70.534369], [-51.325917, 70.555406], [-51.347401, 70.571601], [-51.230702, 70.60635], [-51.194976, 70.628485], [-51.176503, 70.618964], [-51.182281, 70.592719], [-51.161244, 70.579413], [-51.036488, 70.560004], [-50.974924, 70.536566], [-50.915761, 70.53144], [-50.89684, 70.51024], [-50.885854, 70.51081], [-50.867665, 70.517646], [-50.864491, 70.535305], [-50.90925, 70.571601], [-50.737294, 70.544867], [-50.798695, 70.572821], [-50.867665, 70.585273], [-50.833485, 70.613186], [-50.912343, 70.599514], [-50.991119, 70.613186], [-50.969716, 70.638983], [-50.926747, 70.655585], [-50.878733, 70.662543], [-50.756418, 70.649726], [-50.696929, 70.623725], [-50.624989, 70.622382], [-50.634267, 70.64053], [-50.652699, 70.650336], [-50.915395, 70.68891], [-51.100413, 70.660956], [-51.100413, 70.667792], [-51.080068, 70.677802], [-51.08731, 70.723049], [-51.059926, 70.760972], [-51.079905, 70.763983], [-51.120676, 70.743232], [-51.176259, 70.698798], [-51.208119, 70.692532], [-51.399159, 70.697333], [-51.430002, 70.709377], [-51.445139, 70.73192], [-51.438222, 70.746975], [-51.4169, 70.755276], [-51.313954, 70.756903], [-51.292144, 70.763983], [-51.271718, 70.798774], [-51.250722, 70.81387], [-51.170766, 70.806098], [-51.098988, 70.787991], [-51.011627, 70.784491], [-50.818593, 70.720933], [-50.687978, 70.706936], [-50.66161, 70.71247], [-50.631581, 70.739081], [-50.714711, 70.74433], [-50.740224, 70.756049], [-50.737294, 70.784491], [-50.914703, 70.816107], [-50.920033, 70.83869], [-50.847157, 70.873236], [-50.886342, 70.88109], [-50.940256, 70.875881], [-51.072987, 70.840481], [-51.123647, 70.843899], [-51.210276, 70.873236], [-51.189768, 70.880683], [-51.189768, 70.886908], [-51.456695, 70.908149], [-51.536285, 70.930365], [-51.589223, 70.929918], [-51.614329, 70.935289], [-51.662831, 70.9619], [-51.914866, 71.02143], [-51.956899, 71.024115], [-51.882558, 71.061265], [-51.831939, 71.069403], [-51.207875, 70.962226], [-50.997711, 70.965155], [-50.955312, 70.974311], [-50.936147, 70.986884], [-50.930979, 71.0126], [-50.915395, 71.024115], [-51.202138, 71.017646], [-51.312856, 71.042792], [-51.419179, 71.050767], [-51.484771, 71.07038], [-51.470611, 71.082465], [-51.43106, 71.091702], [-51.292144, 71.078681], [-51.380035, 71.093248], [-51.395863, 71.113471], [-51.223297, 71.140774], [-51.223297, 71.14761], [-51.343332, 71.146552], [-51.508778, 71.115302], [-51.67394, 71.110907], [-51.711171, 71.119696], [-51.745961, 71.138373], [-51.842519, 71.137397], [-52.025502, 71.099799], [-52.178293, 71.103461], [-52.242747, 71.126776], [-52.244781, 71.134711], [-52.210194, 71.14761], [-52.114613, 71.16059], [-52.027333, 71.214179], [-51.903188, 71.247748], [-51.81017, 71.257473], [-51.621165, 71.250637], [-51.572377, 71.255927], [-51.528676, 71.274237], [-51.524037, 71.29621], [-51.535756, 71.31269], [-51.66804, 71.336656], [-51.690053, 71.346829], [-51.642242, 71.367336], [-51.749013, 71.360419], [-52.049428, 71.24726], [-52.135325, 71.231513], [-52.233022, 71.195014], [-52.342356, 71.176093], [-52.424306, 71.151679], [-52.516957, 71.148261], [-52.550364, 71.164374], [-52.557729, 71.178616], [-52.536366, 71.206244], [-52.498402, 71.226711], [-52.354807, 71.237006], [-52.29011, 71.255276], [-52.258901, 71.27265], [-52.245595, 71.295356], [-52.288157, 71.348944], [-52.25768, 71.365546], [-52.114491, 71.398017], [-52.044789, 71.403266], [-51.980824, 71.426663], [-51.884267, 71.440375], [-51.612213, 71.456244], [-51.421376, 71.439276], [-51.381581, 71.448635], [-51.395863, 71.462226], [-51.347401, 71.484036], [-51.360951, 71.49372], [-51.682281, 71.509589], [-52.10733, 71.448188], [-52.240224, 71.405707], [-52.333323, 71.396064], [-52.426259, 71.37226], [-52.992258, 71.421332], [-52.992258, 71.428778], [-52.9051, 71.458808], [-52.82787, 71.46894], [-52.700917, 71.525946], [-52.258616, 71.579535], [-52.138783, 71.57217], [-51.781606, 71.602729], [-51.741851, 71.619696], [-51.676015, 71.672553], [-51.654286, 71.69599], [-51.64623, 71.717515], [-51.669545, 71.722968], [-51.662709, 71.729804], [-51.757883, 71.730455], [-51.798207, 71.720526], [-51.830312, 71.68537], [-51.863433, 71.66413], [-51.901438, 71.652655], [-52.166412, 71.613105], [-52.573313, 71.637926], [-52.563303, 71.677558], [-52.567047, 71.688788], [-52.581451, 71.696601], [-52.662994, 71.679755], [-53.265981, 71.709906], [-53.259145, 71.709906], [-53.265981, 71.716742], [-53.213979, 71.732733], [-53.109853, 71.781562], [-53.00182, 71.796942], [-52.89566, 71.835639], [-52.854482, 71.867621], [-52.908762, 71.88227], [-52.916493, 71.894232], [-52.907826, 71.91352], [-52.833974, 71.929023], [-52.780019, 71.976264], [-52.683176, 72.004096], [-52.683176, 72.010932], [-52.745595, 72.020575], [-52.77599, 72.017646], [-52.826731, 71.985907], [-53.017323, 71.930365], [-53.033193, 71.91885], [-53.027821, 71.902899], [-52.984771, 71.847113], [-53.225453, 71.81151], [-53.316396, 71.778998], [-53.364329, 71.777777], [-53.375844, 71.784369], [-53.336008, 71.816474], [-53.321197, 71.857001], [-53.3308, 71.875067], [-53.373118, 71.90412], [-53.38683, 71.93594], [-53.405181, 71.956], [-53.416819, 71.987047], [-53.392649, 72.022935], [-53.399729, 72.041978], [-53.480336, 72.078192], [-53.698313, 72.125922], [-53.72525, 72.148749], [-53.726633, 72.178778], [-53.740224, 72.187445], [-53.777699, 72.27265], [-53.795806, 72.296454], [-53.848785, 72.312649], [-53.851633, 72.330634], [-53.764475, 72.348944], [-53.581125, 72.349514], [-53.553944, 72.354193], [-53.553944, 72.360419], [-53.870229, 72.356635], [-53.920969, 72.349066], [-53.958648, 72.326321], [-53.841176, 72.251899], [-53.848785, 72.217027], [-53.835113, 72.162421], [-53.8131, 72.138658], [-53.779652, 72.121894], [-53.601226, 72.057929], [-53.567698, 72.038886], [-53.502105, 71.96662], [-53.474192, 71.906562], [-53.410512, 71.8664], [-53.398915, 71.845893], [-53.452016, 71.821479], [-53.492543, 71.791815], [-53.639801, 71.747789], [-53.678944, 71.742499], [-53.885487, 71.75434], [-53.917714, 71.73725], [-53.819936, 71.733222], [-53.76887, 71.719672], [-53.732737, 71.696275], [-53.72289, 71.67064], [-53.73705, 71.652167], [-53.765859, 71.640326], [-53.800404, 71.634833], [-53.910553, 71.641059], [-53.982249, 71.675198], [-54.002553, 71.704535], [-54.016713, 71.709906], [-54.081614, 71.717353], [-54.10204, 71.709906], [-54.064198, 71.697903], [-54.046783, 71.67178], [-54.054351, 71.659125], [-54.10204, 71.634833], [-54.080922, 71.634914], [-54.033111, 71.613105], [-53.895741, 71.581488], [-53.865305, 71.565863], [-53.848785, 71.545478], [-53.849762, 71.525377], [-53.871409, 71.483547], [-53.912587, 71.450507], [-53.951772, 71.437812], [-54.077382, 71.424058], [-54.205068, 71.393988], [-54.273183, 71.390774], [-54.3155, 71.37759], [-54.435536, 71.36518], [-54.55016, 71.36994], [-54.625152, 71.351304], [-54.698557, 71.3605], [-54.816029, 71.355902], [-54.943918, 71.39411], [-54.952016, 71.404283], [-54.9381, 71.415107], [-54.980824, 71.436225], [-55.092519, 71.434272], [-55.143625, 71.442369], [-55.205881, 71.481594], [-55.244252, 71.496324], [-55.26769, 71.484036], [-55.219146, 71.447496], [-55.131744, 71.404039], [-55.117502, 71.387641], [-55.136708, 71.380316], [-55.287587, 71.381415], [-55.404205, 71.40766], [-55.453603, 71.432034], [-55.514475, 71.449164], [-55.553822, 71.481391], [-55.662709, 71.597561], [-55.676178, 71.630113], [-55.61913, 71.627997], [-55.569325, 71.641059], [-55.90453, 71.682034], [-55.847524, 71.721991], [-55.787831, 71.743476], [-55.73176, 71.751166], [-55.561879, 71.743476], [-55.575551, 71.771389], [-55.464019, 71.80268], [-55.424672, 71.806138], [-55.284657, 71.768622], [-55.260243, 71.778225], [-55.29247, 71.785468], [-55.370107, 71.825995], [-55.376698, 71.849921], [-55.359446, 71.869696], [-55.330434, 71.883124], [-54.853342, 71.912991], [-54.555247, 72.033759], [-54.527211, 72.053127], [-54.512929, 72.079901], [-54.524973, 72.109768], [-54.495961, 72.126166], [-54.438466, 72.203355], [-54.383209, 72.223212], [-54.408193, 72.232489], [-54.529042, 72.177436], [-54.541086, 72.160631], [-54.526601, 72.134467], [-54.581858, 72.113959], [-54.60912, 72.086086], [-54.644154, 72.070502], [-54.648305, 72.046047], [-54.630238, 72.024604], [-54.641591, 72.0185], [-54.705393, 72.010932], [-54.798818, 71.971381], [-54.920806, 71.932929], [-55.267812, 71.927314], [-55.543446, 71.984931], [-55.60969, 71.990465], [-55.567291, 72.013251], [-55.551747, 72.038153], [-55.434438, 72.059719], [-55.329986, 72.056708], [-55.281361, 72.065579], [-55.411041, 72.086086], [-55.385365, 72.106391], [-55.2329, 72.141303], [-55.088938, 72.189765], [-55.064687, 72.210273], [-54.883453, 72.251166], [-54.946685, 72.277899], [-54.951772, 72.299547], [-54.911366, 72.318752], [-54.90331, 72.333075], [-54.932118, 72.339057], [-54.951772, 72.360419], [-54.882883, 72.369615], [-54.777903, 72.354682], [-54.684885, 72.367174], [-54.703765, 72.374701], [-54.766754, 72.367174], [-54.908274, 72.37995], [-54.97289, 72.408189], [-54.883453, 72.428697], [-55.021637, 72.423651], [-55.02009, 72.408189], [-55.129872, 72.395168], [-55.22411, 72.361762], [-55.287506, 72.374091], [-55.287506, 72.381537], [-55.246002, 72.387763], [-55.246002, 72.395168], [-55.267568, 72.395331], [-55.296864, 72.412421], [-55.308665, 72.428697], [-55.301178, 72.436184], [-55.308665, 72.442939], [-55.304351, 72.460924], [-55.317006, 72.470282], [-55.33373, 72.47016], [-55.357493, 72.429348], [-55.359446, 72.418402], [-55.342152, 72.408189], [-55.357737, 72.403957], [-55.396799, 72.415676], [-55.483062, 72.395168], [-55.570912, 72.410549], [-55.651275, 72.442939], [-55.651275, 72.450385], [-55.512115, 72.515123], [-55.459137, 72.525946], [-55.411041, 72.510647], [-55.338043, 72.509955], [-55.266672, 72.498603], [-55.123036, 72.504381], [-54.888173, 72.469672], [-54.739491, 72.483954], [-54.625559, 72.481838], [-54.561025, 72.470282], [-54.424184, 72.497626], [-54.32433, 72.476386], [-54.293853, 72.483954], [-54.313547, 72.494574], [-54.439198, 72.51317], [-54.540191, 72.497626], [-54.701283, 72.498928], [-54.783844, 72.516059], [-54.800933, 72.552191], [-54.868316, 72.520697], [-55.010569, 72.521715], [-55.016591, 72.535468], [-54.998443, 72.570624], [-54.966461, 72.58454], [-54.90331, 72.593817], [-54.910227, 72.607489], [-54.664662, 72.613756], [-54.636138, 72.62226], [-54.650136, 72.634711], [-54.679311, 72.637356], [-54.741078, 72.626532], [-54.831125, 72.635932], [-54.860911, 72.642768], [-54.863026, 72.655219], [-54.883453, 72.675727], [-54.791005, 72.662055], [-54.772288, 72.665839], [-54.753774, 72.696845], [-54.714223, 72.705471], [-54.627309, 72.688137], [-54.588694, 72.696845], [-54.669016, 72.725775], [-54.753774, 72.737779], [-54.733795, 72.753567], [-54.666982, 72.748603], [-54.615346, 72.767524], [-54.526601, 72.778754], [-54.538645, 72.791734], [-54.587514, 72.802314], [-54.630198, 72.779039], [-54.732777, 72.759182], [-54.866119, 72.764635], [-54.902984, 72.770331], [-54.924428, 72.78559], [-54.8037, 72.813056], [-54.718984, 72.806098], [-54.657948, 72.813788], [-54.602935, 72.83397], [-54.650258, 72.844957], [-54.670277, 72.857164], [-54.684885, 72.874986], [-54.687734, 72.900295], [-54.731028, 72.918524], [-54.814605, 72.936428], [-54.78185, 72.95185], [-54.787262, 72.96369], [-54.848744, 72.970526], [-54.831776, 72.982327], [-54.792144, 72.985541], [-54.781077, 72.998481], [-54.87328, 73.014594], [-55.028798, 72.998236], [-55.054189, 73.011542], [-55.021596, 73.051011], [-55.015696, 73.070624], [-55.164052, 73.018988], [-55.166737, 73.011461], [-55.19815, 73.036038], [-55.260894, 73.042711], [-55.26769, 73.052476], [-55.370107, 73.046291], [-55.465688, 73.072943], [-55.663442, 73.057359], [-55.695383, 73.069525], [-55.712717, 73.087226], [-55.661448, 73.123725], [-55.577463, 73.111884], [-55.471547, 73.109768], [-55.437815, 73.121405], [-55.418528, 73.148098], [-55.350453, 73.1706], [-55.335317, 73.182807], [-55.428375, 73.177314], [-55.459462, 73.189643], [-55.430084, 73.196234], [-55.162587, 73.182196], [-55.141591, 73.190375], [-55.143625, 73.210761], [-55.156239, 73.217475], [-55.219309, 73.223822], [-55.212473, 73.244289], [-55.397776, 73.246772], [-55.459462, 73.25788], [-55.459462, 73.265367], [-55.390004, 73.302639], [-55.333567, 73.308254], [-55.314849, 73.326239], [-55.349192, 73.325629], [-55.370107, 73.333686], [-55.249664, 73.392035], [-55.176137, 73.362494], [-55.095123, 73.354153], [-55.089711, 73.367906], [-55.142974, 73.406195], [-55.519032, 73.472602], [-55.534576, 73.484442], [-55.526031, 73.498277], [-55.534779, 73.51081], [-55.561879, 73.518622], [-55.665151, 73.585028], [-55.712229, 73.565619], [-55.773915, 73.584784], [-55.794667, 73.600531], [-55.753733, 73.614814], [-55.772572, 73.626899], [-55.877919, 73.614814], [-55.956166, 73.620917], [-56.067738, 73.653022], [-55.950917, 73.658637], [-55.843088, 73.683092], [-55.890492, 73.696234], [-55.99592, 73.679918], [-56.041086, 73.690579], [-56.041086, 73.696723], [-56.000315, 73.707465], [-55.911366, 73.724066], [-55.952301, 73.737738], [-55.967356, 73.761786], [-55.962514, 73.765611], [-55.91454, 73.761461], [-55.850168, 73.729153], [-55.784332, 73.725246], [-55.734202, 73.70718], [-55.651682, 73.701361], [-55.629547, 73.704169], [-55.637034, 73.710395], [-55.61266, 73.721137], [-55.746897, 73.724066], [-55.774159, 73.745185], [-55.818878, 73.759385], [-55.808258, 73.765611], [-55.871002, 73.786119], [-55.945465, 73.861233], [-55.780385, 73.855048], [-55.69933, 73.841376], [-55.629547, 73.855048], [-55.644765, 73.875474], [-55.670155, 73.885321], [-55.756337, 73.892768], [-55.817291, 73.911607], [-55.884877, 73.919094], [-56.007192, 73.956773], [-56.081532, 73.961127], [-56.109975, 73.970445], [-56.109975, 73.99844], [-56.082021, 74.005276], [-56.124257, 74.012112], [-56.095937, 74.020819], [-55.993886, 74.012112], [-55.963612, 74.01789], [-55.97053, 74.027086], [-55.997426, 74.035631], [-56.331288, 74.044501], [-56.363189, 74.053046], [-56.361684, 74.063666], [-56.374827, 74.067694], [-56.41161, 74.067328], [-56.358795, 74.083075], [-56.242787, 74.093085], [-56.19872, 74.121283], [-56.29898, 74.111558], [-56.316029, 74.121283], [-56.264394, 74.146552], [-56.248036, 74.162421], [-56.260162, 74.176581], [-56.171376, 74.192532], [-56.163645, 74.247748], [-56.134755, 74.260932], [-56.124257, 74.279608], [-56.179555, 74.284735], [-56.256947, 74.237942], [-56.563344, 74.164984], [-57.314117, 74.102688], [-57.322174, 74.111721], [-57.31843, 74.119208], [-57.288319, 74.142401], [-57.205719, 74.149115], [-57.131825, 74.136705], [-57.089426, 74.142401], [-57.148101, 74.162787], [-57.158315, 74.176581], [-57.040598, 74.171454], [-56.909779, 74.20067], [-56.703033, 74.203843], [-56.644399, 74.225002], [-56.582916, 74.231147], [-56.603383, 74.244818], [-56.321929, 74.287746], [-56.301747, 74.306301], [-56.370961, 74.31269], [-56.582916, 74.292629], [-56.531728, 74.324774], [-56.640533, 74.328925], [-56.713246, 74.347846], [-56.67162, 74.356024], [-56.582143, 74.349799], [-56.502553, 74.367255], [-56.154652, 74.369086], [-56.137196, 74.374701], [-56.130442, 74.388861], [-56.171702, 74.409898], [-56.503774, 74.416164], [-56.561879, 74.40412], [-56.758656, 74.444485], [-56.795237, 74.444037], [-56.795237, 74.450873], [-56.613637, 74.450873], [-56.295522, 74.484361], [-56.168324, 74.477525], [-56.144765, 74.491889], [-56.241933, 74.497707], [-56.260162, 74.512356], [-56.255035, 74.529853], [-56.191884, 74.55329], [-56.221791, 74.562649], [-56.421864, 74.55329], [-56.480784, 74.575181], [-56.571523, 74.587836], [-56.603383, 74.607896], [-56.500559, 74.626532], [-56.473053, 74.648871], [-56.702301, 74.644721], [-56.767893, 74.663153], [-56.754628, 74.673489], [-56.764027, 74.679145], [-56.802073, 74.683661], [-56.877431, 74.711615], [-56.949208, 74.698717], [-56.96996, 74.675198], [-56.991567, 74.672431], [-57.014516, 74.677802], [-57.027943, 74.690497], [-57.014272, 74.697333], [-57.075795, 74.711615], [-57.034779, 74.731431], [-57.054677, 74.745266], [-57.158315, 74.738267], [-57.13036, 74.76557], [-57.193023, 74.773017], [-57.114613, 74.800849], [-57.045766, 74.77265], [-56.987213, 74.76557], [-56.946034, 74.786078], [-56.867909, 74.805894], [-56.795237, 74.813951], [-56.817779, 74.836127], [-56.85497, 74.848456], [-56.986969, 74.85456], [-57.000722, 74.868109], [-56.994496, 74.903388], [-57.057851, 74.921942], [-57.292592, 74.907416], [-57.318715, 74.913967], [-57.338206, 74.938381], [-57.391021, 74.944322], [-57.396799, 74.956855], [-57.552805, 74.979967], [-57.694203, 75.01968], [-57.84675, 75.019721], [-57.877797, 75.02676], [-57.905141, 75.050605], [-57.973012, 75.059272], [-58.056386, 75.058905], [-58.121409, 75.046698], [-58.141591, 75.051825], [-58.159495, 75.067288], [-58.146148, 75.083808], [-58.076975, 75.087714], [-58.1315, 75.108222], [-57.940663, 75.150946], [-57.922719, 75.163398], [-57.939524, 75.180243], [-58.012318, 75.198065], [-58.169097, 75.196723], [-58.241444, 75.211249], [-58.246816, 75.227973], [-58.330149, 75.252183], [-58.323964, 75.266506], [-58.389394, 75.283677], [-58.425201, 75.29914], [-58.439361, 75.314276], [-58.428619, 75.325385], [-58.350942, 75.321234], [-58.302846, 75.334174], [-58.364898, 75.355211], [-58.346425, 75.3758], [-58.27599, 75.388414], [-58.247629, 75.403022], [-58.368804, 75.410834], [-58.432037, 75.398668], [-58.517486, 75.347235], [-58.700103, 75.348456], [-58.686594, 75.366685], [-58.659535, 75.377346], [-58.526845, 75.406562], [-58.417633, 75.414211], [-58.349762, 75.43773], [-58.239166, 75.436672], [-58.206654, 75.444037], [-58.220326, 75.458319], [-58.166737, 75.500434], [-58.165679, 75.519721], [-58.189931, 75.534369], [-58.233062, 75.544094], [-58.395172, 75.556627], [-58.426137, 75.566107], [-58.415517, 75.591742], [-58.392445, 75.607489], [-58.310292, 75.643256], [-58.338612, 75.656887], [-58.379506, 75.660102], [-58.520253, 75.649156], [-58.584055, 75.663723], [-58.59435, 75.679755], [-58.5537, 75.700751], [-58.429189, 75.702582], [-58.405914, 75.71894], [-58.447621, 75.73135], [-58.713368, 75.735256], [-58.794911, 75.719184], [-59.041615, 75.701361], [-59.076812, 75.711493], [-59.063222, 75.71894], [-59.084299, 75.725775], [-59.057037, 75.74372], [-59.067535, 75.7626], [-59.098866, 75.775377], [-59.207916, 75.759955], [-59.282867, 75.766099], [-59.220855, 75.783637], [-59.221506, 75.80093], [-59.23648, 75.813218], [-59.303375, 75.814521], [-59.223785, 75.836249], [-59.139516, 75.841864], [-59.182769, 75.873603], [-59.272206, 75.880113], [-59.503651, 75.866767], [-59.570302, 75.84809], [-59.640289, 75.812445], [-59.657216, 75.828315], [-59.668691, 75.828843], [-59.713531, 75.803412], [-59.772939, 75.801418], [-59.801869, 75.80683], [-59.814687, 75.819485], [-59.796864, 75.841864], [-59.676503, 75.897528], [-59.611236, 75.903225], [-59.59142, 75.916938], [-59.642323, 75.927191], [-59.71227, 75.96308], [-59.755849, 75.972235], [-59.843984, 75.944281], [-59.916371, 75.938463], [-59.912953, 75.923774], [-59.993479, 75.929145], [-60.0, 75.93148682675667], [-60.0, 75.954036], [-59.988637, 75.965399], [-60.0, 75.96693739832581], [-60.0, 81.942699408651], [-59.752594, 81.925523], [-59.60558, 81.893622], [-59.370473, 81.899115], [-58.83849, 81.86225], [-58.790151, 81.849311], [-58.768951, 81.82746], [-58.757314, 81.799465], [-58.666575, 81.769436], [-58.730702, 81.755194], [-58.75536, 81.739936], [-58.754709, 81.714179], [-58.72704, 81.695136], [-58.681386, 81.684027], [-57.941884, 81.594672], [-57.644928, 81.591295], [-57.542307, 81.56269], [-57.535959, 81.556627], [-57.54186, 81.542914], [-57.221669, 81.48843], [-57.178782, 81.475246], [-57.200307, 81.465888], [-57.281158, 81.461005], [-57.241363, 81.436021], [-57.190826, 81.424994], [-56.754262, 81.392646], [-56.541249, 81.335924], [-56.452545, 81.33808], [-56.463735, 81.348619], [-56.58316, 81.394273], [-57.065541, 81.439765], [-57.096832, 81.453518], [-57.095326, 81.476142], [-57.180002, 81.499335], [-57.171986, 81.522406], [-57.200592, 81.534247], [-57.333363, 81.55329], [-57.534332, 81.609117], [-57.678538, 81.622626], [-57.747548, 81.650946], [-58.137766, 81.666978], [-58.124745, 81.68008], [-58.147328, 81.695461], [-58.227162, 81.714179], [-58.316518, 81.748969], [-58.415761, 81.81566], [-58.474192, 81.830878], [-58.458363, 81.84394], [-58.457509, 81.859931], [-58.467926, 81.873521], [-58.485951, 81.879299], [-58.617096, 81.893297], [-58.822377, 81.929023], [-58.99177, 81.933173], [-59.426625, 81.979682], [-59.467885, 82.002834], [-58.610911, 82.105211], [-58.330149, 82.105211], [-58.344472, 82.119534], [-58.312896, 82.130357], [-57.713246, 82.167304], [-57.029612, 82.188788], [-56.952626, 82.207587], [-56.859853, 82.204169], [-56.736399, 82.225165], [-56.466461, 82.235541], [-56.316029, 82.201402], [-56.342763, 82.187161], [-56.307525, 82.166449], [-56.261464, 82.16592], [-56.214955, 82.177802], [-56.187408, 82.19538], [-56.197621, 82.208889], [-56.098378, 82.258612], [-55.98644, 82.262885], [-55.958892, 82.272773], [-55.271637, 82.249579], [-55.226715, 82.235541], [-55.266184, 82.227444], [-55.327789, 82.234076], [-55.324941, 82.203843], [-55.191314, 82.187161], [-55.112538, 82.157172], [-55.09203, 82.173774], [-55.105621, 82.189439], [-55.226715, 82.215074], [-55.164052, 82.235541], [-55.25536, 82.275295], [-55.355824, 82.290229], [-55.575551, 82.275051], [-55.602854, 82.282701], [-55.566518, 82.291978], [-55.34789, 82.299872], [-55.250478, 82.32099], [-54.440745, 82.372707], [-54.091908, 82.320461], [-54.046783, 82.290229], [-53.959096, 82.274115], [-53.887563, 82.244452], [-53.847524, 82.237209], [-53.557037, 82.116116], [-53.553944, 82.064276], [-53.594716, 82.049954], [-53.622874, 82.026068], [-53.613678, 82.013007], [-53.553944, 81.988511], [-53.517079, 81.961493], [-53.503489, 81.93651], [-53.509999, 81.910224], [-53.587717, 81.812812], [-53.766225, 81.745266], [-53.776601, 81.733791], [-53.773061, 81.717922], [-53.821523, 81.700507], [-53.77599, 81.671129], [-53.793568, 81.660142], [-53.779897, 81.639716], [-53.807851, 81.588202], [-53.804026, 81.56623], [-53.792795, 81.556098], [-53.682973, 81.526313], [-53.613678, 81.515326], [-53.472035, 81.508734], [-53.559926, 81.527574], [-53.650217, 81.536078], [-53.650217, 81.542914], [-53.485707, 81.550279], [-53.464589, 81.563422], [-53.495269, 81.576077], [-53.51773, 81.599351], [-53.553944, 81.652777], [-53.540842, 81.672187], [-53.464752, 81.688788], [-53.271108, 81.763739], [-53.080963, 81.796129], [-52.930165, 81.865058], [-52.930572, 81.906806], [-52.953236, 81.958157], [-53.023752, 82.008043], [-53.014272, 82.021226], [-52.964263, 82.036322], [-52.771311, 82.033149], [-52.71052, 82.018988], [-52.519276, 82.00967], [-52.388987, 81.981676], [-52.182362, 81.978217], [-52.050526, 81.942694], [-51.38622, 81.904853], [-50.792551, 81.803616], [-50.738026, 81.781724], [-50.286977, 81.724311], [-50.223378, 81.700507], [-50.217152, 81.660142], [-50.203359, 81.648586], [-49.921498, 81.611762], [-49.61384, 81.645941], [-49.871816, 81.662543], [-49.897817, 81.676663], [-49.901235, 81.707953], [-49.927358, 81.718411], [-50.510243, 81.789455], [-50.641713, 81.830878], [-50.641713, 81.837714], [-50.621205, 81.84455], [-50.645416, 81.858059], [-50.737294, 81.858832], [-50.890696, 81.878119], [-51.066274, 81.933905], [-51.036122, 81.956366], [-49.829091, 81.871161], [-49.756988, 81.88345], [-49.651601, 81.885443], [-49.475575, 81.927151], [-49.435699, 81.92768], [-49.464508, 81.947211], [-50.581288, 82.153998], [-50.731353, 82.21015], [-50.758412, 82.235541], [-50.805531, 82.310696], [-50.814036, 82.341702], [-50.849436, 82.365627], [-51.049428, 82.437812], [-51.06078, 82.445624], [-51.060658, 82.476549], [-51.120839, 82.496283], [-51.107249, 82.509914], [-49.011342, 82.454535], [-48.914052, 82.43183], [-48.73526, 82.35814], [-47.610707, 82.232245], [-47.557525, 82.208238], [-47.605865, 82.180365], [-47.564036, 82.168036], [-47.231272, 82.170356], [-46.008168, 82.0362], [-45.967275, 82.015815], [-46.008901, 81.995347], [-45.981597, 81.977729], [-45.948069, 81.975531], [-45.97057, 81.963202], [-46.050445, 81.954413], [-46.029449, 81.946682], [-45.926381, 81.946438], [-45.39977, 81.867377], [-45.341786, 81.834133], [-45.249379, 81.819281], [-45.156077, 81.789862], [-44.782379, 81.776842], [-44.662831, 81.754381], [-44.631581, 81.762641], [-44.680002, 81.776842], [-44.651682, 81.785834], [-44.302724, 81.814154], [-44.257232, 81.836737], [-44.172922, 81.837714], [-44.355133, 81.846503], [-44.412506, 81.858832], [-44.337392, 81.865058], [-44.419301, 81.879299], [-44.384511, 81.885484], [-44.440907, 81.894924], [-44.555735, 81.887641], [-44.611073, 81.899807], [-44.556508, 81.913479], [-44.597808, 81.923651], [-44.687164, 81.927802], [-44.727162, 81.940131], [-44.691558, 81.946967], [-44.519765, 81.936998], [-44.50121, 81.940131], [-44.460846, 81.968085], [-44.513661, 81.982733], [-44.884755, 81.979397], [-44.926381, 81.995347], [-44.905873, 82.002834], [-44.940053, 82.043769], [-44.728179, 82.047187], [-44.398793, 82.105211], [-44.507069, 82.107978], [-44.564849, 82.118476], [-44.650787, 82.152411], [-44.780873, 82.182115], [-44.793853, 82.191962], [-44.787506, 82.203192], [-44.70226, 82.257799], [-44.562856, 82.293402], [-44.232533, 82.31981], [-43.661, 82.279486], [-43.610341, 82.267768], [-42.747467, 82.254543], [-42.678863, 82.235541], [-42.699371, 82.215074], [-42.302113, 82.215074], [-42.329498, 82.231757], [-43.075551, 82.297024], [-43.176015, 82.277981], [-43.235585, 82.278022], [-43.835439, 82.341986], [-43.864329, 82.353339], [-43.884877, 82.372748], [-43.850331, 82.389879], [-43.727203, 82.406887], [-43.764027, 82.418891], [-43.934153, 82.433417], [-44.019643, 82.451483], [-44.194936, 82.463528], [-44.309071, 82.487779], [-44.43456, 82.495063], [-44.450307, 82.509914], [-44.540842, 82.525214], [-44.592437, 82.562649], [-45.009145, 82.618883], [-45.098297, 82.649604], [-45.292714, 82.678534], [-45.382883, 82.681952], [-45.66275, 82.726142], [-45.744211, 82.753567], [-45.769276, 82.769965], [-45.746449, 82.777004], [-45.200185, 82.783637], [-45.09435, 82.797919], [-44.961415, 82.768866], [-42.048248, 82.756334], [-42.145172, 82.727932], [-42.171783, 82.708564], [-41.861073, 82.660956], [-41.829091, 82.641669], [-41.801259, 82.611721], [-41.865346, 82.574164], [-41.873036, 82.554999], [-41.723459, 82.48428], [-41.614735, 82.479682], [-41.588979, 82.488837], [-41.555491, 82.533515], [-41.584706, 82.55329], [-41.673899, 82.585395], [-41.637359, 82.5987], [-41.65099, 82.605536], [-41.615834, 82.636664], [-41.631459, 82.653266], [-41.719309, 82.674384], [-41.77595, 82.704779], [-41.898061, 82.72899], [-41.865875, 82.747545], [-41.818471, 82.752916], [-41.577545, 82.747301], [-41.508778, 82.732367], [-41.257558, 82.711737], [-41.209381, 82.700832], [-41.177398, 82.680609], [-41.184926, 82.674384], [-40.749745, 82.616767], [-40.630849, 82.575141], [-40.22761, 82.567532], [-40.20759, 82.561347], [-40.218495, 82.550238], [-40.203684, 82.537828], [-40.122914, 82.509914], [-40.005605, 82.488837], [-40.083608, 82.451239], [-40.081899, 82.427395], [-40.054799, 82.412055], [-40.0, 82.4012898833654], [-40.0, 70.0], [-50.25968306023774, 70.0], [-50.209706, 70.01675]]], [[[-51.182281, 70.003079], [-51.13268, 70.004828], [-51.087026, 70.037177], [-51.034739, 70.03144], [-50.986687975196745, 70.0], [-51.18876005605645, 70.0], [-51.182281, 70.003079]]], [[[-40.009511, 82.563544], [-40.009348, 82.574449], [-40.0, 82.57925790175763], [-40.0, 82.55842074244144], [-40.009511, 82.563544]]], [[[-40.317209, 82.730699], [-40.579457, 82.716986], [-40.812408, 82.754543], [-40.927561, 82.759589], [-40.976552, 82.774359], [-44.705556, 82.85578], [-44.768137, 82.866197], [-44.831125, 82.889472], [-45.062978, 82.913316], [-45.062978, 82.907172], [-44.86498, 82.872382], [-44.86498, 82.866197], [-44.966298, 82.845038], [-45.634389, 82.877509], [-45.679921, 82.872382], [-45.652659, 82.85871], [-45.652659, 82.851955], [-45.974436, 82.842841], [-46.557525, 82.89289], [-46.529652, 82.913316], [-46.89273, 82.961819], [-46.845204, 82.97602], [-45.981597, 82.920844], [-46.225575, 82.981431], [-46.700917, 83.002753], [-46.680287, 83.018704], [-46.642242, 83.024319], [-46.516184, 83.02147], [-46.500234, 83.029202], [-46.509145, 83.051174], [-46.430002, 83.062079], [-46.110829, 83.062201], [-46.040395, 83.096625], [-45.970693, 83.096503], [-45.784779, 83.053534], [-45.121693, 82.987616], [-45.077219, 82.961819], [-45.111562, 82.94245], [-45.105092, 82.935085], [-44.734609, 82.968573], [-43.515289, 82.921454], [-43.48705, 82.913316], [-43.485341, 82.92064], [-43.363515, 82.920844], [-43.363515, 82.927069], [-45.120432, 83.036689], [-45.132192, 83.043199], [-45.118235, 83.051174], [-45.200185, 83.05801], [-45.199818, 83.069729], [-45.227162, 83.07689], [-45.328481, 83.081855], [-45.518422, 83.122748], [-45.516021, 83.136461], [-45.486399, 83.146918], [-45.406565, 83.158596], [-45.378896, 83.153551], [-45.401357, 83.149115], [-45.401194, 83.140326], [-45.364613, 83.126207], [-45.227651, 83.136054], [-45.131215, 83.16706], [-45.077219, 83.153551], [-44.724355, 83.104926], [-44.680002, 83.112616], [-44.714101, 83.126207], [-44.672515, 83.133043], [-44.672515, 83.13996], [-44.74767, 83.153551], [-44.705922, 83.171942], [-44.646881, 83.175116], [-43.74767, 83.126207], [-43.754547, 83.126207], [-43.698476, 83.117418], [-43.666249, 83.11872], [-43.637807, 83.135972], [-42.850209, 83.099555], [-42.879384, 83.110297], [-44.000966, 83.201972], [-42.891184, 83.208197], [-42.891184, 83.215644], [-43.039459, 83.211737], [-43.082916, 83.22248], [-42.979888, 83.228664], [-42.979888, 83.23607], [-43.322581, 83.23607], [-43.322581, 83.242906], [-43.248118, 83.249742], [-43.261098, 83.263414], [-42.665842, 83.281195], [-42.435455, 83.228949], [-42.117299, 83.242499], [-42.023508, 83.224555], [-41.92398, 83.217597], [-41.835846, 83.197943], [-41.740712, 83.194648], [-41.705678, 83.174018], [-41.88329, 83.122992], [-41.931549, 83.092108], [-41.669545, 83.13996], [-41.365102, 83.118842], [-41.124867, 83.061916], [-41.020131, 83.054674], [-40.738678, 83.005316], [-40.690297, 82.986518], [-40.0, 82.97290752969619], [-40.0, 82.69790779896181], [-40.317209, 82.730699]]], [[[-54.761342, 70.035102], [-54.794097, 70.051459], [-54.831939, 70.085598], [-54.841908, 70.174954], [-54.829172, 70.200832], [-54.756907, 70.247016], [-54.648061, 70.265204], [-54.453033, 70.3133], [-54.329742, 70.324042], [-53.903432, 70.290432], [-53.772043, 70.26081], [-53.490346, 70.242499], [-53.335317, 70.205878], [-53.265981, 70.202297], [-53.199208, 70.173041], [-53.121938, 70.153876], [-53.031484, 70.119045], [-52.932281, 70.04385], [-52.841732090175796, 70.0], [-54.62889962117227, 70.0], [-54.761342, 70.035102]]], [[[-54.85676, 70.368964], [-54.926503, 70.374742], [-54.997467, 70.411322], [-55.016835, 70.438544], [-55.027455, 70.486274], [-54.798655, 70.457994], [-54.682118, 70.413967], [-54.654205, 70.38288], [-54.85676, 70.368964]]], [[[-51.624745, 70.717719], [-51.505116, 70.674628], [-51.533803, 70.654975], [-51.583404, 70.658149], [-51.861318, 70.723049], [-51.84732, 70.743557], [-51.820424, 70.750393], [-51.624745, 70.717719]]], [[[-51.778066, 70.936021], [-51.669545, 70.894355], [-51.587758, 70.888251], [-51.565826, 70.879706], [-51.593821, 70.859605], [-51.665354, 70.845526], [-51.841135, 70.852769], [-51.930247, 70.8664], [-52.095204, 70.860663], [-52.142486, 70.873236], [-52.161366, 70.891669], [-52.135732, 70.952704], [-52.113922, 70.969631], [-52.064524, 70.978583], [-51.938303, 70.974311], [-51.778066, 70.936021]]], [[[-53.963775, 71.102118], [-53.985707, 71.117743], [-53.978505, 71.14761], [-53.921295, 71.187567], [-53.806264, 71.240424], [-53.74649, 71.25609], [-53.647043, 71.313951], [-53.611806, 71.321723], [-53.431142, 71.19245], [-53.391347, 71.154853], [-53.382069, 71.136623], [-53.384023, 71.117743], [-53.422353, 71.075832], [-53.4794, 71.043118], [-53.512441, 71.037746], [-53.667714, 71.031684], [-53.963775, 71.102118]]], [[[-52.603424, 71.237291], [-52.632232, 71.21955], [-52.639516, 71.20718], [-52.639068, 71.178616], [-52.66161, 71.168402], [-52.957428, 71.154446], [-53.11974, 71.212836], [-53.17748, 71.327623], [-53.169749, 71.346259], [-52.971791, 71.387152], [-52.409088, 71.353664], [-52.388051, 71.345649], [-52.35143, 71.309027], [-52.327504, 71.298407], [-52.351959, 71.276353], [-52.396962, 71.266506], [-52.484853, 71.264309], [-52.603424, 71.237291]]], [[[-53.405629, 71.546698], [-53.437245, 71.558498], [-53.454091, 71.579413], [-53.478261, 71.655341], [-53.398671, 71.674384], [-53.139394, 71.671088], [-53.055491, 71.659329], [-52.994781, 71.667792], [-52.759511, 71.661526], [-52.809316, 71.637152], [-52.909332, 71.609565], [-53.073598, 71.586615], [-53.101471, 71.57217], [-53.098215, 71.552314], [-53.112457, 71.540961], [-53.162953, 71.531195], [-53.22936, 71.530178], [-53.405629, 71.546698]]], [[[-55.561025, 71.93358], [-55.463612, 71.917711], [-55.411041, 71.894232], [-55.449086, 71.86286], [-55.503082, 71.8369], [-55.560862, 71.821438], [-55.69815, 71.832668], [-55.78303, 71.876166], [-55.808258, 71.881252], [-55.787099, 71.899888], [-55.561025, 71.93358]]], [[[-55.027455, 72.299547], [-55.088938, 72.312649], [-55.103505, 72.305854], [-55.129872, 72.271674], [-55.219309, 72.251166], [-55.267079, 72.206488], [-55.376129, 72.167222], [-55.486195, 72.148749], [-55.555084, 72.175442], [-55.647043, 72.179023], [-55.682932, 72.190009], [-55.671742, 72.217027], [-55.637603, 72.233303], [-55.449859, 72.258857], [-55.434641, 72.267971], [-55.435699, 72.280666], [-55.459869, 72.283149], [-55.531646, 72.275214], [-55.602854, 72.277899], [-55.627187, 72.283393], [-55.633127, 72.294379], [-55.623931, 72.302639], [-55.418528, 72.292141], [-55.30663, 72.325588], [-55.199818, 72.335191], [-55.133046, 72.374091], [-55.013173, 72.381537], [-55.016835, 72.345445], [-55.027008, 72.32685], [-55.047963, 72.318834], [-55.027455, 72.299547]]], [[[-55.877187, 72.709906], [-55.85676, 72.716702], [-55.903066, 72.723456], [-55.926829, 72.717231], [-55.938629, 72.70303], [-55.935658, 72.689154], [-55.897694, 72.662055], [-55.972808, 72.675727], [-56.062164, 72.655219], [-56.153798, 72.660956], [-56.178212, 72.668891], [-56.210194, 72.698676], [-56.225982, 72.70303], [-56.225982, 72.709906], [-56.195465, 72.716051], [-56.127187, 72.713121], [-56.07079, 72.730373], [-55.972808, 72.744574], [-56.000111, 72.765082], [-55.972035, 72.773139], [-55.863881, 72.771308], [-55.746897, 72.78559], [-55.73941, 72.778754], [-55.743886, 72.769477], [-55.684804, 72.78559], [-55.640248, 72.775946], [-55.690907, 72.764635], [-55.697581, 72.755439], [-55.684804, 72.744574], [-55.726226, 72.702826], [-55.802113, 72.689399], [-55.877187, 72.709906]]], [[[-55.849273, 72.614244], [-55.834584, 72.63939], [-55.791005, 72.665839], [-55.678782, 72.676581], [-55.636342, 72.689032], [-55.60969, 72.709906], [-55.607249, 72.759019], [-55.50829, 72.767157], [-55.404205, 72.78559], [-55.378041, 72.804267], [-55.246571, 72.81977], [-55.140736, 72.799872], [-55.109446, 72.806098], [-55.199452, 72.817328], [-55.226715, 72.826565], [-55.2329, 72.840237], [-55.198842, 72.846991], [-54.984609, 72.82331], [-54.965443, 72.812323], [-55.068471, 72.778754], [-55.090688, 72.735785], [-55.153432, 72.718817], [-55.223785, 72.711859], [-55.280751, 72.686225], [-55.289784, 72.678656], [-55.294342, 72.655219], [-55.35733, 72.631659], [-55.370107, 72.614244], [-55.367055, 72.589911], [-55.396352, 72.587795], [-55.403635, 72.597113], [-55.396799, 72.607489], [-55.426829, 72.61636], [-55.466217, 72.583401], [-55.541127, 72.555609], [-55.589223, 72.586982], [-55.47997, 72.614244], [-55.589223, 72.62051], [-55.648061, 72.653713], [-55.671742, 72.648424], [-55.678578, 72.627916], [-55.693105, 72.619615], [-55.849273, 72.614244]]], [[[-55.520904, 73.052476], [-55.159332, 72.997748], [-55.100413, 72.980618], [-55.068471, 72.956855], [-55.096547, 72.954779], [-55.133616, 72.93244], [-55.299713, 72.922187], [-55.329091, 72.929633], [-55.316396, 72.945299], [-55.324452, 72.956855], [-55.355824, 72.970526], [-55.349517, 72.9855], [-55.355824, 72.998481], [-55.364735, 72.996731], [-55.376943, 72.977362], [-55.403188, 72.96662], [-55.500478, 72.9501], [-55.596059, 72.977362], [-55.671295, 72.986396], [-55.69225, 72.998481], [-55.60969, 73.036038], [-55.520904, 73.052476]]], [[[-56.007639, 73.560614], [-55.967763, 73.578192], [-55.945465, 73.573879], [-55.899037, 73.540025], [-55.623362, 73.49136], [-55.582387, 73.464016], [-55.490346, 73.452704], [-55.472524, 73.429877], [-55.58967, 73.416002], [-55.60969, 73.395087], [-55.589223, 73.381496], [-55.637034, 73.381496], [-55.67455, 73.402533], [-55.732004, 73.391181], [-55.753733, 73.395087], [-55.735504, 73.413723], [-55.672231, 73.411851], [-55.647572, 73.419257], [-55.640248, 73.437445], [-55.656239, 73.446479], [-55.698476, 73.449693], [-55.675282, 73.462063], [-55.664296, 73.484442], [-55.752431, 73.464097], [-55.780385, 73.470852], [-55.784088, 73.484442], [-55.885813, 73.500312], [-55.897694, 73.512397], [-55.871002, 73.518622], [-55.897857, 73.529608], [-55.993886, 73.525458], [-56.116811, 73.559556], [-56.072133, 73.577704], [-56.007639, 73.560614]]], [[[-56.163808, 73.824368], [-56.246816, 73.792385], [-56.317006, 73.786607], [-56.3485, 73.789944], [-56.357004, 73.806586], [-56.316029, 73.83393], [-56.335317, 73.839911], [-56.616689, 73.816148], [-56.658681, 73.818834], [-56.692779, 73.841376], [-56.631337, 73.861233], [-56.657135, 73.879096], [-56.744781, 73.868354], [-56.77477, 73.88231], [-56.623891, 73.923285], [-56.591298, 73.913642], [-55.984853, 73.855862], [-55.964182, 73.846625], [-55.954579, 73.832994], [-55.965932, 73.814032], [-55.998443, 73.805162], [-56.127065, 73.827094], [-56.163808, 73.824368]]], [[[-56.726918, 74.498033], [-57.093902, 74.488471], [-57.19518, 74.473334], [-57.509511, 74.481391], [-57.556223, 74.491889], [-57.556223, 74.498033], [-56.847768, 74.538723], [-56.767893, 74.557074], [-56.71288, 74.560736], [-56.619496, 74.551988], [-56.527699, 74.532782], [-56.548818, 74.519761], [-56.466868, 74.512356], [-56.484731, 74.499701], [-56.726918, 74.498033]]], [[[-53.34911, 82.201402], [-53.339467, 82.258734], [-53.244985, 82.29914], [-53.0537, 82.331122], [-52.786773, 82.317532], [-52.554067, 82.276557], [-52.601186, 82.26911], [-52.529205, 82.219428], [-52.465199, 82.199897], [-51.231435, 82.013983], [-51.189768, 81.995347], [-51.294667, 81.978705], [-52.105214, 81.995429], [-52.208119, 82.018215], [-52.533803, 82.047919], [-52.611073, 82.065253], [-53.017486, 82.088568], [-53.087026, 82.106106], [-53.190094, 82.112372], [-53.231842, 82.131903], [-53.239247, 82.153632], [-53.34911, 82.201402]]], [[[-44.45401, 82.40119], [-44.422109, 82.38467], [-44.426137, 82.358466], [-44.527699, 82.333441], [-44.710927, 82.316148], [-45.070424, 82.222561], [-45.036285, 82.197455], [-44.905263, 82.16356], [-44.734609, 82.098375], [-44.770904, 82.079779], [-44.825063, 82.070502], [-45.035024, 82.059272], [-45.088124, 82.064032], [-45.307525, 82.128648], [-45.323638, 82.153632], [-45.423411, 82.184475], [-46.875966, 82.360012], [-46.997304, 82.390855], [-47.010081, 82.406887], [-47.002594, 82.413764], [-47.043365, 82.444892], [-47.110748, 82.483832], [-47.180735, 82.511786], [-47.229115, 82.509914], [-47.252797, 82.520168], [-47.365712, 82.537258], [-47.565094, 82.615058], [-47.749867, 82.625312], [-47.698069, 82.643785], [-46.859242, 82.64647], [-46.786244, 82.640123], [-46.76301, 82.64647], [-46.78246, 82.658759], [-46.859242, 82.674384], [-46.324208, 82.678534], [-45.316803, 82.564521], [-45.323638, 82.550238], [-45.213735, 82.550238], [-44.896148, 82.499498], [-44.83019, 82.475775], [-44.45401, 82.40119]]], [[[-48.330922, 82.791897], [-48.400014, 82.809394], [-48.414052, 82.82803], [-48.41275, 82.852769], [-48.392242, 82.87816], [-48.287221, 82.896633], [-47.506744, 82.828355], [-47.442047, 82.810981], [-47.480092, 82.791693], [-47.533355, 82.783922], [-48.330922, 82.791897]]], [[[-40.047841, 83.071601], [-40.359934, 83.084906], [-40.396596, 83.099555], [-40.38976, 83.112616], [-40.513661, 83.138495], [-40.54662, 83.162421], [-40.53067, 83.167873], [-40.0, 83.16021078805362], [-40.0, 83.06438889432826], [-40.047841, 83.071601]]], [[[-40.052724, 83.027248], [-40.0, 83.01916130865887], [-40.0, 82.9898692446929], [-40.703684, 83.028795], [-40.903188, 83.071845], [-41.062082, 83.08397], [-41.156972, 83.118801], [-41.44872, 83.161444], [-41.486562, 83.160386], [-41.479115, 83.167873], [-41.486562, 83.167873], [-41.429758, 83.178168], [-40.858062, 83.172593], [-40.808095, 83.160386], [-40.719309, 83.119289], [-40.63683, 83.112616], [-40.486684, 83.07689], [-40.264638, 83.070502], [-40.103342, 83.056138], [-40.052724, 83.027248]]], [[[-40.049916, 83.261298], [-40.629994, 83.270901], [-40.664052, 83.283515], [-40.667348, 83.302558], [-40.64859, 83.322699], [-40.616322, 83.338568], [-40.565826, 83.347317], [-40.403432, 83.338568], [-40.403432, 83.345364], [-40.540639, 83.359036], [-40.487416, 83.365912], [-40.296051, 83.350491], [-40.225657, 83.330512], [-40.0, 83.29942420441418], [-40.0, 83.25036448165248], [-40.049916, 83.261298]]]]}}]}