{"type": "FeatureCollection", "features": [{"type": "Feature", "properties": {"name": "Oecusse", "country": "TLS"}, "geometry": {"type": "Polygon", "coordinates": [[[124.0430177, -9.3359763], [124.0437493, -9.3443865], [124.0481463, -9.3446225], [124.0496863, -9.3508165], [124.0565923, -9.3515445], [124.0641053, -9.3671325], [124.0737883, -9.3747475], [124.0970633, -9.4082845], [124.1105033, -9.4101185], [124.1128713, -9.4067065], [124.1161723, -9.4101535], [124.1201493, -9.4069115], [124.1344613, -9.4260515], [124.1456333, -9.4240525], [124.1492683, -9.4276835], [124.1507123, -9.4221635], [124.1623913, -9.4190765], [124.1599043, -9.4127505], [124.1718473, -9.4002975], [124.1679953, -9.3944095], [124.1853893, -9.3873565], [124.1918883, -9.3779255], [124.2032713, -9.3776645], [124.2054953, -9.3702065], [124.2174413, -9.3658465], [124.2299373, -9.3755015], [124.2349363, -9.3748365], [124.2394243, -9.3825055], [124.2533033, -9.3934455], [124.2611313, -9.3958985], [124.2660583, -9.4095035], [124.2715693, -9.4123145], [124.2764763, -9.4295345], [124.2740863, -9.4341655], [124.2867893, -9.4511615], [124.2840373, -9.4611885], [124.2877973, -9.4725785], [124.2794333, -9.4889975], [124.2776543, -9.5023655], [124.2965943, -9.5030215], [124.3037763, -9.4947175], [124.3188463, -9.4948755], [124.3417353, -9.4826955], [124.3548332, -9.4852012], [124.3564873, -9.4644465], [124.3648313, -9.4595315], [124.3615983, -9.4468775], [124.3504453, -9.4395175], [124.3506503, -9.4288145], [124.3538443, -9.4238615], [124.3650283, -9.4180275], [124.3706743, -9.4058625], [124.3762133, -9.4038375], [124.3733983, -9.4004355], [124.3797513, -9.3966325], [124.3815513, -9.3878195], [124.3782913, -9.3798605], [124.3732053, -9.3770995], [124.3779683, -9.3704205], [124.3796073, -9.3569105], [124.3906913, -9.3598565], [124.4005143, -9.3524635], [124.4031373, -9.3401815], [124.4088273, -9.3367025], [124.4218693, -9.3360005], [124.4262413, -9.3317135], [124.4379453, -9.3337245], [124.4398993, -9.3147705], [124.4462773, -9.3066955], [124.4544843, -9.3088215], [124.4615713, -9.3007515], [124.4614743, -9.2931915], [124.4551513, -9.2838015], [124.4538773, -9.2674995], [124.4662193, -9.2493735], [124.4642673, -9.2438665], [124.4672023, -9.2389845], [124.4683803, -9.2085325], [124.4828203, -9.1981025], [124.4794263, -9.1955525], [124.4782103, -9.1759955], [124.4485857, -9.1670528], [124.4273346, -9.1675821], [124.4116519, -9.1735589], [124.3980583, -9.1880083], [124.3915284, -9.1872834], [124.3850224, -9.1930599], [124.3695367, -9.1985913], [124.3431813, -9.1958144], [124.3184716, -9.2006388], [124.3091831, -9.1993121], [124.2997126, -9.2126883], [124.2617755, -9.2262781], [124.2544156, -9.2365966], [124.2221523, -9.2373113], [124.2137376, -9.2446898], [124.2041027, -9.2441122], [124.1855548, -9.2499917], [124.1718859, -9.2800973], [124.1563499, -9.2956094], [124.1371547, -9.297168], [124.128426, -9.3071198], [124.110218, -9.3107828], [124.096086, -9.3243722], [124.0844229, -9.3274481], [124.0737502, -9.3250363], [124.0626736, -9.3332782], [124.0430177, -9.3359763]]]}}, {"type": "Feature", "properties": {"name": "Aileu", "country": "TLS"}, "geometry": {"type": "Polygon", "coordinates": [[[125.5173374, -8.6175821], [125.5286402, -8.6747307], [125.5208897, -8.7063344], [125.5011906, -8.7101649], [125.4672823, -8.7037806], [125.46373, -8.7079304], [125.4682511, -8.7181451], [125.4795539, -8.7181451], [125.4895649, -8.7411272], [125.4624383, -8.7934699], [125.478908, -8.8052779], [125.4908566, -8.8397424], [125.5183727, -8.8493544], [125.53678, -8.8493544], [125.5458222, -8.8391433], [125.5645526, -8.8340376], [125.5645526, -8.8225497], [125.5939398, -8.8193585], [125.5945856, -8.80053], [125.6058884, -8.7915942], [125.6469013, -8.7753176], [125.7005087, -8.7698919], [125.7066445, -8.7820198], [125.6895289, -8.8049979], [125.726032, -8.8021735], [125.7473721, -8.7825442], [125.7606165, -8.7599762], [125.776601, -8.7089675], [125.7775144, -8.6832348], [125.7555927, -8.6525338], [125.755136, -8.6331187], [125.7423484, -8.6227335], [125.7400649, -8.6150572], [125.7167732, -8.6087355], [125.7156203, -8.5818198], [125.6752533, -8.5767107], [125.6406991, -8.5929959], [125.6077596, -8.5965083], [125.5173374, -8.6175821]]]}}, {"type": "Feature", "properties": {"name": "Ainaro", "country": "TLS"}, "geometry": {"type": "Polygon", "coordinates": [[[125.4908566, -8.8397424], [125.4908566, -8.8955807], [125.4805227, -8.9236562], [125.4550107, -8.9692743], [125.418196, -9.012654], [125.3984969, -9.0266875], [125.3836418, -9.0349797], [125.3645886, -9.038488], [125.3345555, -9.0544339], [125.341983, -9.082816], [125.3687867, -9.093658], [125.3629739, -9.1118335], [125.3432748, -9.1191673], [125.3258362, -9.1335154], [125.3261591, -9.1513701], [125.3439206, -9.1542396], [125.3503794, -9.1647606], [125.3268618, -9.1959204], [125.3344508, -9.2116999], [125.3360655, -9.2477193], [125.3425243, -9.2660463], [125.35928056678573, -9.2830770812716], [125.3712734, -9.273614], [125.3927279, -9.2639412], [125.4321148, -9.2608427], [125.4544844, -9.2528351], [125.5023861, -9.2261049], [125.5456269, -9.2193627], [125.5752772, -9.1975188], [125.5968848, -9.1872795], [125.6119912, -9.1852803], [125.6278186, -9.1877405], [125.6564185, -9.2000204], [125.6737953, -9.2016944], [125.69735929589872, -9.195654132592344], [125.673705, -9.1756391], [125.6669234, -9.1587421], [125.6617564, -9.1290907], [125.6430261, -9.1042199], [125.617837, -9.0882761], [125.5661672, -9.0436298], [125.562292, -9.0286402], [125.5639067, -9.0104604], [125.5416241, -8.9779259], [125.5616461, -8.9699514], [125.5761783, -8.9482596], [125.6068572, -8.9243334], [125.6320462, -8.9256095], [125.663694, -8.9074246], [125.6859766, -8.8314848], [125.6895289, -8.8049979], [125.7066445, -8.7820198], [125.7005087, -8.7698919], [125.6469013, -8.7753176], [125.6058884, -8.7915942], [125.5945856, -8.80053], [125.5939398, -8.8193585], [125.5645526, -8.8225497], [125.5645526, -8.8340376], [125.5458222, -8.8391433], [125.53678, -8.8493544], [125.5183727, -8.8493544], [125.4908566, -8.8397424]]]}}, {"type": "Feature", "properties": {"name": "Baucau", "country": "TLS"}, "geometry": {"type": "Polygon", "coordinates": [[[126.71535313944428, -8.411948196501694], [126.6998539, -8.4232465], [126.6581992, -8.4380702], [126.6395407, -8.4503947], [126.6121477, -8.4588411], [126.5979915, -8.470436], [126.5815922, -8.4703809], [126.5671873, -8.4835863], [126.553386, -8.4815381], [126.54062, -8.4711294], [126.5244887, -8.4650462], [126.5060147, -8.4517012], [126.4556138, -8.4372798], [126.4396364, -8.4235778], [126.4162364, -8.4148], [126.3846844, -8.424784], [126.3807849, -8.4284324], [126.3726419, -8.4227209], [126.3602582, -8.4265251], [126.3468052, -8.4388764], [126.3401523, -8.449843], [126.3085647, -8.455882], [126.2802576, -8.4802425], [126.2543936, -8.486331], [126.2377297, -8.5021352], [126.2059254, -8.4955683], [126.1903535, -8.5035124], [126.1824451659948, -8.502973410002486], [126.1903933, -8.5404191], [126.1981438, -8.5468061], [126.2049255, -8.588], [126.197175, -8.6167373], [126.2046025, -8.6384485], [126.2188117, -8.6655857], [126.2204264, -8.677717], [126.2340517, -8.6692644], [126.2492297, -8.666072], [126.2999307, -8.6852264], [126.333839, -8.6874611], [126.3829253, -8.6766071], [126.4132813, -8.6909726], [126.430074, -8.6900149], [126.4681805, -8.6548981], [126.4927236, -8.6548981], [126.521142, -8.6590484], [126.5385806, -8.6568136], [126.5776559, -8.6695837], [126.5834687, -8.6817149], [126.6128559, -8.679161], [126.7271754, -8.6903341], [126.744291, -8.6807572], [126.7507497, -8.6676682], [126.7649589, -8.6577714], [126.7885333, -8.6347842], [126.7927315, -8.6261637], [126.800159, -8.6216937], [126.800159, -8.605729], [126.7924085, -8.594234], [126.7943461, -8.5760329], [126.7769076, -8.565495], [126.7591461, -8.5354764], [126.7591461, -8.5022616], [126.7497809, -8.4878889], [126.7465516, -8.473835], [126.7407387, -8.468405], [126.739124, -8.458503], [126.7216855, -8.4431704], [126.7168414, -8.4323094], [126.71535313944428, -8.411948196501694]]]}}, {"type": "Feature", "properties": {"name": "Bobonaro", "country": "TLS"}, "geometry": {"type": "Polygon", "coordinates": [[[125.4373597, -8.9900834], [125.3740201, -8.9862193], [125.3514146, -8.9702703], [125.3446329, -8.9533637], [125.3420494, -8.9141244], [125.3326843, -8.9064674], [125.2971613, -8.8901959], [125.2752016, -8.8199967], [125.2535649, -8.7858496], [125.2370951, -8.7714877], [125.2051244, -8.7695727], [125.1954364, -8.7590403], [125.1815868, -8.7510911], [125.1757829, -8.7537598], [125.1342232, -8.749246], [125.1280577, -8.7408952], [125.09126252296109, -8.741772459549807], [125.0973461, -8.7851538], [125.0963392, -8.7967107], [125.0692127, -8.82555], [125.0555128, -8.8305203], [125.0402242, -8.8293156], [125.0059614, -8.8637658], [125.0009453, -8.8941938], [124.9929773, -8.9058302], [124.9876371, -8.9244087], [124.980933, -8.9303701], [124.9768514, -8.9422433], [124.9714339, -8.9466521], [124.9566859, -8.9505948], [124.9499699, -8.9581451], [124.952999, -8.960372], [124.952617, -8.966401], [124.941242, -8.97855], [124.941475, -8.98316], [124.933881, -8.995987], [124.938302, -9.003489], [124.937797, -9.018501], [124.932781, -9.018124], [124.931763, -9.027536], [124.942182, -9.037034], [124.940045, -9.046556], [124.946842, -9.049018], [124.948279, -9.052666], [124.953, -9.048764], [124.956254, -9.058217], [124.96951, -9.056332], [124.970825, -9.061932], [124.980109, -9.063206], [124.980333, -9.067001], [124.98891, -9.060535], [124.99542, -9.064429], [125.002643, -9.063977], [125.008619, -9.051399], [125.022087, -9.051057], [125.021431, -9.042879], [125.030824, -9.042934], [125.037415, -9.033344], [125.052698, -9.031536], [125.058144, -9.026515], [125.067081, -9.027867], [125.076943, -9.022168], [125.094592, -9.003834], [125.102029, -8.990717], [125.104348, -8.973151], [125.113659, -8.965724], [125.135528, -8.994381], [125.148537, -8.996408], [125.187207, -9.029054], [125.184697, -9.03633], [125.189594, -9.045973], [125.18923, -9.054659], [125.18434, -9.063289], [125.188104, -9.073045], [125.179577, -9.08709], [125.176643, -9.104518], [125.173528, -9.105534], [125.180172, -9.11732], [125.172586, -9.118506], [125.171046, -9.123018], [125.177554, -9.143208], [125.185696, -9.145462], [125.192625, -9.156458], [125.185317, -9.159561], [125.176629, -9.170505], [125.2023699, -9.1802995], [125.2207773, -9.1755175], [125.2264287, -9.1810965], [125.227236, -9.1885882], [125.2464507, -9.1963986], [125.2582379, -9.208034], [125.2698636, -9.2038899], [125.2881095, -9.1911386], [125.2927921, -9.1834875], [125.3124912, -9.1854003], [125.3268618, -9.1959204], [125.3503794, -9.1647606], [125.3439206, -9.1542396], [125.3261591, -9.1513701], [125.3258362, -9.1335154], [125.3432748, -9.1191673], [125.3629739, -9.1118335], [125.3687867, -9.093658], [125.341983, -9.082816], [125.3345555, -9.0544339], [125.3645886, -9.038488], [125.3836418, -9.0349797], [125.3984969, -9.0266875], [125.418196, -9.012654], [125.4373597, -8.9900834]]]}}, {"type": "Feature", "properties": {"name": "Cova Lima", "country": "TLS"}, "geometry": {"type": "Polygon", "coordinates": [[[125.3268618, -9.1959204], [125.3124912, -9.1854003], [125.2927921, -9.1834875], [125.2881095, -9.1911386], [125.2698636, -9.2038899], [125.2582379, -9.208034], [125.2464507, -9.1963986], [125.227236, -9.1885882], [125.2264287, -9.1810965], [125.2207773, -9.1755175], [125.2023699, -9.1802995], [125.176629, -9.170505], [125.174863, -9.174904], [125.148392, -9.17085], [125.134008, -9.174857], [125.098118, -9.200471], [125.079648, -9.188236], [125.074535, -9.175379], [125.067459, -9.17617], [125.052258, -9.168842], [125.042, -9.174484], [125.035777, -9.174203], [125.033071, -9.170369], [125.01361, -9.16902], [125.005933, -9.182332], [124.998334, -9.187745], [124.993051, -9.186408], [124.982901, -9.191114], [124.982087, -9.241598], [124.986037, -9.246045], [124.984873, -9.252883], [124.997354, -9.262098], [124.994698, -9.271993], [124.997932, -9.280772], [124.994288, -9.289943], [124.996909, -9.293723], [125.006154, -9.294781], [125.02943, -9.320696], [125.03497, -9.323931], [125.043, -9.321674], [125.0512287, -9.3288384], [125.0500769, -9.3587562], [125.0586764, -9.3666203], [125.0590704, -9.3713204], [125.0668438, -9.3736727], [125.0677401, -9.3794353], [125.0791302, -9.3888466], [125.0769287, -9.4045964], [125.0814932, -9.4129526], [125.0776385, -9.4163735], [125.080958, -9.4212934], [125.0789377, -9.4307114], [125.0814883, -9.4319362], [125.0785559, -9.434655], [125.0808057, -9.4385572], [125.0785924, -9.4424565], [125.0873344, -9.4513712], [125.0846054, -9.4547074], [125.0883231, -9.4592296], [125.0869648, -9.4630442], [125.1126535, -9.4359798], [125.1359525, -9.4214188], [125.1561455, -9.414598], [125.1924284, -9.4089646], [125.2085259, -9.4111827], [125.2517188, -9.3713699], [125.2548965, -9.3613038], [125.2614612, -9.3537919], [125.2698711, -9.3507755], [125.2778459, -9.352624], [125.3061103, -9.3181998], [125.3382617, -9.3002333], [125.35928056678573, -9.2830770812716], [125.3425243, -9.2660463], [125.3360655, -9.2477193], [125.3344508, -9.2116999], [125.3268618, -9.1959204]]]}}, {"type": "Feature", "properties": {"name": "Dili", "country": "TLS"}, "geometry": {"type": "MultiPolygon", "coordinates": [[[[125.7156203, -8.5818198], [125.7695507, -8.5741561], [125.8105636, -8.5444575], [125.8231581, -8.5419027], [125.8467325, -8.5163535], [125.8528682, -8.5147566], [125.8399508, -8.500065], [125.8232171, -8.4894537], [125.8087532, -8.5043616], [125.795775, -8.505538], [125.7767051, -8.5153314], [125.7738338, -8.5117469], [125.7609179, -8.5141564], [125.7438414, -8.5260343], [125.7348584, -8.5234819], [125.726625, -8.5297202], [125.720394, -8.5265454], [125.7232247, -8.5244654], [125.7182736, -8.51935], [125.7148299, -8.5204917], [125.7082417, -8.5274031], [125.7085477, -8.5340963], [125.7044007, -8.5329659], [125.6987341, -8.5364824], [125.6945585, -8.5326692], [125.6883994, -8.5372207], [125.6813944, -8.535699], [125.681578, -8.5332469], [125.6803961, -8.5349933], [125.6664781, -8.524667], [125.6245486, -8.5266771], [125.6198195, -8.5190086], [125.6159269, -8.5216805], [125.6070489, -8.5207725], [125.6097362, -8.5291094], [125.6148197, -8.5318423], [125.6091764, -8.5445063], [125.5889412, -8.5470708], [125.5770004, -8.5535368], [125.5688516, -8.5482557], [125.552541, -8.5459958], [125.5359929, -8.5378002], [125.5363604, -8.5644939], [125.5286853, -8.6157121], [125.6077596, -8.5965083], [125.6406991, -8.5929959], [125.6752533, -8.5767107], [125.7156203, -8.5818198]]], [[[125.6190627, -8.1338471], [125.6064715, -8.1508679], [125.5915429, -8.1617647], [125.5869109, -8.1741131], [125.5627121, -8.1989663], [125.5508826, -8.2194132], [125.5282122, -8.2240676], [125.5192121, -8.2467056], [125.5035894, -8.2588842], [125.5013457, -8.2648432], [125.5070348, -8.2763515], [125.5293662, -8.2963852], [125.5530482, -8.2971845], [125.5564822, -8.3027127], [125.5608059, -8.3027377], [125.5608827, -8.3064601], [125.5718155, -8.3059478], [125.5777066, -8.3088348], [125.5871616, -8.3028237], [125.5994399, -8.2854362], [125.6090066, -8.2569678], [125.6068749, -8.231965], [125.6098924, -8.2222273], [125.617069, -8.2093578], [125.6329112, -8.1941913], [125.6347723, -8.1807572], [125.6405219, -8.1723579], [125.6403518, -8.1644964], [125.6439041, -8.1627589], [125.6359738, -8.1274401], [125.6190627, -8.1338471]]]]}}, {"type": "Feature", "properties": {"name": "Ermera", "country": "TLS"}, "geometry": {"type": "Polygon", "coordinates": [[[125.5173374, -8.6175821], [125.4626224, -8.6179669], [125.4036767, -8.6582805], [125.3808416, -8.6688905], [125.3552664, -8.6682133], [125.2831077, -8.7237418], [125.2550206, -8.7284816], [125.2472566, -8.7348013], [125.2184845, -8.7341242], [125.1815868, -8.7510911], [125.1954364, -8.7590403], [125.2051244, -8.7695727], [125.2370951, -8.7714877], [125.2535649, -8.7858496], [125.2752016, -8.8199967], [125.2971613, -8.8901959], [125.3326843, -8.9064674], [125.3420494, -8.9141244], [125.3446329, -8.9533637], [125.3514146, -8.9702703], [125.3740201, -8.9862193], [125.4373597, -8.9900834], [125.4550107, -8.9692743], [125.4805227, -8.9236562], [125.4908566, -8.8955807], [125.4908566, -8.8397424], [125.478908, -8.8052779], [125.4624383, -8.7934699], [125.4895649, -8.7411272], [125.4795539, -8.7181451], [125.4682511, -8.7181451], [125.46373, -8.7079304], [125.4672823, -8.7037806], [125.5011906, -8.7101649], [125.5208897, -8.7063344], [125.5286402, -8.6747307], [125.5173374, -8.6175821]]]}}, {"type": "Feature", "properties": {"name": "Laut\u00e9m", "country": "TLS"}, "geometry": {"type": "MultiPolygon", "coordinates": [[[[126.7255526, -8.6900935], [126.7256005, -8.7036224], [126.7301675, -8.7072339], [126.74054670771218, -8.757139167722128], [126.7635984, -8.7472427], [126.7769232, -8.7480392], [126.7795557, -8.7546045], [126.7868549, -8.753247], [126.7946865, -8.7567502], [126.8024875, -8.7546165], [126.8220321, -8.760329], [126.8274055, -8.7564641], [126.8485854, -8.754075], [126.8685856, -8.7413563], [126.8915076, -8.7188071], [126.9060269, -8.7109244], [126.9172099, -8.7101225], [126.9351326, -8.6930236], [126.9560877, -8.682693], [126.9697099, -8.6799628], [126.9743736, -8.6833421], [126.9772928, -8.67915], [126.9839341, -8.6837285], [126.9884636, -8.6796234], [126.9933868, -8.6834991], [127.0025554, -8.682737], [127.0132861, -8.6863491], [127.0261564, -8.665971], [127.0500441, -8.6459335], [127.0616203, -8.6272796], [127.1095394, -8.5764411], [127.1288179, -8.5643278], [127.132071, -8.5585271], [127.1398093, -8.5561969], [127.1570695, -8.5426381], [127.1658733, -8.5405753], [127.1954227, -8.5198453], [127.206366, -8.5101295], [127.2120969, -8.4976337], [127.2254591, -8.4874343], [127.2298289, -8.4794102], [127.2483189, -8.4724941], [127.2639029, -8.460215], [127.269412, -8.4474698], [127.2765114, -8.4401778], [127.2999677, -8.4318323], [127.3018998, -8.419938], [127.2980993, -8.3946421], [127.2954324, -8.3909826], [127.2819672, -8.3865499], [127.254855, -8.3855412], [127.2419476, -8.3787842], [127.2329343, -8.3786815], [127.2204817, -8.3677245], [127.1957575, -8.3357225], [127.1792981, -8.3344218], [127.1610032, -8.3469738], [127.1526687, -8.357145], [127.1359258, -8.3654352], [127.1060305, -8.3676215], [127.0636334, -8.3636243], [127.0642094, -8.3607483], [127.0472751, -8.3435468], [127.0352687, -8.3389223], [127.0319059, -8.3413495], [127.0258635, -8.3394128], [127.0016755, -8.3215795], [126.9614959, -8.326438], [126.9343855, -8.3375941], [126.8917588, -8.3687821], [126.8754476, -8.3723739], [126.8272116, -8.4002559], [126.8114164, -8.4059593], [126.7971588, -8.4059714], [126.7852287, -8.4181336], [126.7773093, -8.4178247], [126.7661592, -8.4223272], [126.7573366, -8.4204158], [126.7458777, -8.414221], [126.7354391, -8.4030103], [126.728855, -8.4030664], [126.71535313944428, -8.411948196501694], [126.7168414, -8.4323094], [126.7216855, -8.4431704], [126.739124, -8.458503], [126.7407387, -8.468405], [126.7465516, -8.473835], [126.7497809, -8.4878889], [126.7591461, -8.5022616], [126.7591461, -8.5354764], [126.7652819, -8.5492086], [126.7769076, -8.565495], [126.7943461, -8.5760329], [126.7924085, -8.594234], [126.800159, -8.605729], [126.800159, -8.6216937], [126.7927315, -8.6261637], [126.7885333, -8.6347842], [126.7649589, -8.6577714], [126.7507497, -8.6676682], [126.744291, -8.6807572], [126.7255526, -8.6900935]]], [[[127.3285255, -8.4479874], [127.3414315, -8.4396642], [127.3395864, -8.4258838], [127.3318973, -8.4156482], [127.323406, -8.4115435], [127.3160809, -8.4121537], [127.3089901, -8.416956], [127.3097278, -8.4361942], [127.3201713, -8.4457025], [127.3285255, -8.4479874]]]]}}, {"type": "Feature", "properties": {"name": "Liqui\u00e7\u00e1", "country": "TLS"}, "geometry": {"type": "Polygon", "coordinates": [[[125.5286853, -8.6157121], [125.5363604, -8.5644939], [125.5340192, -8.5374309], [125.5055487, -8.5574711], [125.4810163, -8.5570693], [125.4867396, -8.5652294], [125.4783934, -8.574876], [125.4728731, -8.5743516], [125.4709697, -8.5676252], [125.4527243, -8.5735241], [125.4497846, -8.5716251], [125.4506322, -8.5673497], [125.4463474, -8.5716684], [125.4366726, -8.5665285], [125.4284062, -8.566436], [125.4256454, -8.5630502], [125.3925524, -8.5642459], [125.3697175, -8.5759979], [125.3318866, -8.5841431], [125.3255771, -8.5913244], [125.3094885, -8.5894181], [125.2967089, -8.6024226], [125.2109644, -8.6060806], [125.171546, -8.6192973], [125.1388427, -8.6364553], [125.1232245, -8.6396213], [125.1202805, -8.6500839], [125.1092021, -8.6664843], [125.1067871, -8.6782772], [125.0977304, -8.6894138], [125.1007472, -8.7113789], [125.0964647, -8.727786], [125.0909621, -8.734605], [125.09126252296109, -8.741772459549807], [125.1280577, -8.7408952], [125.1342232, -8.749246], [125.1757829, -8.7537598], [125.2184845, -8.7341242], [125.2472566, -8.7348013], [125.2550206, -8.7284816], [125.2831077, -8.7237418], [125.3552664, -8.6682133], [125.3808416, -8.6688905], [125.4036767, -8.6582805], [125.4626224, -8.6179669], [125.5286853, -8.6157121]]]}}, {"type": "Feature", "properties": {"name": "Manatuto", "country": "TLS"}, "geometry": {"type": "Polygon", "coordinates": [[[125.726032, -8.8021735], [125.7501744, -8.8003054], [125.7827909, -8.8044541], [125.8192827, -8.819453], [125.8612645, -8.8736991], [125.8757966, -8.9014572], [125.878703, -8.9164521], [125.8858076, -8.9250659], [125.8984021, -8.9333605], [125.9384462, -8.9375077], [125.9668646, -8.945802], [125.9746151, -8.9537771], [125.9823656, -8.9703648], [125.9839803, -8.983124], [125.9901161, -8.9901414], [126.0098152, -8.9885466], [126.0333895, -8.9997104], [126.0505051, -9.0127875], [126.07296165052388, -9.04845266353528], [126.1062955, -9.0168898], [126.14684132715495, -8.992990128541562], [126.1357022, -8.9542442], [126.1085755, -8.9402079], [126.096304, -8.9236189], [126.0969498, -8.9089433], [126.0924287, -8.8949053], [126.0801571, -8.8859717], [126.0814489, -8.8770379], [126.0917828, -8.8681039], [126.0904911, -8.8502352], [126.0503009, -8.791516], [126.0464257, -8.7771543], [126.0506238, -8.7637496], [126.0667706, -8.7503443], [126.1161799, -8.6868226], [126.1704332, -8.6903341], [126.1975598, -8.6874611], [126.2204264, -8.677717], [126.2188117, -8.6655857], [126.2046025, -8.6384485], [126.197175, -8.6167373], [126.2049255, -8.588], [126.1981438, -8.5468061], [126.1903933, -8.5404191], [126.1824451659948, -8.502973410002486], [126.1611118, -8.4964088], [126.1557064, -8.5009381], [126.1440634, -8.5014961], [126.1370355, -8.5074957], [126.1215116, -8.504082], [126.1131211, -8.509446], [126.1021203, -8.5114802], [126.0927327, -8.5194822], [126.0745738, -8.5176343], [126.0692401, -8.5232694], [126.0650377, -8.5134229], [126.0510543, -8.5164012], [126.0408581, -8.5114657], [126.0192931, -8.5114836], [126.0042983, -8.499306], [125.9955424, -8.4975828], [125.981133, -8.4852], [125.974141, -8.4879262], [125.958774, -8.4856868], [125.9487082, -8.4782763], [125.9405855, -8.4764446], [125.9251014, -8.480406], [125.9005448, -8.4751902], [125.8905023, -8.477763], [125.8510983, -8.4744151], [125.8428185, -8.4787926], [125.82696376248045, -8.490756849339153], [125.8528682, -8.5147566], [125.8467325, -8.5163535], [125.8231581, -8.5419027], [125.8105636, -8.5444575], [125.7695507, -8.5741561], [125.7156203, -8.5818198], [125.7167732, -8.6087355], [125.7400649, -8.6150572], [125.7423484, -8.6227335], [125.755136, -8.6331187], [125.7555927, -8.6525338], [125.7775144, -8.6832348], [125.776601, -8.7089675], [125.7606165, -8.7599762], [125.7473721, -8.7825442], [125.726032, -8.8021735]]]}}, {"type": "Feature", "properties": {"name": "Manufahi", "country": "TLS"}, "geometry": {"type": "Polygon", "coordinates": [[[125.6895289, -8.8049979], [125.6859766, -8.8314848], [125.663694, -8.9074246], [125.6320462, -8.9256095], [125.6068572, -8.9243334], [125.5761783, -8.9482596], [125.5616461, -8.9699514], [125.5416241, -8.9779259], [125.5639067, -9.0104604], [125.562292, -9.0286402], [125.5661672, -9.0436298], [125.617837, -9.0882761], [125.6430261, -9.1042199], [125.6617564, -9.1290907], [125.6669234, -9.1587421], [125.673705, -9.1756391], [125.69735929589872, -9.195654132592344], [125.7266821, -9.1672091], [125.7384409, -9.1635893], [125.7487395, -9.1669745], [125.7555539, -9.1655546], [125.7665097, -9.1600717], [125.7713826, -9.1534499], [125.7984934, -9.1453787], [125.808078, -9.1459841], [125.8168526, -9.1508327], [125.8240774, -9.1459798], [125.8287906, -9.1362378], [125.8512364, -9.1242308], [125.8668715, -9.1246232], [125.909657, -9.1337909], [125.9432278, -9.1325321], [125.9874178, -9.1089758], [126.0243668, -9.0768505], [126.0487167, -9.0636208], [126.0622938, -9.0600162], [126.07296165052388, -9.04845266353528], [126.0505051, -9.0127875], [126.0333895, -8.9997104], [126.0098152, -8.9885466], [125.9901161, -8.9901414], [125.9839803, -8.983124], [125.9823656, -8.9703648], [125.9746151, -8.9537771], [125.9668646, -8.945802], [125.9384462, -8.9375077], [125.8984021, -8.9333605], [125.8858076, -8.9250659], [125.878703, -8.9164521], [125.8757966, -8.9014572], [125.8612645, -8.8736991], [125.8192827, -8.819453], [125.7827909, -8.8044541], [125.7501744, -8.8003054], [125.6895289, -8.8049979]]]}}, {"type": "Feature", "properties": {"name": "Viqueque", "country": "TLS"}, "geometry": {"type": "Polygon", "coordinates": [[[126.2340517, -8.6692644], [126.1975598, -8.6874611], [126.1704332, -8.6903341], [126.1161799, -8.6868226], [126.0667706, -8.7503443], [126.0506238, -8.7637496], [126.0464257, -8.7771543], [126.0503009, -8.791516], [126.0904911, -8.8502352], [126.0917828, -8.8681039], [126.0814489, -8.8770379], [126.0801571, -8.8859717], [126.0924287, -8.8949053], [126.0969498, -8.9089433], [126.096304, -8.9236189], [126.1085755, -8.9402079], [126.1357022, -8.9542442], [126.14684132715495, -8.992990128541562], [126.1839388, -8.9778853], [126.2020134, -8.974847], [126.2274689, -8.975125], [126.2814239, -8.9810632], [126.2828304, -8.9835194], [126.3038183, -8.982386], [126.354677, -8.9624427], [126.4084087, -8.9473393], [126.4221627, -8.9494949], [126.4480767, -8.9476141], [126.4568541, -8.9517952], [126.4786441, -8.9470509], [126.4958433, -8.9318438], [126.5080801, -8.9033379], [126.5427506, -8.8502538], [126.5860475, -8.8027562], [126.5977214, -8.7993542], [126.6168613, -8.8026952], [126.638738, -8.7828713], [126.6839234, -8.7617719], [126.7202347, -8.7563787], [126.735484, -8.7596762], [126.74054670771218, -8.757139167722128], [126.7301675, -8.7072339], [126.7256005, -8.7036224], [126.7255526, -8.6900935], [126.6128559, -8.679161], [126.5834687, -8.6817149], [126.5776559, -8.6695837], [126.5385806, -8.6568136], [126.521142, -8.6590484], [126.4681805, -8.6548981], [126.430074, -8.6900149], [126.4132813, -8.6909726], [126.3829253, -8.6766071], [126.333839, -8.6874611], [126.2999307, -8.6852264], [126.2492297, -8.666072], [126.2340517, -8.6692644]]]}}]}