{"type": "FeatureCollection", "features": [{"type": "Feature", "properties": {"name": "Russia"}, "geometry": {"type": "MultiPolygon", "coordinates": [[[[140.48227, 49.975287], [140.473318, 49.959133], [140.480724, 49.952338], [140.442556, 49.907457], [140.446056, 49.890855], [140.415212, 49.874579], [140.415782, 49.862698], [140.458507, 49.805609], [140.473318, 49.794623], [140.535004, 49.777411], [140.542247, 49.756781], [140.507498, 49.691636], [140.560802, 49.575385], [140.521169, 49.527167], [140.518321, 49.4914], [140.491466, 49.472968], [140.454275, 49.420844], [140.435557, 49.294379], [140.351085, 49.295071], [140.335948, 49.287543], [140.350352, 49.273098], [140.384532, 49.281562], [140.390229, 49.275051], [140.389415, 49.265286], [140.345714, 49.229193], [140.35019, 49.198188], [140.370616, 49.21247], [140.376801, 49.205634], [140.359223, 49.173651], [140.362071, 49.158026], [140.376801, 49.143541], [140.365326, 49.132392], [140.356456, 49.095771], [140.294932, 49.088324], [140.294932, 49.082099], [140.336029, 49.067694], [140.343598, 49.047065], [140.337169, 49.039781], [140.219249, 49.013861], [140.235199, 49.007514], [140.264496, 49.012274], [140.274425, 49.00019], [140.248383, 48.976304], [140.283458, 48.976264], [140.281261, 48.965399], [140.301117, 48.965399], [140.296641, 48.980414], [140.321381, 49.008734], [140.359141, 49.021308], [140.370616, 49.00019], [140.39796, 48.992743], [140.356456, 48.931301], [140.352306, 48.910224], [140.266938, 48.862372], [140.253917, 48.848049], [140.246593, 48.814602], [140.212983, 48.767401], [140.194428, 48.709784], [140.185802, 48.650092], [140.193451, 48.581122], [140.171967, 48.568183], [140.192638, 48.530341], [140.177013, 48.461819], [140.072113, 48.398627], [140.034923, 48.327948], [140.0, 48.322730545539635], [140.0, 50.0], [140.53556144862975, 50.0], [140.48227, 49.975287]]], [[[144.0442, 49.89765], [144.12615, 49.746894], [144.137218, 49.639594], [144.228526, 49.517157], [144.22169, 49.438381], [144.282725, 49.25019], [144.38502, 49.072699], [144.441417, 49.013861], [144.66684, 48.889635], [144.684744, 48.873236], [144.708263, 48.794135], [144.687836, 48.756537], [144.702891, 48.688666], [144.756602, 48.643256], [144.731456, 48.637926], [144.699474, 48.642727], [144.677257, 48.65644], [144.681651, 48.678046], [144.663341, 48.70067], [144.647472, 48.780463], [144.632579, 48.808295], [144.503673, 48.948717], [144.47047, 48.964748], [144.433849, 49.00019], [144.365733, 49.020697], [144.32781, 49.054755], [144.290294, 49.069648], [144.245942, 49.131741], [144.057872, 49.253404], [144.006033, 49.269355], [143.689708, 49.312405], [143.687266, 49.322333], [143.728282, 49.335354], [143.479747, 49.353095], [143.42628, 49.393215], [143.403494, 49.400458], [143.302013, 49.405178], [143.258637, 49.393378], [143.249766, 49.373277], [143.263927, 49.360175], [143.3296, 49.341132], [143.331065, 49.332221], [143.319102, 49.324123], [143.331309, 49.31391], [143.366059, 49.322333], [143.619395, 49.324042], [143.666759, 49.314887], [143.639171, 49.305609], [143.371104, 49.299221], [143.174164, 49.245998], [143.070323, 49.184882], [143.0088, 49.123033], [142.984548, 49.082953], [142.97462, 49.045885], [142.988455, 48.916693], [142.920095, 48.807807], [142.792735, 48.562567], [142.658539, 48.269599], [142.614024, 48.190172], [142.549571, 48.020087], [142.537446, 48.010077], [142.535899, 48.002387], [142.549571, 47.988715], [142.549571, 47.947821], [142.534516, 47.88996], [142.545258, 47.766669], [142.592133, 47.642076], [142.632091, 47.581244], [142.748057, 47.44477], [142.714041, 47.44477], [142.714041, 47.437242], [142.735118, 47.423651], [142.759532, 47.43122], [142.78712, 47.428209], [142.878591, 47.38935], [142.910899, 47.36522], [143.016368, 47.253607], [143.042979, 47.149237], [143.032481, 47.070746], [143.069509, 47.019477], [143.119965, 46.887112], [143.11964, 46.874905], [143.097667, 46.875556], [143.122813, 46.857367], [143.138438, 46.855414], [143.151378, 46.873847], [143.174083, 46.862738], [143.17335, 46.848293], [143.151215, 46.839586], [143.090017, 46.838568], [143.083832, 46.813463], [143.10613, 46.792426], [143.135509, 46.779975], [143.172862, 46.707831], [143.20281, 46.706366], [143.241547, 46.717271], [143.308604, 46.701077], [143.341319, 46.683783], [143.382009, 46.695054], [143.389659, 46.708075], [143.38559, 46.724758], [143.348969, 46.749213], [143.286794, 46.761705], [143.241547, 46.779975], [143.193696, 46.779975], [143.179535, 46.793036], [143.173025, 46.813544], [143.177745, 46.832465], [143.197113, 46.840806], [143.320974, 46.795722], [143.396495, 46.793647], [143.418712, 46.799709], [143.43629, 46.832261], [143.4546, 46.848293], [143.478201, 46.828437], [143.511485, 46.770209], [143.520844, 46.6494], [143.536957, 46.617133], [143.52589, 46.585517], [143.576508, 46.447496], [143.579926, 46.418199], [143.557628, 46.39643], [143.625743, 46.374701], [143.581798, 46.34455], [143.570567, 46.299547], [143.541677, 46.284003], [143.523285, 46.238105], [143.475841, 46.190009], [143.468761, 46.173285], [143.478526, 46.107327], [143.474946, 46.087307], [143.451182, 46.070502], [143.442719, 46.036851], [143.430512, 46.025214], [143.420909, 46.035712], [143.413097, 46.085354], [143.413422, 46.101549], [143.428966, 46.127427], [143.4192, 46.148261], [143.427094, 46.18008], [143.421397, 46.223131], [143.379405, 46.337388], [143.337901, 46.40941], [143.350841, 46.432685], [143.331065, 46.488227], [143.335704, 46.497463], [143.37322, 46.492011], [143.393077, 46.532945], [143.368663, 46.555487], [143.342784, 46.562812], [143.276378, 46.560248], [143.310395, 46.525458], [143.303233, 46.51439], [143.290782, 46.517157], [143.235362, 46.566474], [143.159516, 46.598293], [143.067149, 46.587592], [142.997732, 46.594143], [142.933767, 46.614895], [142.82781, 46.592963], [142.796641, 46.594387], [142.772227, 46.609768], [142.754893, 46.638251], [142.72462, 46.74079], [142.70045, 46.742092], [142.683604, 46.724758], [142.618419, 46.718573], [142.529063, 46.683783], [142.457205, 46.630805], [142.406505, 46.553656], [142.324229, 46.388983], [142.281912, 46.32746], [142.262218, 46.266059], [142.246349, 46.168362], [142.228038, 46.117987], [142.203868, 46.079657], [142.201671, 46.030666], [142.189464, 46.018785], [142.133067, 46.006171], [142.119965, 45.992174], [142.094249, 45.902777], [142.085297, 45.900824], [142.039806, 45.924302], [142.001475, 45.978013], [141.932628, 46.035793], [141.936046, 46.099555], [141.899099, 46.27912], [141.837576, 46.415595], [141.81422, 46.538398], [141.822276, 46.602281], [141.865896, 46.670478], [141.885427, 46.731594], [142.056651, 47.053697], [142.063813, 47.10932], [142.056651, 47.169745], [142.028575, 47.232489], [141.975108, 47.297593], [141.991222, 47.369574], [141.963715, 47.415676], [141.951671, 47.481147], [141.965831, 47.612494], [142.001475, 47.663804], [142.005382, 47.697414], [142.062836, 47.779934], [142.093028, 47.855618], [142.105724, 47.874823], [142.13795, 47.891059], [142.177419, 47.930406], [142.191091, 47.966742], [142.165863, 48.115709], [142.174001, 48.151313], [142.133149, 48.333686], [142.097016, 48.396877], [141.919607, 48.609117], [141.873057, 48.688544], [141.8567, 48.735338], [141.857432, 48.774237], [141.923025, 48.835679], [141.967296, 48.862372], [141.96046, 48.903998], [141.99643, 48.942939], [142.015147, 49.020697], [142.036143, 49.061672], [142.023936, 49.099311], [142.077159, 49.198188], [142.078624, 49.232001], [142.062836, 49.314887], [142.096202, 49.410834], [142.125011, 49.462307], [142.159679, 49.677965], [142.151866, 49.825507], [142.125011, 49.89765], [142.131847, 49.89765], [142.145518, 49.921576], [142.138682, 49.941799], [142.159679, 49.976508], [142.15931040925213, 50.0], [144.00732364880113, 50.0], [144.0442, 49.89765]]], [[[146.229503, 43.531317], [146.204926, 43.501166], [146.209158, 43.483466], [146.151866, 43.462795], [146.134044, 43.463039], [146.123383, 43.489691], [146.079356, 43.517646], [146.131684, 43.540839], [146.157481, 43.546332], [146.229503, 43.531317]]], [[[146.910167, 43.844631], [146.942149, 43.846625], [146.914561, 43.80272], [146.865408, 43.792711], [146.840343, 43.778306], [146.819021, 43.781928], [146.783458, 43.753485], [146.72755, 43.74018], [146.709483, 43.743598], [146.716319, 43.729926], [146.681895, 43.711371], [146.650645, 43.712592], [146.602224, 43.73607], [146.613129, 43.778306], [146.604666, 43.80858], [146.674327, 43.821967], [146.768728, 43.860826], [146.795584, 43.867011], [146.819347, 43.860297], [146.846202, 43.878323], [146.860525, 43.877183], [146.910167, 43.844631]]], [[[146.551931, 44.451117], [146.572113, 44.449897], [146.538829, 44.382961], [146.513927, 44.363959], [146.448009, 44.37873], [146.402029, 44.362372], [146.364268, 44.317939], [146.303722, 44.282131], [146.273448, 44.273424], [146.243663, 44.270494], [146.223399, 44.277981], [146.201996, 44.269599], [146.139415, 44.265692], [146.116547, 44.254381], [146.085216, 44.234076], [146.056407, 44.194322], [145.923025, 44.113715], [145.886974, 44.069403], [145.8838, 44.026597], [145.873302, 44.01789], [145.85377, 44.024726], [145.831554, 44.019965], [145.813243, 44.006537], [145.801606, 43.967475], [145.778168, 43.932563], [145.726817, 43.906562], [145.66212, 43.898179], [145.588715, 43.847561], [145.581065, 43.833686], [145.572276, 43.729926], [145.556163, 43.652655], [145.544281, 43.674709], [145.544281, 43.709418], [145.551768, 43.716254], [145.514171, 43.735745], [145.443126, 43.724514], [145.427582, 43.770901], [145.427582, 43.805609], [145.410899, 43.836005], [145.451834, 43.856513], [145.48227, 43.894436], [145.54184, 43.918647], [145.560802, 43.937893], [145.661632, 43.990627], [145.685313, 44.025377], [145.72877, 44.043769], [145.757172, 44.079413], [145.768321, 44.125312], [145.79127, 44.151353], [145.85963, 44.189276], [145.86964, 44.227037], [145.897227, 44.254381], [145.969493, 44.285386], [145.987478, 44.323717], [146.009776, 44.343166], [146.019786, 44.382636], [146.119314, 44.506049], [146.183116, 44.51081], [146.247569, 44.466986], [146.333832, 44.428534], [146.363455, 44.422024], [146.469249, 44.428778], [146.551931, 44.451117]]], [[[148.844005, 45.371039], [148.843435, 45.351752], [148.816661, 45.333482], [148.758311, 45.31269], [148.64503, 45.320136], [148.584321, 45.315497], [148.438243, 45.248521], [148.343516, 45.238918], [148.27768, 45.222561], [148.215831, 45.195746], [148.127289, 45.13109], [147.990309, 45.005798], [147.963511, 44.998928], [147.913024, 44.963002], [147.809255, 44.963813], [147.768321, 44.943345], [147.738739, 44.968186], [147.725795, 44.992195], [147.700777, 45.007986], [147.653801, 44.994851], [147.625987, 44.969428], [147.620918, 44.950686], [147.626777, 44.931562], [147.648796, 44.921109], [147.645449, 44.908096], [147.586436, 44.867621], [147.555431, 44.823554], [147.485362, 44.778388], [147.388377, 44.736659], [147.28891, 44.66059], [147.226027, 44.581002], [147.153267, 44.559119], [147.113257, 44.570387], [147.054699, 44.53717], [146.993663, 44.480373], [146.958344, 44.421047], [146.876039, 44.434144], [146.861796, 44.445337], [146.858323, 44.461981], [146.873383, 44.489895], [146.949855, 44.548943], [146.931308, 44.586009], [146.92921, 44.60692], [146.937027, 44.624822], [146.951639, 44.62226], [146.961937, 44.583936], [147.000743, 44.565985], [147.037825, 44.599012], [146.998623, 44.662612], [147.031101, 44.668953], [147.091427, 44.637358], [147.12916, 44.64711], [147.19658, 44.713682], [147.203931, 44.755435], [147.121886, 44.776301], [147.096528, 44.795803], [147.109199, 44.827148], [147.151578, 44.834477], [147.21654, 44.799007], [147.249878, 44.820876], [147.240571, 44.850898], [147.264415, 44.867621], [147.360525, 44.901109], [147.466563, 44.966946], [147.494884, 45.00495], [147.501801, 45.078803], [147.511404, 45.087348], [147.541677, 45.092841], [147.593028, 45.064399], [147.61964, 45.065334], [147.668956, 45.093573], [147.757009, 45.185736], [147.781261, 45.197699], [147.894867, 45.223944], [147.894298, 45.237535], [147.867524, 45.268297], [147.87436, 45.309556], [147.860688, 45.354234], [147.871593, 45.380357], [147.939952, 45.426256], [147.950938, 45.431342], [147.958263, 45.423407], [147.969249, 45.374416], [148.001475, 45.325914], [148.004649, 45.281195], [148.039561, 45.254625], [148.069591, 45.251166], [148.31186, 45.275295], [148.361013, 45.299628], [148.423839, 45.358873], [148.447276, 45.367336], [148.477306, 45.405463], [148.5324, 45.436225], [148.560313, 45.463446], [148.600759, 45.470893], [148.621104, 45.498236], [148.726573, 45.525214], [148.763927, 45.527899], [148.799164, 45.518134], [148.851329, 45.481513], [148.856212, 45.464342], [148.827159, 45.44302], [148.801443, 45.435004], [148.799164, 45.415676], [148.844005, 45.371039]]], [[[150.397406, 46.231102], [150.478229, 46.209981], [150.56935, 46.231758], [150.363292, 46.081529], [150.322276, 46.069241], [150.286182, 46.04553], [150.245369, 46.037032], [150.228689, 46.00849], [150.189974, 45.983829], [150.179612, 45.948703], [150.197602, 45.929633], [150.156965, 45.921621], [150.142345, 45.898017], [150.038191, 45.843094], [150.022951, 45.823797], [149.947635, 45.822367], [149.922874, 45.810712], [149.921397, 45.793769], [149.870616, 45.778266], [149.842133, 45.760199], [149.754649, 45.684149], [149.637766, 45.610946], [149.603745, 45.605365], [149.577159, 45.637274], [149.573741, 45.608466], [149.549978, 45.590399], [149.529063, 45.583564], [149.436697, 45.586982], [149.452973, 45.599799], [149.482309, 45.669377], [149.512218, 45.674018], [149.553396, 45.709906], [149.594981, 45.765123], [149.597992, 45.789008], [149.625743, 45.796129], [149.652843, 45.823717], [149.667328, 45.853217], [149.693614, 45.861029], [149.751964, 45.860745], [149.811046, 45.879828], [149.92335, 45.997952], [150.020169, 46.073024], [150.094574, 46.094713], [150.14975, 46.094713], [150.180675, 46.105414], [150.211436, 46.134752], [150.181905, 46.159733], [150.245076, 46.190836], [150.397406, 46.231102]]], [[[152.277843, 47.161851], [152.294932, 47.142483], [152.184418, 47.071479], [152.157074, 47.018948], [152.075206, 46.968004], [152.072113, 46.955756], [152.02003, 46.902899], [151.951786, 46.859837], [151.920258, 46.855536], [151.888913, 46.816766], [151.850601, 46.790473], [151.801415, 46.766032], [151.735606, 46.789455], [151.712169, 46.806627], [151.714122, 46.836086], [151.705333, 46.848293], [151.745453, 46.861762], [151.837657, 46.856269], [151.873302, 46.871812], [151.950206, 46.952094], [152.049653, 47.01496], [152.158946, 47.133857], [152.225434, 47.176581], [152.20045, 47.14232], [152.198741, 47.128811], [152.277843, 47.161851]]], [[[152.521332, 47.372504], [152.536632, 47.348822], [152.540294, 47.325141], [152.524444, 47.298646], [152.481688, 47.301351], [152.429731, 47.319191], [152.413154, 47.340671], [152.413373, 47.367128], [152.42628, 47.38349], [152.503429, 47.383246], [152.521332, 47.372504]]], [[[153.049286, 47.807891], [153.061606, 47.793556], [153.068819, 47.743296], [153.047112, 47.707023], [153.028005, 47.697333], [152.99263, 47.697111], [152.978254, 47.684333], [152.966108, 47.695288], [152.970189, 47.75157], [153.021271, 47.799597], [153.049286, 47.807891]]], [[[153.297048, 48.054674], [153.29363, 48.042182], [153.275473, 48.032739], [153.233301, 48.039809], [153.200938, 48.052646], [153.159069, 48.09218], [153.164556, 48.121415], [153.214727, 48.125725], [153.259226, 48.104138], [153.288422, 48.07746], [153.297048, 48.054674]]], [[[154.230805, 48.897162], [154.221365, 48.87287], [154.178722, 48.835679], [154.087413, 48.794257], [154.062673, 48.774237], [154.056407, 48.737779], [154.008556, 48.732815], [153.973318, 48.739488], [153.976085, 48.762437], [153.993663, 48.779364], [154.065929, 48.807847], [154.100352, 48.838813], [154.100352, 48.872992], [154.117361, 48.876654], [154.119477, 48.899604], [154.146983, 48.914984], [154.212901, 48.91767], [154.230805, 48.897162]]], [[[154.012055, 48.952948], [154.014334, 48.944525], [154.000987, 48.934394], [153.960704, 48.926703], [153.918712, 48.931301], [153.90211, 48.956488], [153.91505, 48.982489], [154.012055, 48.952948]]], [[[154.583832, 49.148668], [154.59962, 49.12995], [154.601329, 49.11107], [154.511729, 49.080227], [154.487804, 49.088324], [154.472341, 49.104438], [154.439464, 49.157172], [154.457042, 49.171454], [154.583832, 49.148668]]], [[[154.480063, 49.811035], [154.491338, 49.783252], [154.447928, 49.72951], [154.411917, 49.733096], [154.391241, 49.749187], [154.373904, 49.778467], [154.394992, 49.804186], [154.422372, 49.816016], [154.480063, 49.811035]]], [[[155.395763, 49.995795], [155.3647619524813, 50.0], [155.4003604189003, 50.0], [155.395763, 49.995795]]], [[[150.846457, 46.44205], [150.832856, 46.440863], [150.780077, 46.457159], [150.808481, 46.486438], [150.846457, 46.44205]]], [[[154.883474, 49.624823], [154.90504, 49.630805], [154.875987, 49.543524], [154.832042, 49.517076], [154.815603, 49.499823], [154.823009, 49.493598], [154.802745, 49.478664], [154.80128, 49.43301], [154.827403, 49.393378], [154.82309, 49.372463], [154.834646, 49.352729], [154.815603, 49.329169], [154.815115, 49.310207], [154.770356, 49.287095], [154.741059, 49.287543], [154.719981, 49.267035], [154.67921, 49.268704], [154.605968, 49.29267], [154.603852, 49.35928], [154.638357, 49.424262], [154.686534, 49.458889], [154.713715, 49.506659], [154.760997, 49.558498], [154.747325, 49.585517], [154.750987, 49.595649], [154.778656, 49.606594], [154.836681, 49.650051], [154.883474, 49.624823]]]]}}, {"type": "Feature", "properties": {"name": "Japan"}, "geometry": {"type": "MultiPolygon", "coordinates": [[[[140.048577, 39.50467], [140.059296, 39.727492], [140.039117, 39.769282], [140.027599, 39.82453], [140.0, 39.849611461099215], [140.0, 40.21351912026973], [140.011152, 40.235458], [140.024263, 40.355016], [140.0, 40.37481990939429], [140.0, 40.74309369289643], [140.045977, 40.76777], [140.122359, 40.744766], [140.198038, 40.786453], [140.219088, 40.778335], [140.240571, 40.783515], [140.270763, 40.812405], [140.296641, 40.873765], [140.316254, 40.954413], [140.321922, 41.027445], [140.369594, 40.986055], [140.382335, 40.988267], [140.369629, 41.021662], [140.385582, 41.029425], [140.407793, 41.025698], [140.398987, 41.039372], [140.350586, 41.038844], [140.340665, 41.050035], [140.326905, 41.041187], [140.321852, 41.082921], [140.300162, 41.111277], [140.248095, 41.123361], [140.245477, 41.133874], [140.256184, 41.138897], [140.303971, 41.136681], [140.320433, 41.14978], [140.342283, 41.265731], [140.391481, 41.240443], [140.435802, 41.198147], [140.462248, 41.183887], [140.483674, 41.183468], [140.511068, 41.197719], [140.524756, 41.219976], [140.548598, 41.226243], [140.593907, 41.220178], [140.632702, 41.194258], [140.642666, 41.171379], [140.631033, 41.105658], [140.641287, 41.04149], [140.654552, 41.00849], [140.673025, 40.895575], [140.703122, 40.853292], [140.752403, 40.835187], [140.799223, 40.839081], [140.852068, 40.883849], [140.870726, 40.915135], [140.862933, 40.933564], [140.870837, 40.944852], [140.84052, 40.952972], [140.861488, 40.957134], [140.861052, 40.972043], [140.888675, 41.010778], [140.902885, 41.008996], [140.914406, 40.996098], [140.948703, 40.990748], [140.981402, 40.959769], [140.975066, 40.937755], [141.058222, 40.916523], [141.083705, 40.886413], [141.126269, 40.872919], [141.147145, 40.87884], [141.185249, 40.911215], [141.2264, 40.987443], [141.236407, 41.015722], [141.246366, 41.106862], [141.272238, 41.136578], [141.277882, 41.15533], [141.256101, 41.211237], [141.205911, 41.26472], [141.183375, 41.277063], [141.161232, 41.278467], [141.136963, 41.246697], [141.143854, 41.241663], [141.159115, 41.256694], [141.14683, 41.236289], [141.058076, 41.183068], [140.977562, 41.196478], [140.946265, 41.173289], [140.86273, 41.164123], [140.828502, 41.146107], [140.814525, 41.128462], [140.798155, 41.128578], [140.765796, 41.145019], [140.765554, 41.195956], [140.778168, 41.206855], [140.784699, 41.235148], [140.780396, 41.251934], [140.803148, 41.329544], [140.815173, 41.337562], [140.836951, 41.418222], [140.901052, 41.481024], [140.907102, 41.500799], [140.899462, 41.524175], [140.907093, 41.538548], [140.913572, 41.546857], [140.978057, 41.497659], [141.00334, 41.487085], [141.065307, 41.481116], [141.10775, 41.463869], [141.194998, 41.387152], [141.276096, 41.353196], [141.317919, 41.353047], [141.382161, 41.3726], [141.460579, 41.430223], [141.466921, 41.419328], [141.453814, 41.396351], [141.457465, 41.377473], [141.445284, 41.366184], [141.423794, 41.312707], [141.390817, 41.161011], [141.398285, 41.128119], [141.386307, 41.030362], [141.405553, 40.816823], [141.437387, 40.670141], [141.49164, 40.562327], [141.532504, 40.531398], [141.57555, 40.542279], [141.589261, 40.522105], [141.690929, 40.442288], [141.719141, 40.412835], [141.726085, 40.393793], [141.743777, 40.383922], [141.778494, 40.315497], [141.830414, 40.251166], [141.84197, 40.225775], [141.815196, 40.202867], [141.813324, 40.18358], [141.865001, 40.159735], [141.877208, 40.139309], [141.847423, 40.115139], [141.837576, 40.09455], [141.842459, 40.07038], [141.919607, 40.008857], [141.949555, 39.996568], [141.961436, 39.953681], [141.942231, 39.924506], [141.971853, 39.883002], [141.978689, 39.839301], [142.004893, 39.772691], [142.0088, 39.752753], [141.991222, 39.730455], [141.978282, 39.647854], [141.96046, 39.61164], [141.966319, 39.598456], [142.012462, 39.63581], [142.036143, 39.638983], [142.028982, 39.622992], [142.036143, 39.61164], [142.027354, 39.594713], [142.030772, 39.584174], [142.070323, 39.550198], [142.056651, 39.526028], [142.015147, 39.488715], [141.952973, 39.460761], [141.970876, 39.443264], [141.996267, 39.445258], [142.018891, 39.459377], [142.036388, 39.483791], [142.058442, 39.466295], [142.039887, 39.454576], [142.031586, 39.417304], [141.980968, 39.412421], [141.938731, 39.385077], [141.964122, 39.375556], [141.905284, 39.330471], [141.924653, 39.324897], [141.946788, 39.33039], [141.980968, 39.350979], [141.983653, 39.327135], [141.914887, 39.294867], [141.932628, 39.275214], [141.899099, 39.275214], [141.899099, 39.248521], [141.947032, 39.249701], [141.949229, 39.228013], [141.930024, 39.212226], [141.90211, 39.204332], [141.878673, 39.207587], [141.881684, 39.19245], [141.893728, 39.186754], [141.92628, 39.187079], [141.915782, 39.169989], [141.895193, 39.159369], [141.843761, 39.15233], [141.908865, 39.109768], [141.913341, 39.097724], [141.890473, 39.089545], [141.83546, 39.104315], [141.817149, 39.090888], [141.871837, 39.062934], [141.823253, 39.056708], [141.823253, 39.049262], [141.855724, 39.026068], [141.847423, 39.021959], [141.806488, 39.029486], [141.745616, 39.02619], [141.727712, 39.036282], [141.728201, 39.021715], [141.74822, 38.98786], [141.727061, 38.987616], [141.71339, 38.974189], [141.728282, 38.969916], [141.730235, 38.951158], [141.704112, 38.950588], [141.680024, 38.970771], [141.673106, 38.981024], [141.693614, 38.995307], [141.651052, 38.996812], [141.638357, 38.985419], [141.645274, 38.923], [141.673595, 38.851955], [141.65211, 38.864325], [141.636729, 38.891099], [141.588552, 38.882229], [141.587087, 38.819241], [141.521658, 38.768134], [141.567068, 38.728827], [141.572602, 38.718655], [141.566417, 38.703559], [141.559744, 38.69953], [141.542817, 38.707261], [141.51588, 38.684272], [141.463064, 38.661363], [141.473888, 38.645209], [141.532237, 38.638414], [141.535167, 38.632025], [141.511404, 38.597398], [141.467052, 38.569525], [141.514659, 38.534817], [141.529145, 38.549018], [141.547618, 38.518622], [141.542817, 38.481391], [141.524181, 38.489691], [141.514822, 38.508043], [141.494965, 38.460883], [141.507986, 38.446601], [141.471446, 38.435736], [141.47047, 38.429511], [141.47755, 38.401557], [141.487559, 38.392035], [141.518403, 38.40233], [141.537608, 38.398179], [141.549083, 38.385159], [141.520356, 38.39053], [141.501231, 38.371527], [141.525238, 38.359931], [141.529796, 38.317939], [141.542817, 38.302639], [141.525401, 38.267808], [141.491222, 38.292385], [141.46339, 38.299221], [141.467052, 38.323065], [141.425548, 38.343573], [141.439708, 38.371527], [141.428071, 38.380439], [141.398123, 38.377672], [141.333181, 38.409003], [141.304454, 38.407904], [141.202403, 38.38581], [141.180919, 38.371161], [141.169688, 38.322821], [141.15211, 38.323065], [141.131847, 38.371527], [141.114594, 38.364651], [141.09783, 38.371527], [141.079438, 38.360907], [141.05421, 38.329169], [141.048676, 38.309475], [141.079112, 38.311591], [141.080577, 38.294908], [141.017345, 38.244859], [140.966807, 38.170478], [140.925792, 38.049384], [140.91977, 37.965155], [140.93336, 37.889228], [140.993259, 37.799838], [141.022227, 37.726955], [141.021983, 37.706732], [141.007823, 37.67886], [141.028168, 37.648098], [141.04184, 37.377143], [141.007823, 37.226752], [141.007823, 37.133857], [140.987966, 37.089789], [140.974376, 37.001776], [140.960297, 36.966213], [140.925792, 36.93891], [140.835216, 36.908433], [140.804373, 36.885972], [140.793142, 36.837551], [140.741873, 36.768459], [140.693858, 36.617987], [140.623546, 36.50609], [140.610118, 36.433905], [140.624766, 36.363593], [140.616873, 36.337795], [140.564107, 36.283096], [140.57838, 36.160956], [140.646034, 36.01332], [140.841645, 35.742418], [140.879405, 35.720526], [140.860665, 35.687791], [140.828301, 35.713969], [140.720789, 35.682517], [140.716261, 35.698791], [140.661056, 35.688635], [140.596162, 35.652075], [140.483467, 35.565991], [140.42322, 35.490644], [140.385919, 35.380999], [140.413097, 35.301215], [140.394195, 35.196592], [140.37763, 35.176357], [140.348935, 35.180516], [140.33048, 35.157783], [140.333537, 35.142348], [140.321214, 35.130394], [140.303349, 35.133403], [140.294368, 35.146639], [140.27891, 35.131988], [140.253325, 35.134624], [140.237381, 35.11243], [140.134603, 35.122645], [140.105953, 35.097603], [140.100805, 35.075751], [140.075488, 35.059269], [140.055537, 35.058868], [140.0, 35.02586868853474], [140.0, 35.47063857524259], [140.005859, 35.473427], [140.071887, 35.542857], [140.090156, 35.540849], [140.102049, 35.567087], [140.08612, 35.566805], [140.0796, 35.603583], [140.00895, 35.65976], [140.0, 35.65766978665249], [140.0, 39.34294334452854], [140.048577, 39.50467]]], [[[143.975841, 44.148261], [143.94044, 44.139146], [143.813731, 44.168402], [143.817638, 44.175605], [143.836274, 44.17593], [143.896495, 44.158149], [143.975841, 44.148261]]], [[[145.824962, 43.373603], [145.810313, 43.360785], [145.77768, 43.356269], [145.760102, 43.336982], [145.708507, 43.326321], [145.684093, 43.310248], [145.629161, 43.30976], [145.572276, 43.256985], [145.551768, 43.209784], [145.5171, 43.174994], [145.53061, 43.16885], [145.49879, 43.167914], [145.452403, 43.183905], [145.404063, 43.174994], [145.302501, 43.173489], [145.23113, 43.141099], [145.138438, 43.12816], [145.119314, 43.106106], [145.122732, 43.088202], [145.168224, 43.079413], [145.149181, 43.066311], [145.111013, 43.063625], [145.099294, 43.044623], [145.075694, 43.034003], [145.003103, 43.044623], [145.027517, 43.009345], [145.014334, 42.989488], [144.89975, 42.979478], [144.868826, 42.988471], [144.842052, 43.007148], [144.84018, 43.040107], [144.798676, 43.046698], [144.757579, 43.018785], [144.735606, 42.979478], [144.741466, 42.965237], [144.783458, 42.93476], [144.741954, 42.924221], [144.599132, 42.949123], [144.521739, 42.944078], [144.49586, 42.933254], [144.464854, 42.937079], [144.390636, 42.956448], [144.373057, 42.96955], [144.358084, 42.999457], [144.323009, 43.002631], [144.183116, 42.976386], [144.042003, 42.926581], [143.886404, 42.844184], [143.790294, 42.75727], [143.638845, 42.661078], [143.575206, 42.603339], [143.44809, 42.455024], [143.348969, 42.319159], [143.331716, 42.277248], [143.32488, 42.229722], [143.337901, 42.150214], [143.331065, 42.10692], [143.303477, 42.025784], [143.292328, 42.005194], [143.265473, 41.986721], [143.25294, 41.941881], [143.241547, 41.928046], [143.182384, 41.961575], [143.163341, 41.990383], [143.115245, 42.027981], [142.959727, 42.105373], [142.75766, 42.158393], [142.546397, 42.250556], [142.459972, 42.271308], [142.281016, 42.366523], [142.167752, 42.459859], [142.06258, 42.470728], [141.980968, 42.51024], [141.925955, 42.55858], [141.817149, 42.599595], [141.726085, 42.617174], [141.636485, 42.61579], [141.549571, 42.601142], [141.427745, 42.564399], [141.262462, 42.468248], [141.215099, 42.444525], [141.168712, 42.433295], [141.091563, 42.391791], [141.016775, 42.316107], [140.977306, 42.299628], [140.952403, 42.304836], [140.931651, 42.328762], [140.975434, 42.326565], [140.986827, 42.33983], [140.946951, 42.353217], [140.917979, 42.372545], [140.901378, 42.420844], [140.733653, 42.564154], [140.68629, 42.579169], [140.597423, 42.571723], [140.500662, 42.579169], [140.45753, 42.564276], [140.417003, 42.538153], [140.38087, 42.505072], [140.32545, 42.432807], [140.288585, 42.350165], [140.281505, 42.304836], [140.291759, 42.259589], [140.321625, 42.233954], [140.456391, 42.173082], [140.530284, 42.111762], [140.548839, 42.105536], [140.713552, 42.13349], [140.773611, 42.1022], [140.789317, 42.07453], [140.837087, 42.023627], [140.908458, 41.978949], [140.974294, 41.913764], [141.011567, 41.893744], [141.083263, 41.882636], [141.106944, 41.871772], [141.199962, 41.799465], [141.189952, 41.79092], [141.121593, 41.779364], [141.043305, 41.723863], [141.006358, 41.712144], [140.823985, 41.770697], [140.775076, 41.770413], [140.708018, 41.745551], [140.698578, 41.759833], [140.733409, 41.793647], [140.727224, 41.811347], [140.708995, 41.824408], [140.660411, 41.827135], [140.641612, 41.81509], [140.604259, 41.736274], [140.523448, 41.698676], [140.452891, 41.681057], [140.433279, 41.64468], [140.443207, 41.563707], [140.432384, 41.530829], [140.400645, 41.513007], [140.274669, 41.482367], [140.241222, 41.457221], [140.208995, 41.401109], [140.137462, 41.420966], [140.100352, 41.41352], [140.038259, 41.442572], [140.0, 41.533690112645694], [140.0, 41.626978613957014], [140.003429, 41.63467], [140.019542, 41.696967], [140.071137, 41.760199], [140.083018, 41.800767], [140.117686, 41.804511], [140.12672, 41.814032], [140.131358, 41.845526], [140.123871, 41.865953], [140.14503, 41.879584], [140.151703, 41.913764], [140.139659, 41.948717], [140.14503, 41.982652], [140.111827, 42.011135], [140.061046, 42.080024], [140.027599, 42.105536], [140.0, 42.11473566666667], [140.0, 42.68326256355043], [140.037852, 42.686021], [140.09547, 42.733791], [140.135916, 42.747138], [140.18336, 42.810207], [140.200369, 42.814276], [140.222911, 42.801337], [140.260753, 42.760972], [140.281505, 42.75727], [140.303233, 42.769721], [140.311778, 42.815985], [140.337413, 42.834133], [140.377126, 42.893785], [140.521169, 42.996283], [140.52711, 43.015448], [140.501964, 43.045722], [140.487315, 43.082709], [140.43922, 43.134019], [140.338064, 43.210517], [140.329356, 43.250718], [140.360118, 43.325181], [140.43393, 43.328437], [140.452891, 43.338853], [140.465099, 43.368069], [140.487153, 43.372382], [140.620942, 43.301215], [140.68922, 43.248358], [140.761404, 43.223456], [140.796153, 43.195502], [140.912608, 43.204169], [141.011241, 43.22899], [141.022309, 43.223782], [141.004405, 43.193061], [141.021983, 43.174994], [141.169119, 43.140855], [141.22755, 43.154486], [141.303966, 43.197252], [141.37086, 43.250718], [141.42335, 43.317857], [141.440115, 43.361721], [141.439708, 43.407782], [141.427013, 43.434556], [141.37086, 43.497138], [141.359874, 43.523586], [141.362478, 43.543362], [141.391368, 43.579088], [141.364024, 43.627509], [141.366954, 43.646308], [141.337413, 43.712836], [141.38502, 43.791327], [141.424815, 43.814602], [141.528168, 43.841213], [141.584727, 43.875434], [141.640636, 43.937934], [141.658946, 43.983791], [141.670177, 44.066636], [141.655447, 44.276923], [141.665701, 44.31273], [141.747244, 44.424221], [141.791759, 44.596991], [141.796072, 44.64175], [141.783458, 44.765367], [141.753591, 44.885443], [141.721853, 44.955146], [141.586436, 45.164374], [141.57488, 45.206855], [141.583751, 45.251166], [141.617849, 45.285346], [141.627696, 45.314399], [141.649181, 45.34101], [141.637055, 45.404446], [141.64796, 45.437201], [141.665701, 45.450426], [141.677257, 45.444322], [141.692149, 45.402289], [141.823253, 45.422553], [141.875336, 45.448188], [141.878673, 45.484036], [141.919444, 45.515855], [141.944998, 45.520413], [141.96046, 45.51024], [141.987559, 45.468492], [142.017751, 45.455715], [142.056651, 45.402045], [142.221202, 45.299628], [142.539317, 45.018459], [142.630707, 44.883734], [142.665701, 44.866645], [142.714041, 44.80622], [142.907481, 44.647406], [142.939789, 44.634711], [142.981456, 44.586493], [143.042735, 44.554918], [143.118419, 44.496894], [143.204438, 44.447252], [143.240733, 44.436347], [143.296886, 44.39468], [143.35141, 44.381049], [143.369151, 44.346259], [143.405284, 44.31745], [143.552419, 44.252509], [143.776622, 44.189276], [143.776622, 44.182359], [143.695323, 44.189846], [143.680431, 44.182359], [143.71461, 44.151353], [143.728282, 44.113471], [143.742442, 44.120917], [143.783214, 44.100653], [143.937755, 44.096422], [143.966075, 44.120063], [143.999197, 44.133979], [144.119314, 44.129055], [144.171723, 44.106024], [144.126801, 44.080146], [144.105479, 44.031562], [144.152843, 44.019843], [144.188731, 44.050279], [144.215099, 44.111477], [144.242931, 44.119208], [144.263438, 44.107815], [144.25587, 44.079413], [144.278331, 44.03677], [144.302257, 44.024115], [144.32781, 43.983791], [144.379405, 43.956488], [144.430431, 43.942572], [144.570323, 43.924791], [144.740489, 43.914618], [144.788097, 43.92178], [144.831228, 43.942206], [145.048513, 44.122138], [145.119314, 44.154486], [145.166677, 44.190497], [145.201671, 44.205797], [145.250255, 44.271796], [145.309744, 44.316352], [145.322765, 44.341783], [145.341482, 44.345526], [145.373057, 44.292222], [145.371837, 44.248765], [145.349864, 44.211615], [145.290538, 44.154486], [145.260427, 44.069403], [145.144298, 43.952948], [145.10613, 43.880764], [145.115977, 43.862454], [145.109874, 43.841946], [145.071462, 43.774604], [145.074718, 43.75373], [145.115977, 43.686835], [145.194835, 43.620673], [145.218516, 43.589667], [145.23227, 43.539944], [145.246837, 43.530463], [145.290782, 43.405341], [145.311697, 43.366767], [145.345714, 43.332709], [145.393565, 43.305365], [145.361664, 43.301459], [145.299164, 43.341254], [145.27003, 43.346381], [145.258311, 43.327094], [145.264496, 43.316718], [145.315115, 43.302924], [145.320811, 43.295966], [145.30421, 43.291693], [145.321625, 43.276272], [145.383637, 43.259019], [145.468435, 43.252997], [145.5171, 43.22899], [145.521983, 43.241197], [145.501313, 43.256985], [145.496593, 43.270575], [145.582286, 43.335761], [145.6338, 43.353176], [145.661632, 43.379828], [145.723155, 43.379828], [145.750336, 43.39411], [145.824962, 43.373603]]], [[[145.360362, 43.564765], [145.362804, 43.554877], [145.312022, 43.542182], [145.297374, 43.52265], [145.283539, 43.51789], [145.273204, 43.522366], [145.276866, 43.538153], [145.332042, 43.565416], [145.202403, 43.613837], [145.311534, 43.593329], [145.360362, 43.564765]]], [[[144.455089, 43.942206], [144.448985, 43.942043], [144.448253, 43.942206], [144.455089, 43.942206]]], [[[141.335623, 45.157782], [141.310069, 45.124579], [141.268403, 45.10102], [141.251231, 45.099189], [141.150076, 45.147121], [141.131114, 45.170152], [141.145518, 45.189765], [141.131847, 45.210273], [141.167166, 45.239976], [141.202647, 45.249091], [141.268321, 45.225531], [141.335623, 45.157782]]], [[[141.069021, 45.442694], [141.073578, 45.424709], [141.059093, 45.321967], [141.035655, 45.264879], [141.029063, 45.27851], [141.035655, 45.292182], [140.998871, 45.350002], [140.994151, 45.371039], [141.000987, 45.419135], [140.966807, 45.463446], [140.986095, 45.467434], [141.006602, 45.440416], [141.052745, 45.450426], [141.069021, 45.442694]]], [[[140.317149, 30.491156], [140.325938, 30.485175], [140.306488, 30.473619], [140.301443, 30.486274], [140.317149, 30.491156]]], [[[140.044444, 31.445054], [140.045665, 31.443305], [140.043468, 31.443101], [140.044444, 31.445054]]], [[[140.041352, 31.446479], [140.043142, 31.444566], [140.04127, 31.444159], [140.041352, 31.446479]]]]}}]}