{"type": "FeatureCollection", "features": [{"type": "Feature", "properties": {"name": "Antarctica"}, "geometry": {"type": "MultiPolygon", "coordinates": [[[[120.017914, -66.992608], [120.351736, -66.934828], [120.401622, -66.945001], [120.445974, -66.977716], [120.341319, -67.012384], [120.0, -67.06891658801179], [120.0, -66.99918351796147], [120.017914, -66.992608]]], [[[120.499278, -67.233087], [120.920665, -67.131524], [121.037771, -67.142022], [121.404633, -67.088311], [121.51531, -67.09295], [121.663097, -67.05047], [121.701345, -67.051202], [121.775401, -67.02988], [121.768728, -67.006606], [121.796886, -67.007989], [121.820079, -67.023858], [121.864268, -67.018731], [121.852306, -66.994561], [121.814952, -66.992364], [121.801931, -66.975274], [121.937755, -66.917576], [122.082042, -66.891778], [122.188487, -66.855076], [122.436534, -66.832127], [122.520518, -66.810805], [122.610606, -66.810235], [123.149913, -66.733168], [123.327647, -66.751153], [123.557872, -66.74863], [123.663748, -66.705011], [123.730317, -66.650323], [123.931488, -66.608168], [123.962413, -66.610121], [123.981619, -66.596775], [124.015147, -66.5888], [124.048676, -66.598728], [124.019542, -66.613214], [124.036632, -66.614353], [124.103526, -66.588637], [124.260509, -66.594985], [124.261241, -66.623224], [124.283946, -66.636326], [124.371267, -66.65838], [124.369314, -66.685235], [124.34018, -66.717869], [124.413585, -66.712335], [124.471446, -66.717218], [124.456554, -66.739923], [124.597179, -66.727227], [124.63738, -66.763116], [124.716807, -66.75921], [124.805919, -66.727797], [124.825206, -66.697686], [124.845714, -66.695977], [124.862966, -66.713149], [124.877778, -66.715916], [125.02475, -66.679457], [125.148123, -66.659601], [125.224783, -66.612237], [125.26588, -66.539483], [125.289561, -66.523696], [125.320079, -66.517022], [125.334727, -66.448907], [125.410411, -66.417657], [125.704845, -66.391371], [125.897797, -66.306248], [125.940603, -66.302341], [126.003103, -66.330987], [126.067638, -66.339939], [126.093761, -66.361017], [126.116384, -66.43906], [126.175955, -66.469985], [126.215099, -66.453383], [126.258474, -66.448175], [126.297211, -66.453546], [126.32838, -66.469903], [126.332774, -66.488051], [126.29127, -66.499119], [126.372325, -66.561619], [126.392589, -66.552667], [126.402354, -66.526951], [126.408702, -66.467869], [126.403087, -66.372003], [126.430431, -66.354669], [126.514415, -66.372654], [126.490489, -66.423028], [126.553071, -66.443048], [126.580903, -66.440525], [126.648774, -66.410333], [126.706065, -66.404718], [126.667491, -66.422133], [126.684581, -66.443048], [126.776703, -66.434991], [126.854259, -66.449314], [126.821951, -66.486261], [126.766612, -66.502699], [126.748709, -66.522068], [126.751231, -66.554376], [126.739513, -66.576918], [126.718923, -66.592869], [126.618419, -66.619399], [126.569509, -66.665785], [126.704112, -66.64129], [126.76588, -66.652439], [126.819184, -66.691339], [126.796723, -66.715753], [126.715017, -66.73919], [126.680512, -66.756931], [126.664561, -66.816664], [126.665701, -66.831801], [126.68214, -66.845392], [126.968272, -66.807875], [127.062755, -66.848728], [127.035655, -66.895115], [126.998709, -66.932794], [127.082856, -66.956313], [127.058767, -66.983331], [127.056651, -67.028741], [127.044444, -67.049981], [127.045177, -67.057387], [127.071544, -67.073419], [127.064626, -67.124688], [127.081391, -67.135431], [127.112315, -67.124444], [127.149425, -67.080824], [127.156993, -67.068048], [127.154552, -67.020278], [127.184581, -66.988458], [127.363617, -66.931085], [127.334239, -66.981622], [127.367361, -66.998305], [127.361013, -67.043878], [127.401134, -67.06756], [127.432384, -67.070408], [127.615489, -67.049005], [127.694509, -67.056736], [127.836436, -67.021173], [127.922618, -67.029067], [128.074555, -67.022393], [128.088145, -67.03574], [128.109386, -67.083185], [128.16391, -67.101251], [128.185313, -67.104181], [128.295909, -67.074314], [128.330903, -67.071873], [128.357107, -67.078383], [128.382172, -67.117934], [128.520518, -67.145766], [128.625011, -67.123224], [128.682953, -67.118748], [128.707367, -67.108331], [128.724294, -67.088962], [128.733084, -67.059177], [128.76352, -67.025811], [128.823904, -67.034275], [129.012869, -67.111749], [129.036876, -67.155532], [129.064626, -67.174412], [129.09962, -67.167739], [129.202647, -67.100356], [129.211192, -67.092543], [129.222179, -67.050226], [129.272797, -67.00742], [129.444509, -66.959242], [129.436371, -66.927667], [129.384613, -66.877862], [129.392914, -66.858087], [129.493663, -66.815362], [129.526866, -66.775079], [129.575857, -66.750177], [129.584727, -66.729181], [129.549571, -66.718845], [129.469005, -66.717462], [129.47462, -66.691013], [129.532563, -66.614435], [129.637869, -66.57464], [129.71046, -66.515232], [129.730968, -66.459161], [129.72169, -66.438246], [129.802013, -66.40602], [129.87672, -66.3624], [129.914236, -66.351495], [130.008962, -66.346124], [130.035167, -66.330987], [130.064301, -66.294041], [130.102712, -66.276788], [130.236095, -66.260675], [130.291759, -66.279962], [130.348399, -66.26572], [130.342459, -66.29518], [130.46225, -66.252048], [130.529959, -66.241632], [130.562836, -66.261651], [130.604015, -66.197035], [130.704845, -66.149591], [130.729991, -66.147149], [130.871593, -66.183282], [131.021007, -66.187107], [131.098888, -66.201349], [131.184825, -66.199151], [131.230235, -66.230076], [131.269298, -66.23797], [131.33839, -66.23797], [131.394542, -66.211684], [131.757823, -66.243341], [132.050304, -66.217055], [132.147797, -66.178155], [132.478282, -66.150649], [132.6067, -66.186456], [132.826915, -66.190362], [133.016368, -66.14544], [133.120372, -66.096775], [133.275645, -66.080173], [133.500743, -66.083266], [133.607107, -66.108168], [133.792328, -66.105401], [133.854259, -66.127537], [133.910492, -66.184015], [133.96225, -66.198175], [134.015147, -66.195489], [134.126964, -66.227146], [134.148936, -66.237237], [134.191091, -66.279474], [134.259451, -66.279555], [134.271495, -66.306085], [134.290782, -66.318943], [134.376638, -66.30641], [134.426524, -66.311456], [134.438813, -66.329197], [134.420584, -66.343194], [134.346202, -66.366957], [134.261241, -66.412856], [134.229828, -66.44199], [134.109386, -66.504571], [134.164073, -66.512791], [134.339041, -66.483087], [134.298839, -66.517348], [134.350108, -66.519952], [134.420665, -66.496515], [134.766775, -66.33766], [134.739268, -66.367283], [134.873709, -66.357029], [134.935802, -66.341729], [134.95753, -66.343357], [135.01059, -66.365411], [135.035492, -66.364679], [135.178477, -66.331476], [135.178477, -66.274672], [135.166515, -66.261326], [135.228363, -66.247166], [135.297618, -66.215753], [135.302419, -66.162693], [135.319347, -66.126642], [135.343028, -66.100681], [135.494314, -66.114679], [135.503917, -66.138604], [135.538259, -66.174981], [135.568126, -66.190037], [135.647309, -66.27809], [135.649669, -66.300714], [135.629649, -66.347426], [135.66627, -66.354262], [135.756358, -66.275974], [135.808849, -66.267673], [135.840994, -66.279067], [135.927094, -66.256931], [135.996837, -66.25921], [136.083751, -66.237563], [136.128429, -66.235528], [136.159516, -66.245375], [136.284353, -66.316583], [136.352061, -66.368097], [136.38852, -66.379653], [136.511241, -66.39544], [136.544688, -66.409845], [136.559825, -66.422459], [136.580903, -66.473321], [136.656749, -66.540785], [136.671641, -66.540623], [136.706228, -66.512872], [136.731944, -66.477227], [136.636485, -66.456476], [136.656261, -66.400079], [136.689626, -66.366388], [136.736013, -66.348728], [136.944591, -66.32822], [137.414887, -66.350274], [137.457856, -66.344822], [137.501475, -66.365411], [137.669119, -66.377699], [137.720551, -66.368097], [137.767589, -66.40309], [137.846365, -66.415623], [137.911388, -66.442315], [137.93393, -66.461033], [138.018728, -66.488539], [138.141612, -66.498712], [138.162934, -66.525323], [138.184337, -66.538344], [138.133311, -66.623956], [138.221039, -66.600763], [138.333018, -66.539972], [138.378103, -66.533461], [138.607107, -66.541681], [138.641368, -66.522882], [138.669607, -66.551853], [138.732107, -66.569594], [138.926443, -66.556248], [139.029552, -66.57586], [139.091156, -66.566583], [139.25172, -66.567153], [139.454926, -66.594008], [139.441742, -66.623305], [139.452485, -66.64186], [139.477387, -66.650567], [139.507009, -66.650323], [139.590343, -66.625584], [139.677582, -66.630466], [139.777029, -66.67018], [139.867035, -66.691827], [139.891856, -66.721612], [139.841563, -66.750258], [139.823741, -66.77158], [139.822765, -66.79697], [139.915538, -66.757582], [139.965505, -66.751886], [140.0, -66.76576337640928], [140.0, -70.0], [120.0, -70.0], [120.0, -67.28443216194881], [120.499278, -67.233087]]], [[[120.711762, -66.910577], [120.866384, -66.886814], [120.531993, -66.969008], [120.492442, -66.962335], [120.479991, -66.950128], [120.478526, -66.935154], [120.491384, -66.920017], [120.523692, -66.887791], [120.54005, -66.88128], [120.607432, -66.879571], [120.651134, -66.88714], [120.711762, -66.910577]]], [[[121.192882, -66.778904], [121.19516, -66.786391], [121.168305, -66.805922], [121.109711, -66.82879], [121.023204, -66.848321], [120.937755, -66.857029], [120.883149, -66.846449], [120.945079, -66.830743], [121.048106, -66.788832], [121.192882, -66.778904]]]]}}]}